{"type": "Feature","bbox": [178.7168,-49.7153,178.8245,-49.6386],"geometry": {"type": "MultiPolygon","coordinates": [[[[178.7355,-49.6922,0.0],[178.7372,-49.6921,0.0],[178.7373,-49.6914,0.0],[178.7355,-49.6909,0.0],[178.7355,-49.6922,0.0]]],
[[[178.7176,-49.6762,1.4075],[178.7203,-49.6768,0.0],[178.721,-49.6753,5.4283],[178.7168,-49.6726,0.3615],[178.7169,-49.6751,1.4075],[178.7176,-49.6762,1.4075]]],
[[[178.736,-49.6763,0.0],[178.7363,-49.6734,10.2885],[178.7308,-49.6722,0.0],[178.7315,-49.6758,3.4825],[178.736,-49.6763,0.0]]],
[[[178.81,-49.6858,0.0],[178.8075,-49.6869,0.0],[178.8082,-49.6898,0.0],[178.8136,-49.6889,0.0],[178.813,-49.6861,0.0],[178.81,-49.6858,0.0]]],
[[[178.799,-49.6636,4.848],[178.7988,-49.6587,0.0],[178.7942,-49.6575,0.0],[178.7858,-49.6644,26.1034],[178.782,-49.6631,78.5351],[178.7753,-49.6644,0.0],[178.7761,-49.6672,5.5317],[178.7742,-49.6686,0.2913],[178.7735,-49.6719,23.8204],[178.765,-49.6733,21.8066],[178.7552,-49.6709,0.0],[178.7566,-49.6729,0.0],[178.7519,-49.6758,0.0],[178.7489,-49.6744,0.0],[178.7458,-49.6758,0.0],[178.7446,-49.6805,9.4368],[178.7354,-49.6804,8.7386],[178.7279,-49.6851,0.0],[178.7397,-49.6914,20.4006],[178.7403,-49.695,15.3542],[178.7358,-49.6975,0.0],[178.7378,-49.7042,0.0],[178.7421,-49.7068,0.5837],[178.7503,-49.7081,0.0],[178.7489,-49.71,0.0],[178.7508,-49.7119,0.0],[178.7556,-49.7091,11.889],[178.7576,-49.7106,22.9113],[178.7558,-49.7117,0.0],[178.758,-49.7131,6.0519],[178.7575,-49.7153,0.0],[178.7658,-49.7146,0.0],[178.7664,-49.7133,0.0],[178.7719,-49.7142,0.0],[178.7734,-49.7119,0.0],[178.7793,-49.7146,0.0],[178.7829,-49.7142,6.3533],[178.7902,-49.711,0.0],[178.7878,-49.7063,0.0],[178.7833,-49.7062,35.192],[178.7861,-49.6993,4.3667],[178.7992,-49.6963,0.0],[178.7983,-49.6928,131.7311],[178.805,-49.6883,0.0],[178.8089,-49.6817,0.0],[178.8081,-49.6794,2.8892],[178.812,-49.6772,0.0],[178.8081,-49.6767,76.085],[178.8078,-49.6746,31.9851],[178.8106,-49.6719,0.0],[178.8142,-49.6711,0.0],[178.8111,-49.6692,0.0],[178.8128,-49.6658,0.0],[178.8027,-49.6662,0.0],[178.799,-49.6636,4.848]]],
[[[178.8205,-49.6398,57.8927],[178.8105,-49.6386,0.0],[178.8111,-49.6403,0.0],[178.8174,-49.6405,0.0],[178.8182,-49.6433,0.0],[178.8175,-49.6448,29.2584],[178.8098,-49.647,0.0],[178.8105,-49.6486,0.0],[178.816,-49.6502,0.0],[178.8218,-49.6496,0.0],[178.8245,-49.646,15.3374],[178.8237,-49.6417,19.7176],[178.8205,-49.6398,57.8927]]]]}
,"properties": {"GID_2": "NZL.13.1_1","GID_0": "NZL","country": "NewZealand","GID_1": "NZL.13_1","province": "SouthernIslands","NL_NAME_1": "NA","county": "AntipodesIslands","VARNAME_2": "NA","NL_NAME_2": "NA","TYPE_2": "Territory","ENGTYPE_2": "Territory","CC_2": "NZ.02.05","HASC_2": "NA","name": "Antipodes_Islands.county","area_km2": 22.72944,"hist_schema_id": "Elevation0-9000","hist_area_km2": {"0": 2.57889,"25": 1.19336,"50": 1.06996,"75": 1.23467,"100": 2.66166,"125": 2.09907,"150": 2.16748,"175": 2.34562,"200": 2.27675,"225": 1.83774,"250": 1.09715,"275": 1.04237,"300": 0.64463,"325": 0.31548,"350": 0.1646}}}