{"type": "Feature","id": "5477","bbox": [178.71762,-49.7208,178.84392,-49.61492],"geometry": {"type": "Polygon","coordinates": [[[178.83904,-49.62916,0.0],[178.82887,-49.61989,0.0],[178.8152,-49.61541,0.0],[178.80063,-49.61492,0.0],[178.78712,-49.61785,0.0],[178.77076,-49.62721,0.0],[178.72804,-49.66074,0.0],[178.71762,-49.67254,0.3615],[178.719,-49.70013,0.0],[178.74171,-49.71453,0.0],[178.7732,-49.7199,0.0],[178.81398,-49.7208,0.0],[178.82211,-49.71982,0.0],[178.82635,-49.71315,0.0],[178.82748,-49.69647,0.0],[178.83155,-49.67946,0.0],[178.83904,-49.66269,0.0],[178.84392,-49.64609,0.0],[178.83904,-49.62916,0.0]]]}
,"properties": {"ISO3166-1-Alpha-3": "NZL","country": "New Zealand","fill": "#F0F","name": "Antipodes Islands","area_km2": 78.84369,"hist_schema_id": "Elevation0-9000","hist_area_km2": {"0": 58.63823,"25": 1.24826,"50": 1.06996,"75": 1.23467,"100": 2.66166,"125": 2.09907,"150": 2.16748,"175": 2.34562,"200": 2.27675,"225": 1.83774,"250": 1.09715,"275": 1.04237,"300": 0.64463,"325": 0.31548,"350": 0.1646}}}