{"type": "Feature","bbox": [174.0638,-39.4132,175.0695,-38.8891],"geometry": {"type": "MultiPolygon","coordinates": [[[[174.8276,-38.9099,452.9777],[174.8306,-38.9125,480.2897],[174.8299,-38.9147,507.7416],[174.8321,-38.9151,515.8513],[174.8307,-38.9186,502.2128],[174.8279,-38.9201,491.2829],[174.8299,-38.9233,484.2388],[174.8207,-38.9231,421.8476],[174.8221,-38.9256,449.0881],[174.8169,-38.9235,446.4656],[174.8135,-38.9259,459.6057],[174.8116,-38.923,456.0931],[174.8109,-38.9257,466.6465],[174.8084,-38.9263,455.7714],[174.8067,-38.9251,457.6278],[174.8024,-38.9255,436.5611],[174.795,-38.9159,396.6732],[174.7915,-38.9176,333.8393],[174.7905,-38.9203,324.4243],[174.7843,-38.9206,321.4097],[174.7838,-38.925,316.8692],[174.7782,-38.9245,323.7326],[174.7729,-38.9213,341.5905],[174.7686,-38.9147,337.3232],[174.7675,-38.921,330.6089],[174.7575,-38.9223,361.9471],[174.7532,-38.9249,392.1543],[174.7453,-38.9209,413.9626],[174.7424,-38.9165,430.9902],[174.7401,-38.9157,406.9572],[174.7386,-38.911,329.923],[174.7306,-38.9153,338.5861],[174.73,-38.9174,305.6305],[174.7245,-38.9205,333.447],[174.7229,-38.9241,326.7052],[174.7181,-38.9254,314.7947],[174.7168,-38.928,373.2635],[174.7112,-38.9312,341.6488],[174.7123,-38.935,394.222],[174.7104,-38.9368,396.8955],[174.71,-38.9411,393.9221],[174.7165,-38.9443,388.4513],[174.7206,-38.9516,423.9626],[174.7187,-38.9537,392.9433],[174.7116,-38.9561,358.3095],[174.7082,-38.9642,348.5255],[174.7169,-38.9711,216.8561],[174.7134,-38.9741,210.4571],[174.7141,-38.9761,289.382],[174.7298,-38.98,349.6058],[174.7358,-38.9834,383.4428],[174.7359,-38.9929,398.9065],[174.738,-38.9973,394.9155],[174.7345,-39.0007,379.6863],[174.7315,-39.0114,403.7318],[174.7232,-39.0175,391.9785],[174.7287,-39.0243,399.6052],[174.7289,-39.0277,415.3326],[174.7219,-39.0308,347.2343],[174.7199,-39.0378,385.6426],[174.7144,-39.0414,368.4929],[174.7068,-39.0408,368.4004],[174.7019,-39.0443,353.4902],[174.6963,-39.0438,342.2695],[174.6926,-39.0387,261.6436],[174.6879,-39.0373,194.3121],[174.6862,-39.0336,312.5055],[174.6842,-39.0352,308.556],[174.6809,-39.0345,332.8365],[174.6794,-39.0365,300.5548],[174.6688,-39.0406,389.481],[174.668,-39.0436,372.7672],[174.6722,-39.0478,315.5553],[174.6743,-39.0545,221.3549],[174.6702,-39.0556,224.0785],[174.6697,-39.0598,167.5583],[174.6644,-39.0586,158.0957],[174.6632,-39.0614,178.632],[174.6585,-39.0595,176.8009],[174.6581,-39.0645,259.9352],[174.66,-39.0673,293.5695],[174.6543,-39.0715,166.1454],[174.6562,-39.075,204.706],[174.6494,-39.0877,344.2604],[174.655,-39.093,354.9769],[174.6562,-39.102,361.9611],[174.6602,-39.107,353.2467],[174.658,-39.1137,391.2256],[174.6515,-39.1134,351.1983],[174.6422,-39.108,377.4364],[174.6386,-39.1087,351.9374],[174.6361,-39.1054,328.8694],[174.6265,-39.102,338.2196],[174.6238,-39.1028,333.8864],[174.6199,-39.0989,333.9429],[174.613,-39.0966,324.7662],[174.6104,-39.0933,332.0829],[174.6088,-39.0942,332.0829],[174.6015,-39.0923,319.4042],[174.5957,-39.0962,335.1517],[174.5934,-39.0911,211.7405],[174.5947,-39.0894,202.537],[174.5915,-39.0874,151.3399],[174.591,-39.0832,128.5655],[174.5843,-39.0759,150.6582],[174.5811,-39.0772,142.5884],[174.5778,-39.085,121.5653],[174.576,-39.0857,121.5653],[174.5721,-39.0829,122.3986],[174.5741,-39.0776,159.5384],[174.5686,-39.0706,123.4011],[174.5667,-39.0715,122.987],[174.566,-39.0778,129.4084],[174.5612,-39.0791,126.3074],[174.5572,-39.078,120.9086],[174.5564,-39.0716,128.5373],[174.5535,-39.0724,122.7118],[174.5527,-39.0755,134.6509],[174.5571,-39.0797,123.0539],[174.5549,-39.0833,160.8754],[174.5582,-39.086,139.8036],[174.5555,-39.0889,142.2652],[174.5579,-39.0924,124.8136],[174.5474,-39.0926,116.9466],[174.5516,-39.0971,116.8758],[174.557,-39.0982,116.8755],[174.5577,-39.1005,139.6509],[174.5456,-39.1025,128.5015],[174.5388,-39.0991,140.5073],[174.5374,-39.1052,134.1328],[174.5405,-39.11,146.0848],[174.5462,-39.109,126.1054],[174.5466,-39.1117,126.0393],[174.5403,-39.1129,141.7666],[174.5345,-39.1103,127.3408],[174.534,-39.113,126.197],[174.5376,-39.1215,114.5651],[174.5371,-39.1242,118.0842],[174.532,-39.1236,122.405],[174.526,-39.1204,124.78],[174.5206,-39.1253,119.1103],[174.521,-39.1267,120.0966],[174.5258,-39.1285,110.9849],[174.5288,-39.133,121.0788],[174.5206,-39.1372,118.9184],[174.521,-39.1393,116.2927],[174.5261,-39.1406,111.2368],[174.5277,-39.1434,132.5838],[174.5331,-39.1396,111.2271],[174.5417,-39.1432,145.7994],[174.5276,-39.1465,119.0117],[174.5268,-39.1521,113.6832],[174.5294,-39.1525,111.9946],[174.5311,-39.155,113.0501],[174.5297,-39.1593,109.8538],[174.5223,-39.1525,114.8112],[174.5218,-39.1591,110.0787],[174.5274,-39.1608,110.9878],[174.5244,-39.1631,128.2563],[174.5193,-39.163,108.018],[174.5189,-39.1647,121.8248],[174.5213,-39.1657,121.9876],[174.5325,-39.1645,122.7392],[174.5348,-39.1668,132.1142],[174.5299,-39.1664,109.9595],[174.528,-39.1692,111.2163],[174.5253,-39.17,110.5884],[174.5279,-39.1715,135.4528],[174.5331,-39.1704,131.7355],[174.5337,-39.1723,125.963],[174.5312,-39.1746,117.3009],[174.5199,-39.1754,135.1985],[174.5208,-39.1858,159.9657],[174.5159,-39.1866,108.6139],[174.5144,-39.1887,120.8694],[174.5154,-39.1933,148.3947],[174.5112,-39.197,115.4573],[174.5041,-39.1942,124.2803],[174.5,-39.1958,104.821],[174.4933,-39.1902,184.2392],[174.4817,-39.1878,272.8864],[174.4762,-39.1793,254.197],[174.474,-39.181399999999996,297.273],[174.4678,-39.1817,239.4586],[174.4651,-39.1795,248.052],[174.4577,-39.1779,235.8365],[174.4537,-39.1867,263.3032],[174.447,-39.1866,208.479],[174.4444,-39.1914,106.3256],[174.4393,-39.1913,95.0523],[174.4409,-39.1918,94.6052],[174.4427,-39.1961,146.047],[174.4357,-39.2008,117.0102],[174.4422,-39.2053,111.4842],[174.4469,-39.2023,115.1394],[174.4458,-39.2059,101.9615],[174.4405,-39.2095,118.5074],[174.4365,-39.2092,115.5328],[174.4303,-39.2117,141.7558],[174.4289,-39.2116,120.514],[174.4292,-39.209,109.5045],[174.4274,-39.2081,107.4236],[174.4272,-39.212,112.3915],[174.4316,-39.2165,119.8654],[174.4287,-39.2202,121.7489],[174.424,-39.218,110.3797],[174.4244,-39.213,135.8329],[174.4214,-39.2142,131.426],[174.4191,-39.2196,125.4041],[174.4237,-39.2199,145.1009],[174.424,-39.2238,125.5939],[174.4264,-39.2245,124.5427],[174.4231,-39.2289,122.2089],[174.4216,-39.2281,122.2089],[174.4225,-39.2259,131.5117],[174.4173,-39.2267,143.4458],[174.4152,-39.2244,179.2224],[174.4146,-39.2277,125.0909],[174.387,-39.2278,254.9539],[174.3848,-39.2257,237.8551],[174.3798,-39.2258,269.1441],[174.3592,-39.2297,185.7523],[174.3611,-39.2323,176.7405],[174.3572,-39.2335,195.1438],[174.3567,-39.2415,173.5491],[174.3523,-39.2406,161.1299],[174.3532,-39.2381,155.0222],[174.3441,-39.2405,163.5401],[174.3447,-39.2366,173.0789],[174.3125,-39.2368,215.0719],[174.3133,-39.2353,236.5394],[174.3118,-39.2337,258.4041],[174.3012,-39.2338,250.4436],[174.3012,-39.2363,269.2657],[174.296,-39.2325,257.0318],[174.2865,-39.2352,259.6485],[174.2865,-39.2246,230.062],[174.2746,-39.2252,226.7111],[174.2719,-39.2241,223.196],[174.2706,-39.2276,237.7368],[174.267,-39.2305,246.2644],[174.2641,-39.2292,256.0518],[174.261,-39.2324,259.0951],[174.2572,-39.2324,263.0185],[174.2556,-39.2349,274.254],[174.256,-39.2401,281.3417],[174.2544,-39.2407,282.3752],[174.2554,-39.2423,288.8711],[174.2523,-39.2444,290.7479],[174.2482,-39.2513,312.3767],[174.2421,-39.2507,319.4416],[174.2421,-39.2527,319.8076],[174.2382,-39.2562,334.0702],[174.2331,-39.2581,342.1538],[174.2231,-39.2668,369.9884],[174.2087,-39.2715,406.6802],[174.1966,-39.2807,452.2732],[174.1859,-39.2854,492.0371],[174.1753,-39.2881,536.8163],[174.0638,-39.296,2457.0376],[174.0946,-39.3796,459.1179],[174.0946,-39.401,368.3304],[174.0968,-39.4011,367.3242],[174.0967,-39.4074,342.1617],[174.1115,-39.4075,342.1816],[174.1115,-39.4056,348.5157],[174.1696,-39.4057,324.2772],[174.1725,-39.4008,343.1881],[174.1727,-39.3944,366.5699],[174.2202,-39.3945,312.7455],[174.2153,-39.3881,332.2254],[174.2308,-39.3912,307.1201],[174.2445,-39.3909,286.2299],[174.2464,-39.3896,290.3428],[174.27,-39.3902,273.3937],[174.2666,-39.3919,271.1049],[174.2684,-39.3965,263.2228],[174.2673,-39.3976,263.2228],[174.2706,-39.3994,257.7172],[174.2711,-39.398,257.7172],[174.2735,-39.399,252.5692],[174.2753,-39.3977,259.7395],[174.2735,-39.3997,252.3634],[174.2738,-39.4023,245.7845],[174.2805,-39.4062,234.1304],[174.3348,-39.4053,230.7531],[174.3486,-39.4122,227.3474],[174.3523,-39.4099,226.3973],[174.3554,-39.4123,226.4241],[174.3618,-39.4132,227.892],[174.3614,-39.4097,228.4614],[174.3716,-39.4022,240.0871],[174.3925,-39.4113,248.0236],[174.3978,-39.4039,227.1237],[174.3997,-39.4094,212.5443],[174.4056,-39.4012,240.2882],[174.4098,-39.4021,278.5344],[174.4114,-39.4006,198.1358],[174.4123,-39.4043,306.7034],[174.4413,-39.4046,171.3805],[174.4413,-39.3969,226.4722],[174.4533,-39.3968,109.0147],[174.4586,-39.3984,119.8324],[174.458,-39.4055,100.8668],[174.4628,-39.4048,113.8769],[174.4731,-39.4068,114.6007],[174.4722,-39.4028,104.8947],[174.4693,-39.4007,106.5474],[174.4708,-39.3991,134.1645],[174.4732,-39.3995,154.1481],[174.4754,-39.4054,105.3769],[174.479,-39.4052,99.8437],[174.4805,-39.4067,115.8609],[174.4956,-39.4045,160.0705],[174.5117,-39.4046,181.8988],[174.5123,-39.4001,207.8722],[174.5081,-39.3975,329.3591],[174.5106,-39.3946,311.1103],[174.516,-39.3933,270.0971],[174.5176,-39.389,321.106],[174.5162,-39.386,260.1456],[174.5182,-39.3854,260.1456],[174.5232,-39.3785,307.8665],[174.5246,-39.3791,296.9465],[174.5283,-39.3758,178.1084],[174.5324,-39.3769,179.1577],[174.534,-39.374,292.2375],[174.542,-39.3708,346.2457],[174.5443,-39.3669,310.0035],[174.554,-39.36,373.3506],[174.5576,-39.3614,372.6757],[174.5617,-39.3653,402.8405],[174.5667,-39.3661,409.8665],[174.5715,-39.3652,437.3484],[174.5736,-39.3625,450.0715],[174.5773,-39.3634,454.4145],[174.5795,-39.3653,473.1064],[174.5787,-39.3735,442.2966],[174.6275,-39.3752,500.2679],[174.6667,-39.3734,638.3234],[174.6785,-39.3744,656.8047],[174.6817,-39.3783,664.1229],[174.6799,-39.3827,690.4756],[174.6818,-39.3893,655.0985],[174.684,-39.3901,629.6052],[174.6853,-39.3937,626.6045],[174.6807,-39.4015,590.7595],[174.6784,-39.4022,546.2961],[174.678,-39.4049,566.7772],[174.877,-39.4041,540.8513],[174.8713,-39.401,550.2543],[174.8699,-39.3955,584.6532],[174.8659,-39.389,657.8186],[174.8702,-39.3905,609.3304],[174.8729,-39.3887,613.999],[174.8766,-39.3917,647.3458],[174.8795,-39.3902,641.9264],[174.8848,-39.3817,639.5466],[174.8819,-39.3784,653.0752],[174.8892,-39.3737,654.5083],[174.8904,-39.3688,681.4456],[174.8882,-39.3647,684.7467],[174.8916,-39.3581,695.8918],[174.8883,-39.3562,660.1243],[174.8871,-39.3535,649.6663],[174.8833,-39.3528,611.4591],[174.8804,-39.3534,636.5231],[174.8769,-39.3568,703.682],[174.8769,-39.3537,690.8004],[174.872,-39.3518,700.2731],[174.8707,-39.3468,683.4757],[174.8642,-39.3434,670.7268],[174.8614,-39.3437,682.8726],[174.8588,-39.3409,656.0803],[174.8539,-39.3413,674.5179],[174.8544,-39.3399,695.3205],[174.8502,-39.3368,668.3892],[174.8425,-39.3359,642.9185],[174.8384,-39.337,685.3431],[174.8271,-39.3325,531.269],[174.8228,-39.334,626.3671],[174.8207,-39.3311,624.8162],[174.8226,-39.3298,607.2065],[174.8198,-39.3261,522.6481],[174.8204,-39.3228,503.5864],[174.8152,-39.318,627.1151],[174.8148,-39.3143,683.2902],[174.8129,-39.3136,701.9964],[174.8179,-39.31,494.8912],[174.8202,-39.3017,355.7634],[174.8309,-39.2962,199.728],[174.832,-39.2926,254.2967],[174.838,-39.2878,164.2944],[174.8407,-39.2764,97.6214],[174.8455,-39.2704,192.3856],[174.8452,-39.2643,286.3326],[174.8471,-39.2599,348.5797],[174.8518,-39.2618,296.475],[174.8556,-39.2614,336.1277],[174.862,-39.2555,221.7248],[174.865,-39.2469,338.5315],[174.8627,-39.2445,306.4554],[174.8644,-39.2428,316.6061],[174.8615,-39.24,302.5642],[174.8618,-39.2357,299.3569],[174.8596,-39.2321,205.9914],[174.8614,-39.2305,124.8372],[174.8682,-39.2318,95.97],[174.8731,-39.2368,128.4963],[174.8804,-39.2367,90.8105],[174.8795,-39.238,97.9183],[174.8885,-39.2412,86.3487],[174.8929,-39.2375,109.9367],[174.8947,-39.2327,81.8465],[174.893,-39.229,73.7063],[174.8959,-39.2267,71.0436],[174.9102,-39.234,71.6674],[174.9147,-39.2335,69.177],[174.9149,-39.2252,113.7272],[174.9229,-39.2197,79.9506],[174.9344,-39.1989,82.9442],[174.9419,-39.1932,134.689],[174.9504,-39.1836,133.0651],[174.9496,-39.1811,102.4743],[174.9416,-39.1805,151.8365],[174.941,-39.1777,138.9063],[174.9457,-39.1741,117.7958],[174.9588,-39.171,84.919],[174.9577,-39.1687,103.8062],[174.9502,-39.1659,196.9599],[174.9499,-39.1633,152.2601],[174.9533,-39.1621,82.1779],[174.963,-39.1627,93.3478],[174.9817,-39.1568,95.991],[174.9841,-39.1545,145.889],[174.9846,-39.1499,134.447],[174.9779,-39.1396,94.6231],[174.98,-39.1387,94.8911],[174.9898,-39.1402,99.2037],[174.9939,-39.1381,143.4814],[174.989,-39.1325,93.3202],[174.9915,-39.1254,105.1983],[174.9818,-39.117,88.5761],[174.983,-39.1121,125.3084],[174.9926,-39.1138,87.2108],[174.994,-39.1255,122.108],[174.9961,-39.128,105.8801],[175.0002,-39.1288,105.6125],[175.0033,-39.1272,129.9961],[175.0046,-39.1235,114.6416],[174.9966,-39.113,107.0975],[174.998,-39.1106,121.5437],[175.001,-39.1106,105.0129],[175.0059,-39.1156,97.9975],[175.0103,-39.1165,135.1146],[175.0195,-39.1091,108.5401],[175.0233,-39.1033,96.4212],[175.028,-39.1017,101.7253],[175.0471,-39.1067,111.3446],[175.0579,-39.1122,95.471],[175.0656,-39.1103,105.7044],[175.0692,-39.108,93.224],[175.0695,-39.1061,102.2667],[175.0666,-39.1012,116.5383],[175.0595,-39.0949,108.183],[175.043,-39.0834,100.4483],[175.0426,-39.0763,114.1847],[175.0473,-39.0704,145.0776],[175.012,-39.0658,455.8284],[175.0108,-39.0694,422.5034],[175.0031,-39.0678,452.5169],[175.0014,-39.0707,451.5417],[174.9973,-39.0726,444.3797],[174.9851,-39.069,391.126],[174.9837,-39.0652,337.9746],[174.9805,-39.0653,327.0275],[174.9761,-39.0628,259.0587],[174.9633,-39.0663,169.3632],[174.9599,-39.0622,154.1429],[174.9633,-39.0599,179.4597],[174.9594,-39.0584,155.9634],[174.9615,-39.053,175.3236],[174.9634,-39.0521,159.2371],[174.9667,-39.0549,191.1404],[174.9653,-39.0521,163.1531],[174.9706,-39.0521,162.1315],[174.9707,-39.05,157.4313],[174.976,-39.0476,155.9331],[174.9738,-39.0435,164.6942],[174.9765,-39.042,168.7272],[174.9733,-39.0386,166.92],[174.9734,-39.0355,163.0079],[174.9682,-39.0336,177.4141],[174.9682,-39.0321,164.272],[174.9657,-39.0313,179.8711],[174.9654,-39.0283,155.177],[174.9625,-39.028,184.7405],[174.9651,-39.0235,159.0505],[174.9604,-39.0233,172.1393],[174.9585,-39.0104,175.832],[174.9609,-39.0036,182.2751],[174.9599,-39.0016,153.8885],[174.9549,-38.9994,155.035],[174.9564,-38.9977,175.9259],[174.9609,-38.9978,181.5021],[174.9603,-38.9949,156.8225],[174.952,-38.9988,161.2763],[174.9405,-38.9954,221.8839],[174.9266,-39.0041,210.4659],[174.924,-39.0102,243.5736],[174.9146,-39.0108,343.6126],[174.9136,-39.0075,356.5802],[174.9164,-38.9993,350.7271],[174.9109,-38.992,413.0482],[174.911,-38.9892,398.388],[174.9066,-38.9885,384.9077],[174.8957,-38.9914,358.9473],[174.8932,-38.9905,394.0263],[174.8904,-38.9926,375.3043],[174.885,-38.9916,356.9786],[174.8823,-38.9931,315.718],[174.8777,-38.9886,357.2523],[174.8751,-38.9909,358.1733],[174.8689,-38.9891,483.8481],[174.8762,-38.9862,328.0121],[174.8756,-38.9831,268.3129],[174.8791,-38.9794,352.1242],[174.8811,-38.972,190.6375],[174.8854,-38.9691,203.5635],[174.8837,-38.9657,191.791],[174.8798,-38.9669,333.3826],[174.877,-38.9628,244.9239],[174.8802,-38.9558,275.1577],[174.8863,-38.9546,221.2393],[174.8841,-38.9527,212.3449],[174.8845,-38.9492,203.4241],[174.8824,-38.9464,213.6267],[174.8763,-38.9454,219.5311],[174.8751,-38.9434,215.6053],[174.8744,-38.939,233.0958],[174.878,-38.9329,241.9913],[174.8718,-38.9315,313.7459],[174.8714,-38.9281,268.9605],[174.8735,-38.9258,249.9397],[174.8808,-38.9285,241.1701],[174.884,-38.9277,244.8767],[174.8812,-38.9231,267.6317],[174.8743,-38.9204,276.8211],[174.8804,-38.9201,358.6373],[174.8811,-38.9159,276.5336],[174.8843,-38.9129,270.455],[174.8781,-38.9081,334.6657],[174.8791,-38.9041,281.5988],[174.8739,-38.9021,288.2202],[174.8691,-38.9046,321.0415],[174.8669,-38.9039,283.517],[174.8669,-38.9015,292.2923],[174.8746,-38.8987,315.1349],[174.8709,-38.8932,311.9336],[174.8714,-38.8906,294.7271],[174.8631,-38.89,301.5995],[174.8625,-38.8944,372.7051],[174.8569,-38.8954,394.1616],[174.8553,-38.8917,399.4423],[174.8572,-38.8891,397.9255],[174.8537,-38.8895,397.3336],[174.852,-38.8915,403.5049],[174.8513,-38.898,404.4104],[174.8466,-38.8984,408.7099],[174.8499,-38.8955,410.7241],[174.8466,-38.8944,407.5104],[174.845,-38.8968,407.6411],[174.8349,-38.9002,421.9022],[174.8349,-38.9023,425.6175],[174.8319,-38.9044,447.1304],[174.8319,-38.9069,477.6539],[174.8282,-38.9079,497.2255],[174.8276,-38.9099,452.9777]]]]}
,"properties": {"GID_2": "NZL.15.3_1","GID_0": "NZL","country": "NewZealand","GID_1": "NZL.15_1","province": "Taranaki","NL_NAME_1": "NA","county": "Stratford","VARNAME_2": "NA","NL_NAME_2": "NA","TYPE_2": "District","ENGTYPE_2": "District","CC_2": "034","HASC_2": "NZ.TK.SF","name": "Stratford.county","area_km2": 2161.818,"hist_schema_id": "Elevation0-9000","hist_area_km2": {"50": 0.427,"75": 2.416,"100": 14.034,"125": 46.154,"150": 98.699,"175": 180.088,"200": 255.404,"225": 262.804,"250": 222.448,"275": 204.682,"300": 163.416,"325": 143.246,"350": 113.053,"375": 89.472,"400": 66.779,"425": 51.85,"450": 42.53,"475": 33.363,"500": 26.215,"525": 22.105,"550": 19.181,"575": 17.739,"600": 16.28,"625": 13.69,"650": 12.46,"675": 8.346,"700": 5.166,"725": 3.001,"750": 2.657,"775": 2.149,"800": 2.05,"825": 1.87,"850": 1.558,"875": 1.526,"900": 1.165,"925": 1.017,"950": 1.115,"975": 1.066,"1000": 0.574,"1025": 0.804,"1050": 0.755,"1075": 0.525,"1100": 0.558,"1125": 0.64,"1150": 0.525,"1175": 0.476,"1200": 0.394,"1225": 0.443,"1250": 0.23,"1275": 0.361,"1300": 0.262,"1325": 0.279,"1350": 0.246,"1375": 0.213,"1400": 0.197,"1425": 0.246,"1450": 0.131,"1475": 0.164,"1500": 0.115,"1525": 0.197,"1550": 0.197,"1575": 0.115,"1600": 0.115,"1625": 0.164,"1650": 0.098,"1675": 0.066,"1700": 0.164,"1725": 0.098,"1750": 0.066,"1775": 0.098,"1800": 0.115,"1825": 0.115,"1850": 0.049,"1875": 0.066,"1900": 0.082,"1925": 0.082,"1950": 0.033,"1975": 0.033,"2000": 0.049,"2025": 0.082,"2050": 0.033,"2075": 0.033,"2125": 0.066,"2175": 0.033,"2275": 0.049,"2400": 0.033}}}