{"type":"Feature","properties":{"featurecla":"Reservoir","scalerank":5,"name":"Lake Hawea","name_abb":"L. Hawea","name_alt":null,"note":"natural lake","delta":null,"dam_name":null,"year":-99,"admin":null,"min_zoom":4.7,"min_label":6.0},
"geometry":{"type": "Polygon","coordinates": [[[169.20711575335281,-44.439442697688321,349.935],[169.21996484278418,-44.45086411051625,345.0],[169.25280140466475,-44.458002493533741,345.0],[169.25422908126814,-44.476562289379274,345.0],[169.25280140466475,-44.51368188107017,345.0],[169.24280766844026,-44.553656825968176,345.0],[169.24709069825064,-44.586493387848577,371.8155],[169.25137372806114,-44.60790853690105,345.0],[169.27564423032061,-44.6107638901081,359.4126],[169.30848079220107,-44.596487124073121,360.5209],[169.31419149861517,-44.565078238796104,345.0],[169.30705311559768,-44.540807736536692,345.0],[169.30419776239057,-44.516537234277223,360.5203],[169.30990846880468,-44.477989965982715,345.0],[169.33132361785715,-44.463713199947733,349.8165],[169.3584494733235,-44.45086411051625,345.0],[169.35987714992712,-44.433731991274328,464.4788],[169.39128603520396,-44.418027548635848,350.9392],[169.41555653746343,-44.393757046376322,389.1038],[169.41983956727393,-44.368058867513412,347.9453],[169.43126098010202,-44.342360688650388,345.0],[169.44411006953339,-44.310951803373484,365.4867],[169.4498207759475,-44.286681301113958,345.0],[169.4369716865159,-44.30095806714894,349.2039],[169.41412886086005,-44.319517862994473,347.3481],[169.39985209482506,-44.350926748271377,345.0],[169.38843068199708,-44.386618663358831,345.0],[169.351311090306,-44.415172195428795,379.8937],[169.30134240918358,-44.436587344481268,349.42],[169.26422281749274,-44.440870374291819,376.6303],[169.23424160881916,-44.443725727498759,362.955],[169.20711575335281,-44.439442697688321,349.935]]]}}