{"type": "Feature","bbox": [169.19077150746776,-45.179887986668582,169.32093264430156,-44.915227008439821],"geometry": {"type": "Polygon","coordinates": [[[169.19077150746776,-45.068527902932985,211.513],[169.21101879541968,-45.068527902932985,328.6575],[169.25874454559207,-45.08877519088491,288.116],[169.30213159120336,-45.113361183397963,249.3711],[169.31080900032561,-45.145178350179563,231.7561],[169.30502406091077,-45.176995516961163,194.0],[169.31080900032561,-45.179887986668582,191.4009],[169.31804017459416,-45.156748229009239,309.2799],[169.32093264430156,-45.122038592520219,455.8289],[169.29056171237369,-45.093113895446038,283.2967],[169.22837361366419,-45.071420372640404,335.5611],[169.21969620454195,-45.054065554395891,329.0378],[169.22258867424935,-45.023694622468007,194.0],[169.25295960617726,-44.984646281417859,258.9391],[169.29923912149593,-44.941259235806584,390.8235],[169.3079165306182,-44.915227008439821,198.1971],[169.29634665178853,-44.91811947814724,197.3808],[169.28333053810513,-44.935474296391753,194.0],[169.2616370152995,-44.962952758612225,194.1992],[169.24138972734758,-44.973076402588184,207.3809],[169.20812632571227,-45.010678508784622,213.4823],[169.20812632571227,-45.032372031590256,209.2448],[169.20957256056596,-45.052619319542188,194.0],[169.19077150746776,-45.068527902932985,211.513]]]}
,"properties": {"featurecla": "Lake","scalerank": 7,"name": "Lake Dunstan","name_abb": "L. Dunstan","name_alt": null,"note": "hydro lake","delta": null,"dam_name": "Clyde Dam","year": -99,"admin": "added","min_zoom": 5.7,"min_label": 6.7,"area_km2": 36.82868,"hist_schema_id": "Elevation0-9000","hist_area_km2": {"200": 26.28607,"225": 3.13001,"250": 2.23119,"275": 1.72223,"300": 1.48261,"325": 0.85363,"350": 0.53911,"375": 0.3294,"400": 0.13472,"425": 0.08979,"450": 0.01496,"475": 0.01496}}}