{"type":"Feature","properties":{"featurecla":"Lake","scalerank":5,"name":"Lake Wanaka","name_abb":"L. Wanaka","name_alt":null,"note":null,"delta":null,"dam_name":null,"year":-99,"admin":null,"min_zoom":4.7,"min_label":6.0},
"geometry":{"type": "Polygon","coordinates": [[[169.09861233148683,-44.682147720283012,278.0],[169.12145515714292,-44.696424486317994,278.0],[169.12859354016041,-44.687858426697005,291.2643],[169.12859354016041,-44.662160247834038,323.3131],[169.15714707223037,-44.653594188213049,299.4049],[169.15000868921288,-44.64502812859206,278.0],[169.1385872763849,-44.630751362557078,278.0],[169.11859980393581,-44.643600451988505,550.65],[169.09718465488334,-44.640745098781565,278.0],[169.09575697827995,-44.609336213504605,328.7512],[169.08576324205546,-44.580782681434641,298.5351],[169.10575071450432,-44.565078238796104,495.1446],[169.1385872763849,-44.536524706726141,278.0],[169.16285777864425,-44.487983702207259,302.2365],[169.17998989788623,-44.43515966787777,287.6987],[169.18712828090372,-44.380907956944895,360.483],[169.17142383826535,-44.356637454685369,278.0],[169.18427292769672,-44.318090186390975,278.0],[169.16428545524786,-44.318090186390975,279.6342],[169.14858101260927,-44.342360688650388,278.0],[169.14287030619539,-44.362348161099419,278.0],[169.13430424657429,-44.380907956944895,281.3275],[169.1257381869533,-44.386618663358831,278.0],[169.12859354016041,-44.408033812411304,278.0],[169.1271658635568,-44.43515966787777,278.0],[169.12145515714292,-44.433731991274328,278.0],[169.11574445072881,-44.449436433912751,278.0],[169.1257381869533,-44.472279259568722,278.0],[169.11574445072881,-44.506543498052679,278.0],[169.09004627186584,-44.520820264087661,278.0],[169.052926680175,-44.545090766347187,278.0],[169.050071326968,-44.57364429841715,278.6],[169.050071326968,-44.59220409426257,387.9675],[169.02580082470843,-44.600770153883559,345.7928],[169.01152405867344,-44.616474596522096,278.0],[169.00866870546645,-44.632179039160576,280.5405],[169.03722223753641,-44.627896009350025,290.2535],[169.05863738658888,-44.627896009350025,412.8402],[169.05435435677839,-44.633606715764074,278.0],[169.03436688432942,-44.635034392367515,278.0],[169.02437314810504,-44.646455805195558,278.0],[169.01723476508755,-44.659304894627041,314.688],[169.02151779489805,-44.672153984058468,278.0],[169.03436688432942,-44.659304894627041,283.2094],[169.06149273979588,-44.657877218023486,291.3103],[169.07576950583086,-44.656449541419988,278.0],[169.09861233148683,-44.682147720283012,278.0]]]}}