{"type":"Feature","properties":{"featurecla":"Lake","scalerank":5,"name":"Lake Wakatipu","name_abb":"L. Wakatipu","name_alt":null,"note":null,"delta":null,"dam_name":null,"year":-99,"admin":null,"min_zoom":4.7,"min_label":6.0},
"geometry":{"type": "Polygon","coordinates": [[[168.800364740364,-45.259079767292917,1418.4215],[168.78037726791479,-45.236236941636946,895.9541],[168.78676818442796,-45.191081541411108,1511.825],[168.79084689634067,-45.167708464668976,1664.2097],[168.79941295596143,-45.1401067170014,1639.2683],[168.80266384729305,-45.116607417246712,1284.7908],[168.74879521202786,-45.059206412456035,336.3947],[168.74702902726517,-45.050375488642146,322.3704],[168.76557396727435,-45.025354537835938,535.3611],[168.75848622666115,-45.016374744698226,356.9895],[168.70846732661084,-45.03241927688714,366.5963],[168.65950064881861,-45.048735414377461,309.5],[168.5793069263301,-45.070509679115844,309.5],[168.5339093992219,-45.073041526431268,323.5714],[168.50977154079703,-45.058323320074692,754.903],[168.49593642682169,-45.038012195302542,1409.653],[168.4879885953892,-45.015346157513477,1601.3362],[168.47327038903256,-44.940577669222023,1525.1108],[168.46620564998159,-44.918794723814244,1584.7471],[168.45590290553184,-44.899366691423552,1570.3618],[168.44118469917555,-44.880233023160031,1143.1853],[168.43470868837846,-44.8655148168034,1035.8193],[168.41701572636691,-44.847817692814033,490.1685],[168.39555825946991,-44.84814733330262,320.0784],[168.39143716169008,-44.857272621243737,332.9859],[168.38996534105434,-44.862865539659253,341.5056],[168.39202588994431,-44.867575365693313,325.8525],[168.39395280056806,-44.8793177907624,309.5],[168.39775993817727,-44.891690987992661,309.5],[168.39408643883439,-44.935573479060793,309.5],[168.39585262359708,-44.965892984155346,309.5],[168.41380883535203,-44.979728098130522,309.5],[168.42205103091169,-44.990913934961554,309.5],[168.44154202068466,-45.053494336389122,309.5],[168.47199912155941,-45.0896621436778,309.5],[168.49593642682169,-45.102477939144421,309.5],[168.51801373635669,-45.113075047721111,310.155],[168.59858644706947,-45.10964961612666,908.1698],[168.62333284153,-45.100131772103339,1182.2673],[168.64141674517441,-45.095372850091678,1220.5645],[168.68432946818609,-45.083344270880843,309.5],[168.70640677772087,-45.073924618812669,309.5],[168.72465735360311,-45.078634444846784,426.6422],[168.72612555698186,-45.106794262919777,309.5],[168.73584319043414,-45.116018688992483,309.5],[168.75350503806192,-45.132797444238918,309.5],[168.75563087345427,-45.143913854610673,311.1813],[168.75372730464949,-45.157238836243266,404.9947],[168.7508719514426,-45.163901327059705,375.6326],[168.74611302943094,-45.173419171083026,309.5],[168.73819810345105,-45.185194258868478,309.5],[168.75182373584482,-45.219104822394854,704.9116],[168.75563087345427,-45.25146549207426,379.3397],[168.76800407068447,-45.283826161753552,382.5478],[168.75616905165282,-45.329868581397591,621.6847],[168.78588509204644,-45.322367942111782,1176.1875],[168.79179868074277,-45.308572556214187,1127.8253],[168.80131652476609,-45.291440436972152,1221.8275],[168.80512366237565,-45.281922592948831,1284.8555],[168.80453493412142,-45.270442391990684,1293.275],[168.800364740364,-45.259079767292917,1418.4215]]]}}