{"type":"Feature","properties":{"GID_1":"NZL.2_1","GID_0":"NZL","country":"NewZealand","province":"BayofPlenty","VARNAME_1":"NA","NL_NAME_1":"NA","TYPE_1":"Region","ENGTYPE_1":"Region","CC_1":"04","HASC_1":"NZ.BP","ISO_1":"NZ-BOP","name":"Bayof_Plenty.province"},
"geometry":{"type": "MultiPolygon","coordinates": [[[[177.0299,-39.8324,0.4541],[177.0268,-39.8317,34.7277],[177.0233,-39.8376,0.0895],[177.025,-39.8353,4.6185],[177.0298,-39.8338,0.1935],[177.0299,-39.8324,0.4541]]],
[[[177.2016,-38.5254,1273.6775],[177.2052,-38.5246,1226.6678],[177.214,-38.5301,998.0974],[177.2258,-38.5341,1243.3184],[177.2302,-38.5272,1210.0325],[177.2379,-38.5195,1168.7502],[177.2406,-38.5104,1123.0454],[177.2431,-38.51,1131.8477],[177.2523,-38.5137,1038.5193],[177.2547,-38.513,1118.2583],[177.2574,-38.5083,1111.1245],[177.2369,-38.4263,512.7672],[177.4637,-38.3335,848.4081],[177.4863,-38.2963,840.3527],[177.4843,-38.2745,978.2007],[177.4975,-38.2608,644.481],[177.4923,-38.2625,586.335],[177.4899,-38.2612,558.6064],[177.4887,-38.2582,534.3134],[177.4911,-38.2501,467.4277],[177.4833,-38.2431,465.2462],[177.4818,-38.2399,443.5512],[177.4841,-38.2371,426.3756],[177.4863,-38.2391,430.6438],[177.4919,-38.2397,387.3055],[177.4923,-38.2358,372.7246],[177.4906,-38.2336,355.8191],[177.4935,-38.2323,366.9295],[177.4928,-38.2291,363.0812],[177.4946,-38.2267,396.0159],[177.4935,-38.2241,376.5997],[177.4951,-38.2249,361.8073],[177.4956,-38.2228,317.7415],[177.4939,-38.2223,317.7415],[177.495,-38.2206,317.6341],[177.4983,-38.2205,322.685],[177.4981,-38.2182,295.2241],[177.5019,-38.2178,346.8943],[177.5026,-38.2164,373.3107],[177.5009,-38.2154,337.9066],[177.501,-38.2134,296.927],[177.5032,-38.2127,296.1599],[177.5062,-38.2167,517.8528],[177.512,-38.2175,612.3682],[177.5174,-38.2146,665.5698],[177.5268,-38.2184,699.0052],[177.5321,-38.2185,679.4008],[177.5333,-38.2184,676.5464],[177.5337,-38.2093,450.9569],[177.5604,-38.2094,774.8308],[177.5573,-38.208,772.3488],[177.5565,-38.2047,758.5125],[177.5732,-38.1927,665.0012],[177.5764,-38.1933,745.7405],[177.5786,-38.1913,728.7634],[177.5837,-38.1936,714.4535],[177.5903,-38.1896,647.7278],[177.597,-38.1901,565.4789],[177.6014,-38.1846,582.8669],[177.6048,-38.1866,636.3393],[177.6024,-38.1712,512.3138],[177.6045,-38.173,589.142],[177.6094,-38.1712,746.7045],[177.6153,-38.172,843.4739],[177.6182,-38.1684,891.2258],[177.6223,-38.1683,826.6433],[177.6246,-38.1638,813.7776],[177.6286,-38.1607,852.1301],[177.634,-38.1608,769.2068],[177.6423,-38.1638,756.1932],[177.6536,-38.1586,564.222],[177.6555,-38.1555,369.9078],[177.6518,-38.1539,453.3196],[177.653,-38.1435,379.054],[177.6509,-38.1416,353.3508],[177.6528,-38.1356,339.1802],[177.6551,-38.1346,367.1348],[177.6549,-38.132,350.9608],[177.6594,-38.1313,398.2205],[177.6622,-38.1284,342.0815],[177.6605,-38.1259,327.221],[177.6638,-38.1228,338.2568],[177.6642,-38.1163,352.4643],[177.668,-38.1182,331.8828],[177.6681,-38.1134,380.0111],[177.6791,-38.1139,300.0529],[177.6849,-38.1107,343.8211],[177.6858,-38.1071,353.1057],[177.6879,-38.1092,321.8868],[177.6911,-38.1091,354.6603],[177.6944,-38.1033,316.7558],[177.7026,-38.1057,266.8925],[177.6946,-38.0998,322.6217],[177.6952,-38.097,260.6468],[177.6897,-38.0973,254.5365],[177.6934,-38.0929,288.1224],[177.6882,-38.091,310.3856],[177.6856,-38.0833,218.2593],[177.6823,-38.0829,306.2685],[177.6799,-38.0859,244.5942],[177.6772,-38.0862,247.0767],[177.6805,-38.0786,224.8402],[177.6877,-38.0776,245.3714],[177.69,-38.0673,227.5905],[177.6976,-38.0607,282.5018],[177.6942,-38.058,244.7352],[177.6941,-38.0534,194.4042],[177.6911,-38.0516,245.3111],[177.6893,-38.0467,228.0772],[177.6828,-38.0393,300.1849],[177.6801,-38.0309,193.6436],[177.6743,-38.0262,250.5404],[177.6729,-38.0199,196.8054],[177.6795,-38.0155,218.4937],[177.6811,-38.0124,184.8178],[177.6824,-38.015,288.3697],[177.69,-38.014,275.8694],[177.6912,-38.0163,401.7314],[177.6983,-38.0186,779.5436],[177.7008,-38.0222,794.6739],[177.7244,-38.0226,1047.0743],[177.74,-38.042,1267.4375],[177.7727,-38.0598,1282.9941],[177.849,-38.1113,896.1459],[177.8504,-38.1089,871.8412],[177.8557,-38.1074,1051.2998],[177.861,-38.1117,1394.5179],[177.9168,-37.9814,1420.8823],[177.9723,-37.845,1382.5466],[178.073,-37.7636,1195.3528],[178.0387,-37.7331,303.0404],[177.9946,-37.7643,179.4572],[177.9966,-37.7603,186.3319],[177.9922,-37.7528,179.6985],[177.9781,-37.7442,111.5332],[177.9768,-37.7406,95.878],[177.98,-37.736,85.2032],[177.9781,-37.7343,83.8715],[177.9786,-37.7308,88.3404],[177.987,-37.7252,95.5112],[177.9889,-37.7213,127.9382],[177.9924,-37.7196,109.7319],[177.9933,-37.7166,116.7904],[177.9887,-37.7145,117.8943],[177.9893,-37.7113,113.0314],[177.9858,-37.7072,151.6198],[177.9866,-37.7044,134.5724],[177.985,-37.7035,187.6812],[177.9877,-37.7017,158.8733],[177.9859,-37.7007,126.6673],[177.9885,-37.6992,138.7359],[177.9866,-37.6972,140.3667],[177.9934,-37.6967,140.3851],[177.9948,-37.6919,135.6846],[177.9982,-37.6896,152.0385],[177.9924,-37.6905,168.603],[177.9936,-37.6889,167.3539],[177.9921,-37.688,167.3539],[177.9937,-37.6871,164.4089],[177.9919,-37.6862,160.0775],[177.9949,-37.681,168.3783],[177.9921,-37.6796,173.3366],[177.9947,-37.6742,205.9916],[177.9938,-37.6695,237.0374],[177.9915,-37.6678,230.8371],[177.993,-37.6583,189.7731],[177.9917,-37.6581,189.7731],[177.9913,-37.6536,192.9824],[177.9887,-37.6539,194.8659],[177.9913,-37.6499,199.9569],[177.9872,-37.6481,205.8968],[177.9896,-37.6449,333.7236],[177.9831,-37.6413,269.8448],[177.9817,-37.6382,301.6447],[177.9826,-37.6362,260.4999],[177.9785,-37.6336,334.604],[177.9777,-37.6305,345.357],[177.9751,-37.6302,293.9844],[177.9759,-37.6249,305.3285],[177.9784,-37.6214,294.6038],[177.9781,-37.617,285.7564],[177.9801,-37.6132,302.7294],[177.9867,-37.6088,306.6465],[178.0252,-37.6049,75.0439],[178.0262,-37.6032,51.8185],[178.0302,-37.6042,47.8928],[178.0338,-37.6026,49.8232],[178.034,-37.5997,51.0329],[178.0375,-37.5999,87.0535],[178.0398,-37.5975,33.3047],[178.1076,-37.5987,139.804],[178.0983,-37.586,222.9576],[178.0891,-37.5512,358.8199],[178.0853,-37.5424,5.2702],[178.0793,-37.5445,3.5183],[178.0495,-37.5416,14.4011],[178.0486,-37.543,53.3721],[178.0396,-37.5434,14.2918],[178.037,-37.5415,0.0],[178.0356,-37.5444,6.6242],[178.029,-37.5474,11.5105],[178.0204,-37.5488,0.0],[178.0168,-37.5509,12.201599999999999],[178.0098,-37.5506,0.0],[178.0081,-37.5533,66.5908],[177.9835,-37.5364,3.7533],[177.9814,-37.5374,0.0],[177.9804,-37.5411,0.0],[177.9823,-37.5458,20.9564],[177.9801,-37.5487,2.3212],[177.9808,-37.5541,0.0],[177.9849,-37.5579,5.1695],[177.9834,-37.5587,0.0],[177.9856,-37.5612,20.3616],[177.9841,-37.5638,0.0],[177.9867,-37.5661,5.625],[177.9894,-37.566,17.1559],[177.9907,-37.5696,0.0],[177.9935,-37.5703,0.0],[177.9923,-37.5739,1.1345],[177.9794,-37.5874,2.0263],[177.9743,-37.5908,1.942],[177.97,-37.5914,11.2145],[177.9703,-37.5936,23.4885],[177.9654,-37.5943,0.549],[177.9664,-37.6019,6.0602],[177.9576,-37.6062,0.0],[177.9587,-37.6099,0.0],[177.9541,-37.6154,1.1143],[177.9449,-37.6189,1.7612],[177.9195,-37.6203,4.3041],[177.9082,-37.6166,6.4357],[177.9054,-37.6131,1.2052],[177.9041,-37.609,3.5178],[177.9053,-37.6064,0.0],[177.9039,-37.6052,1.5748],[177.8998,-37.6106,5.7471],[177.8952,-37.6122,0.9576],[177.8913,-37.6184,2.299],[177.8939,-37.622,1.5565],[177.8901,-37.6296,12.7575],[177.8851,-37.6306,1.7255],[177.8856,-37.6357,1.0181],[177.8844,-37.6375,0.0],[177.8814,-37.6394,0.9879],[177.8777,-37.6386,0.0],[177.879,-37.6419,1.7498],[177.8758,-37.6431,1.1889],[177.8749,-37.6475,3.21],[177.87,-37.6525,1.546],[177.8645,-37.6544,0.7838],[177.8638,-37.6566,9.5465],[177.8622,-37.6572,9.5465],[177.8624,-37.6555,2.5181],[177.8613,-37.6555,0.0],[177.8394,-37.6639,2.6996],[177.8349,-37.6642,11.9449],[177.8244,-37.6592,3.09],[177.8157,-37.6582,19.2068],[177.8077,-37.6628,0.3139],[177.8081,-37.6653,12.9428],[177.8007,-37.6661,2.5331],[177.8018,-37.6684,14.9981],[177.7995,-37.6697,0.0],[177.8016,-37.67,19.8965],[177.801,-37.6731,2.1399],[177.7942,-37.674,15.7822],[177.7953,-37.6783,28.4866],[177.7881,-37.6809,3.6517],[177.7841,-37.6785,3.909],[177.7833,-37.6759,5.2208],[177.776,-37.6761,1.3749],[177.7768,-37.6772,15.7976],[177.7742,-37.6782,32.7876],[177.7669,-37.6757,4.6398],[177.7657,-37.6778,40.2887],[177.7622,-37.6781,30.5999],[177.7494,-37.6751,15.9705],[177.7469,-37.6774,6.5008],[177.7343,-37.6779,0.0],[177.7276,-37.6802,0.5322],[177.7301,-37.6839,8.3335],[177.7237,-37.685,5.6578],[177.7247,-37.6861,20.1478],[177.7228,-37.6898,12.6065],[177.7245,-37.693,19.5551],[177.721,-37.6976,0.0],[177.7207,-37.702,5.7015],[177.7182,-37.7036,4.7458],[177.7191,-37.7057,3.8114],[177.7179,-37.7095,0.0],[177.7085,-37.7154,12.2001],[177.7079,-37.7224,14.4808],[177.6993,-37.7273,5.8115],[177.6913,-37.7263,3.6421],[177.6931,-37.7269,3.6421],[177.6935,-37.7291,2.5786],[177.6869,-37.7312,0.0],[177.6859,-37.7345,0.0],[177.6795,-37.7364,16.5118],[177.6742,-37.7355,2.0161],[177.6706,-37.7387,3.2928],[177.6746,-37.7407,6.3139],[177.6745,-37.7447,0.0],[177.6798,-37.7473,10.1717],[177.6819,-37.7499,6.7302],[177.6812,-37.752,10.6677],[177.6835,-37.7533,9.8861],[177.6842,-37.7605,6.7927],[177.6748,-37.7714,13.3851],[177.6699,-37.7719,11.105],[177.6651,-37.7771,18.7006],[177.6602,-37.7776,0.0],[177.6526,-37.7859,10.8857],[177.6528,-37.7883,11.7563],[177.6566,-37.7906,24.2286],[177.6564,-37.7966,1.0519],[177.6507,-37.8054,5.3259],[177.6291,-37.8146,10.6252],[177.6242,-37.8143,12.7471],[177.6196,-37.8108,0.0],[177.6197,-37.8078,0.0],[177.6128,-37.812,1.5439],[177.6122,-37.8137,3.9499],[177.6153,-37.8151,13.9897],[177.6166,-37.8216,14.0174],[177.6146,-37.8231,0.0],[177.6152,-37.8255,25.5274],[177.6137,-37.8275,14.0423],[177.6076,-37.8293,12.1714],[177.6065,-37.8381,20.3696],[177.5925,-37.8399,11.8778],[177.5922,-37.8384,7.4083],[177.5883,-37.8376,0.0],[177.5891,-37.8395,21.0656],[177.5853,-37.8443,4.5438],[177.5872,-37.8451,12.172],[177.5906,-37.8513,2.434],[177.589,-37.8541,0.5955],[177.5868,-37.8546,0.0],[177.586,-37.8642,1.3924],[177.5841,-37.8674,3.3227],[177.5767,-37.8737,5.4232],[177.5544,-37.8833,0.0],[177.5508,-37.8914,49.2708],[177.5459,-37.8964,0.0],[177.5489,-37.904,10.6697],[177.5482,-37.906,11.6631],[177.5333,-37.9156,28.3722],[177.5301,-37.9203,3.4959],[177.5157,-37.9264,7.4824],[177.4859,-37.9351,26.0139],[177.4864,-37.9386,20.1914],[177.4904,-37.9397,0.2615],[177.4918,-37.9423,0.809],[177.491,-37.9465,1.6618],[177.486,-37.9504,2.783],[177.4511,-37.9619,35.469],[177.4464,-37.9616,59.8206],[177.4425,-37.9587,0.0],[177.441,-37.9638,84.0847],[177.4395,-37.9644,0.1819],[177.4405,-37.967,20.7008],[177.4377,-37.9688,2.8092],[177.4325,-37.9698,36.5466],[177.4274,-37.9679,0.0],[177.4223,-37.9715,11.4286],[177.4225,-37.9741,3.2226],[177.4187,-37.9769,0.0],[177.3872,-37.9854,0.5076],[177.3827,-37.9837,1.3918],[177.3388,-37.9883,4.9067],[177.2641,-37.9924,0.0],[177.2067,-37.9919,13.8299],[177.1574,-37.9866,0.0],[177.1478,-37.9956,0.0],[177.1492,-37.9964,0.0],[177.1531,-37.9908,0.68],[177.1609,-37.99,28.2872],[177.1632,-37.9954,10.9543],[177.1604,-37.9981,30.1584],[177.1633,-38.0043,10.3378],[177.1619,-38.007,9.0779],[177.1591,-38.0101,7.343],[177.1546,-38.0105,5.3035],[177.1532,-38.0074,0.0],[177.149,-38.0087,2.848],[177.1469,-38.0067,4.303],[177.1517,-38.0041,0.0],[177.146,-38.0048,2.128],[177.1425,-38.0085,0.0],[177.1454,-38.0141,2.9126],[177.1407,-38.0153,3.5588],[177.1381,-38.021,12.6821],[177.138,-38.0232,0.0],[177.1389,-38.0222,3.2373],[177.1429,-38.0277,4.9071],[177.1416,-38.0318,0.0],[177.1438,-38.034,0.0],[177.151,-38.0325,1.7138],[177.1523,-38.0354,0.6481],[177.1556,-38.0365,2.4719],[177.156,-38.0391,1.8442],[177.1594,-38.0386,3.0299],[177.1602,-38.0397,0.8204],[177.159,-38.0411,0.8204],[177.1584,-38.0393,3.0299],[177.1573,-38.0408,0.3752],[177.1548,-38.04,0.3127],[177.1545,-38.0423,1.7104],[177.1522,-38.0416,0.8574],[177.1494,-38.0442,5.0439],[177.1487,-38.0427,1.0432],[177.1372,-38.0383,9.7593],[177.135,-38.0356,4.3464],[177.1337,-38.0373,19.9063],[177.1355,-38.0396,0.581],[177.1347,-38.0422,3.4971],[177.1305,-38.0327,3.5962],[177.1292,-38.0316,6.8262],[177.1259,-38.0323,3.3498],[177.1273,-38.0282,1.8379],[177.1191,-38.0178,0.0],[177.1106,-38.0226,2.0825],[177.105,-38.022,0.9239],[177.1026,-38.0249,0.7163],[177.103,-38.0229,0.5863],[177.1048,-38.0211,0.8115],[177.1049,-38.0149,2.328],[177.1074,-38.0135,6.6673],[177.1073,-38.012,7.4186],[177.1102,-38.013,0.0],[177.113,-38.0109,10.7742],[177.1092,-38.0018,0.0],[177.1042,-38.0023,2.4704],[177.1024,-38.0,0.0],[177.1012,-38.0012,0.0],[177.1024,-38.0029,4.3096],[177.1009,-38.0034,4.1032],[177.0953,-38.0006,0.0],[177.0926,-38.0045,34.291],[177.0964,-38.0093,7.7148],[177.0965,-38.0172,2.4697],[177.0927,-38.0112,0.0],[177.0889,-38.014,2.7674],[177.088,-38.0169,4.658],[177.0859,-38.0174,1.8597],[177.0838,-38.0165,2.9932],[177.084,-38.0141,9.681],[177.0894,-38.0085,13.1104],[177.0881,-38.0063,25.875],[177.0836,-38.0075,9.6451],[177.089,-38.0026,7.5965],[177.0892,-37.997,3.7448],[177.0809,-37.9994,0.0],[177.081,-38.0023,2.2305],[177.0779,-37.9991,0.0],[177.0757,-38.0002,1.7614],[177.0743,-37.9983,0.0],[177.069,-37.9968,2.1077],[177.0674,-37.999,0.0],[177.0679,-38.0043,23.3394],[177.071,-38.0065,1.8058],[177.0725,-38.0103,3.8264],[177.0674,-38.0086,6.3502],[177.0669,-38.0117,6.9461],[177.0632,-38.0136,18.0216],[177.0641,-38.0148,1.7621],[177.063,-38.0143,18.0216],[177.063,-38.0107,2.0274],[177.0612,-38.0128,12.8269],[177.0621,-38.0029,2.2201],[177.0574,-38.0019,2.4595],[177.059,-37.9987,8.5814],[177.0565,-37.9961,0.7096],[177.0583,-37.993899999999996,1.7633],[177.0625,-37.9938,7.1772],[177.0642,-37.9912,0.0],[177.0656,-37.9876,1.5605],[177.0631,-37.9848,2.3472],[177.0656,-37.9812,17.5935],[177.0687,-37.9794,16.1952],[177.0701,-37.9817,0.0],[177.0732,-37.9813,0.0],[177.0745,-37.9775,4.1821],[177.0749,-37.9798,0.9611],[177.0795,-37.9815,0.0],[177.0811,-37.9791,3.2843],[177.0839,-37.9788,2.3613],[177.087,-37.9798,0.4612],[177.0894,-37.9828,1.4907],[177.1002,-37.9816,0.0],[177.1137,-37.985,0.3635],[177.1188,-37.9882,0.0],[177.1467,-37.9924,0.0],[177.1471,-37.9882,0.0],[177.1434,-37.985,0.0],[177.093,-37.978,5.4196],[177.0584,-37.971,0.5777],[177.0389,-37.9642,0.6534],[177.0233,-37.9565,2.2894],[177.0228,-37.9553,6.5682],[177.0254,-37.953,2.0047],[177.0193,-37.9507,39.8673],[177.0198,-37.9474,55.0829],[177.022,-37.946,2.0755],[177.0192,-37.9436,60.7611],[177.018,-37.9393,1.6772],[177.0165,-37.9399,46.0676],[177.0167,-37.9383,1.6772],[177.0156,-37.9403,57.907],[177.0138,-37.938,0.0],[177.0107,-37.9442,0.0],[177.0014,-37.9427,1.8389],[176.9317,-37.9169,3.0214],[176.8801,-37.9088,2.4616],[176.8186,-37.8936,4.6192],[176.7897,-37.8908,0.0],[176.753,-37.8841,0.0],[176.6625,-37.8547,0.0],[176.6021,-37.8296,2.3096],[176.5707,-37.8134,5.8733],[176.5074,-37.7765,6.0209],[176.4791,-37.7555,0.0],[176.4815,-37.7591,1.0037],[176.4923,-37.769,1.3599],[176.4941,-37.7733,1.0202],[176.497,-37.7732,1.0714],[176.4939,-37.7738,1.0202],[176.4961,-37.7778,0.5431],[176.4947,-37.779,0.6484],[176.4958,-37.7778,0.5431],[176.4944,-37.7788,0.6484],[176.492,-37.7762,0.0],[176.4898,-37.7769,0.7123],[176.4913,-37.779,1.4333],[176.4903,-37.7787,1.4333],[176.4857,-37.777,0.856],[176.4849,-37.7756,1.1925],[176.4863,-37.7739,0.0],[176.4846,-37.7736,0.3331],[176.4807,-37.7747,1.0565],[176.4791,-37.7774,2.0605],[176.4736,-37.7723,0.1834],[176.4737,-37.7734,0.8456],[176.4689,-37.7745,2.3056],[176.4693,-37.7687,0.0],[176.4734,-37.7612,14.5023],[176.4766,-37.7618,0.4483],[176.4776,-37.7594,0.574],[176.4795,-37.7622,0.0],[176.4799,-37.7606,0.0],[176.4774,-37.7536,0.0],[176.4681,-37.7408,0.4816],[176.4626,-37.751,1.9075],[176.4566,-37.754,0.0],[176.4543,-37.7573,1.4846],[176.4518,-37.7568,0.0],[176.4469,-37.7589,0.4247],[176.4465,-37.7614,2.1123],[176.4438,-37.7609,0.0],[176.4416,-37.7626,0.0],[176.4394,-37.7606,0.0],[176.4312,-37.7625,0.2854],[176.4282,-37.7608,0.0],[176.4265,-37.7571,0.0],[176.4216,-37.7548,0.6568],[176.4178,-37.7493,1.363],[176.4413,-37.7548,0.0],[176.4541,-37.7548,1.2771],[176.4349,-37.7528,0.0],[176.4022,-37.7433,11.9076],[176.3485,-37.7177,0.0],[176.2913,-37.6982,6.8582],[176.2503,-37.6802,4.5765],[176.2083,-37.6537,1.9259],[176.1913,-37.6401,2.2884],[176.1867,-37.6347,8.0199],[176.1776,-37.6313,7.3077],[176.1738,-37.6251,10.6629],[176.1686,-37.6268,26.4515],[176.1662,-37.6291,0.0],[176.1664,-37.6314,0.0],[176.1688,-37.636,14.2675],[176.1759,-37.6338,2.8679],[176.1815,-37.6399,3.3449],[176.183,-37.6494,5.3967],[176.1814,-37.6585,5.5207],[176.1823,-37.6615,2.4703],[176.1796,-37.6686,1.6798],[176.1856,-37.6721,1.2094],[176.1944,-37.681,0.8788],[176.1969,-37.6811,0.4429],[176.1943,-37.68,0.8788],[176.1982,-37.6796,0.0],[176.2004,-37.6767,0.806],[176.2026,-37.6765,0.8034],[176.2044,-37.6784,0.2492],[176.204,-37.6821,1.7112],[176.2055,-37.6848,0.0],[176.2047,-37.6882,1.4214],[176.1983,-37.6938,1.4252],[176.1896,-37.6882,2.2907],[176.1848,-37.688,1.2309],[176.1861,-37.6861,0.0],[176.1812,-37.6917,8.2983],[176.1831,-37.6968,9.9473],[176.1917,-37.7054,0.5674],[176.2127,-37.6958,3.7904],[176.2093,-37.6939,1.1028],[176.208,-37.6948,8.8828],[176.2077,-37.6913,1.1372],[176.2151,-37.6863,1.023],[176.2194,-37.6921,0.2033],[176.2315,-37.693,2.1012],[176.2372,-37.6965,4.2283],[176.2356,-37.7008,2.8119],[176.2312,-37.7047,10.1618],[176.2262,-37.704,0.0],[176.2278,-37.7073,0.8],[176.2319,-37.7079,15.7254],[176.2355,-37.7117,1.0419],[176.2331,-37.7118,1.0235],[176.2308,-37.7142,5.7214],[176.2291,-37.7116,0.8306],[176.2285,-37.7141,0.8933],[176.2257,-37.715,3.7315],[176.2218,-37.7113,4.0932],[176.2191,-37.714,1.3721],[176.2162,-37.7129,0.0],[176.2135,-37.7152,15.8125],[176.2138,-37.7127,5.8257],[176.2083,-37.7118,2.5334],[176.202,-37.7135,3.3748],[176.203,-37.7159,0.195],[176.1999,-37.7193,5.3043],[176.2004,-37.7218,9.6169],[176.1998,-37.7234,8.1382],[176.1979,-37.7231,6.584],[176.1998,-37.7226,9.6169],[176.1993,-37.721,0.0],[176.1973,-37.7208,0.0],[176.1908,-37.7251,6.8378],[176.1888,-37.7242,0.4396],[176.1844,-37.7261,3.216],[176.1821,-37.7235,4.0208],[176.1753,-37.7246,6.4795],[176.1795,-37.7233,1.116],[176.1838,-37.7164,1.3991],[176.1916,-37.7171,0.0],[176.1906,-37.7131,12.4981],[176.1852,-37.7083,8.2954],[176.1783,-37.7154,3.1191],[176.1669,-37.7221,7.1059],[176.1651,-37.7157,1.4606],[176.1671,-37.7047,1.3049],[176.1659,-37.6973,2.5288],[176.1706,-37.6886,0.0],[176.1706,-37.6764,0.0],[176.1746,-37.6583,6.1941],[176.1679,-37.6595,0.0],[176.1642,-37.6711,0.0],[176.1589,-37.6672,1.517],[176.152,-37.665,2.0764],[176.1245,-37.6598,0.0],[176.123,-37.6626,0.0],[176.1174,-37.6652,10.0654],[176.1139,-37.6715,3.3886],[176.1198,-37.6731,0.0],[176.1269,-37.6707,3.3036],[176.1288,-37.6725,1.1545],[176.1223,-37.6773,1.014],[176.1216,-37.6831,1.5986],[176.1153,-37.6785,1.6655],[176.1127,-37.6783,5.6686],[176.1043,-37.681,0.0],[176.1017,-37.6837,11.1269],[176.099,-37.6836,1.3371],[176.0955,-37.6871,1.3537],[176.0932,-37.6861,0.6496],[176.0962,-37.6824,0.9456],[176.0946,-37.6824,0.9456],[176.1009,-37.6794,0.0],[176.1021,-37.6773,0.0],[176.0987,-37.6741,0.0],[176.0948,-37.6745,0.0],[176.0956,-37.6701,0.5564],[176.0927,-37.6656,0.2967],[176.093,-37.6632,0.0],[176.0856,-37.664,0.8266],[176.0736,-37.6578,0.0],[176.0638,-37.657,5.1531],[176.0601,-37.659,0.8486],[176.0631,-37.6585,1.7303],[176.0654,-37.6602,1.9163],[176.0649,-37.665,6.0023],[176.0688,-37.6695,3.0468],[176.0663,-37.6708,5.6829],[176.0589,-37.6621,3.2238],[176.0549,-37.6612,9.2841],[176.0533,-37.6624,9.9843],[176.0554,-37.6603,0.0],[176.049,-37.6596,0.6446],[176.0503,-37.6651,2.7525],[176.0537,-37.6698,1.4648],[176.0563,-37.6706,9.8558],[176.0534,-37.6724,6.6331],[176.0499,-37.6721,4.9192],[176.0534,-37.6746,12.6726],[176.0535,-37.6796,14.5285],[176.0515,-37.6798,10.8262],[176.0515,-37.6816,11.0967],[176.0488,-37.6789,4.1445],[176.0459,-37.6796,5.74],[176.0442,-37.6828,1.681],[176.0411,-37.6805,2.1236],[176.0355,-37.6839,3.9221],[176.0333,-37.6834,7.2131],[176.0384,-37.6808,0.9324],[176.0363,-37.6804,1.9009],[176.0367,-37.6791,23.0303],[176.046,-37.676,5.6487],[176.0465,-37.6725,16.969],[176.0503,-37.6692,1.5807],[176.0488,-37.6684,7.3999],[176.0445,-37.671,2.257],[176.0408,-37.6686,8.1643],[176.0448,-37.6651,10.9802],[176.044,-37.6616,5.8887],[176.0493,-37.657,0.0],[176.0493,-37.6548,0.0],[176.0467,-37.6527,0.0],[176.0428,-37.6532,0.0],[176.0447,-37.6541,1.6334],[176.0439,-37.656,2.6869],[176.0412,-37.6561,2.1958],[176.0398,-37.661,5.1853],[176.0366,-37.6614,2.0129],[176.0354,-37.6632,9.0542],[176.0335,-37.661,0.0],[176.0305,-37.6636,1.6522],[176.0314,-37.6646,19.7643],[176.0257,-37.6654,4.0603],[176.0242,-37.6682,5.7635],[176.0231,-37.6674,1.9789],[176.025,-37.6644,10.4474],[176.0314,-37.6616,2.9869],[176.0301,-37.6595,8.0321],[176.0323,-37.6577,12.4068],[176.0374,-37.656,7.7862],[176.038,-37.6516,7.9838],[176.0361,-37.6516,8.8644],[176.0359,-37.6496,12.4085],[176.0421,-37.6453,2.3516],[176.0426,-37.6408,15.4948],[176.0479,-37.6345,2.5898],[176.0538,-37.6329,0.0],[176.0525,-37.6329,2.3212],[176.0524,-37.6303,2.902],[176.0536,-37.6263,7.689],[176.0468,-37.6284,1.3962],[176.0368,-37.6382,6.0838],[176.0216,-37.6391,2.4583],[176.0196,-37.6461,1.0309],[176.0148,-37.6448,12.9985],[176.0087,-37.6518,3.1337],[176.0094,-37.6482,8.2207],[176.0119,-37.646,10.7051],[176.0125,-37.6416,1.1945],[176.0148,-37.6413,0.9966],[176.0164,-37.6391,1.0065],[176.0162,-37.6338,2.1933],[176.0112,-37.6355,4.5868],[176.0156,-37.633,2.1933],[176.0163,-37.6246,0.0],[176.0153,-37.6244,0.0],[176.0116,-37.6269,8.8788],[176.007,-37.6269,5.1978],[175.998,-37.6337,1.8778],[175.999,-37.6351,0.608],[175.9976,-37.645,4.7592],[175.9885,-37.6447,8.9852],[175.9866,-37.6464,8.2043],[175.991,-37.6411,4.4685],[175.9902,-37.6369,0.9188],[175.9917,-37.6326,0.0],[175.987,-37.6271,3.5607],[175.9824,-37.6305,4.7378],[175.981,-37.6274,5.7622],[175.9754,-37.6239,2.192],[175.9733,-37.6249,12.5253],[175.972,-37.627,2.3352],[175.974,-37.6282,4.5571],[175.973,-37.631,1.1975],[175.9742,-37.6322,2.569],[175.9703,-37.6369,14.3127],[175.9692,-37.6369,14.3127],[175.968,-37.6305,3.4153],[175.9606,-37.6319,3.1761],[175.9599,-37.634,1.2641],[175.9585,-37.6323,20.1483],[175.9651,-37.6285,1.1112],[175.9666,-37.6246,12.3033],[175.9693,-37.6242,1.2619],[175.9732,-37.6176,4.1491],[175.9789,-37.6175,1.6587],[175.9818,-37.6113,0.8707],[175.9814,-37.6082,1.7487],[175.9789,-37.6068,3.5542],[175.9745,-37.6074,0.7076],[175.9672,-37.6059,0.5467],[175.9663,-37.6078,0.9141],[175.9622,-37.6097,3.122],[175.9576,-37.6066,0.7476],[175.9575,-37.6113,0.9873],[175.9565,-37.6073,1.5485],[175.9596,-37.6039,0.6276],[175.9578,-37.6013,1.0357],[175.9588,-37.5985,0.8676],[175.9617,-37.5971,0.7719],[175.9695,-37.5975,0.8289],[175.978,-37.5893,1.0759],[175.9789,-37.5863,0.6914],[175.9739,-37.5802,1.2613],[175.9744,-37.5782,1.3717],[175.9722,-37.5737,0.5423],[175.9688,-37.5765,0.0],[175.966,-37.5835,2.7721],[175.9583,-37.5864,1.736],[175.9522,-37.5945,1.0311],[175.948,-37.5944,4.1764],[175.9451,-37.5962,3.2724],[175.9451,-37.5953,3.2724],[175.9477,-37.5932,4.1764],[175.9492,-37.5931,1.7258],[175.9482,-37.5914,5.663],[175.9505,-37.5921,1.2595],[175.9453,-37.5828,1.1762],[175.94,-37.5806,1.0806],[175.941,-37.58,1.2013],[175.9382,-37.58,1.0806],[175.9466,-37.5733,0.2828],[175.943,-37.5688,0.0],[175.9413,-37.5694,0.0],[175.9416,-37.5722,0.7138],[175.9309,-37.5796,2.5481],[175.9296,-37.583,6.9482],[175.925,-37.5824,1.2066],[175.9231,-37.5792,1.3005],[175.9251,-37.577,0.7442],[175.9225,-37.5757,1.8957],[175.9271,-37.5727,5.9205],[175.9268,-37.5703,1.749],[175.9287,-37.5692,1.6428],[175.9299,-37.5698,1.3511],[175.929,-37.5705,1.4835],[175.9314,-37.5702,1.3511],[175.9374,-37.5637,5.325],[175.9342,-37.561,0.1761],[175.9302,-37.5626,3.7541],[175.9322,-37.5609,1.2245],[175.9283,-37.5592,4.6224],[175.9369,-37.5588,3.4045],[175.9457,-37.555,2.3914],[175.9507,-37.558,0.0],[175.9533,-37.554,0.0],[175.9512,-37.5469,0.0],[175.9465,-37.5426,0.0],[175.94,-37.5405,1.0872],[175.9388,-37.5409,1.0872],[175.9399,-37.5445,2.0742],[175.9356,-37.5427,1.1362],[175.9313,-37.5436,3.483],[175.9323,-37.542,1.4363],[175.9354,-37.5403,2.8881],[175.9348,-37.5368,0.9221],[175.9237,-37.5389,3.5537],[175.9226,-37.5415,1.3994],[175.9198,-37.5419,0.8348],[175.9182,-37.5407,1.6774],[175.919,-37.5343,3.1474],[175.9171,-37.5346,6.5648],[175.9178,-37.5336,3.1474],[175.938,-37.53,5.4168],[175.9452,-37.53,7.3139],[175.9467,-37.5315,0.0],[175.9495,-37.5265,12.3373],[175.9596,-37.5198,0.0],[175.9677,-37.5167,8.5906],[175.9753,-37.5167,0.0],[175.975,-37.5156,29.7032],[175.9781,-37.5146,0.0],[175.9758,-37.5071,10.3609],[175.9723,-37.5056,1.7099],[175.9686,-37.5008,9.5037],[175.9675,-37.4957,2.6801],[175.9612,-37.495,4.4841],[175.9502,-37.4846,1.3548],[175.9482,-37.4853,0.0],[175.9503,-37.4851,1.3548],[175.9498,-37.487,0.0],[175.9538,-37.489,3.2591],[175.9535,-37.4938,1.3497],[175.9551,-37.4972,2.3892],[175.951,-37.4983,3.1288],[175.9476,-37.4967,3.7974],[175.9418,-37.5011,9.8358],[175.9425,-37.4999,8.2257],[175.9402,-37.4976,0.0],[175.9367,-37.5,6.6522],[175.9317,-37.5003,6.7505],[175.9315,-37.498,7.1085],[175.9297,-37.4973,2.8313],[175.9314,-37.4944,1.03],[175.9286,-37.494,3.9356],[175.9307,-37.4934,1.03],[175.9321,-37.4898,1.0605],[175.9374,-37.4916,1.1876],[175.9411,-37.4894,14.3063],[175.9427,-37.4864,2.4778],[175.9449,-37.4864,0.0],[175.9469,-37.4832,3.6283],[175.9465,-37.4788,4.1715],[175.9419,-37.4825,11.5117],[175.9417,-37.4813,11.5117],[175.9386,-37.4818,7.3384],[175.9363,-37.4836,11.5415],[175.9362,-37.4808,0.4323],[175.9389,-37.4802,0.2195],[175.9382,-37.4773,0.2232],[175.936,-37.4774,2.6086],[175.9383,-37.4654,3.9687],[175.9408,-37.4642,3.3182],[175.945,-37.4579,5.5697],[175.9569,-37.4488,4.6097],[175.9624,-37.4478,9.8107],[175.9691,-37.4502,0.0],[175.9676,-37.4457,1.0696],[175.9592,-37.4387,5.0716],[175.96,-37.4366,2.9177],[175.9583,-37.4349,10.9424],[175.955,-37.4388,11.1158],[175.9518,-37.4403,0.8415],[175.9486,-37.4397,2.1956],[175.9557,-37.434,0.9684],[175.9595,-37.4343,2.898],[175.9604,-37.4369,2.9177],[175.9673,-37.4416,1.0799],[175.9738,-37.451,1.869],[175.9729,-37.456,0.0],[175.9766,-37.4608,0.0],[175.9774,-37.4632,28.695],[175.9763,-37.4646,0.0],[175.9786,-37.4691,11.6952],[175.9835,-37.4665,3.1311],[175.9857,-37.4667,28.6021],[175.9859,-37.469,8.9791],[175.9912,-37.465,54.5345],[175.9772,-37.4512,0.0],[175.9527,-37.4192,0.0],[175.9409,-37.4011,2.0925],[175.9385,-37.3941,42.4337],[175.9418,-37.3933,19.4812],[175.9407,-37.3908,34.6984],[175.9433,-37.3883,0.0],[175.94,-37.3865,40.6116],[175.937,-37.3815,10.9694],[175.94,-37.3732,70.9549],[175.9289,-37.3761,178.7644],[175.9228,-37.3742,281.632],[175.9229,-37.376,262.1975],[175.9217,-37.3752,262.1975],[175.9166,-37.3793,239.0818],[175.9184,-37.3799,225.2344],[175.9169,-37.3815,277.1689],[175.9184,-37.3827,246.0911],[175.9214,-37.3813,228.2065],[175.926,-37.3833,156.6776],[175.9259,-37.3865,198.567],[175.921,-37.3869,253.269],[175.922,-37.392,244.1529],[175.9198,-37.3921,234.418],[175.9168,-37.3986,188.7509],[175.9172,-37.4028,187.6004],[175.9245,-37.4044,140.7805],[175.9052,-37.4041,122.735],[175.9039,-37.4057,116.4029],[175.9042,-37.4101,155.9908],[175.9064,-37.41,154.6259],[175.9067,-37.4162,127.0838],[175.9057,-37.4163,125.1588],[175.9089,-37.4197,138.2239],[175.9083,-37.4226,173.7071],[175.9136,-37.425,203.9467],[175.9101,-37.4303,210.6197],[175.8908,-37.4437,106.1421],[175.8824,-37.44,179.7879],[175.8775,-37.4432,129.3732],[175.8788,-37.4461,137.9164],[175.8775,-37.4511,127.6305],[175.8754,-37.4495,124.6779],[175.8609,-37.4611,163.291],[175.872,-37.4735,198.9226],[175.8806,-37.4695,131.925],[175.8961,-37.4867,155.2291],[175.8993,-37.4956,136.66],[175.8707,-37.4956,148.5477],[175.8707,-37.5005,134.7797],[175.8656,-37.5004,196.1206],[175.8576,-37.4973,345.6135],[175.8437,-37.487,382.5406],[175.8328,-37.4716,298.1856],[175.8135,-37.4849,518.6398],[175.8167,-37.4887,483.5338],[175.8179,-37.4929,474.4504],[175.8169,-37.4955,479.8039],[175.8085,-37.5011,500.7001],[175.806,-37.5107,570.4309],[175.8091,-37.5137,568.9805],[175.8233,-37.5158,589.6404],[175.8246,-37.5201,557.8992],[175.8237,-37.5268,718.6422],[175.829,-37.5318,577.1237],[175.831,-37.5368,600.0076],[175.8266,-37.5457,633.629],[175.8129,-37.5552,663.7358],[175.8117,-37.5643,787.4271],[175.8217,-37.5716,736.5317],[175.823,-37.5826,647.1131],[175.8345,-37.5983,517.3342],[175.8369,-37.6066,451.1736],[175.8389,-37.6075,511.5215],[175.8415,-37.6133,601.6669],[175.8398,-37.6183,598.0917],[175.8408,-37.6206,578.3728],[175.8367,-37.6228,539.7688],[175.8358,-37.6267,644.4369],[175.8336,-37.6275,695.3596],[175.8371,-37.6322,617.5615],[175.8375,-37.6354,529.8456],[175.8415,-37.6388,518.1154],[175.8408,-37.6419,568.4228],[175.8432,-37.6432,512.0676],[175.8451,-37.6469,489.3423],[175.8445,-37.6486,487.513],[175.8481,-37.6519,510.9021],[175.8521,-37.662,785.6152],[175.8563,-37.6628,801.5032],[175.8652,-37.6681,819.6627],[175.8648,-37.6722,819.4907],[175.8709,-37.6775,806.834],[175.8725,-37.6872,760.0731],[175.8795,-37.6993,647.4583],[175.8897,-37.7011,490.3081],[175.8899,-37.7092,522.6252],[175.8921,-37.7112,532.2125],[175.8968,-37.7118,509.8231],[175.898,-37.7142,490.1337],[175.8957,-37.7167,503.6457],[175.9002,-37.7184,513.0096],[175.8981,-37.7194,510.4145],[175.8978,-37.7213,509.9882],[175.8996,-37.7222,511.3889],[175.8952,-37.7242,484.6845],[175.9277,-37.776,544.4175],[175.9059,-37.8286,727.9532],[175.935,-37.8426,522.6218],[175.9281,-37.8472,546.8506],[175.9279,-37.8521,560.5627],[175.9319,-37.8616,549.3895],[175.9399,-37.868,499.9478],[175.9365,-37.8701,514.6167],[175.9379,-37.8737,567.2107],[175.9362,-37.8814,627.88],[175.9396,-37.8826,615.1753],[175.943,-37.8791,611.0831],[175.9478,-37.8788,592.0181],[175.9609,-37.8894,479.6003],[175.9677,-37.8833,432.6346],[175.9718,-37.8828,389.7244],[175.9542,-37.9019,491.4176],[175.958,-37.9058,503.028],[175.9772,-37.9137,422.088],[175.9483,-37.9222,528.9187],[175.9413,-37.9282,533.4558],[175.9422,-37.9356,556.1863],[175.9494,-37.9567,555.3348],[175.9533,-37.9628,539.4326],[175.9593,-37.9675,505.1183],[175.9653,-37.9655,506.9825],[175.9711,-37.9702,520.9934],[175.9726,-37.9745,522.2342],[175.9701,-37.9835,613.1882],[175.9715,-37.9864,635.9507],[176.0132,-37.9935,570.5463],[176.0229,-37.9989,573.8287],[176.0328,-38.0083,571.6085],[176.0545,-38.0194,564.7075],[176.0622,-38.0268,572.6089],[175.9991,-38.1315,523.6631],[175.9818,-38.1386,404.1497],[175.9845,-38.142,345.8654],[176.0197,-38.1425,548.9321],[176.022,-38.1393,559.9472],[176.0307,-38.1392,574.532],[176.0307,-38.1666,553.9214],[176.0583,-38.1667,613.2113],[176.0583,-38.1642,600.2585],[176.0887,-38.1643,652.9938],[176.09,-38.167,657.3765],[176.1101,-38.1669,644.3419],[176.1503,-38.2182,479.1332],[176.1205,-38.2679,627.0029],[176.116,-38.2691,455.899],[176.1293,-38.2732,685.0859],[176.1087,-38.2758,358.4955],[176.1135,-38.2778,370.8731],[176.114,-38.2804,355.8837],[176.1197,-38.2802,362.6453],[176.121,-38.2818,355.9778],[176.123,-38.2809,371.5139],[176.1299,-38.2828,355.7148],[176.1312,-38.2854,345.9096],[176.133,-38.2841,351.1355],[176.1355,-38.2878,342.2986],[176.1377,-38.2876,352.907],[176.1361,-38.2926,325.3558],[176.1378,-38.2943,340.1389],[176.1281,-38.2969,309.7462],[176.1301,-38.2978,310.9757],[176.1308,-38.2998,306.2992],[176.1292,-38.3016,318.2344],[176.1309,-38.3014,306.6091],[176.1311,-38.3036,313.5389],[176.1265,-38.3088,316.428],[176.1171,-38.3146,319.6454],[176.1097,-38.3134,351.8178],[176.0999,-38.3171,408.763],[176.0935,-38.3175,370.4984],[176.0886,-38.322,337.1993],[176.0735,-38.3269,290.657],[176.0642,-38.3348,274.2924],[176.0586,-38.3345,277.2111],[176.063,-38.3404,262.1225],[176.0606,-38.3429,266.1909],[176.0555,-38.3431,260.4291],[176.057,-38.3453,268.1797],[176.0488,-38.3498,264.062],[176.0501,-38.3544,267.8365],[176.0477,-38.3542,258.5597],[176.0465,-38.3564,260.7111],[176.0399,-38.3587,255.9586],[176.0376,-38.3582,253.5],[176.0311,-38.3636,286.631],[176.0238,-38.3651,253.5],[176.0248,-38.3686,255.2923],[176.0272,-38.3691,254.1252],[176.0275,-38.3733,268.6714],[176.0313,-38.3802,266.1775],[176.026,-38.3849,253.5],[176.0301,-38.3865,255.2417],[176.0427,-38.3852,253.5],[176.0529,-38.3895,258.4466],[176.0616,-38.3968,255.559],[176.0631,-38.3961,253.5],[176.0655,-38.398,278.6503],[176.0684,-38.4013,256.9691],[176.0689,-38.4056,261.0384],[176.0739,-38.4079,274.2216],[176.0829,-38.4086,270.108],[176.088,-38.4067,268.5618],[176.0967,-38.4123,286.0],[176.1058,-38.4134,286.0],[176.1117,-38.4112,286.0],[176.1188,-38.4133,286.0],[176.13,-38.4259,286.0],[176.132,-38.4327,286.0],[176.1392,-38.4389,286.0],[176.1376,-38.4419,286.0],[176.1423,-38.451,286.0],[176.1415,-38.4586,286.0],[176.1428,-38.4617,299.6558],[176.1465,-38.4636,286.0],[176.147,-38.4661,286.0],[176.1451,-38.4758,286.0],[176.1479,-38.4873,286.0],[176.1539,-38.4904,290.7363],[176.1546,-38.4931,289.7843],[176.1601,-38.4914,294.1621],[176.1723,-38.4981,289.3012],[176.1703,-38.5041,328.8055],[176.1779,-38.5182,296.8513],[176.1836,-38.5192,290.227],[176.1915,-38.5173,288.9369],[176.2025,-38.5234,286.7158],[176.2136,-38.5194,291.5515],[176.2239,-38.5191,290.625],[176.2266,-38.5219,290.5967],[176.2292,-38.5222,286.9898],[176.232,-38.5182,288.9441],[176.2405,-38.5138,291.724],[176.2461,-38.5086,291.5341],[176.2547,-38.5082,296.6453],[176.2601,-38.5037,293.0634],[176.2647,-38.5052,286.0],[176.2768,-38.489,289.7728],[176.29,-38.4854,289.9519],[176.2955,-38.4853,286.6388],[176.2994,-38.4881,287.9911],[176.3031,-38.4854,288.0],[176.3086,-38.4923,287.8311],[176.3092,-38.4977,288.2239],[176.3151,-38.4985,287.7869],[176.3164,-38.5046,293.4174],[176.3212,-38.5022,293.7177],[176.3232,-38.5072,292.692],[176.3179,-38.5081,288.2715],[176.3186,-38.513,289.1859],[176.311,-38.5229,287.5],[176.3113,-38.5271,290.4815],[176.3025,-38.5341,288.8203],[176.3041,-38.5362,287.7162],[176.2984,-38.5374,288.6057],[176.304,-38.547,289.8906],[176.2999,-38.551,293.569],[176.3022,-38.553,328.0992],[176.359,-38.5687,446.0095],[176.3868,-38.5065,373.713],[176.4549,-38.5275,541.9175],[176.4598,-38.5315,528.647],[176.4685,-38.5309,527.7029],[176.4764,-38.5333,554.7657],[176.4775,-38.5281,553.2451],[176.4747,-38.5166,550.7343],[176.4763,-38.5101,550.548],[176.5022,-38.5108,549.846],[176.5028,-38.5265,531.0601],[176.5334,-38.5351,477.4308],[176.5295,-38.5443,476.3384],[176.5364,-38.5523,435.9831],[176.5432,-38.5544,425.6794],[176.5407,-38.5602,449.8565],[176.553,-38.5778,434.4008],[176.552,-38.5808,433.8163],[176.6056,-38.6087,362.3724],[176.612,-38.6072,362.5019],[176.6122,-38.6027,376.5068],[176.6173,-38.5975,398.9136],[176.6178,-38.5947,358.5544],[176.646,-38.6059,644.6839],[176.6175,-38.7013,799.6496],[176.6242,-38.7543,787.8726],[176.6372,-38.7633,775.2739],[176.6482,-38.783,811.4421],[176.6977,-38.856,1174.4438],[176.7042,-38.8451,1214.5172],[176.7002,-38.8379,1084.6842],[176.7041,-38.8271,1147.8018],[176.7017,-38.8237,1097.8521],[176.696,-38.8216,1170.8392],[176.6965,-38.8109,1050.3915],[176.692,-38.8063,1138.5454],[176.7002,-38.8035,933.9163],[176.7017,-38.8006,955.6808],[176.7,-38.7941,974.5677],[176.7079,-38.789,1059.9905],[176.7046,-38.787,979.8342],[176.7036,-38.7838,1142.6351],[176.707,-38.7723,920.6908],[176.7097,-38.769,902.6657],[176.7104,-38.7586,976.2261],[176.7071,-38.7554,988.0886],[176.7111,-38.7482,991.3754],[176.7103,-38.742,940.0208],[176.714,-38.736,917.7017],[176.7141,-38.7279,868.5709],[176.7173,-38.7245,898.1897],[176.7271,-38.7218,954.2789],[176.7343,-38.7282,949.6057],[176.7429,-38.7278,986.265],[176.7445,-38.7244,933.836],[176.7428,-38.719,956.4304],[176.7448,-38.7155,1033.0262],[176.7442,-38.7119,1034.0972],[176.748,-38.7097,1042.2185],[176.7525,-38.7108,1059.5699],[176.7592,-38.7089,1011.7403],[176.7672,-38.7003,957.6346],[176.7654,-38.6961,840.6708],[176.7668,-38.6893,920.8222],[176.7733,-38.6845,931.3824],[176.7858,-38.6809,987.0397],[176.7944,-38.6822,982.8448],[176.7994,-38.6805,951.9833],[176.8036,-38.6816,809.9088],[176.8096,-38.6864,734.7411],[176.8158,-38.6869,888.6868],[176.8196,-38.6908,1078.547],[176.8225,-38.6914,1110.4418],[176.8329,-38.6799,940.7109],[176.84,-38.6782,917.2237],[176.8456,-38.6725,1002.3582],[176.8565,-38.6725,859.4335],[176.8596,-38.6794,957.8066],[176.8614,-38.6801,994.8835],[176.8765,-38.668,851.387],[176.8868,-38.6665,807.6359],[176.8934,-38.6702,812.6846],[176.8998,-38.6828,650.8414],[176.914,-38.6893,865.3766],[176.9243,-38.691,894.5404],[176.9292,-38.6982,1034.0575],[176.9327,-38.6984,1078.312],[176.9434,-38.6949,1111.6555],[176.9542,-38.6975,994.9546],[176.9619,-38.6968,1085.7053],[176.9642,-38.6983,1130.5553],[176.9655,-38.7036,1114.7837],[176.9716,-38.7047,1168.4307],[176.9856,-38.6942,1163.488],[176.9915,-38.6937,1121.2229],[177.0064,-38.6759,1066.0066],[177.017,-38.6672,1028.0358],[177.0212,-38.6597,1087.4885],[177.022,-38.6497,975.7407],[177.0255,-38.6458,1012.8971],[177.027,-38.6395,1054.6738],[177.0356,-38.6286,921.7439],[177.0418,-38.6266,1080.9954],[177.0473,-38.6204,1099.4885],[177.0608,-38.6221,1143.6406],[177.0655,-38.6192,1153.1249],[177.0714,-38.6125,1131.5072],[177.0771,-38.6106,1089.572],[177.0795,-38.6115,1069.1448],[177.0819,-38.6167,955.7803],[177.0859,-38.6205,923.7337],[177.0927,-38.6183,972.5942],[177.0955,-38.6189,988.0508],[177.0974,-38.6214,1093.2822],[177.0966,-38.6263,1254.3571],[177.0997,-38.6274,1272.9948],[177.1018,-38.6242,1237.3098],[177.1033,-38.6103,1195.771],[177.106,-38.6041,1150.6923],[177.1163,-38.5932,1223.5521],[177.1199,-38.5854,1258.3329],[177.1382,-38.5768,1352.8615],[177.1405,-38.5776,1344.431],[177.1456,-38.5835,1266.933],[177.1487,-38.5842,1274.7361],[177.1525,-38.5838,1210.5132],[177.1595,-38.578,1006.3024],[177.167,-38.5778,906.0779],[177.164,-38.5729,909.8856],[177.1663,-38.5678,896.2778],[177.177,-38.5609,1041.3127],[177.1892,-38.537,1171.016],[177.1965,-38.5326,1246.3405],[177.2016,-38.5254,1273.6775]]],
[[[176.9677,-37.8472,57.4372],[176.9646,-37.8466,1.2231],[176.9615,-37.8482,0.0],[176.9618,-37.8501,2.4873],[176.9594,-37.853,0.1001],[176.9607,-37.8563,0.0],[176.9658,-37.8557,12.054],[176.9679,-37.8589,3.7961],[176.9735,-37.8608,17.9797],[176.9806,-37.8579,71.1008],[176.9852,-37.8595,4.3065],[176.9871,-37.8573,41.4696],[176.985,-37.8551,13.4909],[176.9788,-37.8554,109.7341],[176.9758,-37.8525,19.2388],[176.9685,-37.8514,68.1962],[176.9664,-37.85,127.3823],[176.9677,-37.8472,57.4372]]],
[[[177.1343,-38.0202,0.0],[177.1339,-38.0177,0.0],[177.1317,-38.019,0.0],[177.134,-38.0224,0.0],[177.1343,-38.0202,0.0]]],
[[[177.1348,-38.0139,0.0],[177.1392,-38.0111,0.1606],[177.1383,-38.0065,0.0],[177.1305,-38.004,0.0],[177.1266,-38.0077,0.0],[177.1348,-38.0139,0.0]]],
[[[177.1243,-37.9954,0.4003],[177.121,-37.9964,1.321],[177.1215,-37.998,4.704],[177.1198,-37.9965,1.321],[177.1198,-37.9986,3.9572],[177.1143,-37.9965,0.4612],[177.1176,-37.999,5.1399],[177.1162,-38.0026,1.5826],[177.1129,-38.0039,0.0],[177.1131,-38.0068,2.5619],[177.1153,-38.0073,2.6252],[177.117,-38.0058,20.7563],[177.1188,-38.0009,8.1441],[177.1207,-38.0052,0.0],[177.1249,-38.0036,8.4126],[177.1254,-37.9968,0.0],[177.1227,-37.9959,0.5889],[177.1243,-37.9954,0.4003]]],
[[[176.8828,-37.8347,0.0],[176.8875,-37.8308,0.0],[176.8864,-37.8297,1.0654],[176.8819,-37.8319,0.3735],[176.8813,-37.8341,0.6039],[176.8828,-37.8347,0.0]]],
[[[176.8734,-37.8316,0.0],[176.8772,-37.8283,0.5629],[176.8769,-37.8264,0.1024],[176.8706,-37.83,9.2931],[176.8712,-37.8309,9.2931],[176.8686,-37.8306,0.0],[176.8697,-37.8336,0.0],[176.8734,-37.8316,0.0]]],
[[[176.4778,-37.7751,1.5283],[176.478,-37.7756,1.5283],[176.4786,-37.7753,1.5283],[176.4784,-37.7748,1.5283],[176.4778,-37.7751,1.5283]]],
[[[176.4444,-37.7595,0.0],[176.4447,-37.7597,0.0],[176.4449,-37.7593,0.0],[176.4445,-37.7593,0.0],[176.4444,-37.7595,0.0]]],
[[[177.1542,-37.9981,0.0],[177.1465,-37.9987,0.0],[177.1439,-38.0008,0.0],[177.147,-38.0017,0.0],[177.1473,-37.9997,1.5004],[177.1542,-37.9981,0.0]]],
[[[177.0725,-37.9841,6.6503],[177.0677,-37.9858,0.0],[177.0691,-37.9872,0.0],[177.071,-37.9859,17.3058],[177.0727,-37.9869,1.7468],[177.0738,-37.9898,0.0],[177.0766,-37.9884,5.1198],[177.0781,-37.991,7.6754],[177.0821,-37.9899,0.0],[177.0832,-37.9932,0.0],[177.0848,-37.9917,0.0],[177.0794,-37.9869,19.5728],[177.0725,-37.9841,6.6503]]],
[[[177.1849,-37.512,47.7476],[177.1781,-37.511,3.3659],[177.1671,-37.5173,0.0],[177.1793,-37.5294,15.2848],[177.1872,-37.53,0.0],[177.1904,-37.5268,13.4358],[177.195,-37.5266,8.9838],[177.1935,-37.526,8.4533],[177.1942,-37.5245,8.5586],[177.1922,-37.5202,57.0032],[177.1944,-37.516,15.0481],[177.1879,-37.5153,33.2606],[177.1849,-37.512,47.7476]]],
[[[177.1356,-37.4772,0.0],[177.1336,-37.4753,0.0],[177.1319,-37.4772,0.0],[177.1329,-37.4784,0.0],[177.1356,-37.4772,0.0]]],
[[[176.1998,-37.721,11.8022],[176.1997,-37.721,11.8022],[176.1998,-37.7211,11.8022],[176.1999,-37.7211,11.8022],[176.1998,-37.721,11.8022]]],
[[[176.1997,-37.721,11.8022],[176.1995,-37.721,11.8022],[176.1996,-37.7211,11.8022],[176.1997,-37.721,11.8022]]],
[[[176.1682,-37.7116,0.0],[176.1687,-37.7119,0.0],[176.1703,-37.7103,1.7439],[176.1683,-37.711,0.0],[176.1682,-37.7116,0.0]]],
[[[176.1948,-37.6319,0.0],[176.1954,-37.6317,0.0],[176.1944,-37.63,0.0],[176.1935,-37.6312,0.0],[176.1948,-37.6319,0.0]]],
[[[176.1841,-37.632,0.8585],[176.1856,-37.6308,3.9246],[176.1859,-37.6292,0.0],[176.1844,-37.6305,0.0],[176.1841,-37.632,0.8585]]],
[[[176.0437,-37.6545,1.6334],[176.0436,-37.6545,1.6334],[176.0437,-37.6546,2.6869],[176.0437,-37.6545,1.6334]]],
[[[176.0425,-37.6428,3.494],[176.0426,-37.6432,8.5447],[176.0432,-37.6419,0.0],[176.0428,-37.6423,3.494],[176.0425,-37.6428,3.494]]],
[[[176.0434,-37.6415,0.0],[176.0434,-37.6414,0.0],[176.0432,-37.6417,0.0],[176.0433,-37.6417,0.0],[176.0434,-37.6415,0.0]]],
[[[176.0847,-37.635,0.0],[176.0789,-37.6348,6.823],[176.0684,-37.6374,2.5364],[176.0647,-37.6395,3.844],[176.0621,-37.6452,3.9542],[176.0644,-37.6484,1.8231],[176.0658,-37.6481,0.0],[176.0766,-37.6385,2.608],[176.0847,-37.635,0.0]]],
[[[176.1044,-37.6244,0.0],[176.1045,-37.6242,0.0],[176.1045,-37.6241,0.0],[176.1042,-37.6244,0.0],[176.1044,-37.6244,0.0]]],
[[[176.1039,-37.6251,0.0],[176.1036,-37.6294,3.0321],[176.1021,-37.6285,0.0],[176.107,-37.6393,5.2651],[176.1163,-37.6398,0.0],[176.1267,-37.6365,0.0],[176.1238,-37.635,1.9915],[176.1225,-37.6269,1.2192],[176.1201,-37.627,9.608],[176.1164,-37.6218,6.1871],[176.1088,-37.6192,17.6688],[176.0992,-37.612,0.804],[176.0963,-37.6117,15.4637],[176.0934,-37.6076,2.0939],[176.091,-37.6073,8.2163],[176.0904,-37.6092,22.0552],[176.0944,-37.6136,0.7246],[176.1053,-37.6198,1.9975],[176.1065,-37.6244,0.7029],[176.1046,-37.6267,1.1744],[176.1039,-37.6251,0.0]]],
[[[175.9986,-37.6245,0.0],[175.996,-37.6171,0.0],[175.9927,-37.6186,0.0],[175.9917,-37.6235,0.8959],[175.9902,-37.6244,0.3185],[175.9933,-37.6291,0.0],[175.9965,-37.6297,0.0],[175.9984,-37.6279,0.0],[175.9986,-37.6245,0.0]]],
[[[175.9472,-37.5639,7.185],[175.9475,-37.5631,7.185],[175.9462,-37.5631,0.0],[175.9462,-37.5633,0.0],[175.9472,-37.5639,7.185]]],
[[[176.5608,-37.6633,0.522],[176.5622,-37.6622,0.9749],[176.5617,-37.6581,0.0],[176.5581,-37.6625,1.4695],[176.5608,-37.6633,0.522]]],
[[[176.526,-37.6081,0.0],[176.5264,-37.609,0.0],[176.5275,-37.608,0.0],[176.5271,-37.6073,0.0],[176.526,-37.6081,0.0]]],
[[[176.0258,-37.5022,7.7615],[176.0133,-37.4856,0.0],[176.0071,-37.48,2.0892],[175.9946,-37.4743,0.0],[175.9868,-37.4726,0.0],[175.983,-37.4753,0.0],[175.9847,-37.4989,0.0],[175.9945,-37.5041,4.9917],[176.0102,-37.5214,1.0428],[176.0195,-37.5367,0.2596],[176.0231,-37.5401,3.161],[176.0298,-37.5456,1.5255],[176.0353,-37.5465,5.6215],[176.0421,-37.5516,5.5106],[176.054,-37.5658,3.4757],[176.0599,-37.5693,7.3774],[176.0654,-37.5686,1.5135],[176.0692,-37.5704,0.8038],[176.067,-37.5744,1.0408],[176.0729,-37.581,0.6871],[176.0659,-37.5835,3.9513],[176.0644,-37.5832,2.2401],[176.0669,-37.5808,1.4561],[176.057,-37.5727,0.0],[176.0493,-37.5729,0.6089],[176.0382,-37.568,3.9762],[176.0301,-37.5708,4.3915],[176.0283,-37.5869,0.0],[176.0337,-37.5964,4.8067],[176.034,-37.6007,5.2783],[176.0387,-37.5994,11.8959],[176.0446,-37.6051,0.0],[176.0497,-37.6034,11.4982],[176.0644,-37.6074,22.6679],[176.0736,-37.622,0.0],[176.0783,-37.6218,0.5372],[176.0853,-37.625,0.0],[176.0882,-37.6228,0.0],[176.0957,-37.6218,0.0],[176.0931,-37.6207,0.3331],[176.092,-37.6146,0.0],[176.0867,-37.6143,0.0],[176.087,-37.6109,1.0002],[176.0769,-37.6024,4.3928],[176.082,-37.6028,8.4003],[176.081,-37.5982,4.3704],[176.0852,-37.6008,2.1383],[176.081,-37.5939,8.7275],[176.0842,-37.5938,2.1419],[176.0905,-37.598,1.3176],[176.0976,-37.5996,0.4435],[176.103,-37.6031,6.7842],[176.1053,-37.6113,0.0],[176.1114,-37.6112,12.2415],[176.1255,-37.617,21.4667],[176.1279,-37.6281,4.9341],[176.1306,-37.629,5.8571],[176.1334,-37.6267,5.7137],[176.1335,-37.6316,0.0],[176.1394,-37.6351,0.0],[176.1459,-37.6422,1.9215],[176.1511,-37.6442,8.2215],[176.1582,-37.6395,8.0693],[176.1594,-37.6372,15.7038],[176.1579,-37.6342,10.5193],[176.1472,-37.6213,1.328],[176.123,-37.6045,10.0041],[176.0953,-37.5808,5.4832],[176.0556,-37.5391,0.0],[176.0258,-37.5022,7.7615]]],
[[[176.1331,-37.5311,18.7423],[176.1339,-37.5294,0.0],[176.1327,-37.5285,7.5842],[176.1293,-37.5296,0.0],[176.1302,-37.5308,13.4292],[176.1331,-37.5311,18.7423]]],
[[[176.4157,-37.603,11.398],[176.4123,-37.6044,0.8882],[176.4151,-37.6051,0.0],[176.4162,-37.6072,37.6371],[176.4144,-37.6123,0.0],[176.4173,-37.6166,18.3238],[176.4141,-37.6189,0.1452],[176.415,-37.6203,0.0],[176.4136,-37.6242,8.6044],[176.4082,-37.6242,0.0],[176.4075,-37.6257,17.4608],[176.4082,-37.6353,27.4306],[176.4049,-37.6543,0.0],[176.408,-37.6537,0.0],[176.4065,-37.6492,0.0],[176.4107,-37.6425,15.0614],[176.416,-37.6433,0.0],[176.4242,-37.6412,0.0],[176.4247,-37.6386,5.626],[176.4278,-37.6366,17.5998],[176.429,-37.6294,33.0048],[176.4317,-37.6292,23.1575],[176.4323,-37.6264,0.0],[176.4381,-37.6208,14.229],[176.4357,-37.6193,18.303],[176.4363,-37.6149,0.0],[176.4318,-37.6142,23.6338],[176.4285,-37.6108,4.4236],[176.4259,-37.6116,22.169],[176.4223,-37.6054,12.9218],[176.4164,-37.6043,11.398],[176.4157,-37.603,11.398]]],
[[[176.2659,-37.2676,0.0],[176.2559,-37.2684,0.0],[176.2522,-37.2703,25.6304],[176.2476,-37.2695,0.0],[176.2426,-37.2749,120.32],[176.2394,-37.2724,0.723],[176.2376,-37.2733,27.9645],[176.232,-37.2786,0.0],[176.2315,-37.2845,34.4296],[176.2345,-37.2876,90.3651],[176.2357,-37.2919,0.0],[176.2315,-37.2971,11.627],[176.2337,-37.2981,0.0],[176.2366,-37.2968,16.6684],[176.2374,-37.2992,0.0],[176.2424,-37.3019,0.0],[176.2487,-37.3016,1.8498],[176.2525,-37.304,19.0247],[176.2558,-37.3102,3.5853],[176.2594,-37.3097,0.0],[176.2591,-37.3077,0.0],[176.2566,-37.3069,24.0191],[176.2579,-37.3052,20.0228],[176.2621,-37.3071,2.1298],[176.2645,-37.3039,39.8232],[176.2695,-37.305,0.0],[176.2709,-37.3015,39.4068],[176.2684,-37.3006,43.904],[176.2692,-37.2961,84.1904],[176.2759,-37.2914,0.0],[176.2753,-37.2891,33.4051],[176.2713,-37.2866,24.7578],[176.2726,-37.284,11.4006],[176.2768,-37.2822,0.0],[176.2746,-37.2805,76.7899],[176.2744,-37.2768,98.0703],[176.2759,-37.2751,20.6573],[176.2795,-37.2756,13.0515],[176.2805,-37.2736,2.7055],[176.2763,-37.2737,18.6184],[176.2778,-37.2706,0.0],[176.2767,-37.2688,8.288],[176.2698,-37.2697,85.6638],[176.2659,-37.2676,0.0]]]]}}