{"type": "Feature","id": "3399","bbox": [175.80925,-39.16655,178.07733,-37.36866],"geometry": {"type": "Polygon","coordinates": [[[178.07733,-37.55138,338.3388],[178.0315,-37.54957,59.9794],[177.99204,-37.54306,7.4557],[178.00392,-37.55877,35.2848],[178.00864,-37.56976,6.6067],[178.00522,-37.57952,64.5461],[177.99204,-37.59092,71.7761],[177.9734,-37.59743,67.9147],[177.92897,-37.60125,0.0],[177.91358,-37.60784,0.0],[177.8899,-37.63681,35.8972],[177.87664,-37.64788,25.7646],[177.85865,-37.65228,0.0],[177.83839,-37.65342,0.0],[177.73878,-37.6762,0.0],[177.73146,-37.68328,52.6328],[177.72885,-37.695,68.896],[177.72267,-37.70387,35.3254],[177.70753,-37.71771,0.0],[177.69614,-37.73528,30.4656],[177.68474,-37.77191,137.3327],[177.66928,-37.78948,90.5478],[177.62761,-37.80755,0.0],[177.62159,-37.81365,40.0752],[177.61842,-37.82342,169.4895],[177.60174,-37.84783,187.7715],[177.60182,-37.8733,23.4438],[177.59783,-37.88242,163.9369],[177.58741,-37.89316,73.9248],[177.55681,-37.91383,217.6008],[177.4795,-37.95192,1.8851],[177.46144,-37.96478,92.6798],[177.43751,-37.97674,114.1618],[177.34791,-37.98187,0.0],[177.31804,-37.98797,0.0],[177.30681,-37.9887,0.0],[177.30006,-37.99188,6.456],[177.29998,-37.99896,2.3604],[177.30063,-38.00604,4.3901],[177.29664,-38.00921,4.2575],[177.29078,-38.01092,4.0711],[177.28639,-38.01434,5.0612],[177.28175,-38.01588,2.6704],[177.27589,-38.01263,4.7808],[177.2649,-37.99765,0.2508],[177.26246,-37.99554,1.7494],[177.19703,-37.99554,1.4606],[177.18409,-37.99041,15.0319],[177.17579,-37.98309,0.0],[177.16603,-37.97845,0.0],[177.14918,-37.98187,0.0],[177.1565,-37.99228,0.0],[177.16082,-38.00612,4.3282],[177.15838,-38.01824,52.5206],[177.14552,-38.02353,27.7055],[177.13103,-38.02166,0.0],[177.11817,-38.01686,0.0],[177.07195,-37.9909,0.0],[177.06593,-37.98455,0.0],[177.07691,-37.98187,0.0],[177.13551,-37.98187,0.0],[177.09791,-37.96526,0.0],[177.00489,-37.95534,110.8267],[176.95021,-37.92767,2.9547],[176.88217,-37.91985,2.6037],[176.82195,-37.90146,0.8035],[176.7588,-37.89316,18.1822],[176.71827,-37.8777,156.4904],[176.51857,-37.76214,0.0],[176.5066,-37.76881,0.0],[176.49977,-37.7658,0.0],[176.49537,-37.75937,0.0],[176.49057,-37.7553,0.0],[176.46062,-37.7553,23.4183],[176.44825,-37.75107,0.0],[176.42416,-37.73219,0.0],[176.41277,-37.72812,0.0],[176.3838,-37.72275,0.0],[176.32342,-37.69931,0.0],[176.29607,-37.69394,0.0],[176.27174,-37.68255,0.0],[176.23634,-37.63177,0.0],[176.21681,-37.61826,0.0],[176.20346,-37.622,0.0],[176.20875,-37.63616,0.0],[176.23121,-37.66595,0.0],[176.24488,-37.71429,22.963],[176.22999,-37.71575,3.5391],[176.21412,-37.7195,36.4348],[176.20151,-37.7199,43.4247],[176.19646,-37.71087,0.0],[176.19679,-37.69402,2.6993],[176.19557,-37.68174,0.0],[176.18995,-37.67278,2.7827],[176.17652,-37.66595,0.0],[176.1574,-37.66334,0.0],[176.15073,-37.67148,26.9168],[176.14568,-37.68182,0.4795],[176.13136,-37.68711,46.5856],[176.1211,-37.68133,1.0275],[176.11264,-37.67059,0.0],[176.10271,-37.66473,0.0],[176.08717,-37.67344,19.473],[176.0774,-37.65862,0.0],[176.07163,-37.64414,13.4645],[176.06332,-37.63201,0.0],[176.04566,-37.62493,0.0],[176.04217,-37.62705,0.0],[176.03834,-37.63201,0.0],[176.03297,-37.63698,0.0],[176.02508,-37.63926,0.6907],[176.0075,-37.6386,12.8019],[176.00229,-37.63649,0.5773],[175.99724,-37.63177,0.0],[175.99562,-37.62689,1.0034],[175.99098,-37.60442,0.0],[175.99252,-37.60101,0.069],[175.99659,-37.59564,0.0],[175.99903,-37.58953,0.0],[175.99724,-37.58408,0.0],[175.99317,-37.58221,0.0],[175.9826,-37.5805,0.1506],[175.97731,-37.57724,0.3915],[175.97446,-37.57741,2.5376],[175.96941,-37.57887,6.7327],[175.96339,-37.57781,0.0],[175.9568,-37.57041,0.0],[175.95525,-37.56325,0.0],[175.95655,-37.55584,0.0],[175.95948,-37.54876,0.0],[175.96306,-37.54306,0.0],[175.95834,-37.539,0.0],[175.94923,-37.52793,0.6042],[175.94313,-37.52191,25.8728],[175.98992,-37.51483,0.0],[176.01588,-37.51588,19.1811],[176.03541,-37.52565,10.6996],[176.04916,-37.53851,21.3197],[176.06593,-37.55088,1.0679],[176.10084,-37.57041,0.0],[176.06951,-37.57952,0.0],[176.05926,-37.58408,9.9728],[176.07569,-37.59645,8.4864],[176.09099,-37.59857,1.3176],[176.10597,-37.59661,33.2289],[176.12135,-37.59775,0.0],[176.13331,-37.60263,0.0],[176.16912,-37.62493,0.0],[176.16521,-37.60768,0.0],[176.15309,-37.59531,0.0],[176.12452,-37.57383,0.0],[176.11622,-37.5617,0.0],[176.10043,-37.53216,0.0],[176.09018,-37.51881,0.0],[176.07651,-37.50726,0.0],[176.05974,-37.49635,0.0],[176.04176,-37.4874,0.0],[176.02508,-37.48162,0.0],[175.98487,-37.4765,0.0],[175.97543,-37.4699,0.0],[175.98357,-37.45428,0.0],[175.99171,-37.45289,0.0],[175.99928,-37.45867,0.0],[176.00424,-37.46054,0.0],[176.00465,-37.44744,0.0],[176.00066,-37.43914,0.0],[175.98658,-37.43035,0.0],[175.98357,-37.42327,0.0],[175.97934,-37.40862,0.0],[175.96111,-37.37737,0.0],[175.95874,-37.36866,0.0],[175.91839,-37.3818,246.0911],[175.91394,-37.41916,159.9529],[175.89286,-37.44583,85.3429],[175.87477,-37.45286,128.2743],[175.87054,-37.47017,203.4564],[175.894,-37.48619,171.1213],[175.89131,-37.49916,144.9549],[175.85844,-37.49141,285.5707],[175.82878,-37.47854,462.7008],[175.817,-37.49218,474.4504],[175.80925,-37.50805,543.2524],[175.82248,-37.52029,520.4153],[175.83343,-37.53879,542.5399],[175.82558,-37.55487,563.1486],[175.8232,-37.57791,673.7928],[175.83974,-37.60546,460.5607],[175.84046,-37.63517,501.8381],[175.8602,-37.67036,608.0868],[175.88511,-37.70225,506.5877],[175.92056,-37.77175,495.5549],[175.93317,-37.85231,521.5447],[175.9402,-37.86477,503.4362],[175.96769,-37.8919,437.9929],[175.96738,-37.91427,520.1539],[175.95952,-37.93722,495.5759],[175.97482,-37.97949,573.0091],[175.98588,-37.99572,515.8457],[176.00169,-37.99866,557.6844],[176.01885,-38.00006,571.3899],[176.05192,-38.01174,560.452],[176.06339,-38.03954,553.9887],[176.08603,-38.05742,568.7378],[176.11569,-38.07111,520.6577],[176.18752,-38.08057,315.7125],[176.23124,-38.11426,285.3508],[176.24674,-38.12997,307.0165],[176.24612,-38.15219,295.3634],[176.25873,-38.19353,363.7757],[176.26752,-38.23601,428.9627],[176.28074,-38.2634,453.8011],[176.29811,-38.28588,567.5176],[176.30803,-38.3018,489.4729],[176.3195,-38.31441,429.2419],[176.47205,-38.36784,514.5398],[176.4983,-38.38732,512.3236],[176.5076,-38.42659,541.4465],[176.48538,-38.50556,562.5494],[176.46554,-38.53279,529.3395],[176.40549,-38.51,409.9939],[176.38802,-38.52039,403.5795],[176.38089,-38.54121,452.2124],[176.36963,-38.56287,462.8317],[176.3472,-38.5716,434.4534],[176.32281,-38.57015,339.8049],[176.30782,-38.56256,323.0623],[176.3103,-38.55186,328.2371],[176.31681,-38.54023,304.8765],[176.33356,-38.52643,298.1316],[176.33904,-38.51822,298.1735],[176.3411,-38.50607,300.1126],[176.33686,-38.49439,295.2209],[176.32643,-38.48633,294.1895],[176.31289,-38.4822,314.5793],[176.29945,-38.4822,291.0247],[176.29036,-38.48561,289.9519],[176.27465,-38.49734,304.964],[176.26534,-38.50266,292.4789],[176.24932,-38.50757,292.374],[176.23331,-38.50943,339.0816],[176.19982,-38.50954,315.8796],[176.19424,-38.50509,364.0323],[176.17367,-38.48463,388.763],[176.1529,-38.47553,360.0006],[176.13398,-38.46204,581.4099],[176.10835,-38.48272,513.5878],[176.09626,-38.49527,501.6598],[176.08696,-38.50995,482.0367],[176.07363,-38.51341,620.273],[176.05895,-38.51584,525.6459],[176.04934,-38.53806,596.9374],[176.06009,-38.55935,619.0702],[176.11796,-38.5715,461.9104],[176.20075,-38.5978,366.0537],[176.21615,-38.61242,345.5109],[176.19238,-38.65531,405.4561],[176.18101,-38.69464,498.0556],[176.2207,-38.73159,593.2921],[176.24333,-38.76936,702.2362],[176.22535,-38.78394,721.6135],[176.20364,-38.79009,693.0917],[176.13667,-38.77009,486.874],[176.11662,-38.76947,457.1059],[176.10711,-38.79215,431.9929],[176.1007,-38.82512,483.0816],[176.11166,-38.83861,487.7236],[176.13657,-38.87892,585.2755],[176.16582,-38.91659,591.0833],[176.19196,-38.93576,704.3848],[176.22287,-38.94088,764.7255],[176.24622,-38.93049,874.8443],[176.26328,-38.94424,952.4062],[176.28219,-39.03503,650.6122],[176.2362,-39.09668,713.8848],[176.30359,-39.14681,836.7299],[176.381,-39.16655,779.1536],[176.39691,-39.15203,554.4996],[176.38544,-39.13146,717.3946],[176.40911,-39.11756,1033.3336],[176.43815,-39.11151,703.2899],[176.43608,-39.08433,969.2662],[176.42782,-39.05033,846.4823],[176.47753,-39.00186,876.1776],[176.5506,-39.00212,494.717],[176.60031,-38.997,731.4971],[176.6153,-38.99199,690.399],[176.60672,-38.97509,626.6655],[176.60372,-38.94858,764.2336],[176.6186,-38.92527,1037.8307],[176.66811,-38.88471,774.1768],[176.70604,-38.8443,1067.3879],[176.7018,-38.81174,1105.6753],[176.7079,-38.80125,964.9778],[176.71462,-38.7921,1130.6755],[176.71235,-38.74141,936.3363],[176.73302,-38.71764,843.7549],[176.76237,-38.70162,881.3086],[176.78759,-38.69066,951.7705],[176.87285,-38.67263,910.4548],[176.93073,-38.69934,1067.8284],[176.95843,-38.70374,1050.1213],[176.98396,-38.70456,1053.668],[177.00091,-38.69061,1094.7751],[177.01352,-38.6764,1066.0574],[177.02168,-38.66286,1089.8007],[177.02912,-38.64699,875.5457],[177.04545,-38.63216,983.2736],[177.0654,-38.62048,1114.4564],[177.07759,-38.61687,978.339],[177.08504,-38.62038,923.7337],[177.10426,-38.61284,1192.9962],[177.11842,-38.59434,1171.6051],[177.16555,-38.58044,938.0653],[177.17278,-38.56984,902.8925],[177.18229,-38.56044,953.549],[177.19542,-38.53729,1104.0125],[177.22012,-38.53067,1047.9681],[177.238,-38.5238,1050.8966],[177.25516,-38.4977,870.2422],[177.24585,-38.46261,694.5706],[177.24399,-38.4298,458.5824],[177.31138,-38.39259,638.2673],[177.4322,-38.35321,831.9031],[177.47023,-38.32546,655.3668],[177.49059,-38.29379,787.4106],[177.49462,-38.25782,686.9504],[177.48832,-38.23953,432.2174],[177.4971,-38.22433,343.4593],[177.52253,-38.21591,590.2527],[177.54981,-38.21286,487.3075],[177.57669,-38.20335,525.0955],[177.60097,-38.18806,539.3553],[177.6234,-38.16987,698.1295],[177.6388,-38.16475,719.2414],[177.65275,-38.15705,480.1548],[177.65875,-38.14522,533.7618],[177.6634,-38.13287,583.5232],[177.68438,-38.11457,442.7619],[177.68882,-38.09199,319.5347],[177.68965,-38.05318,338.5398],[177.67797,-38.02987,309.174],[177.68924,-38.02145,686.1085],[177.72386,-38.02946,920.1948],[177.76107,-38.06036,973.304],[177.80127,-38.08631,1171.342],[177.84406,-38.10744,831.6719],[177.88478,-38.06429,1051.4236],[177.94183,-37.90668,548.4681],[177.99351,-37.82839,611.0443],[178.03123,-37.79924,971.1238],[178.05893,-37.76147,833.0392],[178.04932,-37.74018,355.508],[178.02565,-37.73909,326.173],[178.00033,-37.75614,203.55],[177.97749,-37.74126,175.554],[177.98142,-37.71842,234.6306],[177.98989,-37.69842,161.0466],[177.99061,-37.66566,243.4265],[177.98049,-37.63698,251.4405],[177.97573,-37.62778,306.4041],[177.97821,-37.6161,306.7072],[177.99992,-37.60773,98.5576],[178.05717,-37.59305,99.42],[178.07722,-37.56794,93.7657],[178.07733,-37.55138,338.3388]]]}
,"properties": {"ISO3166-1-Alpha-3": "NZL","country": "New Zealand","fill": "#F0F","name": "Bay of Plenty","area_km2": 13562.04,"hist_schema_id": "Elevation0-9000","hist_area_km2": {"0": 882.85,"25": 469.76,"50": 333.07,"75": 295.6,"100": 288.58,"125": 271.64,"150": 305.25,"175": 358.41,"200": 343.09,"225": 322.03,"250": 320.74,"275": 452.53,"300": 479.88,"325": 474.9,"350": 493.17,"375": 452.85,"400": 450.56,"425": 492.22,"450": 516.48,"475": 450.48,"500": 401.06,"525": 399.19,"550": 409.21,"575": 338.49,"600": 305.08,"625": 315.61,"650": 318.57,"675": 306.33,"700": 327.72,"725": 365.72,"750": 287.86,"775": 240.96,"800": 191.25,"825": 157.06,"850": 125.7,"875": 109.13,"900": 96.23,"925": 77.98,"950": 65.24,"975": 51.95,"1000": 41.29,"1025": 31.4,"1050": 25.34,"1075": 21.84,"1100": 18.08,"1125": 15.91,"1150": 12.68,"1175": 10.96,"1200": 8.83,"1225": 6.87,"1250": 5.79,"1275": 5.08,"1300": 3.64,"1325": 3.3,"1350": 2.69,"1375": 1.82,"1400": 1.24,"1425": 0.58,"1450": 0.22}}}