{"type": "Feature","bbox": [174.6133,-41.3624,174.8954,-41.1435],"geometry": {"type": "MultiPolygon","coordinates": [[[[174.7732,-41.3489,0.9432],[174.7715,-41.3479,0.0],[174.7732,-41.3503,0.3978],[174.7747,-41.3489,2.0057],[174.7732,-41.3489,0.9432]]],
[[[174.7874,-41.2657,2.029],[174.7874,-41.2656,2.029],[174.7872,-41.2656,2.029],[174.7874,-41.2657,2.029]]],
[[[174.7872,-41.2661,2.029],[174.7872,-41.2656,2.029],[174.7868,-41.2647,2.029],[174.7871,-41.2661,2.029],[174.7872,-41.2661,2.029]]],
[[[174.7873,-41.2652,2.029],[174.7872,-41.2653,2.029],[174.7873,-41.2653,2.029],[174.7873,-41.2652,2.029]]],
[[[174.8094,-41.3454,0.3911],[174.811,-41.3446,0.0],[174.8096,-41.3425,0.0],[174.8093,-41.3435,0.1459],[174.8094,-41.3454,0.3911]]],
[[[174.8304,-41.3187,0.0],[174.8305,-41.3186,0.0],[174.8304,-41.3186,0.0],[174.8304,-41.3187,0.0]]],
[[[174.7995,-41.312,0.0],[174.7975,-41.3119,0.8358],[174.7975,-41.312,0.8358],[174.7995,-41.312,0.0]]],
[[[174.7874,-41.2658,2.029],[174.7874,-41.2657,2.029],[174.7873,-41.2658,2.029],[174.7874,-41.2658,2.029]]],
[[[174.8914,-41.1579,292.9175],[174.8954,-41.1528,207.5932],[174.8833,-41.1474,203.125],[174.8801,-41.1515,209.5625],[174.8759,-41.1496,169.7005],[174.8708,-41.1561,165.3325],[174.869,-41.1541,170.658],[174.8669,-41.1568,167.9612],[174.8621,-41.1553,180.4592],[174.857,-41.162,156.7401],[174.8396,-41.1546,61.2216],[174.8412,-41.1488,14.1907],[174.8343,-41.1524,13.7616],[174.8319,-41.152,20.509],[174.8327,-41.1496,25.5786],[174.8316,-41.1495,26.7416],[174.8295,-41.1549,19.8954],[174.827,-41.1546,45.8979],[174.8139,-41.1641,224.0889],[174.8113,-41.1641,231.8315],[174.81,-41.1636,246.698],[174.8102,-41.1614,273.7625],[174.8125,-41.1583,239.3521],[174.8035,-41.1556,443.4832],[174.8061,-41.1498,407.8979],[174.7902,-41.1435,256.393],[174.7873,-41.1478,239.3922],[174.7781,-41.144,34.3852],[174.7719,-41.1516,72.0397],[174.7682,-41.1531,58.0962],[174.76,-41.1668,50.0976],[174.7513,-41.1714,84.9829],[174.7401,-41.1723,0.0],[174.7391,-41.1807,2.9718],[174.7286,-41.1875,0.0],[174.7278,-41.1935,2.0253],[174.7228,-41.1991,60.9899],[174.7182,-41.2128,21.4769],[174.7157,-41.2142,4.4176],[174.7142,-41.2192,35.0289],[174.7107,-41.2199,53.6543],[174.7059,-41.2184,13.1731],[174.7041,-41.2154,5.1676],[174.7007,-41.2186,28.0829],[174.6934,-41.2207,13.088],[174.6932,-41.2257,56.0833],[174.6892,-41.2325,39.5988],[174.6813,-41.2353,52.4893],[174.6759,-41.2352,7.1844],[174.6755,-41.2385,52.8429],[174.6696,-41.2412,0.0],[174.6645,-41.2468,14.871],[174.6595,-41.2452,52.2547],[174.6599,-41.2419,36.4083],[174.6574,-41.2388,25.4485],[174.6557,-41.2382,7.3389],[174.6546,-41.2418,69.032],[174.651,-41.2449,8.0365],[174.649,-41.2437,20.7108],[174.647,-41.2383,20.7308],[174.6444,-41.2384,78.0991],[174.6425,-41.2424,15.8416],[174.6232,-41.2601,66.5033],[174.62,-41.27,48.9893],[174.615,-41.2735,11.4031],[174.6155,-41.2779,34.4543],[174.6133,-41.2855,24.7034],[174.6154,-41.2913,6.655],[174.62,-41.2962,25.5939],[174.6274,-41.2946,0.6039],[174.631,-41.2963,0.0],[174.6329,-41.2993,14.2372],[174.6299,-41.3033,28.4811],[174.6316,-41.3053,38.3938],[174.6313,-41.3155,0.0],[174.6409,-41.3229,7.7976],[174.6473,-41.3254,3.703],[174.6485,-41.3301,0.9231],[174.655,-41.3319,9.6433],[174.6565,-41.3367,6.9945],[174.6598,-41.338,0.73],[174.6599,-41.3408,0.103],[174.6771,-41.34,4.0738],[174.678,-41.3424,0.0],[174.6819,-41.3441,36.8339],[174.6826,-41.3468,0.0],[174.6943,-41.3463,0.8473],[174.6962,-41.3473,8.5084],[174.6974,-41.3506,34.2911],[174.7016,-41.3523,41.9071],[174.704,-41.3567,1.5166],[174.7132,-41.3582,0.0],[174.7156,-41.3624,5.4949],[174.7203,-41.3584,3.0251],[174.7271,-41.3574,7.8507],[174.7279,-41.3544,71.1733],[174.7326,-41.3494,23.4316],[174.7406,-41.3489,0.0],[174.7434,-41.3468,9.0047],[174.7525,-41.349,7.1865],[174.7586,-41.3446,0.0],[174.7603,-41.3464,9.8871],[174.7594,-41.3484,0.4665],[174.7658,-41.349,1.9158],[174.7688,-41.348,0.0625],[174.7725,-41.3437,0.787],[174.7787,-41.3459,11.423],[174.7849,-41.3422,8.0662],[174.7873,-41.3432,3.0718],[174.788,-41.3458,5.1822],[174.7915,-41.3468,0.0],[174.7925,-41.345,0.0],[174.7912,-41.3413,23.9184],[174.7936,-41.3405,0.4559],[174.7938,-41.3384,1.2249],[174.7911,-41.3329,9.7087],[174.7986,-41.3286,1.1507],[174.8053,-41.3294,2.6948],[174.8051,-41.3348,4.4117],[174.8035,-41.3355,0.0],[174.81,-41.3369,0.8565],[174.8112,-41.3385,52.2735],[174.8097,-41.3422,0.0],[174.8149,-41.3427,29.3372],[174.816,-41.3442,0.4852],[174.8195,-41.3423,17.097],[174.821,-41.3449,0.0],[174.8245,-41.34,8.0798],[174.8242,-41.3358,27.6733],[174.826,-41.335,1.0806],[174.8264,-41.3327,51.1451],[174.8286,-41.3329,19.8404],[174.8321,-41.3301,4.4048],[174.8379,-41.3316,0.0],[174.839,-41.3277,5.5267],[174.8378,-41.3236,0.0],[174.8293,-41.319,0.0],[174.8276,-41.3153,0.0],[174.8329,-41.3079,12.629],[174.8312,-41.3038,0.0],[174.8326,-41.2977,30.0496],[174.8369,-41.2955,21.7681],[174.8326,-41.2925,18.9611],[174.8342,-41.289,0.7557],[174.8298,-41.2886,19.1256],[174.8255,-41.2844,0.0],[174.821,-41.2917,5.999],[174.8222,-41.293,7.3085],[174.8204,-41.294,0.0],[174.8222,-41.2965,19.3322],[174.8173,-41.2989,0.0],[174.8183,-41.3017,0.0],[174.8119,-41.3102,2.2796],[174.8114,-41.3143,16.113],[174.8107,-41.3131,16.113],[174.8099,-41.3156,0.0],[174.803,-41.316,0.0],[174.797,-41.3123,0.8358],[174.7975,-41.3119,0.8358],[174.7988,-41.3109,0.0],[174.8001,-41.3115,0.0],[174.799,-41.3106,0.0],[174.7983,-41.3106,0.0],[174.7991,-41.306,24.8442],[174.8062,-41.3033,0.8299],[174.8045,-41.2974,0.0],[174.8055,-41.2956,2.3147],[174.8027,-41.2922,0.0],[174.804,-41.2917,0.0],[174.8041,-41.2861,0.0],[174.7962,-41.2908,9.5011],[174.7899,-41.2901,3.4477],[174.7864,-41.2915,15.2603],[174.7858,-41.2883,0.0],[174.7857,-41.2906,1.6845],[174.7806,-41.2897,5.516],[174.7793,-41.2822,2.7792],[174.7807,-41.2825,0.6961],[174.7809,-41.2811,7.5794],[174.7815,-41.2822,0.6961],[174.7817,-41.28,2.915],[174.7828,-41.2816,0.0],[174.7833,-41.2788,4.5116],[174.7846,-41.2819,1.0849],[174.7901,-41.281,0.0],[174.786,-41.2652,2.029],[174.7867,-41.2655,2.029],[174.7865,-41.2648,2.029],[174.7867,-41.2649,2.029],[174.7868,-41.2647,2.029],[174.7869,-41.2646,2.029],[174.7873,-41.2646,2.029],[174.7881,-41.2664,0.0],[174.7875,-41.2643,4.1278],[174.7904,-41.2627,2.3533],[174.7909,-41.2646,0.0],[174.7941,-41.264,0.0],[174.793,-41.2595,1.4813],[174.7944,-41.2582,0.0],[174.8125,-41.2495,2.3831],[174.8436,-41.2292,9.5939],[174.8504,-41.2273,8.7078],[174.8558,-41.2247,0.834],[174.8553,-41.2237,48.7266],[174.8575,-41.224,43.7996],[174.8568,-41.2231,43.7996],[174.8618,-41.2143,101.9194],[174.859,-41.2099,93.859],[174.8603,-41.2058,109.6373],[174.8625,-41.206,87.7659],[174.8633,-41.2028,116.5898],[174.8608,-41.2026,144.6259],[174.8645,-41.1958,134.9426],[174.8664,-41.1961,186.616],[174.8673,-41.1928,167.9625],[174.8673,-41.1894,200.8525],[174.8655,-41.1891,148.6425],[174.8753,-41.1785,364.4211],[174.8757,-41.1765,378.5896],[174.8789,-41.1779,337.4371],[174.8803,-41.1737,273.0724],[174.8793,-41.1735,273.0724],[174.8914,-41.1579,292.9175]]]]}
,"properties": {"GID_2": "NZL.18.8_1","GID_0": "NZL","country": "NewZealand","GID_1": "NZL.18_1","province": "Wellington","NL_NAME_1": "NA","county": "Wellington","VARNAME_2": "NA","NL_NAME_2": "NA","TYPE_2": "City","ENGTYPE_2": "City","CC_2": "047","HASC_2": "NZ.WG.WE","name": "Wellington.county","area_km2": 290.0287,"hist_schema_id": "Elevation0-9000","hist_area_km2": {"0": 13.0133,"25": 14.5165,"50": 17.4969,"75": 21.3095,"100": 25.4244,"125": 27.9292,"150": 30.7845,"175": 28.7601,"200": 24.5664,"225": 20.3084,"250": 17.8846,"275": 14.0743,"300": 9.9291,"325": 8.1751,"350": 6.1839,"375": 4.3189,"400": 2.6613,"425": 1.4657,"450": 0.7806,"475": 0.2866,"500": 0.1433,"525": 0.0159}}}