{"type":"Feature","properties":{"GID_2":"NZL.11.3_1","GID_0":"NZL","country":"NewZealand","GID_1":"NZL.11_1","province":"Northland","NL_NAME_1":"NA","county":"Whangarei","VARNAME_2":"NA","NL_NAME_2":"NA","TYPE_2":"District","ENGTYPE_2":"District","CC_2":"002","HASC_2":"NZ.NO.WN","name":"Whangarei.county"},
"geometry":{"type": "MultiPolygon","coordinates": [[[[174.7808,-35.8851,21.28],[174.7791,-35.884,0.0],[174.7741,-35.8861,0.472],[174.7724,-35.8846,2.3176],[174.7643,-35.888,0.9618],[174.7628,-35.8905,0.0],[174.7672,-35.8944,0.0],[174.7753,-35.8887,76.895],[174.7801,-35.8895,31.6239],[174.7814,-35.8885,31.6239],[174.7829,-35.8878,55.9041],[174.7835,-35.8855,8.2294],[174.7808,-35.8851,21.28]]],
[[[174.781,-35.8889,31.6239],[174.7809,-35.8891,31.6239],[174.7813,-35.8894,31.6239],[174.7813,-35.889,31.6239],[174.781,-35.8889,31.6239]]],
[[[174.5341,-35.6416,0.7473],[174.5346,-35.6413,0.7473],[174.5343,-35.641,26.212],[174.5338,-35.6412,26.212],[174.5341,-35.6416,0.7473]]],
[[[174.4967,-35.6384,0.0],[174.4963,-35.6385,0.0],[174.4966,-35.6388,0.0],[174.4968,-35.6386,0.0],[174.4967,-35.6384,0.0]]],
[[[174.4957,-35.6381,0.0],[174.4962,-35.6378,1.0864],[174.4957,-35.6375,1.0864],[174.4958,-35.6378,1.0864],[174.4957,-35.6381,0.0]]],
[[[174.5565,-35.7165,0.0],[174.5563,-35.7167,0.0],[174.5564,-35.7169,0.0],[174.5566,-35.7168,0.0],[174.5565,-35.7165,0.0]]],
[[[174.5596,-35.7149,0.7787],[174.5594,-35.715,0.7787],[174.5593,-35.7151,0.0],[174.5596,-35.715,0.7787],[174.5596,-35.7149,0.7787]]],
[[[174.5606,-35.7152,0.7787],[174.561,-35.715,0.7787],[174.561,-35.7148,0.7787],[174.5605,-35.7148,0.7787],[174.5606,-35.7152,0.7787]]],
[[[174.703,-35.5666,0.0],[174.7056,-35.5667,0.0],[174.7061,-35.5653,0.0],[174.7033,-35.565,0.0],[174.703,-35.5666,0.0]]],
[[[174.7222,-35.5468,1.1702],[174.7233,-35.5497,0.0],[174.7249,-35.547,0.0],[174.7232,-35.5458,0.0],[174.7222,-35.5468,1.1702]]],
[[[174.5438,-35.6104,19.3761],[174.5426,-35.6107,2.0377],[174.5447,-35.6135,0.0],[174.547,-35.6127,54.7396],[174.5462,-35.6101,18.1078],[174.5438,-35.6104,19.3761]]],
[[[174.4696,-35.4929,0.0972],[174.4694,-35.4926,0.0972],[174.4691,-35.4928,0.0972],[174.4693,-35.493,1.2535],[174.4696,-35.4929,0.0972]]],
[[[174.7475,-35.4865,19.7997],[174.7481,-35.4849,40.1785],[174.7453,-35.4852,4.3837],[174.7451,-35.4878,9.2109],[174.7466,-35.488,0.0],[174.7475,-35.4865,19.7997]]],
[[[174.7412,-35.4897,11.1216],[174.7395,-35.4884,0.0],[174.7393,-35.492,2.2362],[174.7422,-35.4912,11.1216],[174.7412,-35.4897,11.1216]]],
[[[174.4523,-35.4779,0.0],[174.452,-35.4779,0.0],[174.452,-35.4781,11.0662],[174.4523,-35.4781,11.0662],[174.4523,-35.4779,0.0]]],
[[[174.4713,-35.4879,0.0],[174.4702,-35.4878,1.9537],[174.4717,-35.4897,0.0],[174.472,-35.4887,0.4417],[174.4713,-35.4879,0.0]]],
[[[174.4518,-35.4749,0.3834],[174.4515,-35.4748,0.3834],[174.4516,-35.475,0.3834],[174.4518,-35.4749,0.3834]]],
[[[174.4558,-35.4744,4.857],[174.4557,-35.4744,4.857],[174.4558,-35.4745,4.857],[174.4558,-35.4744,4.857]]],
[[[174.7345,-35.4728,0.7576],[174.736,-35.4724,0.7576],[174.7363,-35.4716,0.7576],[174.7353,-35.4714,0.7576],[174.7345,-35.4728,0.7576]]],
[[[174.7341,-35.4722,0.0],[174.7347,-35.4718,0.7576],[174.7329,-35.4722,0.0],[174.7334,-35.4724,0.0],[174.7341,-35.4722,0.0]]],
[[[174.7351,-35.4732,0.0],[174.735,-35.4737,0.0],[174.7352,-35.4737,0.0],[174.7353,-35.473,0.0],[174.7351,-35.4732,0.0]]],
[[[174.7303,-35.4734,0.0],[174.7303,-35.4736,0.0],[174.7309,-35.4729,0.0],[174.7304,-35.473,0.0],[174.7303,-35.4734,0.0]]],
[[[174.7383,-35.474,0.0],[174.7365,-35.4739,0.0],[174.7384,-35.4757,4.6767],[174.7366,-35.4759,4.6767],[174.7378,-35.4806,15.4196],[174.7325,-35.4825,60.37],[174.7336,-35.4846,40.5548],[174.7325,-35.4857,40.5548],[174.7363,-35.4886,0.0],[174.7411,-35.4872,0.0],[174.7431,-35.4834,3.6644],[174.7453,-35.4834,0.4389],[174.7465,-35.4795,45.7809],[174.7448,-35.4767,6.6519],[174.7424,-35.4768,30.6847],[174.7407,-35.4744,0.0],[174.7383,-35.474,0.0]]],
[[[174.4566,-35.4725,0.0],[174.4552,-35.4724,0.0],[174.4548,-35.4739,4.857],[174.4584,-35.4732,16.9728],[174.4566,-35.4725,0.0]]],
[[[174.6989,-35.9929,0.0],[174.6972,-35.9921,0.0],[174.6959,-35.9927,0.0],[174.6976,-35.9941,0.0],[174.6989,-35.9929,0.0]]],
[[[174.7048,-35.9555,4.5712],[174.7021,-35.9551,17.0846],[174.7004,-35.9525,0.0],[174.6965,-35.9523,0.0],[174.6977,-35.9575,24.3165],[174.6967,-35.9594,0.0],[174.6991,-35.9638,0.0],[174.7067,-35.9698,0.0],[174.7153,-35.9706,2.4103],[174.7174,-35.969,16.9422],[174.7257,-35.9723,2.2876],[174.7356,-35.9701,0.0],[174.7412,-35.9716,0.0],[174.7467,-35.9672,2.132],[174.7427,-35.9636,9.5308],[174.7379,-35.9655,38.9775],[174.7343,-35.9641,8.1457],[174.7346,-35.9616,2.6902],[174.7286,-35.9579,0.0],[174.7194,-35.9562,0.0],[174.7136,-35.9583,58.2428],[174.7048,-35.9555,4.5712]]],
[[[174.7442,-35.8957,0.0],[174.7442,-35.896,0.0],[174.7446,-35.8963,0.0],[174.7448,-35.8956,0.0],[174.7442,-35.8957,0.0]]],
[[[174.5936,-35.8404,0.0],[174.5927,-35.8402,0.0],[174.5944,-35.841,0.0],[174.5943,-35.8408,0.0],[174.5936,-35.8404,0.0]]],
[[[174.6994,-35.8933,0.0],[174.6949,-35.8921,2.5063],[174.6908,-35.8947,0.0],[174.6998,-35.8957,4.2469],[174.7021,-35.8982,0.0],[174.7022,-35.8949,0.0],[174.6994,-35.8933,0.0]]],
[[[174.7092,-35.8909,0.0],[174.7095,-35.8909,0.0],[174.7096,-35.8907,0.0],[174.7092,-35.8908,0.0],[174.7092,-35.8909,0.0]]],
[[[174.7108,-35.8904,0.0],[174.711,-35.8902,0.0],[174.7107,-35.8901,0.0],[174.7108,-35.8904,0.0]]],
[[[174.7559,-35.885,1.3164],[174.7517,-35.8843,0.0],[174.7485,-35.8864,0.0],[174.7464,-35.8906,0.0],[174.7433,-35.8909,0.0],[174.7451,-35.8951,0.0],[174.7468,-35.8959,0.0],[174.7469,-35.8925,18.6279],[174.75,-35.8908,22.344],[174.7538,-35.8941,4.555],[174.76,-35.8941,4.3459],[174.762,-35.888,0.0],[174.7581,-35.8849,3.8685],[174.7559,-35.885,1.3164]]],
[[[174.7251,-35.8859,0.0],[174.7231,-35.884,0.0],[174.7175,-35.8844,0.0],[174.7164,-35.8861,4.4976],[174.7177,-35.8874,0.4638],[174.716,-35.8894,6.1369],[174.7233,-35.8944,22.338],[174.728,-35.892,20.6858],[174.7306,-35.8958,2.517],[174.7341,-35.895,0.0],[174.7376,-35.898,0.0],[174.7397,-35.8896,19.7796],[174.7344,-35.8854,0.0],[174.7301,-35.8869,8.7173],[174.7251,-35.8859,0.0]]],
[[[174.7116,-35.8898,0.0],[174.7118,-35.8899,0.0],[174.7119,-35.8898,0.0],[174.7118,-35.8897,0.0],[174.7116,-35.8898,0.0]]],
[[[174.7426,-35.8896,0.0],[174.7422,-35.8887,0.6713],[174.7412,-35.8893,0.6713],[174.7414,-35.8902,0.0],[174.7426,-35.8896,0.0]]],
[[[174.701,-35.8863,0.0],[174.7015,-35.8869,0.8608],[174.7027,-35.8866,0.8608],[174.7016,-35.8855,0.2456],[174.701,-35.8863,0.0]]],
[[[174.6971,-35.8821,0.6364],[174.6937,-35.882,0.0],[174.6956,-35.8849,0.0],[174.6984,-35.8849,0.0],[174.6991,-35.8837,0.0],[174.6971,-35.8821,0.6364]]],
[[[174.5807,-35.8371,0.0],[174.5815,-35.8373,0.0],[174.5819,-35.8367,0.0],[174.5813,-35.836,0.0],[174.5807,-35.8371,0.0]]],
[[[174.3921,-35.8136,0.5423],[174.3905,-35.8122,0.3054],[174.3893,-35.8131,0.2545],[174.3942,-35.8161,0.417],[174.3946,-35.8154,0.417],[174.3921,-35.8136,0.5423]]],
[[[174.3743,-35.8131,0.0],[174.3741,-35.8135,0.0],[174.3766,-35.8121,0.2898],[174.3747,-35.8107,0.6536],[174.3743,-35.8131,0.0]]],
[[[174.3653,-35.8072,0.7828],[174.3678,-35.8067,0.7714],[174.3687,-35.8062,0.6909],[174.363,-35.8069,1.8244],[174.3653,-35.8072,0.7828]]],
[[[174.3639,-35.804,0.8127],[174.3644,-35.8029,0.7774],[174.3626,-35.8031,0.9336],[174.3629,-35.8041,0.9336],[174.3639,-35.804,0.8127]]],
[[[174.3646,-35.8016,0.7774],[174.3648,-35.8002,0.8787],[174.3628,-35.801,0.8545],[174.3638,-35.8018,0.8771],[174.3646,-35.8016,0.7774]]],
[[[174.3626,-35.798,0.8381],[174.3612,-35.7978,0.9086],[174.3605,-35.7986,0.8091],[174.3611,-35.7992,0.8091],[174.3626,-35.798,0.8381]]],
[[[174.3659,-35.7938,0.886],[174.3671,-35.7934,0.8713],[174.3623,-35.7933,0.6749],[174.3638,-35.7941,0.6749],[174.3659,-35.7938,0.886]]],
[[[174.3483,-35.7887,0.8724],[174.3486,-35.7888,0.8724],[174.3491,-35.7881,0.8724],[174.3475,-35.7882,0.8724],[174.3483,-35.7887,0.8724]]],
[[[174.4711,-35.7731,0.0],[174.4711,-35.7732,0.0],[174.4711,-35.7733,0.0],[174.4712,-35.7732,0.0],[174.4711,-35.7731,0.0]]],
[[[174.5504,-35.7179,0.3897],[174.5504,-35.7184,0.263],[174.5507,-35.7174,0.3897],[174.5504,-35.7176,0.3897],[174.5504,-35.7179,0.3897]]],
[[[174.5539,-35.7181,0.0],[174.5535,-35.7171,6.1269],[174.5523,-35.7175,0.1642],[174.5526,-35.7184,0.0],[174.5539,-35.7181,0.0]]],
[[[174.5795,-35.8383,4.6996],[174.5798,-35.8388,4.6996],[174.5812,-35.8379,0.0],[174.5803,-35.8378,0.0],[174.5795,-35.8383,4.6996]]],
[[[174.5939,-35.8394,15.9562],[174.594,-35.8371,4.0547],[174.5922,-35.8374,0.0],[174.5922,-35.8387,0.0],[174.5939,-35.8394,15.9562]]],
[[[174.5502,-35.7175,0.3897],[174.5502,-35.7174,0.3897],[174.5501,-35.7174,0.3897],[174.5503,-35.7177,0.3897],[174.5502,-35.7175,0.3897]]],
[[[174.4438,-35.4634,4.7582],[174.4436,-35.4634,4.7582],[174.4438,-35.4635,4.7582],[174.4438,-35.4634,4.7582]]],
[[[174.4442,-35.4635,0.3775],[174.4443,-35.4634,0.3775],[174.4442,-35.4634,0.3775],[174.4442,-35.4635,0.3775]]],
[[[174.4455,-35.4632,0.3775],[174.4453,-35.4632,0.3775],[174.4452,-35.4632,0.3775],[174.4454,-35.4634,0.3775],[174.4455,-35.4632,0.3775]]],
[[[174.7332,-35.4702,0.9937],[174.7341,-35.4699,0.9937],[174.732,-35.4697,0.0],[174.7324,-35.4703,0.9937],[174.7332,-35.4702,0.9937]]],
[[[174.735,-35.4698,0.7772],[174.7348,-35.4697,0.7772],[174.7347,-35.4698,0.7772],[174.7351,-35.4701,0.7772],[174.735,-35.4698,0.7772]]],
[[[173.7655,-35.6065,118.5485],[173.759,-35.6092,164.7772],[173.7591,-35.6282,296.1299],[173.756,-35.6355,418.1666],[173.765,-35.6342,225.7429],[173.766,-35.6488,460.3973],[173.7704,-35.644,459.3008],[173.7694,-35.6498,468.1674],[173.7704,-35.6513,471.3132],[173.7644,-35.6625,546.6023],[173.7548,-35.6653,569.0712],[173.7501,-35.6699,565.3073],[173.752,-35.6727,550.7704],[173.7588,-35.6711,501.0671],[173.7643,-35.6732,442.2276],[173.7636,-35.7327,557.8683],[173.7703,-35.7324,645.7322],[173.7705,-35.734,658.3726],[173.784,-35.7407,517.8796],[173.7878,-35.7446,498.8658],[173.7981,-35.7445,396.6522],[173.8029,-35.7345,241.9401],[173.8105,-35.7341,179.6028],[173.815,-35.7379,159.4611],[173.8187,-35.7363,168.8208],[173.82,-35.7267,315.6299],[173.8536,-35.7237,166.3555],[173.8658,-35.7071,173.4391],[173.8786,-35.701,170.3808],[173.8825,-35.7059,247.3831],[173.8836,-35.7091,351.2297],[173.8809,-35.7105,317.1205],[173.8857,-35.7181,347.6797],[173.8894,-35.7284,333.8037],[173.8972,-35.735,298.3688],[173.9054,-35.731,123.1109],[173.9068,-35.735,147.2803],[173.9084,-35.7351,80.4902],[173.9226,-35.7252,75.6287],[173.9321,-35.7344,132.3754],[173.9444,-35.7339,122.8183],[173.9611,-35.7437,115.0739],[173.9671,-35.743,97.8373],[173.9765,-35.7471,57.203],[173.9814,-35.7531,113.5597],[173.9804,-35.7607,158.6026],[173.9827,-35.7672,175.7101],[173.9793,-35.7677,161.9524],[174.0295,-35.7864,110.1482],[174.0433,-35.7853,10.1761],[174.0491,-35.7827,8.539],[174.0513,-35.7798,7.3946],[174.0522,-35.7812,7.3946],[174.0498,-35.7885,10.4564],[174.0534,-35.793,4.2246],[174.0553,-35.7919,6.426],[174.0522,-35.7894,4.6458],[174.0531,-35.7878,11.7186],[174.058,-35.7899,15.9536],[174.0742,-35.7872,59.3704],[174.0789,-35.7879,94.0489],[174.0788,-35.7892,102.0073],[174.0896,-35.7892,56.2123],[174.0896,-35.8118,12.3401],[174.0994,-35.8118,13.1131],[174.0974,-35.8145,14.5794],[174.0983,-35.8172,17.9778],[174.1009,-35.8181,15.256],[174.101,-35.8203,17.2374],[174.1049,-35.82,17.8944],[174.1037,-35.8219,31.6119],[174.0842,-35.8279,68.5613],[174.0855,-35.83,85.9107],[174.0895,-35.8291,70.1737],[174.0932,-35.8307,29.7875],[174.0949,-35.8363,45.5574],[174.0979,-35.8371,74.956],[174.0972,-35.839,68.522],[174.1144,-35.8437,268.1101],[174.1353,-35.8536,80.7695],[174.1351,-35.8701,489.8382],[174.1509,-35.8729,230.7544],[174.1516,-35.9022,24.4921],[174.149,-35.9034,31.9268],[174.1451,-35.9017,21.1964],[174.1438,-35.903,21.6509],[174.1451,-35.9037,21.6509],[174.1433,-35.9035,25.5528],[174.1435,-35.9051,22.1927],[174.1394,-35.9063,23.1842],[174.1384,-35.9082,24.775],[174.1352,-35.9064,31.4347],[174.1362,-35.9092,26.2136],[174.1307,-35.9093,23.0806],[174.1321,-35.9144,19.9722],[174.1275,-35.9118,18.7304],[174.1248,-35.9138,16.9302],[174.1263,-35.9152,20.7506],[174.1231,-35.9167,17.3647],[174.1234,-35.9181,17.2479],[174.1197,-35.9182,18.8453],[174.1214,-35.9191,19.9995],[174.1205,-35.92,20.5603],[174.1127,-35.9184,21.0487],[174.1144,-35.9174,32.5167],[174.1071,-35.9178,13.9141],[174.1083,-35.9187,14.1954],[174.1068,-35.9197,14.2412],[174.1078,-35.9221,14.4506],[174.1007,-35.9236,13.3764],[174.1024,-35.9247,13.7924],[174.1008,-35.9258,13.7924],[174.0974,-35.9257,15.2714],[174.1002,-35.9275,12.6205],[174.0972,-35.928,11.6839],[174.0957,-35.932,17.2239],[174.0928,-35.9304,12.7646],[174.0888,-35.9328,12.8219],[174.0885,-35.9297,12.0848],[174.086,-35.9327,9.8009],[174.0856,-35.9364,16.5019],[174.0869,-35.9378,12.2306],[174.0888,-35.9363,8.8332],[174.0977,-35.9389,12.8843],[174.1003,-35.9365,19.4133],[174.102,-35.9369,15.9358],[174.1019,-35.9385,10.0207],[174.1084,-35.9393,14.9194],[174.1093,-35.9446,24.998],[174.1077,-35.9438,15.6805],[174.1055,-35.9472,18.6085],[174.1127,-35.9468,15.1097],[174.1154,-35.9502,16.2095],[174.1115,-35.9522,13.359],[174.1082,-35.9563,32.0652],[174.113,-35.9614,11.971],[174.1145,-35.9607,13.7817],[174.115,-35.9643,12.6729],[174.1179,-35.9652,33.1027],[174.1189,-35.9675,16.4302],[174.1173,-35.9686,13.1787],[174.1176,-35.9708,15.5881],[174.1154,-35.9712,18.0781],[174.1174,-35.9749,18.3903],[174.1154,-35.9746,11.2575],[174.1168,-35.9757,11.2575],[174.1151,-35.9761,11.2575],[174.1151,-35.9777,10.764],[174.1165,-35.9781,10.7989],[174.1161,-35.98,10.381],[174.1177,-35.9791,15.4039],[174.1162,-35.9818,10.6486],[174.1176,-35.9826,10.6156],[174.1149,-35.9879,11.369],[174.1138,-35.9878,11.369],[174.1147,-35.9866,11.369],[174.1129,-35.9873,11.369],[174.1107,-35.9896,16.8641],[174.116,-35.9907,11.7037],[174.1161,-35.9935,14.82],[174.113,-35.9941,14.7901],[174.1144,-35.9953,13.2081],[174.1165,-35.9943,14.82],[174.117,-35.9984,13.7877],[174.1184,-35.9973,16.6708],[174.1201,-35.9987,16.3321],[174.1192,-36.0005,14.8167],[174.1215,-36.0001,15.9654],[174.1215,-36.0031,17.9545],[174.1228,-36.0033,17.9545],[174.1218,-36.0053,13.9321],[174.1225,-36.0043,17.9545],[174.1247,-36.0063,15.0893],[174.128,-36.0018,13.9142],[174.1297,-36.0047,15.5419],[174.1318,-36.0045,13.7825],[174.1321,-36.0027,17.3775],[174.1369,-36.0032,13.6438],[174.1372,-36.0016,14.1891],[174.1355,-36.0017,14.1891],[174.1369,-36.0005,15.1991],[174.1389,-36.0011,14.9802],[174.1379,-36.0001,14.9802],[174.1391,-35.9983,16.6611],[174.1407,-35.9995,16.1481],[174.1441,-35.9982,39.7353],[174.1425,-35.9968,19.5513],[174.1457,-35.9943,17.912],[174.1436,-35.9942,16.0435],[174.1442,-35.9917,21.2326],[174.1426,-35.9913,19.1013],[174.1458,-35.9906,25.7391],[174.1452,-35.9879,25.5723],[174.1481,-35.9875,26.5315],[174.1494,-35.9845,41.3611],[174.151,-35.9887,40.8606],[174.1555,-35.9877,31.3915],[174.1562,-35.985,28.5972],[174.1578,-35.9846,28.5972],[174.1579,-35.9834,26.9813],[174.1562,-35.9835,26.9813],[174.1577,-35.9815,26.0516],[174.1606,-35.9829,40.5877],[174.1594,-35.9837,24.177],[174.1606,-35.9839,23.7651],[174.1608,-35.987,26.1036],[174.1592,-35.9878,30.3072],[174.1654,-35.9898,32.9532],[174.1643,-35.9898,32.9532],[174.1652,-35.9934,23.5281],[174.167,-35.9932,19.959],[174.1665,-35.9945,19.959],[174.1714,-35.9925,33.3893],[174.1727,-35.9945,29.1076],[174.1768,-35.9934,24.237],[174.1787,-35.9971,45.5452],[174.1824,-35.9945,25.5087],[174.1814,-35.993,25.5087],[174.1845,-35.9935,21.3102],[174.1864,-35.9919,21.547],[174.1851,-35.9888,22.7104],[174.187,-35.9883,46.9085],[174.1859,-35.9882,22.7104],[174.1871,-35.9857,24.3303],[174.1918,-35.9858,24.2796],[174.1938,-35.9851,27.1668],[174.1933,-35.9841,38.8937],[174.1952,-35.9859,25.3598],[174.1987,-35.9846,24.6514],[174.2028,-35.9884,24.8711],[174.2951,-35.9404,112.7625],[174.3097,-35.9531,109.8186],[174.3272,-35.9576,143.2254],[174.3271,-35.9817,169.7861],[174.3182,-35.9849,159.1524],[174.3112,-35.9842,130.0322],[174.3105,-35.9862,120.7571],[174.3129,-35.9877,126.6524],[174.3134,-35.9907,108.717],[174.3171,-35.9931,84.1844],[174.3178,-35.9965,114.9287],[174.3152,-36.0007,61.2241],[174.3202,-36.0067,147.8535],[174.3245,-36.0268,69.0143],[174.3314,-36.0262,93.3697],[174.3307,-36.0251,83.041],[174.3404,-36.0214,134.1547],[174.3426,-36.0245,141.0439],[174.3424,-36.0275,168.5668],[174.3461,-36.0295,161.7767],[174.3443,-36.0345,219.8687],[174.3591,-36.0435,244.7231],[174.3588,-36.0536,175.3721],[174.3682,-36.0536,221.9834],[174.3732,-36.0486,160.7279],[174.3783,-36.0521,200.4223],[174.3813,-36.051,185.6445],[174.3821,-36.0458,133.5723],[174.3846,-36.0457,117.2541],[174.3905,-36.0552,73.7046],[174.3875,-36.056,67.8571],[174.3909,-36.0582,106.7186],[174.3905,-36.0653,99.856],[174.388,-36.0678,103.8198],[174.385,-36.0675,99.9912],[174.3902,-36.0709,110.2106],[174.3957,-36.0718,93.6431],[174.4005,-36.0758,101.0492],[174.4002,-36.0772,93.2382],[174.4041,-36.0759,133.2668],[174.408,-36.0768,115.3295],[174.4081,-36.0787,99.658],[174.4171,-36.0773,121.1523],[174.4338,-36.0816,126.9014],[174.4355,-36.084,135.4431],[174.4404,-36.086,163.6483],[174.447,-36.0866,160.5712],[174.4517,-36.0857,207.9724],[174.4546,-36.0822,208.3157],[174.4702,-36.0773,234.5522],[174.4728,-36.0752,236.5646],[174.4729,-36.072,316.9578],[174.4774,-36.0708,327.4029],[174.4816,-36.0705,333.2147],[174.4847,-36.073,295.3677],[174.493,-36.072,296.3304],[174.4955,-36.0741,309.8818],[174.502,-36.0741,377.8321],[174.5055,-36.0712,329.1508],[174.5102,-36.0726,329.9673],[174.5245,-36.0635,219.5438],[174.5304,-36.0673,244.5894],[174.5363,-36.0664,248.6046],[174.5422,-36.0696,278.3917],[174.5562,-36.0662,203.6973],[174.5641,-36.0666,212.9133],[174.5653,-36.0652,187.5797],[174.5642,-36.0614,127.3826],[174.5558,-36.0555,37.4296],[174.5655,-36.0612,110.7915],[174.5686,-36.0609,99.5156],[174.5701,-36.0591,86.8813],[174.5732,-36.0611,74.2967],[174.5804,-36.0532,111.8018],[174.583,-36.0434,34.0628],[174.5807,-36.0423,1.0017],[174.5726,-36.0439,6.864],[174.5692,-36.0488,15.4168],[174.5556,-36.0453,3.857],[174.5533,-36.048,18.8448],[174.5445,-36.0461,0.0],[174.5432,-36.0483,18.5585],[174.5397,-36.0486,4.0503],[174.53,-36.042,24.8629],[174.5301,-36.0396,24.0739],[174.5198,-36.0343,18.748],[174.5186,-36.0319,3.4711],[174.5086,-36.0295,0.0],[174.4949,-36.0127,2.9004],[174.4831,-35.9936,0.0793],[174.4674,-35.9601,5.7168],[174.4639,-35.9484,4.2026],[174.4602,-35.9209,4.983],[174.4616,-35.9051,1.562],[174.4651,-35.8959,0.0],[174.4671,-35.8837,2.1409],[174.4691,-35.878,0.0],[174.4791,-35.8616,0.0],[174.4997,-35.8434,3.2406],[174.5008,-35.841,3.4514],[174.4992,-35.8379,0.7896],[174.4909,-35.8376,3.2799],[174.4908,-35.8346,0.9415],[174.4873,-35.8346,5.2552],[174.4874,-35.8328,0.0],[174.4834,-35.8315,1.303],[174.4814,-35.8358,2.0723],[174.4767,-35.8355,0.5538],[174.4815,-35.837,2.618],[174.4801,-35.8391,2.5502],[174.4734,-35.8393,1.6002],[174.4735,-35.8372,2.1701],[174.4783,-35.8379,0.9837],[174.4709,-35.8348,1.5943],[174.4691,-35.8306,0.0],[174.4635,-35.829,1.4673],[174.4543,-35.8182,4.1499],[174.4431,-35.8275,0.855],[174.4395,-35.8289,0.5765],[174.438,-35.8271,0.0],[174.435,-35.8279,0.0],[174.4359,-35.8288,0.0906],[174.4342,-35.8331,0.4369],[174.4281,-35.8324,0.7442],[174.4231,-35.8384,3.2558],[174.4218,-35.8348,1.3767],[174.4252,-35.8339,1.1864],[174.4282,-35.8299,0.8433],[174.4261,-35.8265,0.362],[174.4084,-35.8283,2.3792],[174.4075,-35.8315,3.9299],[174.4048,-35.831,2.3129],[174.3944,-35.825,0.5577],[174.3912,-35.8247,6.6894],[174.3893,-35.8215,0.2691],[174.3854,-35.8194,1.1877],[174.3829,-35.8139,2.3101],[174.3787,-35.8188,7.0387],[174.3818,-35.8208,13.3295],[174.3777,-35.8213,5.1289],[174.3752,-35.8236,4.5821],[174.3758,-35.8249,8.5396],[174.3742,-35.8264,11.863],[174.3761,-35.8285,3.5989],[174.3734,-35.8292,2.2005],[174.3739,-35.8323,3.1373],[174.3718,-35.831,2.9049],[174.3683,-35.8347,8.3767],[174.3715,-35.8269,10.8804],[174.3704,-35.8255,1.9351],[174.3663,-35.8258,4.116],[174.3704,-35.8237,5.8951],[174.3704,-35.8208,12.83],[174.3741,-35.8214,3.4786],[174.3758,-35.8182,6.4442],[174.3704,-35.8167,6.3349],[174.3689,-35.8144,8.0183],[174.369,-35.812,13.1057],[174.3729,-35.8077,2.8245],[174.3718,-35.8063,6.191],[174.3657,-35.8089,7.9607],[174.3591,-35.8072,0.1732],[174.36,-35.8103,3.3857],[174.3561,-35.8133,8.6985],[174.3584,-35.8186,1.2959],[174.3607,-35.8188,1.5067],[174.3604,-35.8224,3.0079],[174.3556,-35.8251,1.1868],[174.3578,-35.833,4.5229],[174.3596,-35.8338,4.5229],[174.3573,-35.8349,5.4769],[174.3558,-35.8332,1.8928],[174.348,-35.8317,8.4738],[174.3452,-35.8353,4.05],[174.3406,-35.8369,3.579],[174.341,-35.8387,1.0796],[174.3508,-35.8403,3.7377],[174.3563,-35.8423,8.6848],[174.3564,-35.8437,6.7302],[174.3521,-35.8434,3.226],[174.3499,-35.845,6.4021],[174.3491,-35.8435,4.9757],[174.3426,-35.844,1.2741],[174.3424,-35.8476,6.5634],[174.3415,-35.8456,2.0711],[174.3385,-35.8449,2.9886],[174.3364,-35.848,3.7798],[174.3371,-35.8496,24.6038],[174.3327,-35.85,11.6217],[174.3348,-35.8485,10.6731],[174.3358,-35.8406,5.9273],[174.3226,-35.8368,4.5882],[174.3212,-35.8379,4.5882],[174.3223,-35.8463,4.6504],[174.3206,-35.8463,3.7203],[174.3226,-35.8488,5.3069],[174.3191,-35.845,2.2046],[174.3192,-35.8366,0.5789],[174.3131,-35.8388,9.398],[174.3107,-35.8422,11.0692],[174.3112,-35.8432,11.9623],[174.3108,-35.8443,11.9623],[174.3114,-35.8448,7.9316],[174.3107,-35.8444,11.9623],[174.311,-35.8431,11.9623],[174.3098,-35.8429,6.2422],[174.3112,-35.8393,1.708],[174.3063,-35.8373,2.0102],[174.3162,-35.8336,3.5306],[174.3183,-35.8304,2.2295],[174.3171,-35.8303,2.2295],[174.3173,-35.827,3.4074],[174.3231,-35.8344,8.6233],[174.3261,-35.8344,17.1057],[174.3266,-35.8312,13.9749],[174.3292,-35.8311,0.5724],[174.3313,-35.826,12.8656],[174.3365,-35.8249,1.4169],[174.3408,-35.8212,10.0346],[174.3352,-35.8172,2.8799],[174.3273,-35.8181,5.1982],[174.3274,-35.8178,5.3215],[174.3285,-35.8171,5.3215],[174.3279,-35.814,1.5915],[174.3242,-35.8129,9.2814],[174.3226,-35.8101,7.9559],[174.323,-35.8078,3.2217],[174.3265,-35.8094,3.1519],[174.3257,-35.8074,2.8715],[174.3273,-35.8052,5.7524],[174.3293,-35.8082,12.7382],[174.3266,-35.8107,1.3716],[174.3343,-35.8112,13.7779],[174.3354,-35.8099,1.4057],[174.3326,-35.8041,9.4514],[174.3341,-35.8003,2.5612],[174.3328,-35.7975,14.6984],[174.3365,-35.7922,11.0593],[174.341,-35.7915,8.1254],[174.3404,-35.7899,9.589],[174.3333,-35.7891,2.5942],[174.3308,-35.7863,14.53],[174.3269,-35.785,4.3033],[174.3277,-35.7804,4.3245],[174.3315,-35.7779,0.0],[174.321,-35.7792,4.5019],[174.319,-35.7777,0.9847],[174.3145,-35.7799,4.5838],[174.3137,-35.7795,1.2559],[174.3156,-35.7777,1.2495],[174.3114,-35.7783,1.2854],[174.3096,-35.7796,2.1135],[174.3089,-35.7844,1.2879],[174.3059,-35.7847,2.6095],[174.3069,-35.7834,1.7248],[174.3086,-35.7842,1.2879],[174.3085,-35.7803,2.1135],[174.3109,-35.777,2.5892],[174.3148,-35.7773,1.2495],[174.3126,-35.7761,2.6846],[174.3144,-35.7744,3.8982],[174.3138,-35.77,3.6985],[174.32,-35.7675,1.1513],[174.3225,-35.7613,1.4024],[174.3282,-35.7596,1.709],[174.3317,-35.7568,2.2783],[174.3316,-35.7593,0.9978],[174.3461,-35.7591,3.3549],[174.3485,-35.7619,0.0],[174.3483,-35.7584,0.0],[174.3512,-35.7584,0.0],[174.3482,-35.7527,0.5752],[174.3492,-35.7492,0.2286],[174.3481,-35.7368,0.0],[174.3407,-35.7392,0.0],[174.3345,-35.7382,2.5448],[174.3367,-35.7357,0.0],[174.3392,-35.737,1.7221],[174.3452,-35.7341,3.1135],[174.3441,-35.7313,2.4297],[174.3528,-35.7366,0.951],[174.3613,-35.7393,14.0498],[174.3622,-35.742,7.9814],[174.3592,-35.7453,7.1738],[174.3524,-35.7486,3.5934],[174.3541,-35.7514,2.0334],[174.3563,-35.7502,20.7682],[174.3639,-35.7569,21.4242],[174.3621,-35.7612,1.1748],[174.3563,-35.7628,2.4955],[174.3545,-35.7692,11.6012],[174.3559,-35.7728,25.7304],[174.3611,-35.776,4.4484],[174.3638,-35.7764,0.0],[174.3728,-35.7684,0.0],[174.3712,-35.7658,1.0722],[174.3695,-35.7659,7.1477],[174.3699,-35.7627,8.5638],[174.3778,-35.757,1.2934],[174.3929,-35.7649,5.4567],[174.3941,-35.7689,0.5393],[174.4035,-35.7753,13.0879],[174.4044,-35.7786,0.0],[174.4148,-35.78,1.8514],[174.4189,-35.785,0.0],[174.4232,-35.7851,0.0],[174.4311,-35.794,8.9],[174.4426,-35.7958,20.3833],[174.446,-35.7943,6.5164],[174.4432,-35.7933,18.4253],[174.4376,-35.7872,5.526],[174.4307,-35.7838,1.2618],[174.4305,-35.7851,7.89],[174.4302,-35.7813,1.1113],[174.4376,-35.7777,14.9335],[174.4477,-35.7796,0.0],[174.4491,-35.7779,3.0645],[174.4483,-35.7755,6.0251],[174.457,-35.7697,1.7258],[174.4609,-35.7726,0.0],[174.4627,-35.7697,5.941],[174.4636,-35.7707,5.941],[174.465,-35.7691,10.8235],[174.4668,-35.7715,0.0],[174.4688,-35.7693,28.184],[174.4736,-35.7742,0.0],[174.4759,-35.773,0.0],[174.4753,-35.7714,1.8755],[174.4782,-35.7715,3.5616],[174.4809,-35.7773,0.8207],[174.48,-35.7792,3.7328],[174.4698,-35.7804,12.1994],[174.4688,-35.7812,0.0],[174.4713,-35.7825,17.5255],[174.4693,-35.7839,21.0468],[174.4611,-35.7823,4.4647],[174.4603,-35.7846,0.0],[174.466,-35.7861,24.9428],[174.4677,-35.7907,3.5555],[174.4655,-35.7928,0.0],[174.4623,-35.7918,8.0443],[174.4573,-35.7928,0.0],[174.4594,-35.7934,0.0],[174.46,-35.7953,0.0],[174.464,-35.7936,11.0406],[174.4811,-35.7931,0.0],[174.4854,-35.7864,0.3442],[174.4897,-35.7875,8.6683],[174.498,-35.7976,15.5358],[174.498,-35.8015,1.0378],[174.5011,-35.803,0.3159],[174.5011,-35.8071,0.0],[174.5041,-35.8111,32.912],[174.5038,-35.816,0.0444],[174.4976,-35.8168,3.4433],[174.4926,-35.8201,0.0],[174.4947,-35.8226,0.7009],[174.4939,-35.8241,1.2012],[174.4975,-35.8268,3.0805],[174.4967,-35.828,0.0],[174.4999,-35.8282,15.9779],[174.5024,-35.8311,6.5408],[174.5083,-35.8274,9.9303],[174.5135,-35.8295,6.1857],[174.5144,-35.827,7.3401],[174.5234,-35.8269,1.4752],[174.5247,-35.8252,1.8015],[174.5295,-35.829,0.6843],[174.5272,-35.8307,3.7483],[174.527,-35.8331,1.625],[174.5308,-35.8316,17.3359],[174.5308,-35.8336,9.0336],[174.5328,-35.8345,25.8383],[174.5356,-35.8452,0.8935],[174.5319,-35.8483,0.6439],[174.5268,-35.8481,3.5121],[174.5244,-35.8503,0.0],[174.5276,-35.854,4.7651],[174.5308,-35.8621,0.0],[174.5324,-35.8607,2.0656],[174.5312,-35.8578,3.8504],[174.5343,-35.8553,3.1504],[174.5565,-35.861,7.7192],[174.5626,-35.8568,16.9343],[174.5758,-35.8595,89.2806],[174.5836,-35.8572,40.5131],[174.5856,-35.8543,111.0607],[174.5915,-35.8536,2.0963],[174.5863,-35.8498,0.0],[174.5853,-35.8462,1.6677],[174.5793,-35.8388,4.6996],[174.5751,-35.8385,4.7268],[174.5733,-35.8366,15.2574],[174.5732,-35.8348,11.0387],[174.5699,-35.8327,0.0],[174.5674,-35.8271,4.7726],[174.5618,-35.8204,2.1759],[174.5541,-35.8036,7.0297],[174.5501,-35.7877,1.3424],[174.5488,-35.7873,4.0944],[174.5549,-35.7812,24.909],[174.5544,-35.7784,51.7865],[174.5566,-35.777,0.0],[174.5557,-35.7734,0.0],[174.5528,-35.7733,45.9771],[174.5549,-35.7669,35.5311],[174.5531,-35.765,32.9431],[174.5559,-35.763,5.6435],[174.5608,-35.7629,7.6948],[174.5568,-35.7584,9.3639],[174.5521,-35.7561,19.1625],[174.5541,-35.7545,12.3054],[174.553,-35.7518,10.1665],[174.5556,-35.7514,0.0],[174.5513,-35.7484,18.2301],[174.551,-35.7466,6.0609],[174.5516,-35.745,0.8391],[174.5547,-35.7442,24.7605],[174.5625,-35.7454,7.7194],[174.5608,-35.7435,18.2902],[174.5624,-35.7423,10.5304],[174.5555,-35.7359,0.8999],[174.5569,-35.7348,0.8999],[174.5567,-35.7308,4.0227],[174.5533,-35.7309,0.0],[174.5517,-35.7284,3.1206],[174.5537,-35.7264,4.3574],[174.5574,-35.7267,0.7501],[174.5576,-35.724,18.5555],[174.5645,-35.7229,20.8464],[174.5672,-35.7174,28.565],[174.564,-35.7157,4.2364],[174.56,-35.7164,19.6733],[174.5587,-35.7189,4.6067],[174.5365,-35.7259,0.0],[174.5383,-35.7282,0.0],[174.5498,-35.7293,5.0143],[174.5472,-35.7297,11.671],[174.5452,-35.7329,3.3093],[174.5475,-35.7339,0.3106],[174.5498,-35.7325,5.0996],[174.5522,-35.7344,7.7297],[174.5442,-35.7388,1.7541],[174.5503,-35.7415,9.648],[174.5468,-35.7415,0.7821],[174.5461,-35.744,2.1733],[174.5421,-35.7435,4.1408],[174.5398,-35.7451,4.9988],[174.5381,-35.7436,0.0],[174.536,-35.7456,1.0105],[174.5403,-35.7513,11.7548],[174.5389,-35.7527,11.7548],[174.5332,-35.7478,2.1498],[174.5308,-35.7504,17.4275],[174.5263,-35.7496,2.4292],[174.5241,-35.7543,8.7439],[174.5241,-35.7479,1.9403],[174.5163,-35.752,5.1484],[174.514,-35.7554,5.1142],[174.5164,-35.7513,5.1484],[174.5241,-35.746,17.7059],[174.5275,-35.7478,4.5892],[174.529,-35.7463,2.2194],[174.5317,-35.7466,2.6425],[174.5338,-35.7443,4.5096],[174.5326,-35.7428,18.3371],[174.5348,-35.7425,1.1048],[174.5342,-35.741,6.7273],[174.5403,-35.7369,2.0623],[174.5379,-35.7349,8.1569],[174.5351,-35.735,6.7492],[174.5345,-35.7309,1.2054],[174.5295,-35.7324,4.7209],[174.5313,-35.7305,0.0],[174.526,-35.7263,22.2316],[174.5287,-35.7244,36.7979],[174.5333,-35.7248,0.0],[174.5351,-35.7238,0.0],[174.5346,-35.7219,16.8384],[174.5375,-35.723,0.0],[174.5377,-35.7192,17.8671],[174.5418,-35.7199,17.0328],[174.5384,-35.721,12.3737],[174.5407,-35.7221,1.0386],[174.5476,-35.7189,0.0],[174.5422,-35.7136,60.0116],[174.5429,-35.7125,34.1465],[174.5415,-35.711,1.23],[174.5399,-35.7146,30.0634],[174.5351,-35.7155,12.1178],[174.5282,-35.7125,0.0],[174.5264,-35.714,0.0],[174.5298,-35.7159,3.9872],[174.5271,-35.7178,0.0],[174.5204,-35.7154,0.8158],[174.5199,-35.7178,0.0],[174.5239,-35.7185,2.9438],[174.5191,-35.7189,1.9606],[174.5183,-35.7208,4.8922],[174.5047,-35.7212,0.0],[174.508,-35.7239,32.6648],[174.5067,-35.7289,13.1606],[174.5084,-35.731,5.5266],[174.5019,-35.7321,3.0343],[174.5012,-35.7342,15.0822],[174.4902,-35.7322,2.7592],[174.4847,-35.7337,1.2143],[174.4837,-35.7368,5.9775],[174.488,-35.7386,16.7574],[174.485,-35.7447,1.9797],[174.4862,-35.7399,5.96],[174.4874,-35.7386,16.7574],[174.4817,-35.7362,2.0542],[174.4822,-35.7325,19.6902],[174.4854,-35.7311,30.1491],[174.4962,-35.7296,10.5656],[174.4991,-35.7317,2.7325],[174.5013,-35.7284,1.432],[174.4945,-35.726,0.484],[174.5034,-35.7255,6.2994],[174.4977,-35.7198,4.8251],[174.5014,-35.7196,0.0],[174.5016,-35.7171,18.7262],[174.4989,-35.7166,21.8023],[174.5002,-35.7152,3.2544],[174.4992,-35.7131,4.1152],[174.5032,-35.7138,11.0712],[174.5047,-35.7161,12.2602],[174.5064,-35.7139,14.1746],[174.5097,-35.7154,10.768],[174.5095,-35.7135,18.4274],[174.5115,-35.7133,9.0435],[174.5129,-35.7159,12.9152],[174.5175,-35.7161,11.3393],[174.5191,-35.7148,3.2814],[174.5186,-35.7133,6.2177],[174.5252,-35.7137,0.0],[174.5156,-35.7,6.4564],[174.5086,-35.6776,0.904],[174.509,-35.6677,3.1194],[174.5078,-35.6677,0.7644],[174.5074,-35.6636,5.7671],[174.5125,-35.656,3.9831],[174.5023,-35.649,4.9279],[174.5076,-35.6397,0.7779],[174.5138,-35.6335,0.0],[174.5143,-35.6302,0.0],[174.5116,-35.63,1.2082],[174.5063,-35.6325,1.8914],[174.5024,-35.6408,0.5283],[174.4974,-35.6431,12.6324],[174.4934,-35.6426,0.0],[174.4928,-35.644,3.5519],[174.4943,-35.6448,7.1619],[174.4909,-35.6443,13.8576],[174.4924,-35.643,3.5519],[174.4896,-35.642,1.6029],[174.4876,-35.6434,23.1083],[174.4855,-35.6412,0.0],[174.4836,-35.6419,8.869],[174.4856,-35.6449,33.1272],[174.4837,-35.6445,3.108],[174.4818,-35.647,4.665],[174.4857,-35.6473,21.7908],[174.4855,-35.6499,3.0881],[174.4789,-35.65,15.8518],[174.4776,-35.6484,3.6277],[174.477,-35.6515,10.3796],[174.4755,-35.6499,12.5012],[174.4766,-35.647,11.6129],[174.4751,-35.6466,11.6129],[174.4733,-35.649,4.9359],[174.4717,-35.648,19.6763],[174.4734,-35.6463,4.5941],[174.4716,-35.6466,15.0967],[174.4741,-35.6444,4.6255],[174.4721,-35.6446,14.0384],[174.4679,-35.647,0.8204],[174.4696,-35.6494,30.6264],[174.4683,-35.6493,2.0603],[174.4691,-35.6506,30.0704],[174.4668,-35.653,16.7175],[174.4638,-35.6512,5.8147],[174.4637,-35.6498,5.8147],[174.4666,-35.6482,14.5575],[174.4649,-35.6483,14.5575],[174.462,-35.6425,3.1862],[174.4615,-35.6459,15.1812],[174.4599,-35.645,27.0914],[174.4604,-35.6431,30.7765],[174.4589,-35.6428,21.5293],[174.4599,-35.6414,21.5293],[174.4574,-35.6418,7.2386],[174.4567,-35.6442,7.7321],[174.4552,-35.6422,3.7887],[174.4544,-35.6439,6.167],[174.4516,-35.6396,7.896],[174.4477,-35.6407,10.8328],[174.4486,-35.6388,2.6319],[174.4465,-35.639,12.7497],[174.4472,-35.6379,1.9544],[174.4434,-35.6352,5.5462],[174.4396,-35.636,0.9491],[174.436,-35.6346,1.3301],[174.4407,-35.6327,18.92],[174.4485,-35.633,11.7051],[174.4498,-35.6374,1.1726],[174.4519,-35.636,11.3307],[174.4543,-35.6369,15.7762],[174.4538,-35.6391,9.5311],[174.4554,-35.6398,1.0574],[174.457,-35.6361,22.1974],[174.459,-35.6359,16.4019],[174.4581,-35.6384,5.2366],[174.461,-35.64,0.0],[174.4608,-35.6381,7.2242],[174.4637,-35.6385,3.522],[174.4616,-35.6371,14.7903],[174.4626,-35.6363,14.7903],[174.4649,-35.6387,3.9225],[174.4664,-35.6378,33.5552],[174.4652,-35.6347,19.8742],[174.4671,-35.6362,33.242],[174.4669,-35.6376,14.7758],[174.4658,-35.6391,3.9225],[174.4679,-35.6387,18.5845],[174.4671,-35.6394,18.5845],[174.4651,-35.6397,20.6514],[174.4646,-35.6405,0.0],[174.4664,-35.6438,0.0],[174.4693,-35.6423,3.3335],[174.4682,-35.6403,27.8938],[174.4724,-35.6414,3.5625],[174.4705,-35.639,22.9534],[174.4712,-35.6371,14.0665],[174.4732,-35.6375,18.5214],[174.4718,-35.6391,11.1976],[174.4738,-35.64,0.9441],[174.4759,-35.6326,15.3545],[174.4847,-35.6347,9.315],[174.478,-35.6362,3.2128],[174.4767,-35.6422,0.0],[174.4782,-35.643,0.0],[174.4793,-35.6401,0.4744],[174.4836,-35.6391,0.9495],[174.4847,-35.6371,21.2769],[174.4954,-35.6382,0.0],[174.4939,-35.6374,2.8761],[174.4984,-35.6362,4.9962],[174.5,-35.6375,1.6159],[174.4998,-35.6356,0.6959],[174.5061,-35.6284,3.0878],[174.5066,-35.6296,0.0],[174.5111,-35.627,1.9364],[174.5141,-35.6271,2.5795],[174.5196,-35.6321,2.0086],[174.523,-35.6324,44.241],[174.5241,-35.6355,1.8743],[174.5295,-35.6347,0.0],[174.5329,-35.6407,26.212],[174.536,-35.6401,14.8747],[174.5362,-35.6368,46.9349],[174.5418,-35.6353,1.3371],[174.5402,-35.6329,37.3191],[174.5426,-35.6314,14.2286],[174.54,-35.6275,4.8306],[174.5433,-35.6244,0.3282],[174.5406,-35.6237,27.5184],[174.5419,-35.6202,4.5387],[174.5376,-35.6204,24.5633],[174.5408,-35.6181,6.5458],[174.539,-35.6171,1.6187],[174.536,-35.6198,15.8627],[174.534,-35.6189,1.1497],[174.5322,-35.6215,23.0047],[174.5299,-35.6214,15.1181],[174.5291,-35.6203,18.2345],[174.5312,-35.6175,0.0],[174.5275,-35.6152,16.6004],[174.528,-35.6123,10.1436],[174.5245,-35.6107,3.6161],[174.5281,-35.6086,10.7003],[174.5367,-35.6144,8.2311],[174.5371,-35.6127,21.4037],[174.5406,-35.6137,3.8416],[174.5417,-35.6122,4.6959],[174.5361,-35.6098,33.4343],[174.5365,-35.6077,0.7904],[174.5336,-35.6083,16.6143],[174.5328,-35.6059,0.3239],[174.5356,-35.6043,8.0454],[174.5342,-35.6024,14.9688],[174.5387,-35.6024,13.4354],[174.5428,-35.5989,25.8202],[174.5363,-35.5971,19.9869],[174.539,-35.5947,0.0],[174.5378,-35.5928,59.2514],[174.5398,-35.59,7.0749],[174.536,-35.5883,50.9977],[174.5378,-35.5862,22.9865],[174.5332,-35.583,41.678],[174.5346,-35.5823,23.1657],[174.5335,-35.5805,11.0886],[174.5362,-35.5806,12.8802],[174.5344,-35.5789,8.3429],[174.5316,-35.5797,35.1219],[174.5255,-35.5777,21.2769],[174.5263,-35.5744,9.9195],[174.5228,-35.5737,13.6998],[174.5241,-35.5728,3.0183],[174.5221,-35.572,37.3472],[174.5237,-35.5712,1.2047],[174.5214,-35.5698,14.9986],[174.5225,-35.5683,1.0236],[174.5189,-35.5677,19.3966],[174.5197,-35.5648,8.9748],[174.5156,-35.5682,22.8062],[174.5141,-35.566,31.836],[174.5159,-35.5645,0.5553],[174.5118,-35.5647,0.0],[174.5118,-35.5706,2.4504],[174.509,-35.5672,1.2234],[174.5063,-35.5667,1.5929],[174.5109,-35.5671,0.0],[174.5072,-35.5644,2.6576],[174.5077,-35.5608,19.9959],[174.5144,-35.5597,0.0],[174.5135,-35.5584,16.4644],[174.5111,-35.5588,34.9381],[174.5109,-35.5561,0.0],[174.5074,-35.5588,20.083],[174.4992,-35.5547,0.0],[174.5004,-35.5587,24.3299],[174.4947,-35.5625,19.2184],[174.4858,-35.5601,1.2689],[174.4843,-35.5558,2.5857],[174.4776,-35.5579,9.5668],[174.4728,-35.5558,10.0368],[174.4738,-35.5543,4.3536],[174.4702,-35.5515,24.0657],[174.4698,-35.5488,20.9528],[174.4718,-35.5457,4.3813],[174.4687,-35.5474,41.4057],[174.4655,-35.5421,13.866],[174.4667,-35.5391,26.3287],[174.4633,-35.5379,9.0169],[174.465,-35.5336,3.0793],[174.4607,-35.5337,29.7761],[174.4592,-35.5312,21.1064],[174.4593,-35.5286,10.3962],[174.4621,-35.5286,0.8862],[174.4608,-35.5278,0.0],[174.4612,-35.5237,0.0],[174.4683,-35.5121,0.716],[174.465,-35.5125,0.921],[174.4592,-35.5184,1.6741],[174.4507,-35.5188,1.9019],[174.4542,-35.521,7.0703],[174.4535,-35.5241,2.627],[174.4506,-35.5256,18.9797],[174.4496,-35.525,3.2719],[174.4506,-35.521,1.8258],[174.4473,-35.5218,24.8124],[174.4491,-35.5191,4.8658],[174.4454,-35.5203,7.8929],[174.4471,-35.5161,0.0],[174.4422,-35.5172,25.1845],[174.4412,-35.5149,10.5021],[174.4378,-35.5151,4.7634],[174.4292,-35.5178,7.305],[174.4304,-35.5135,1.3019],[174.4395,-35.5124,6.0229],[174.4356,-35.5081,9.5946],[174.4367,-35.5051,17.8038],[174.4412,-35.5089,1.9168],[174.4434,-35.5083,22.1822],[174.4422,-35.5096,14.7409],[174.4443,-35.511,4.2941],[174.4428,-35.5131,3.2465],[174.4453,-35.5117,4.0302],[174.4526,-35.5152,0.5767],[174.4588,-35.5124,2.302],[174.4611,-35.5088,0.8733],[174.4668,-35.5078,13.3742],[174.4698,-35.5118,8.5061],[174.4731,-35.5121,35.3056],[174.4774,-35.519,0.7895],[174.4789,-35.5171,5.3602],[174.4785,-35.5146,8.5711],[174.4801,-35.5144,3.4748],[174.4785,-35.5132,16.1987],[174.48,-35.5116,0.5569],[174.4784,-35.5125,4.6563],[174.4733,-35.51,15.8029],[174.4721,-35.5077,12.7055],[174.4731,-35.5069,0.1468],[174.4701,-35.5061,1.2803],[174.4685,-35.5031,32.992],[174.4697,-35.5022,0.0],[174.4672,-35.501,25.8115],[174.469,-35.5004,0.0],[174.4688,-35.4984,36.9758],[174.4715,-35.498,0.0958],[174.4701,-35.4964,19.7235],[174.4708,-35.4949,17.9688],[174.4684,-35.4938,17.2699],[174.4697,-35.4902,0.27],[174.4596,-35.4919,9.3498],[174.4611,-35.4902,0.0],[174.4582,-35.4907,12.3326],[174.4555,-35.4893,4.3058],[174.4549,-35.4845,0.1553],[174.4529,-35.4854,23.116],[174.4508,-35.4834,0.0],[174.45,-35.4807,24.8919],[174.453,-35.4792,0.0697],[174.4501,-35.4768,10.3718],[174.4514,-35.4751,0.3834],[174.4491,-35.4711,13.7982],[174.4531,-35.4681,0.0],[174.4476,-35.4659,0.8907],[174.4447,-35.4673,16.9364],[174.4428,-35.4655,1.2101],[174.4449,-35.4633,0.3775],[174.4415,-35.465,38.029],[174.4362,-35.4638,1.2526],[174.4331,-35.4602,15.7026],[174.4336,-35.4579,0.7786],[174.4315,-35.4586,2.897],[174.4325,-35.4576,0.7786],[174.428,-35.4557,1.1086],[174.4267,-35.4512,0.0],[174.4276,-35.4471,5.8845],[174.4256,-35.4462,1.7758],[174.4268,-35.446,1.1568],[174.4265,-35.4418,1.1402],[174.4291,-35.4359,6.8348],[174.4307,-35.4333,2.5246],[174.4336,-35.4327,10.4759],[174.431,-35.4317,14.5971],[174.4323,-35.428,2.4458],[174.4245,-35.4274,4.3609],[174.4231,-35.4262,20.7526],[174.424,-35.4246,0.0],[174.4204,-35.4255,15.5167],[174.4188,-35.4245,0.0],[174.4177,-35.428,7.4079],[174.4203,-35.4286,5.0743],[174.4214,-35.4325,0.0],[174.4235,-35.4335,0.0],[174.4229,-35.4361,0.0],[174.4174,-35.44,2.5182],[174.4122,-35.4402,4.4892],[174.4128,-35.4416,4.1465],[174.4087,-35.4435,22.4857],[174.3994,-35.4434,25.4855],[174.3944,-35.4413,6.2576],[174.3937,-35.4393,26.0513],[174.3965,-35.4368,2.2847],[174.3924,-35.4373,20.3154],[174.3933,-35.43,12.1791],[174.3898,-35.4333,45.3321],[174.3854,-35.433,39.0015],[174.3832,-35.4371,3.9275],[174.3802,-35.4362,41.9348],[174.3811,-35.4347,0.0],[174.3792,-35.4333,16.0601],[174.3758,-35.436,4.8268],[174.3737,-35.4356,2.0395],[174.3724,-35.438,10.5116],[174.3693,-35.4355,2.5686],[174.3665,-35.4378,17.2893],[174.3635,-35.4368,17.2545],[174.3609,-35.4309,4.7675],[174.3599,-35.4314,2.0881],[174.3602,-35.4302,4.7675],[174.3642,-35.429,0.0],[174.3618,-35.4257,65.8125],[174.3631,-35.423,28.6714],[174.3702,-35.421,30.2358],[174.3753,-35.4222,7.622],[174.3753,-35.4196,15.6544],[174.3696,-35.4132,45.6655],[174.3629,-35.4162,0.0698],[174.3575,-35.4159,13.38],[174.3554,-35.4099,8.6853],[174.356,-35.4066,0.0],[174.3508,-35.4016,13.5289],[174.3514,-35.3982,37.2789],[174.353,-35.3982,1.1212],[174.3519,-35.397,14.709],[174.3531,-35.3941,12.1776],[174.348,-35.394,3.0461],[174.3441,-35.3894,8.5367],[174.3446,-35.3854,5.6317],[174.3477,-35.3826,0.0],[174.3466,-35.3796,6.4929],[174.3397,-35.3771,0.8796],[174.34,-35.372,0.0],[174.338,-35.3697,14.6506],[174.3404,-35.3663,1.6282],[174.3396,-35.3636,0.0],[174.3363,-35.3631,23.1412],[174.3306,-35.3553,6.4502],[174.3288,-35.3566,5.7931],[174.3295,-35.359,20.3103],[174.3273,-35.3568,5.7931],[174.3263,-35.3593,5.2881],[174.3248,-35.3582,5.2842],[174.322,-35.3621,10.0126],[174.3221,-35.3603,9.2255],[174.3199,-35.3605,7.4694],[174.319,-35.3579,0.8964],[174.3129,-35.3567,1.2633],[174.3154,-35.3526,22.9142],[174.3169,-35.3537,5.1308],[174.3211,-35.3519,19.4935],[174.3231,-35.3539,0.0],[174.3235,-35.3521,6.8912],[174.3282,-35.3512,20.633],[174.3266,-35.3478,15.8851],[174.3292,-35.3452,0.0],[174.3221,-35.3468,1.5914],[174.3211,-35.3491,11.8113],[174.3205,-35.347,10.4979],[174.3233,-35.3446,0.0],[174.3186,-35.3447,23.305],[174.3185,-35.3418,1.8955],[174.313,-35.3474,10.8613],[174.3141,-35.343,9.2981],[174.3124,-35.3422,15.0728],[174.3156,-35.3412,21.5017],[174.316,-35.3385,10.5075],[174.3097,-35.3388,18.0223],[174.3119,-35.3381,4.453],[174.3111,-35.3358,0.0],[174.3079,-35.3375,17.3114],[174.3086,-35.334,3.3571],[174.3025,-35.3295,4.4969],[174.3066,-35.3257,1.3748],[174.3046,-35.3254,2.4122],[174.3027,-35.3226,1.0996],[174.3052,-35.32,1.2915],[174.3057,-35.3223,3.4492],[174.3089,-35.3236,5.3957],[174.3096,-35.3262,8.4674],[174.3082,-35.3286,0.8661],[174.3103,-35.3298,0.581],[174.3118,-35.3282,7.5088],[174.3141,-35.329,14.7157],[174.3111,-35.3318,23.3977],[174.3117,-35.3328,23.3977],[174.315,-35.3337,3.5286],[174.3159,-35.3301,20.2084],[174.3255,-35.3301,7.0928],[174.3228,-35.3313,18.4163],[174.323,-35.3326,18.4163],[174.3183,-35.3314,5.4946],[174.3171,-35.3327,5.4946],[174.3196,-35.3341,26.5061],[174.319,-35.3363,4.8335],[174.3209,-35.3357,26.034],[174.3206,-35.3374,4.8335],[174.3233,-35.3354,22.2597],[174.3234,-35.3415,0.0],[174.3268,-35.3357,31.6789],[174.3253,-35.341,2.7803],[174.3262,-35.3421,2.1724],[174.3285,-35.3408,25.1162],[174.3296,-35.3329,9.5383],[174.3312,-35.3329,20.6128],[174.3321,-35.3365,0.6972],[174.3334,-35.3343,8.8305],[174.3367,-35.3346,5.9319],[174.3339,-35.337,2.9099],[174.3367,-35.3388,1.9944],[174.3327,-35.3405,0.0],[174.3369,-35.3409,18.9718],[174.3382,-35.3432,11.9289],[174.3345,-35.3472,0.0],[174.3369,-35.3473,14.2878],[174.3383,-35.3499,0.0],[174.3417,-35.3499,0.0],[174.3419,-35.3483,5.3104],[174.3463,-35.3468,1.5313],[174.3557,-35.3488,4.9517],[174.3568,-35.3511,3.5658],[174.3553,-35.3519,1.9202],[174.361,-35.3567,0.0],[174.3594,-35.3597,4.911],[174.3579,-35.3595,0.0],[174.3598,-35.3621,24.8949],[174.358,-35.3634,4.4889],[174.3603,-35.3653,4.805],[174.3575,-35.3673,0.0],[174.3596,-35.37,0.4496],[174.3572,-35.373,0.0],[174.3659,-35.3762,22.592],[174.3668,-35.3781,0.0],[174.3701,-35.3774,21.8896],[174.3722,-35.3799,0.0],[174.3762,-35.3778,25.7252],[174.3775,-35.3753,15.8804],[174.376,-35.3738,27.9321],[174.3721,-35.374,30.0896],[174.374,-35.3699,8.6932],[174.3717,-35.3688,65.5595],[174.3803,-35.3635,68.8956],[174.3818,-35.3606,0.5683],[174.3786,-35.3597,82.5005],[174.3789,-35.3567,22.2944],[174.3751,-35.354,20.4213],[174.376,-35.35,6.9866],[174.373,-35.3479,1.6673],[174.3604,-35.3479,0.0],[174.3535,-35.3451,5.7275],[174.3506,-35.3412,2.833],[174.3501,-35.3362,8.2026],[174.3515,-35.332,19.3265],[174.3635,-35.3294,65.6951],[174.3671,-35.3306,51.2803],[174.367,-35.3323,15.1019],[174.3726,-35.3319,0.4843],[174.374,-35.3271,11.1696],[174.372,-35.3261,58.4713],[174.3715,-35.3234,36.0764],[174.3773,-35.3191,20.0469],[174.3767,-35.3181,20.0469],[174.3695,-35.3212,0.0],[174.3698,-35.3249,7.5924],[174.3671,-35.3266,43.5214],[174.3612,-35.3269,70.5031],[174.3608,-35.3256,7.7655],[174.357,-35.3261,43.343],[174.3555,-35.3245,6.2192],[174.3497,-35.3265,78.2052],[174.3444,-35.326,23.4078],[174.3425,-35.3242,14.5012],[174.3369,-35.3254,23.9948],[174.3334,-35.3228,10.7685],[174.3332,-35.3207,0.8533],[174.3233,-35.3164,32.8076],[174.323,-35.3142,2.2259],[174.3183,-35.3102,37.9516],[174.3221,-35.3096,2.499],[174.3196,-35.3069,4.2063],[174.3136,-35.3074,25.4295],[174.309,-35.3048,45.7491],[174.3102,-35.3021,41.5646],[174.3087,-35.3018,41.5646],[174.3046,-35.3021,53.7693],[174.288,-35.32,80.6197],[174.2816,-35.3159,57.5864],[174.2803,-35.3134,78.1439],[174.2669,-35.3075,193.384],[174.2649,-35.305,238.8872],[174.2616,-35.305,261.6697],[174.2585,-35.3017,391.1491],[174.2561,-35.3025,366.7002],[174.2535,-35.3065,261.7825],[174.2555,-35.3163,208.338],[174.2572,-35.3195,151.2856],[174.2629,-35.3204,199.2726],[174.2621,-35.325,223.5573],[174.2641,-35.3315,228.5338],[174.2615,-35.3361,288.649],[174.2628,-35.3401,213.9007],[174.277,-35.3475,200.3533],[174.2776,-35.3505,254.3399],[174.2813,-35.3542,256.0231],[174.2863,-35.3536,187.0335],[174.2876,-35.3614,215.7747],[174.2851,-35.3631,233.9002],[174.2869,-35.3867,391.0029],[174.2776,-35.3978,324.9508],[174.2752,-35.3978,319.279],[174.2725,-35.4015,374.1373],[174.2604,-35.4053,261.5922],[174.2579,-35.4102,290.9432],[174.2562,-35.4098,300.5563],[174.2535,-35.4127,331.8867],[174.2569,-35.4171,265.9576],[174.2552,-35.4224,319.4301],[174.2605,-35.4237,355.622],[174.2643,-35.4281,355.3394],[174.266,-35.428,368.6469],[174.2659,-35.4373,335.6555],[174.2516,-35.4373,424.951],[174.2524,-35.436,398.0487],[174.2464,-35.4359,389.2661],[174.2418,-35.4466,377.4424],[174.2418,-35.4581,355.2214],[174.2373,-35.4611,338.7458],[174.2369,-35.4678,359.7],[174.2332,-35.4694,353.3513],[174.2347,-35.4721,352.6567],[174.231,-35.474,284.141],[174.2307,-35.4836,146.7466],[174.2156,-35.4835,235.2406],[174.2146,-35.5002,139.8229],[174.2108,-35.4987,147.0098],[174.2045,-35.5005,113.2943],[174.2051,-35.5041,103.1929],[174.2072,-35.5049,103.5812],[174.205,-35.5067,114.5095],[174.2095,-35.5069,103.252],[174.2099,-35.5117,99.9997],[174.212,-35.512,103.0478],[174.2108,-35.5137,104.1608],[174.209,-35.5133,106.8189],[174.2102,-35.5167,100.4799],[174.2074,-35.5189,98.1245],[174.208,-35.5201,96.5043],[174.2041,-35.5199,97.0294],[174.2049,-35.5158,100.9456],[174.2028,-35.515,97.9556],[174.201,-35.5203,103.3435],[174.1964,-35.5196,103.0958],[174.1878,-35.5148,101.5186],[174.1878,-35.5178,111.2648],[174.1628,-35.5169,141.3835],[174.1627,-35.5324,141.124],[174.16,-35.5323,136.5016],[174.1589,-35.538,133.8433],[174.1516,-35.5413,153.6067],[174.1464,-35.5408,184.9944],[174.146,-35.5451,195.3209],[174.1505,-35.5462,162.3988],[174.1503,-35.5555,269.4427],[174.1446,-35.5569,278.8732],[174.144,-35.5598,224.2571],[174.1413,-35.5616,233.4777],[174.1284,-35.5627,199.583],[174.1285,-35.5515,210.1519],[174.1115,-35.5514,121.8093],[174.1137,-35.5539,125.5518],[174.1142,-35.5593,159.1753],[174.0986,-35.5592,111.9854],[174.0986,-35.564,141.9579],[174.0964,-35.562,137.2361],[174.0468,-35.5616,141.2069],[174.0531,-35.5757,210.8713],[174.0168,-35.5907,156.0916],[173.9892,-35.5842,123.1591],[173.9715,-35.5932,107.9754],[173.9656,-35.5934,85.3311],[173.9621,-35.5979,96.099],[173.9557,-35.6018,131.3956],[173.9499,-35.6026,120.8057],[173.9383,-35.6003,122.0032],[173.9355,-35.5932,102.5202],[173.9253,-35.603,121.2973],[173.9206,-35.6052,133.3391],[173.9157,-35.602,160.9581],[173.9142,-35.6039,158.2395],[173.9137,-35.6055,145.8077],[173.9215,-35.6156,221.7476],[173.8416,-35.6149,67.4819],[173.8435,-35.6158,74.22],[173.8426,-35.6173,67.3749],[173.8446,-35.6182,63.0189],[173.8465,-35.6239,52.5022],[173.8431,-35.6231,56.2274],[173.8388,-35.6244,71.0791],[173.835,-35.6229,62.9126],[173.8287,-35.6232,48.6645],[173.8197,-35.6143,93.1181],[173.8082,-35.6095,79.8031],[173.8018,-35.6086,90.4866],[173.802,-35.6063,80.5436],[173.7941,-35.603,82.3257],[173.7915,-35.6004,95.3679],[173.7881,-35.6014,93.7444],[173.785,-35.5982,96.534],[173.7808,-35.5966,160.032],[173.7707,-35.5955,209.4355],[173.7707,-35.605,93.0683],[173.7655,-35.6065,118.5485]],
[[174.5064,-35.6284,3.0878],[174.5066,-35.6285,3.0878],[174.5062,-35.6285,3.0878],[174.5064,-35.6284,3.0878]]],
[[[174.4451,-35.4631,0.3775],[174.445,-35.463,0.3775],[174.4447,-35.463,0.3775],[174.4448,-35.4631,0.3775],[174.4451,-35.4631,0.3775]]],
[[[174.7389,-35.4475,17.2905],[174.7362,-35.444,10.1365],[174.7342,-35.4451,4.5234],[174.734,-35.4481,108.5165],[174.7309,-35.4482,0.0],[174.7328,-35.449,108.5165],[174.7316,-35.4502,0.0],[174.7338,-35.4535,71.2963],[174.7319,-35.4578,0.0],[174.7335,-35.4576,90.7502],[174.7332,-35.4597,2.6603],[174.7371,-35.464,14.9513],[174.7368,-35.4674,27.6793],[174.7348,-35.4685,3.654],[174.7362,-35.4704,0.7772],[174.7391,-35.4687,4.5755],[174.7374,-35.4677,27.6793],[174.7382,-35.4665,27.6793],[174.7417,-35.4655,0.0],[174.7424,-35.4626,8.9624],[174.7403,-35.4617,94.9845],[174.745,-35.4608,0.0],[174.7413,-35.4599,23.3662],[174.7414,-35.4563,0.0],[174.7392,-35.4556,149.4323],[174.7418,-35.4549,5.0852],[174.7435,-35.4513,0.0],[174.74,-35.4509,127.9239],[174.7389,-35.4485,69.4048],[174.7408,-35.4485,0.0],[174.7389,-35.4475,17.2905]]],
[[[174.4328,-35.4571,0.7786],[174.4335,-35.4576,0.7786],[174.4338,-35.4564,0.7786],[174.4333,-35.4563,0.7786],[174.4328,-35.4571,0.7786]]],
[[[174.429,-35.4539,0.3613],[174.4295,-35.4537,0.3613],[174.4284,-35.4537,0.3613],[174.4286,-35.4538,0.3613],[174.429,-35.4539,0.3613]]],
[[[174.4288,-35.4467,0.2786],[174.429,-35.4464,0.2786],[174.4281,-35.4467,0.2786],[174.4284,-35.4468,0.2786],[174.4288,-35.4467,0.2786]]],
[[[174.4448,-35.4362,5.3577],[174.4451,-35.4367,1.5544],[174.4456,-35.4368,1.5544],[174.4453,-35.4357,5.3577],[174.4448,-35.4362,5.3577]]],
[[[174.4472,-35.4342,0.4614],[174.4469,-35.4342,0.4614],[174.4468,-35.4344,0.4614],[174.4469,-35.4344,0.4614],[174.4472,-35.4342,0.4614]]],
[[[174.3777,-35.4327,0.0],[174.3775,-35.4331,1.1906],[174.378,-35.4332,1.1906],[174.3781,-35.4328,0.0],[174.3777,-35.4327,0.0]]],
[[[174.4493,-35.4322,0.0],[174.4492,-35.4322,0.0],[174.4487,-35.4325,0.0],[174.4493,-35.4324,0.0],[174.4493,-35.4322,0.0]]],
[[[174.4483,-35.4331,0.0],[174.4482,-35.433,0.4614],[174.448,-35.4333,0.4614],[174.4483,-35.4332,0.0],[174.4483,-35.4331,0.0]]],
[[[174.3904,-35.4296,0.0],[174.3906,-35.4301,0.0],[174.3911,-35.43,8.2191],[174.391,-35.4292,0.0],[174.3904,-35.4296,0.0]]],
[[[174.3914,-35.4293,0.0],[174.3913,-35.4292,0.0],[174.3911,-35.4293,0.0],[174.3913,-35.4294,0.0],[174.3914,-35.4293,0.0]]],
[[[174.4426,-35.4251,4.0514],[174.4425,-35.4251,4.0514],[174.4424,-35.4252,4.0514],[174.4426,-35.4252,4.0514],[174.4426,-35.4251,4.0514]]],
[[[174.4439,-35.4249,4.0514],[174.4437,-35.4248,4.0514],[174.4434,-35.425,4.0514],[174.4435,-35.4251,4.0514],[174.4439,-35.4249,4.0514]]],
[[[174.4372,-35.4291,0.4138],[174.4373,-35.4291,0.4138],[174.4373,-35.4288,0.4138],[174.4371,-35.429,0.4138],[174.4372,-35.4291,0.4138]]],
[[[174.4453,-35.421,0.2547],[174.4452,-35.4209,0.2547],[174.4452,-35.421,0.2547],[174.4453,-35.421,0.2547]]],
[[[174.4476,-35.4228,0.2754],[174.4475,-35.4223,0.2754],[174.447,-35.4222,0.2754],[174.4471,-35.4225,0.2754],[174.4476,-35.4228,0.2754]]],
[[[174.4443,-35.4224,6.2229],[174.4418,-35.4213,0.3309],[174.4412,-35.4246,11.4991],[174.4378,-35.4256,0.0563],[174.4365,-35.4288,0.4138],[174.4391,-35.4266,8.7859],[174.442,-35.4268,5.8711],[174.4415,-35.4255,11.4991],[174.4442,-35.4244,0.0],[174.4442,-35.4228,6.2229],[174.4463,-35.4229,0.2754],[174.4445,-35.4213,6.2229],[174.4443,-35.4224,6.2229]]],
[[[174.44,-35.4217,0.0],[174.4402,-35.4222,0.3309],[174.4405,-35.4222,0.3309],[174.4403,-35.4215,0.3309],[174.44,-35.4217,0.0]]],
[[[174.4471,-35.4217,0.2754],[174.4472,-35.4218,0.2754],[174.4473,-35.4217,0.2754],[174.4471,-35.4217,0.2754]]],
[[[174.4458,-35.4216,6.2229],[174.4459,-35.4217,6.2229],[174.4459,-35.4216,6.2229],[174.4458,-35.4216,6.2229]]],
[[[174.4465,-35.4215,0.2754],[174.4465,-35.4216,0.2754],[174.4466,-35.4215,0.2754],[174.4465,-35.4215,0.2754]]],
[[[174.372,-35.414,12.2882],[174.3718,-35.4141,12.2882],[174.3722,-35.4144,0.0],[174.3722,-35.4142,0.0],[174.372,-35.414,12.2882]]],
[[[174.3731,-35.4137,0.0],[174.3729,-35.413,0.0],[174.3721,-35.4136,12.2882],[174.3728,-35.4142,0.0],[174.3731,-35.4137,0.0]]],
[[[174.36,-35.411,0.0401],[174.3604,-35.4113,0.0],[174.3607,-35.4113,0.0],[174.3598,-35.4105,0.0401],[174.36,-35.411,0.0401]]],
[[[174.3613,-35.4105,0.0401],[174.3609,-35.4103,0.0401],[174.3607,-35.4105,0.0401],[174.3605,-35.4102,0.0401],[174.3603,-35.4104,0.0401],[174.3604,-35.4105,0.0401],[174.3607,-35.4105,0.0401],[174.3606,-35.4106,0.0401],[174.3612,-35.411,0.0401],[174.3613,-35.4105,0.0401]]],
[[[174.3621,-35.405,0.0],[174.3619,-35.4052,0.0],[174.3624,-35.4054,0.0],[174.3624,-35.4053,0.0],[174.3621,-35.405,0.0]]],
[[[174.3631,-35.4041,0.0883],[174.3618,-35.4035,0.0],[174.3608,-35.4042,0.0],[174.3621,-35.4048,0.0],[174.3631,-35.4041,0.0883]]],
[[[174.3552,-35.3914,0.0],[174.3549,-35.3915,0.0],[174.355,-35.3916,0.0],[174.3553,-35.3915,0.0],[174.3552,-35.3914,0.0]]],
[[[174.3555,-35.3916,0.0],[174.3557,-35.3916,0.0],[174.3558,-35.3915,0.0],[174.3555,-35.3915,0.0],[174.3555,-35.3916,0.0]]],
[[[174.35620909090909,-35.390609090909095,0.0],[174.3562,-35.3906,0.0],[174.3557,-35.3908,0.0],[174.35620909090909,-35.390609090909095,0.0]]],
[[[174.3563,-35.3907,0.0],[174.3568,-35.3907,0.0],[174.3565,-35.3905,0.0],[174.35620909090909,-35.390609090909095,0.0],[174.3563,-35.3907,0.0]]],
[[[174.3567,-35.3917,0.0],[174.3568,-35.3911,0.0],[174.3559,-35.3915,0.0],[174.3561,-35.3917,0.0],[174.3567,-35.3917,0.0]]],
[[[174.3562,-35.3911,0.0],[174.3562,-35.3912,0.0],[174.3563,-35.3912,0.0],[174.3563,-35.3911,0.0],[174.3562,-35.3911,0.0]]],
[[[174.3557,-35.391,0.0],[174.3554,-35.391,0.0],[174.3551,-35.3911,0.0],[174.3558,-35.3911,0.0],[174.3557,-35.391,0.0]]],
[[[174.3603,-35.4024,0.5162],[174.3589,-35.4018,0.0],[174.3599,-35.4042,0.0],[174.3607,-35.403,0.0],[174.3603,-35.4024,0.5162]]],
[[[174.3604,-35.4021,0.5162],[174.3603,-35.402,0.5162],[174.3602,-35.4021,0.5162],[174.3606,-35.4022,0.5162],[174.3604,-35.4021,0.5162]]],
[[[174.352,-35.3842,0.4549],[174.3519,-35.3841,0.4549],[174.3517,-35.3841,0.4549],[174.3518,-35.3845,0.4549],[174.352,-35.3842,0.4549]]],
[[[174.3498,-35.3835,3.5804],[174.3483,-35.3831,0.7765],[174.3503,-35.3848,0.0],[174.3526,-35.3848,0.7925],[174.3513,-35.3846,0.0],[174.3498,-35.3835,3.5804]]],
[[[174.3504,-35.3836,3.5804],[174.3505,-35.3835,3.5804],[174.3502,-35.3835,3.5804],[174.3503,-35.3836,3.5804],[174.3504,-35.3836,3.5804]]],
[[[174.3409,-35.3651,5.5211],[174.3413,-35.3652,0.0],[174.3415,-35.365,0.0],[174.3409,-35.3646,5.5211],[174.3409,-35.3651,5.5211]]],
[[[174.3417,-35.3647,0.0],[174.3414,-35.3646,0.0],[174.3413,-35.3646,0.0],[174.3414,-35.3648,0.0],[174.3417,-35.3647,0.0]]],
[[[174.3418,-35.353,0.0],[174.3395,-35.3525,0.0],[174.3389,-35.3546,4.6086],[174.3405,-35.3547,4.0581],[174.3418,-35.353,0.0]]],
[[[174.3745,-35.3451,6.2601],[174.3742,-35.344,0.2553],[174.3719,-35.3455,0.0],[174.3741,-35.3469,1.6673],[174.3758,-35.346,6.2601],[174.3745,-35.3451,6.2601]]],
[[[174.3717,-35.3451,0.0],[174.3717,-35.345,0.0],[174.3715,-35.3449,0.0],[174.3716,-35.3452,0.0],[174.3717,-35.3451,0.0]]],
[[[174.3673,-35.3451,0.1848],[174.3674,-35.3451,0.1848],[174.3673,-35.3449,0.1848],[174.3673,-35.345,0.1848],[174.3673,-35.3451,0.1848]]],
[[[174.3669,-35.3443,0.4295],[174.3669,-35.3446,0.1848],[174.3671,-35.3448,0.1848],[174.3672,-35.3445,0.4295],[174.3669,-35.3443,0.4295]]],
[[[174.3674,-35.3444,0.4295],[174.3674,-35.3442,0.4295],[174.3671,-35.3443,0.4295],[174.3673,-35.3444,0.4295],[174.3674,-35.3444,0.4295]]],
[[[174.3672,-35.3437,0.4295],[174.3669,-35.3437,0.4295],[174.3668,-35.344,0.4295],[174.3671,-35.344,0.4295],[174.3672,-35.3437,0.4295]]],
[[[174.3673,-35.3412,0.33],[174.3671,-35.3412,0.33],[174.367,-35.3414,1.5076],[174.3672,-35.3414,1.5076],[174.3673,-35.3412,0.33]]],
[[[174.3669,-35.3406,0.33],[174.367,-35.3405,0.33],[174.3668,-35.3404,0.33],[174.3668,-35.3405,0.33],[174.3669,-35.3406,0.33]]],
[[[174.3302,-35.337,0.651],[174.3299,-35.3372,0.651],[174.3311,-35.3366,0.6972],[174.3309,-35.3365,0.651],[174.3302,-35.337,0.651]]],
[[[174.3783,-35.3292,0.0],[174.3789,-35.3294,0.0],[174.3792,-35.3286,0.0],[174.3783,-35.3287,0.0],[174.3783,-35.3292,0.0]]],
[[[174.3618,-35.3245,0.0],[174.3611,-35.3241,0.0],[174.3609,-35.3248,7.7655],[174.3613,-35.325,7.7655],[174.3618,-35.3245,0.0]]],
[[[174.3437,-35.324,1.1852],[174.3436,-35.3243,1.1852],[174.3438,-35.3244,1.1852],[174.344,-35.3243,1.1852],[174.3437,-35.324,1.1852]]],
[[[174.3264,-35.316,0.0],[174.326,-35.3162,0.0],[174.3261,-35.3164,0.0],[174.3269,-35.316,0.0],[174.3264,-35.316,0.0]]],
[[[174.3205,-35.3076,4.2063],[174.321,-35.308,3.6659],[174.3205,-35.3069,4.2063],[174.3204,-35.3069,4.2063],[174.3205,-35.3076,4.2063]]],
[[[174.3668,-35.3422,1.5076],[174.3663,-35.3416,1.5076],[174.3653,-35.3421,2.846],[174.3658,-35.3424,2.846],[174.3668,-35.3422,1.5076]]],
[[[174.3681,-35.3415,0.0],[174.3676,-35.3412,0.33],[174.3669,-35.3424,1.5076],[174.3685,-35.342,0.0],[174.3681,-35.3415,0.0]]],
[[[174.3977,-35.4319,0.4796],[174.398,-35.4322,0.4796],[174.3985,-35.4319,0.4796],[174.3982,-35.4318,0.4796],[174.3977,-35.4319,0.4796]]],
[[[174.3853,-35.4321,0.0],[174.3837,-35.4316,2.2031],[174.3833,-35.4325,2.2031],[174.3849,-35.4328,0.0],[174.3853,-35.4321,0.0]]],
[[[174.3976,-35.4314,0.4796],[174.3944,-35.4329,2.8177],[174.3981,-35.433,0.0],[174.3968,-35.432,0.0],[174.3976,-35.4314,0.4796]]],
[[[174.4498,-35.4316,0.0],[174.4496,-35.4316,0.0],[174.4496,-35.4319,0.0],[174.4497,-35.4318,0.0],[174.4498,-35.4316,0.0]]]]}}