{"type": "Feature","bbox": [171.9284,-43.4606,172.7373,-42.9544],"geometry": {"type": "MultiPolygon","coordinates": [[[[172.7019,-43.3907,0.0],[172.7112,-43.3904,0.0],[172.7087,-43.3588,8.2618],[172.7125,-43.3223,4.4853],[172.7208,-43.2912,8.1595],[172.7373,-43.247,0.0],[172.719,-43.2419,4.3819],[172.7273,-43.2273,4.813],[172.7175,-43.2297,9.1938],[172.7097,-43.2274,16.3693],[172.7034,-43.2186,27.1943],[172.6957,-43.2215,24.8681],[172.6936,-43.2187,27.2267],[172.6947,-43.2147,31.4206],[172.6923,-43.2101,38.7097],[172.6774,-43.2143,49.4687],[172.6759,-43.2124,52.2324],[172.6781,-43.2035,59.2884],[172.6612,-43.2009,77.9652],[172.6605,-43.2033,74.1766],[172.65,-43.201,88.4283],[172.6378,-43.2008,122.285],[172.6327,-43.1974,146.668],[172.6255,-43.1962,169.204],[172.6197,-43.1993,169.4699],[172.6177,-43.2029,189.0128],[172.6162,-43.2025,186.0373],[172.6121,-43.2086,150.8143],[172.6106,-43.217,197.0872],[172.6068,-43.2226,167.4857],[172.6031,-43.2218,179.6589],[172.5934,-43.2313,147.3687],[172.5959,-43.2341,113.5689],[172.5919,-43.2338,123.3447],[172.5943,-43.2372,112.5267],[172.5918,-43.2443,115.7072],[172.5777,-43.2443,176.2163],[172.5738,-43.2424,179.6833],[172.5678,-43.2431,147.628],[172.5665,-43.2374,181.6622],[172.5596,-43.229,244.8604],[172.553,-43.2279,240.1235],[172.5527,-43.2268,240.1235],[172.5563,-43.2253,251.5873],[172.5557,-43.2213,263.2148],[172.5516,-43.219,266.9695],[172.5506,-43.2141,291.8384],[172.5387,-43.2086,266.3873],[172.5403,-43.2054,263.1687],[172.5305,-43.2028,175.3929],[172.5337,-43.2,184.9589],[172.532,-43.1968,188.1877],[172.5335,-43.1935,193.3805],[172.53,-43.1863,241.2402],[172.5317,-43.1797,238.6646],[172.544,-43.1728,339.8289],[172.5329,-43.1618,374.7473],[172.5386,-43.1517,371.7521],[172.5379,-43.1482,361.9445],[172.5285,-43.147,266.13],[172.5258,-43.1551,244.8642],[172.5197,-43.1599,250.2841],[172.5211,-43.1617,227.171],[172.5147,-43.164,222.0168],[172.5137,-43.1665,232.9393],[172.5098,-43.1679,218.1971],[172.5046,-43.1667,209.9162],[172.5033,-43.1687,209.8304],[172.4994,-43.1684,210.6833],[172.4989,-43.1699,196.8702],[172.4894,-43.1714,192.7176],[172.4908,-43.1641,212.4162],[172.4958,-43.159,235.8429],[172.4792,-43.1585,335.6783],[172.4791,-43.1511,335.7948],[172.4856,-43.1488,374.1498],[172.4905,-43.1489,308.0192],[172.4919,-43.1465,247.5008],[172.4866,-43.1424,339.2166],[172.4834,-43.1425,354.5085],[172.4836,-43.1398,356.2539],[172.4762,-43.1402,297.741],[172.4753,-43.1383,310.5662],[172.4817,-43.1327,348.7545],[172.4774,-43.1293,397.4053],[172.477,-43.1318,367.1754],[172.4721,-43.1369,313.9926],[172.4682,-43.1384,278.0235],[172.457,-43.1383,323.2478],[172.4535,-43.142,273.3427],[172.4609,-43.1462,247.6129],[172.4528,-43.1508,231.5072],[172.4485,-43.1598,215.9139],[172.4406,-43.1583,211.8429],[172.4384,-43.1595,213.8391],[172.4335,-43.1558,230.7751],[172.4201,-43.1517,237.0988],[172.4242,-43.1494,258.2321],[172.4263,-43.1391,352.4859],[172.4287,-43.1383,379.6297],[172.4315,-43.1309,442.9937],[172.4341,-43.1293,560.6628],[172.4328,-43.1256,490.5215],[172.4295,-43.126,543.1047],[172.4278,-43.1243,604.0917],[172.4211,-43.1129,748.6967],[172.4207,-43.1083,755.487],[172.4145,-43.1101,571.2247],[172.4155,-43.1017,778.7952],[172.4054,-43.0862,606.0889],[172.4007,-43.0822,796.3781],[172.4003,-43.078,814.0901],[172.4123,-43.0698,611.5517],[172.4142,-43.0658,506.1874],[172.4135,-43.0608,458.5648],[172.4205,-43.0502,384.0952],[172.4231,-43.0489,381.5497],[172.4176,-43.0424,402.6656],[172.4132,-43.0415,395.0438],[172.4054,-43.0304,446.0158],[172.3913,-43.025,462.7872],[172.3795,-43.023,484.2368],[172.376,-43.025,493.8469],[172.3733,-43.0316,576.6005],[172.3711,-43.0322,575.1562],[172.3714,-43.0378,521.0543],[172.3616,-43.0435,487.9023],[172.355,-43.0499,464.0967],[172.3486,-43.0514,461.0089],[172.3368,-43.0469,472.3877],[172.3289,-43.0376,495.3286],[172.3291,-43.0341,490.7485],[172.3347,-43.0282,498.1033],[172.3315,-43.0178,530.5982],[172.323,-43.0201,520.6971],[172.3191,-43.0241,532.9117],[172.3114,-43.0276,547.8825],[172.2893,-43.0291,598.925],[172.281,-43.0231,833.9258],[172.2698,-43.0197,1042.7811],[172.267,-43.0172,1139.5275],[172.2655,-43.007,1420.4932],[172.258,-43.0041,1447.2375],[172.2579,-42.9992,1282.1506],[172.261,-42.9957,1147.3428],[172.2714,-42.9919,997.3935],[172.2664,-42.9838,801.7366],[172.2666,-42.9813,854.4323],[172.2639,-42.983,814.1077],[172.2624,-42.9794,943.752],[172.2616,-42.9821,856.5333],[172.26,-42.9823,851.9175],[172.2592,-42.9803,886.7843],[172.2612,-42.9767,951.4477],[172.2585,-42.9782,887.8926],[172.2538,-42.9775,1023.8541],[172.2433,-42.9821,1051.3801],[172.2346,-42.9814,1161.8881],[172.2318,-42.9826,1319.8759],[172.2287,-42.9821,1331.4558],[172.2239,-42.9752,1120.3416],[172.2197,-42.9739,1227.3202],[172.2166,-42.9705,1325.976],[172.2138,-42.9704,1331.0762],[172.2117,-42.9735,1258.3663],[172.2093,-42.9695,1191.4147],[172.2095,-42.967,1153.0405],[172.2149,-42.9672,1273.709],[172.2128,-42.9647,1159.0399],[172.2157,-42.9598,1259.1798],[172.219,-42.9568,1316.9312],[172.2231,-42.9566,1425.0884],[172.2203,-42.9544,1357.9626],[172.1978,-42.9563,1548.6809],[172.1906,-42.9593,1564.2131],[172.1846,-42.9597,1768.6337],[172.1814,-42.9626,1768.4191],[172.1731,-42.9649,1557.1677],[172.166,-42.9714,1648.7788],[172.166,-42.9754,1596.5729],[172.1618,-42.9822,1572.5765],[172.1617,-42.9898,1682.1125],[172.1555,-42.9941,1720.0591],[172.1497,-42.9936,1635.1506],[172.1351,-42.986,1666.4297],[172.1246,-42.9865,1714.8064],[172.1196,-42.994,1712.9324],[172.1178,-43.0033,1577.1934],[172.1194,-43.0067,1642.5287],[172.1138,-43.0092,1544.5823],[172.1096,-43.0141,1561.0107],[172.1008,-43.0198,1500.6674],[172.0975,-43.0285,1631.1724],[172.0924,-43.0324,1619.0518],[172.0966,-43.0418,1528.6621],[172.0926,-43.0476,1596.0139],[172.0843,-43.0538,1590.3748],[172.0783,-43.054,1665.5157],[172.0701,-43.0473,1523.7063],[172.0608,-43.0516,1665.8051],[172.0542,-43.0712,1765.1329],[172.0497,-43.0763,1657.4543],[172.0193,-43.0972,1880.1672],[172.0206,-43.1035,1895.0977],[172.0186,-43.1133,1803.2314],[172.0244,-43.1202,1515.4414],[172.0257,-43.1256,1579.548],[172.0232,-43.1333,1599.9399],[172.0261,-43.1382,1621.3091],[172.02,-43.1464,1623.6663],[172.0107,-43.1488,1489.5154],[172.0034,-43.1535,1163.6073],[171.9985,-43.1719,1245.8173],[171.9951,-43.1758,1239.1606],[171.9961,-43.1786,1303.3162],[171.9524,-43.1784,415.4424],[171.9497,-43.1875,426.7232],[171.9506,-43.1951,367.1443],[171.9448,-43.1986,358.5815],[171.9432,-43.2029,384.0799],[171.9328,-43.2033,356.1855],[171.9314,-43.2046,391.9712],[171.9322,-43.208,353.4986],[171.9284,-43.218,354.829],[171.9289,-43.2204,349.509],[171.9559,-43.2299,338.7584],[171.9585,-43.236,332.8927],[171.964,-43.2413,330.9062],[171.9569,-43.2434,334.4772],[171.961,-43.2478,323.5],[171.9512,-43.2506,320.4189],[171.9462,-43.2585,353.7308],[171.949,-43.264,326.0753],[171.9396,-43.2742,354.7583],[171.9417,-43.2755,331.7942],[171.9461,-43.275,330.8953],[171.9504,-43.2814,309.801],[171.956,-43.2838,305.6279],[171.9538,-43.2906,301.8453],[171.956,-43.2934,302.8233],[171.9838,-43.314,285.8363],[171.986,-43.3261,280.8572],[171.9974,-43.3378,273.4684],[172.0139,-43.3482,260.25],[172.0269,-43.3539,255.4037],[172.041,-43.357,251.103],[172.0463,-43.36,248.125],[172.0584,-43.3611,243.4915],[172.0666,-43.3647,243.0677],[172.0818,-43.3749,234.9263],[172.0839,-43.381,231.6164],[172.1042,-43.4029,218.0053],[172.1403,-43.4224,197.7109],[172.1938,-43.4433,172.3604],[172.2231,-43.4475,160.7394],[172.2587,-43.4552,146.923],[172.298,-43.4602,126.0807],[172.3299,-43.4606,113.4675],[172.3945,-43.4559,87.6427],[172.4148,-43.4532,79.729],[172.4324,-43.4476,71.6579],[172.4631,-43.4474,58.9355],[172.5227,-43.4422,33.875],[172.5503,-43.4357,24.7783],[172.5603,-43.4342,21.9588],[172.5783,-43.4345,15.0],[172.5955,-43.4295,10.0],[172.6098,-43.429,6.0],[172.6551,-43.4112,1.0],[172.6733,-43.3986,1.1709],[172.6794,-43.3911,0.4024],[172.7019,-43.3907,0.0]]]]}
,"properties": {"GID_2": "NZL.3.8_1","GID_0": "NZL","country": "NewZealand","GID_1": "NZL.3_1","province": "Canterbury","NL_NAME_1": "NA","county": "Waimakariri","VARNAME_2": "NA","NL_NAME_2": "NA","TYPE_2": "District","ENGTYPE_2": "District","CC_2": "059","HASC_2": "NZ.CA.WR","name": "Waimakariri.county","area_km2": 2215.563,"hist_schema_id": "Elevation0-9000","hist_area_km2": {"0": 128.738,"25": 124.723,"50": 105.32,"75": 95.988,"100": 100.996,"125": 131.36,"150": 123.549,"175": 129.17,"200": 111.902,"225": 97.494,"250": 68.905,"275": 51.072,"300": 45.024,"325": 36.327,"350": 31.559,"375": 27.669,"400": 34.524,"425": 38.753,"450": 45.133,"475": 38.656,"500": 30.674,"525": 31.027,"550": 31.647,"575": 30.858,"600": 29.901,"625": 28.633,"650": 28.031,"675": 27.598,"700": 26.517,"725": 26.33,"750": 24.413,"775": 23.858,"800": 22.498,"825": 22.607,"850": 19.777,"875": 18.989,"900": 18.184,"925": 16.499,"950": 16.222,"975": 13.715,"1000": 14.041,"1025": 12.138,"1050": 10.947,"1075": 10.112,"1100": 10.174,"1125": 8.115,"1150": 7.263,"1175": 7.991,"1200": 8.147,"1225": 6.877,"1250": 6.072,"1275": 6.057,"1300": 5.7,"1325": 4.787,"1350": 4.524,"1375": 4.276,"1400": 3.797,"1425": 3.61,"1450": 3.735,"1475": 3.146,"1500": 3.223,"1525": 2.743,"1550": 2.852,"1575": 2.541,"1600": 2.046,"1625": 1.395,"1650": 1.317,"1675": 0.744,"1700": 0.697,"1725": 0.635,"1750": 0.418,"1775": 0.139,"1800": 0.186,"1825": 0.108,"1850": 0.077,"1900": 0.062}}}