{"type":"Feature","properties":{"GID_2":"NZL.14.1_1","GID_0":"NZL","country":"NewZealand","GID_1":"NZL.14_1","province":"Southland","NL_NAME_1":"NA","county":"Gore","VARNAME_2":"NA","NL_NAME_2":"NA","TYPE_2":"District","ENGTYPE_2":"District","CC_2":"074","HASC_2":"NZ.SO.GO","name":"Gore.county"},
"geometry":{"type": "MultiPolygon","coordinates": [[[[169.0035,-45.7958,388.6144],[168.9931,-45.7913,347.5455],[168.9701,-45.7962,273.2898],[168.9626,-45.81,273.0064],[168.9578,-45.8139,251.0541],[168.9506,-45.8249,233.4447],[168.9431,-45.8292,236.2221],[168.9395,-45.8356,245.652],[168.8445,-45.8343,180.2932],[168.8434,-45.8393,179.7795],[168.8343,-45.8503,162.5073],[168.819,-45.877,126.1083],[168.8236,-45.8953,122.4884],[168.8359,-45.901,216.6717],[168.8366,-45.9042,236.9897],[168.8421,-45.9069,225.0329],[168.8151,-45.9065,117.6593],[168.8062,-45.9242,116.7217],[168.8035,-45.9266,112.3715],[168.8043,-45.9295,113.4518],[168.8029,-45.9324,111.3409],[168.806,-45.9357,109.3939],[168.8115,-45.937,108.7287],[168.8123,-45.9428,107.2855],[168.8175,-45.9466,107.2963],[168.8154,-45.9521,106.646],[168.8169,-45.9576,105.2023],[168.8226,-45.9608,104.6789],[168.8271,-45.9677,102.0],[168.833,-45.9703,101.6348],[168.8322,-45.9862,100.0201],[168.8274,-45.9894,100.5862],[168.8279,-45.9919,99.3491],[168.8238,-45.9871,100.545],[168.8155,-45.9843,102.1058],[168.8118,-45.9868,101.9129],[168.7878,-45.9875,104.612],[168.7881,-46.0021,112.1662],[168.7858,-46.009,122.8312],[168.7891,-46.0181,122.7653],[168.7879,-46.0212,128.128],[168.7844,-46.0237,131.8431],[168.7787,-46.0236,134.2666],[168.7707,-46.0266,154.0914],[168.7668,-46.0332,148.308],[168.7704,-46.0401,176.3088],[168.7861,-46.0508,263.7317],[168.8038,-46.0571,266.633],[168.818,-46.0582,221.6788],[168.8248,-46.0611,198.2531],[168.8293,-46.0701,151.9726],[168.826,-46.0718,139.8231],[168.8184,-46.0721,161.8819],[168.8155,-46.0792,132.2743],[168.8103,-46.0831,146.0441],[168.8075,-46.0833,153.1943],[168.8166,-46.0878,135.8038],[168.8262,-46.0898,138.8001],[168.81,-46.0987,130.1374],[168.8054,-46.1048,155.1117],[168.806,-46.1178,137.1147],[168.7911,-46.1178,118.7551],[168.7856,-46.1156,132.5789],[168.783,-46.1125,136.4982],[168.7574,-46.108,174.6389],[168.7046,-46.1299,231.0729],[168.7048,-46.1551,177.8135],[168.7013,-46.1551,198.7307],[168.7014,-46.1736,90.6452],[168.708,-46.1776,72.0349],[168.7545,-46.1809,107.4472],[168.7621,-46.1849,137.9333],[168.7756,-46.1822,126.4626],[168.7814,-46.1854,100.1421],[168.7888,-46.186,111.4685],[168.7961,-46.1894,145.8615],[168.7908,-46.1943,142.1102],[168.7929,-46.1976,138.2929],[168.7813,-46.2066,136.1264],[168.7827,-46.2106,139.3786],[168.7809,-46.2165,139.7822],[168.7819,-46.2229,139.2389],[168.7764,-46.228,126.1013],[168.7715,-46.2293,137.3199],[168.77,-46.2338,135.9765],[168.7669,-46.2351,135.139],[168.7961,-46.244,58.2218],[168.8024,-46.2429,55.1631],[168.802,-46.2442,55.1206],[168.8147,-46.248,44.1645],[168.8329,-46.2513,33.4934],[168.8335,-46.2494,38.4575],[168.8406,-46.248,38.972],[168.8406,-46.2434,37.1007],[168.8373,-46.2417,35.8227],[168.9129,-46.2427,214.5197],[168.9125,-46.2605,134.2454],[168.919,-46.259,174.0329],[168.9285,-46.2612,221.9348],[168.9354,-46.2595,260.9431],[168.9564,-46.261,228.8956],[168.9686,-46.2572,177.9181],[168.9955,-46.2623,114.1425],[168.9986,-46.2673,112.2446],[168.9934,-46.2717,101.1625],[168.995,-46.2749,94.2358],[168.9912,-46.2785,112.0031],[168.9989,-46.2798,99.4386],[169.0013,-46.2838,101.6075],[169.0107,-46.2865,111.2291],[169.0117,-46.2887,127.6075],[169.0176,-46.2901,114.8246],[169.0179,-46.2918,111.909],[169.0342,-46.2957,147.4813],[169.0381,-46.2988,151.4824],[169.0414,-46.2987,138.7222],[169.0456,-46.2959,161.1409],[169.0463,-46.2936,183.1466],[169.0533,-46.2874,186.4825],[169.0532,-46.2856,184.777],[169.0552,-46.2846,193.0334],[169.0544,-46.2833,207.2633],[169.0614,-46.2805,199.7782],[169.0629,-46.2777,239.1437],[169.0783,-46.2764,240.3394],[169.0825,-46.2738,229.1772],[169.1066,-46.2743,248.7969],[169.1196,-46.2727,264.7031],[169.1204,-46.2708,280.9358],[169.1223,-46.2722,269.2693],[169.1227,-46.2705,279.2452],[169.1272,-46.272,272.9801],[169.1312,-46.271,271.584],[169.1307,-46.2699,269.2206],[169.1353,-46.2672,274.3879],[169.1549,-46.2686,309.8336],[169.1768,-46.2857,530.6704],[169.189,-46.2799,422.4928],[169.1892,-46.266,274.9339],[169.1859,-46.2665,292.3685],[169.1886,-46.2618,282.1465],[169.1883,-46.2588,332.5656],[169.1857,-46.2548,307.3644],[169.1918,-46.2472,235.666],[169.1962,-46.2376,215.8835],[169.1863,-46.2305,234.91309999999999],[169.1863,-46.2233,225.1596],[169.1981,-46.2126,174.4657],[169.1983,-46.2004,168.3408],[169.1896,-46.1956,166.649],[169.1819,-46.1957,164.7405],[169.1838,-46.1924,166.1096],[169.1873,-46.1903,164.1015],[169.1858,-46.1893,164.2611],[169.1751,-46.1885,160.2156],[169.174,-46.1906,160.2336],[169.1715,-46.1905,164.6117],[169.1699,-46.1924,159.5349],[169.167,-46.1919,158.0299],[169.1704,-46.1828,159.8954],[169.1621,-46.1812,156.4651],[169.1596,-46.1756,152.9453],[169.1633,-46.1685,151.8312],[169.1683,-46.1639,152.8054],[169.1691,-46.1605,151.7627],[169.1622,-46.1576,162.8803],[169.1608,-46.1521,155.0368],[169.1518,-46.1547,156.6546],[169.1433,-46.1498,144.5652],[169.1328,-46.1509,151.148],[169.1316,-46.1476,148.3376],[169.1298,-46.1477,147.8197],[169.1301,-46.1401,230.3999],[169.1289,-46.1386,235.1107],[169.1348,-46.1368,237.3072],[169.1327,-46.1337,247.5483],[169.1334,-46.1315,254.5137],[169.1376,-46.1304,250.3074],[169.1389,-46.1263,216.3022],[169.1503,-46.1239,216.8001],[169.1538,-46.1248,196.5432],[169.1632,-46.1171,127.8907],[169.1601,-46.1161,125.847],[169.1622,-46.1119,133.6698],[169.1579,-46.1067,142.1548],[169.1633,-46.0958,169.5764],[169.1581,-46.0924,178.9381],[169.1483,-46.0923,197.147],[169.1484,-46.0855,207.9972],[169.1356,-46.0854,251.6409],[169.138,-46.0781,275.077],[169.1531,-46.0735,309.0271],[169.1579,-46.0684,344.5895],[169.158,-46.0622,329.1165],[169.1533,-46.0487,269.3171],[169.1362,-46.0481,224.0418],[169.1285,-46.0417,165.6828],[169.119,-46.037,184.4603],[169.1098,-46.0375,195.2049],[169.1035,-46.036,184.0175],[169.1026,-46.0336,182.6793],[169.1001,-46.0334,176.3703],[169.0983,-46.0291,192.6639],[169.0896,-46.0242,178.674],[169.0882,-46.0216,189.923],[169.0888,-46.0178,196.3811],[169.0818,-46.0144,194.0338],[169.083,-46.0114,201.2718],[169.0797,-46.0083,187.4652],[169.0798,-46.0052,204.0226],[169.0813,-46.0043,201.4356],[169.0797,-46.0027,205.4268],[169.1278,-46.0031,134.3245],[169.1264,-46.0018,133.7652],[169.1172,-46.0003,142.6808],[169.1082,-45.9951,150.8899],[169.0887,-46.0012,170.3497],[169.0727,-46.0016,210.3621],[169.0725,-45.9977,200.8488],[169.0708,-45.997,192.7019],[169.0714,-45.9885,199.4045],[169.0666,-45.9853,193.0708],[169.0681,-45.9836,203.2658],[169.0664,-45.983,194.7682],[169.0672,-45.9804,185.1343],[169.0713,-45.9765,188.7077],[169.0706,-45.9754,184.7475],[169.0751,-45.9729,177.1054],[169.0748,-45.9703,174.9336],[169.0811,-45.9653,175.2079],[169.0881,-45.9639,162.7545],[169.0944,-45.9595,159.5838],[169.0997,-45.948,169.8455],[169.0972,-45.9386,174.6642],[169.0904,-45.9376,179.0639],[169.0846,-45.9338,193.4053],[169.0822,-45.9295,206.6476],[169.0734,-45.9247,228.8122],[169.0769,-45.9226,227.5427],[169.0752,-45.9216,214.6983],[169.0765,-45.9196,221.7022],[169.0847,-45.9167,213.3213],[169.0849,-45.9059,169.674],[169.0888,-45.9,185.9175],[169.0894,-45.8955,204.8526],[169.0914,-45.8913,227.7656],[169.0935,-45.892,251.1366],[169.0991,-45.8844,273.0596],[169.0965,-45.8826,265.7965],[169.0915,-45.8826,299.9299],[169.0822,-45.873,357.9109],[169.0745,-45.8711,410.1269],[169.0732,-45.865,431.8925],[169.0805,-45.8582,483.8943],[169.0566,-45.8501,287.7047],[169.0497,-45.8585,254.0482],[169.0504,-45.864,245.9367],[169.0052,-45.8635,542.4889],[169.0055,-45.8479,596.0731],[169.0088,-45.8443,563.3881],[169.012,-45.8341,621.4807],[169.0178,-45.8299,651.3665],[169.0198,-45.8248,642.2549],[169.0254,-45.8219,606.9692],[169.0289,-45.8089,283.4366],[169.024,-45.8052,301.882],[169.0135,-45.8036,338.4838],[169.0035,-45.7958,388.6144]]]]}}