{"type": "Feature","bbox": [175.0989,-40.2963,176.3407,-39.1345],"geometry": {"type": "MultiPolygon","coordinates": [[[[176.1839,-39.6862,1380.2416],[176.1842,-39.6838,1433.8448],[176.1927,-39.6798,1424.4695],[176.2009,-39.673,1444.4922],[176.1959,-39.6636,1496.7365],[176.1651,-39.6487,1280.1003],[176.1813,-39.6169,1193.8955],[176.179,-39.6053,1164.1738],[176.1735,-39.6021,1141.9983],[176.1614,-39.6029,1142.6921],[176.1576,-39.5968,1241.7139],[176.1527,-39.5983,1211.9982],[176.1472,-39.5925,1172.645],[176.1427,-39.5847,1150.2744],[176.1448,-39.5824,1090.6636],[176.1547,-39.5836,991.5348],[176.1603,-39.5807,991.1279],[176.1664,-39.5828,919.0334],[176.1703,-39.5815,903.8464],[176.1744,-39.5787,845.5504],[176.1741,-39.5766,846.7755],[176.1823,-39.5717,811.3108],[176.1835,-39.5665,785.4435],[176.1868,-39.5646,777.4915],[176.1897,-39.5596,777.2983],[176.1992,-39.5571,764.509],[176.1982,-39.5545,743.2811],[176.2001,-39.5535,695.4926],[176.2,-39.5464,663.7599],[176.2065,-39.5407,651.6698],[176.2105,-39.5334,527.2289],[176.2198,-39.5319,440.8829],[176.223,-39.5339,433.8435],[176.225,-39.5321,427.291],[176.2279,-39.533,442.5219],[176.2353,-39.5304,420.923],[176.2389,-39.5255,414.3094],[176.2477,-39.5231,402.6511],[176.2514,-39.5183,405.7552],[176.2568,-39.515,384.2797],[176.2574,-39.5123,376.6133],[176.2651,-39.5149,417.1466],[176.2695,-39.5115,409.7486],[176.2717,-39.5071,366.4768],[176.2784,-39.5068,370.0864],[176.278,-39.5033,387.3543],[176.2812,-39.5025,366.4472],[176.285,-39.5049,367.2817],[176.2918,-39.5016,348.7675],[176.3,-39.5071,364.7869],[176.3013,-39.505,345.6964],[176.2989,-39.5042,377.4123],[176.302,-39.5022,333.6995],[176.3066,-39.504,330.3173],[176.31,-39.5021,352.6368],[176.3162,-39.5039,336.837],[176.3128,-39.5061,340.1366],[176.313,-39.5076,317.5155],[176.3185,-39.5081,390.2252],[176.3236,-39.5059,291.18],[176.3241,-39.5014,296.4824],[176.3327,-39.5044,299.836],[176.3407,-39.5024,255.3613],[176.338,-39.5011,253.0747],[176.3396,-39.4966,288.0506],[176.3337,-39.4991,281.252],[176.3322,-39.4984,294.2157],[176.336,-39.4934,294.9899],[176.3352,-39.4913,369.6842],[176.3375,-39.4906,322.3771],[176.3372,-39.4883,298.2815],[176.334,-39.4893,314.1392],[176.3255,-39.488,316.5582],[176.3253,-39.4936,345.1919],[176.3219,-39.4934,347.8194],[176.3206,-39.4976,337.8125],[176.3158,-39.4973,344.5467],[176.3177,-39.4938,341.5202],[176.3154,-39.4928,363.2979],[176.3192,-39.4877,422.3318],[176.3135,-39.4828,360.2572],[176.3165,-39.4792,423.2712],[176.3182,-39.4809,376.0716],[176.3215,-39.4791,403.1436],[176.3184,-39.4748,413.8866],[176.3127,-39.4748,372.7194],[176.3143,-39.472,367.1873],[176.3088,-39.4706,379.2148],[176.3115,-39.4688,403.9439],[176.3073,-39.4628,430.728],[176.3098,-39.4598,425.67],[176.3132,-39.4588,411.1017],[176.31,-39.4551,456.3809],[176.3139,-39.4533,397.6668],[176.3104,-39.4452,451.5662],[176.3051,-39.4439,418.8515],[176.3058,-39.4415,404.1103],[176.3083,-39.4409,435.2225],[176.3023,-39.4372,425.9676],[176.3084,-39.4317,452.4553],[176.3058,-39.429,471.7375],[176.3161,-39.4198,458.0746],[176.3092,-39.4181,499.5219],[176.3143,-39.4134,459.0319],[176.3176,-39.415,538.2586],[176.3219,-39.4147,533.5346],[176.3207,-39.4106,486.8644],[176.324,-39.4109,469.8669],[176.3246,-39.4094,470.1601],[176.3196,-39.4066,478.2602],[176.3211,-39.4054,489.7469],[176.3267,-39.4061,474.0894],[176.3239,-39.403,515.7125],[176.3258,-39.4001,469.1153],[176.324,-39.3986,475.2448],[176.3276,-39.3966,485.6306],[176.3282,-39.3934,489.1333],[176.3257,-39.3919,505.2863],[176.3222,-39.3937,489.2742],[176.3208,-39.3902,498.2224],[176.3234,-39.3868,495.4812],[176.327,-39.388,500.2491],[176.3313,-39.3867,505.7822],[176.3328,-39.3838,490.4114],[176.3319,-39.379,507.1915],[176.3306,-39.3783,499.4308],[176.3285,-39.3799,541.8513],[176.3276,-39.3785,511.7745],[176.3315,-39.3771,538.9539],[176.3321,-39.375,511.7323],[176.3292,-39.3731,516.9537],[176.3284,-39.3686,551.9773],[176.3216,-39.3706,525.1079],[176.3109,-39.3703,526.731],[176.3115,-39.3665,541.312],[176.305,-39.3654,543.5633],[176.3067,-39.3612,548.3812],[176.3033,-39.3598,557.8891],[176.3024,-39.3566,559.4931],[176.2984,-39.3587,553.8875],[176.2936,-39.3579,559.9333],[176.2916,-39.363,631.9652],[176.2865,-39.3623,574.1677],[176.285,-39.3597,573.5693],[176.2829,-39.3602,612.6606],[176.2804,-39.3585,578.8947],[176.2784,-39.3595,573.1688],[176.2784,-39.3616,581.1694],[176.2759,-39.3623,583.7108],[176.2756,-39.3585,609.2233],[176.2732,-39.3596,653.6738],[176.2708,-39.3584,607.8881],[176.2715,-39.3525,612.5453],[176.2654,-39.3493,613.0416],[176.2701,-39.3461,607.9766],[176.266,-39.3444,636.3089],[176.2664,-39.3415,626.7614],[176.2638,-39.3373,610.1398],[176.2728,-39.3377,619.1945],[176.271,-39.3346,649.1432],[176.2763,-39.3299,651.8503],[176.2725,-39.3288,639.3645],[176.2774,-39.327,641.6017],[176.2775,-39.3194,699.5338],[176.2816,-39.3186,660.7286],[176.2823,-39.3145,677.1993],[176.2799,-39.3126,672.4417],[176.2815,-39.3093,709.3771],[176.2865,-39.3103,679.3109],[176.2913,-39.3069,725.8615],[176.2935,-39.3079,716.2379],[176.2987,-39.3054,706.3793],[176.3026,-39.3006,756.6783],[176.3017,-39.2976,715.2758],[176.3051,-39.2919,719.6469],[176.3042,-39.2856,735.562],[176.2992,-39.2851,734.3964],[176.301,-39.2838,788.5106],[176.2993,-39.276,765.0973],[176.2933,-39.2772,780.6706],[176.2954,-39.2669,755.5656],[176.2928,-39.2638,763.8204],[176.293,-39.2586,806.523],[176.288,-39.2591,808.4805],[176.2917,-39.2554,790.089],[176.2881,-39.2548,770.0323],[176.2873,-39.2514,795.3651],[176.2923,-39.251,801.1542],[176.2897,-39.2464,811.3525],[176.2785,-39.2425,863.5081],[176.2766,-39.24,851.5883],[176.2573,-39.2446,853.3383],[176.258,-39.2406,885.8287],[176.2552,-39.24,861.4116],[176.2552,-39.2365,892.3411],[176.2517,-39.2389,856.0383],[176.2495,-39.2374,859.9365],[176.249,-39.2346,839.4495],[176.2445,-39.2344,1001.3862],[176.2421,-39.236,881.7535],[176.2397,-39.2329,973.0358],[176.231,-39.2321,875.5985],[176.223,-39.2356,892.145],[176.2195,-39.2313,897.4513],[176.2151,-39.2309,933.5281],[176.2115,-39.2324,901.4849],[176.2094,-39.2314,996.6273],[176.2093,-39.2285,908.9796],[176.2051,-39.2257,927.1172],[176.2,-39.2257,901.5233],[176.196,-39.2213,925.4075],[176.1961,-39.2149,909.7067],[176.1929,-39.2114,974.7588],[176.1958,-39.2083,940.8711],[176.1932,-39.2018,989.1946],[176.1955,-39.1987,970.4667],[176.1947,-39.1964,928.2437],[176.1905,-39.1949,926.8108],[176.1865,-39.1894,968.3309],[176.1798,-39.1851,923.051],[176.18,-39.1806,925.8295],[176.1824,-39.1794,926.7314],[176.1801,-39.1768,928.3033],[176.1822,-39.1739,953.9642],[176.1782,-39.1699,956.0559],[176.1809,-39.1691,965.6642],[176.1758,-39.1531,941.7595],[176.1769,-39.1446,946.6174],[176.1624,-39.1363,956.2586],[176.1546,-39.1383,970.7202],[176.1466,-39.1345,999.1646],[176.1414,-39.1365,973.2169],[176.14,-39.1389,978.2429],[176.1358,-39.1397,980.4775],[176.1344,-39.143,999.0134],[176.1162,-39.1471,1045.858],[176.1118,-39.152,1024.4038],[176.1028,-39.1512,1046.4019],[176.0961,-39.1546,1092.0631],[176.081,-39.1572,1100.0126],[176.0775,-39.156,1082.0095],[176.0441,-39.1569,1675.0012],[175.976,-39.15,1427.4659],[175.9716,-39.1577,1515.5703],[175.964,-39.1595,1651.9314],[175.9638,-39.1623,1620.5839],[175.9677,-39.1704,1560.2079],[175.9647,-39.1793,1503.869],[175.9597,-39.1842,1566.8899],[175.95,-39.188,1553.6761],[175.945,-39.1869,1564.6835],[175.9212,-39.1897,1578.2104],[175.9189,-39.191,1568.7021],[175.9195,-39.1987,1533.7562],[175.9035,-39.1999,1488.5594],[175.8992,-39.2038,1499.6102],[175.886,-39.2059,1653.01],[175.8882,-39.2114,1539.1174],[175.8929,-39.2138,1434.4392],[175.8927,-39.2236,1436.9014],[175.8864,-39.2271,1378.9817],[175.8856,-39.2293,1378.7092],[175.8726,-39.2391,1376.3428],[175.8585,-39.2444,1526.1865],[175.8547,-39.2442,1610.4202],[175.8566,-39.252,1623.704],[175.869,-39.2591,1632.9934],[175.8681,-39.263,1632.5581],[175.8627,-39.2665,1515.7416],[175.8426,-39.2707,1342.5463],[175.836,-39.2768,1455.4263],[175.8335,-39.2833,1344.9019],[175.8286,-39.2888,1298.7344],[175.8311,-39.2898,1279.6104],[175.8398,-39.2886,1266.3408],[175.8459,-39.292,1242.4972],[175.8689,-39.2906,1327.1825],[175.884,-39.2939,1164.3591],[175.8859,-39.2956,1161.4951],[175.8999,-39.2876,1415.0265],[175.9058,-39.2827,1452.3218],[175.9097,-39.2765,1449.6802],[175.9257,-39.277,1390.0168],[175.9376,-39.2584,983.1224],[175.9418,-39.262,958.8047],[175.9485,-39.2628,939.875],[175.9535,-39.2586,916.144],[175.9608,-39.2588,906.415],[175.9648,-39.2608,900.3106],[175.9662,-39.2686,900.9911],[175.969,-39.269,912.9325],[175.969,-39.2708,855.7004],[175.9707,-39.2704,855.7004],[175.9707,-39.2728,868.7986],[175.9751,-39.2739,881.4066],[175.9792,-39.2695,871.5886],[175.9824,-39.2698,836.9934],[175.9837,-39.2737,832.3618],[175.9929,-39.2769,811.114],[175.9917,-39.2793,806.4875],[175.9943,-39.2799,813.8785],[175.9954,-39.282,803.3051],[176.0043,-39.282,804.0481],[176.0041,-39.2868,818.3316],[175.9757,-39.2869,1130.9578],[175.9762,-39.356,958.708],[176.0294,-39.3557,736.1539],[176.028,-39.3601,719.8553],[176.0229,-39.3582,715.2041],[176.0207,-39.3605,763.8677],[176.0207,-39.3663,720.6882],[176.0243,-39.3677,707.6302],[176.023,-39.3695,701.4952],[176.0196,-39.3701,708.3117],[176.0221,-39.3735,707.5925],[176.022,-39.3764,730.0936],[176.0186,-39.3797,715.2075],[176.0139,-39.3794,690.5964],[176.0131,-39.3833,695.2081],[176.018,-39.3873,683.1805],[176.0146,-39.3882,697.6153],[176.0145,-39.3934,685.6787],[176.0203,-39.395,719.8073],[176.0171,-39.4008,700.1965],[176.0131,-39.3993,669.8571],[176.0125,-39.4054,773.029],[176.0077,-39.4107,698.6211],[176.0082,-39.4149,657.6631],[175.9765,-39.415,1034.561],[175.9765,-39.4108,1131.4974],[175.8935,-39.4124,1306.178],[175.8937,-39.4585,943.9024],[175.8918,-39.4585,935.5015],[175.8919,-39.4943,558.0956],[175.8965,-39.4936,527.9288],[175.8988,-39.4963,538.9171],[175.9021,-39.495,518.3181],[175.9013,-39.5012,545.4789],[175.866,-39.5206,846.5488],[175.8451,-39.5102,987.0156],[175.8481,-39.5244,819.0374],[175.8346,-39.5285,823.0571],[175.8226,-39.5286,845.5043],[175.8215,-39.5265,850.5281],[175.7895,-39.5263,1098.0319],[175.7881,-39.5287,1089.3153],[175.7896,-39.5335,1052.0588],[175.7833,-39.5401,987.4744],[175.7713,-39.544,1014.9642],[175.7669,-39.5429,1003.6976],[175.7659,-39.541,963.6675],[175.7554,-39.5426,921.3925],[175.7523,-39.5475,896.1833],[175.7512,-39.5568,898.5789],[175.7453,-39.5627,813.0669],[175.729,-39.5666,763.6875],[175.7222,-39.572,784.2593],[175.7163,-39.5712,768.4831],[175.7134,-39.5737,734.8734],[175.7104,-39.5734,751.8961],[175.6993,-39.568,761.0245],[175.6974,-39.5647,742.7832],[175.6996,-39.5594,762.1838],[175.6988,-39.5572,758.8381],[175.6945,-39.5537,749.4636],[175.6862,-39.5505,772.9134],[175.6859,-39.5465,771.3909],[175.6839,-39.544,763.022],[175.6799,-39.5458,763.3176],[175.6783,-39.5422,786.8827],[175.6629,-39.5492,811.0529],[175.6575,-39.5487,805.3699],[175.6435,-39.5254,842.6848],[175.596,-39.5224,699.1007],[175.5972,-39.5312,667.5769],[175.5942,-39.5376,623.1206],[175.5896,-39.541,606.172],[175.5894,-39.5428,606.7438],[175.5918,-39.5432,582.6663],[175.4943,-39.5433,652.7296],[175.4931,-39.5453,626.4421],[175.4882,-39.5447,613.4082],[175.4882,-39.5792,588.9143],[175.494,-39.5836,575.2725],[175.498,-39.5835,501.1134],[175.5023,-39.5805,431.9301],[175.5056,-39.5809,404.8109],[175.5034,-39.5824,419.3711],[175.5026,-39.5886,393.467],[175.4985,-39.5914,387.9088],[175.4972,-39.5968,384.6835],[175.4996,-39.5999,374.3509],[175.4974,-39.601,406.6081],[175.4967,-39.6055,372.3769],[175.4945,-39.6068,355.4012],[175.4953,-39.608,402.3804],[175.4926,-39.6094,391.7924],[175.492,-39.6113,372.8777],[175.494,-39.6141,406.236],[175.492,-39.6163,377.8643],[175.4892,-39.6166,347.9434],[175.4888,-39.6204,352.2057],[175.4831,-39.6224,368.8678],[175.4814,-39.6244,336.1458],[175.4824,-39.6252,342.6815],[175.4791,-39.6263,322.3178],[175.4792,-39.628,358.2951],[175.475,-39.6314,337.5805],[175.4693,-39.6314,309.3013],[175.4705,-39.6326,309.3013],[175.4692,-39.6358,350.459],[175.4652,-39.6355,317.3995],[175.4661,-39.6382,332.1412],[175.462,-39.6404,319.1713],[175.4618,-39.6421,320.3821],[175.4957,-39.6572,681.3182],[175.4944,-39.6609,612.6962],[175.4865,-39.6606,641.8121],[175.4876,-39.6676,605.4511],[175.491,-39.6715,606.4069],[175.5109,-39.6715,622.2574],[175.5102,-39.6761,626.6337],[175.515,-39.679,582.6849],[175.5152,-39.6815,596.5236],[175.5105,-39.6869,523.5062],[175.5068,-39.6881,538.1371],[175.5102,-39.6972,510.3134],[175.507,-39.7033,474.862],[175.5013,-39.7081,406.9799],[175.501,-39.7154,464.2444],[175.4969,-39.7197,498.1716],[175.498,-39.7249,516.7229],[175.4871,-39.7316,534.9448],[175.4855,-39.7361,539.3054],[175.4801,-39.7388,628.7048],[175.4796,-39.7418,603.2668],[175.4825,-39.7464,579.3826],[175.4799,-39.7528,619.6929],[175.4814,-39.7551,660.5953],[175.4803,-39.7568,609.7863],[175.4856,-39.7588,631.8271],[175.4813,-39.7609,638.5639],[175.4782,-39.7678,565.9406],[175.4754,-39.7704,567.1865],[175.4602,-39.7789,472.5132],[175.4617,-39.7834,474.5573],[175.4594,-39.7856,465.1244],[175.4568,-39.7959,396.5741],[175.4527,-39.7969,382.7259],[175.4533,-39.7994,369.9283],[175.4505,-39.8045,355.2327],[175.4511,-39.8101,387.8466],[175.4528,-39.8107,335.2064],[175.4528,-39.8221,395.7587],[175.4496,-39.8224,418.9461],[175.4393,-39.8182,405.303],[175.4378,-39.8187,398.0298],[175.4378,-39.8276,354.023],[175.418,-39.8274,241.8259],[175.4139,-39.8335,210.7086],[175.4003,-39.8343,301.0118],[175.3862,-39.8321,283.3086],[175.3832,-39.8356,270.5124],[175.3757,-39.8395,265.6223],[175.377,-39.8427,264.3223],[175.3735,-39.8457,245.5217],[175.3759,-39.8496,216.1799],[175.3718,-39.8546,181.9571],[175.3671,-39.8575,194.4645],[175.366,-39.8557,194.2974],[175.3638,-39.8574,185.6635],[175.3575,-39.8564,180.7155],[175.3563,-39.8587,178.0235],[175.352,-39.86,225.6017],[175.3532,-39.8667,198.1833],[175.3511,-39.8679,176.2845],[175.3512,-39.8702,232.9238],[175.3486,-39.8733,235.7791],[175.3377,-39.8736,236.1478],[175.3346,-39.8753,227.2514],[175.3271,-39.8731,244.211],[175.308,-39.8561,52.5157],[175.3013,-39.8592,49.8662],[175.2903,-39.86,47.2623],[175.2898,-39.8619,52.6018],[175.2957,-39.8651,49.1465],[175.2927,-39.8699,78.4305],[175.2737,-39.878,64.8102],[175.2768,-39.88,66.3156],[175.2852,-39.8801,45.3555],[175.2869,-39.8793,41.8592],[175.2851,-39.8773,41.0892],[175.2865,-39.8765,45.8986],[175.2952,-39.8801,54.7476],[175.2944,-39.8812,54.7476],[175.288,-39.8809,43.7929],[175.287,-39.8822,41.5873],[175.2875,-39.8866,44.3128],[175.2954,-39.8951,41.0074],[175.2908,-39.8956,42.1771],[175.2886,-39.9002,41.7512],[175.284,-39.8995,45.8252],[175.2846,-39.9049,61.7875],[175.2786,-39.9092,37.4205],[175.2875,-39.9161,37.7801],[175.2928,-39.9239,39.1185],[175.2904,-39.9249,52.9443],[175.2846,-39.9188,37.1786],[175.2778,-39.9179,43.3619],[175.2784,-39.9222,34.3638],[175.2738,-39.9229,64.9042],[175.2777,-39.929,47.7953],[175.2686,-39.9315,32.2045],[175.2767,-39.9379,35.0163],[175.2826,-39.9351,32.9103],[175.2859,-39.9363,70.7892],[175.281,-39.9383,30.6454],[175.2811,-39.9417,30.0599],[175.2781,-39.9433,29.6285],[175.2775,-39.948,30.6923],[175.2717,-39.9468,30.8132],[175.2692,-39.9493,59.2188],[175.2744,-39.9546,28.0664],[175.2734,-39.9565,28.4272],[175.2655,-39.9554,27.3582],[175.2663,-39.9571,26.5864],[175.2718,-39.9588,26.165],[175.2727,-39.9613,25.9368],[175.2719,-39.9645,24.1157],[175.2619,-39.9687,24.5516],[175.2626,-39.9703,24.6493],[175.2681,-39.9695,40.9388],[175.2658,-39.9743,24.6358],[175.2623,-39.9754,23.2497],[175.2592,-39.9722,25.2056],[175.2545,-39.9705,23.5508],[175.247,-39.9725,21.6485],[175.2456,-39.971,20.8389],[175.2462,-39.9667,22.9716],[175.2364,-39.9667,21.5041],[175.2341,-39.9695,26.8803],[175.2344,-39.9779,19.9693],[175.2318,-39.9799,21.6849],[175.2262,-39.9797,20.7228],[175.2264,-39.9856,18.8591],[175.2196,-39.9876,19.5639],[175.2231,-39.9908,18.375],[175.2225,-39.9928,17.0225],[175.2121,-39.9913,18.0314],[175.2096,-39.9931,16.3522],[175.2103,-39.9976,15.3008],[175.1991,-39.9982,15.9889],[175.1942,-40.0007,17.928],[175.1884,-39.998,15.0162],[175.1847,-40.0046,14.5317],[175.1756,-40.003,11.8489],[175.1716,-40.0072,12.1013],[175.1647,-40.0051,11.6176],[175.1617,-40.0109,9.3791],[175.1597,-40.0099,12.8116],[175.1596,-40.006,14.3369],[175.1494,-40.0108,9.9783],[175.1474,-40.01,10.1561],[175.1469,-40.0067,9.0027],[175.1447,-40.0066,9.9693],[175.1335,-40.012,8.3454],[175.1323,-40.0166,7.0819],[175.127,-40.0163,7.7048],[175.122,-40.0224,7.431],[175.1225,-40.0368,5.3463],[175.1195,-40.038,3.1087],[175.1158,-40.0368,3.3705],[175.1149,-40.0343,5.5334],[175.1168,-40.0297,4.5902],[175.1121,-40.028,3.3284],[175.1076,-40.0306,1.0],[175.104,-40.0368,0.5],[175.0989,-40.0411,0.0],[175.1139,-40.0536,0.8808],[175.1436,-40.0828,0.9674],[175.1628,-40.1074,9.2578],[175.1883,-40.1532,9.2605],[175.1982,-40.1766,9.9793],[175.2066,-40.2062,6.7554],[175.2071,-40.2145,0.0],[175.2098,-40.2208,10.1969],[175.216,-40.2506,12.5264],[175.2177,-40.2679,0.0],[175.2216,-40.2863,0.0],[175.2246,-40.2862,1.2],[175.2272,-40.291,0.6163],[175.2316,-40.2919,0.0],[175.2378,-40.2866,0.5446],[175.24,-40.2823,2.0371],[175.2442,-40.2815,1.2994],[175.2591,-40.2946,3.593],[175.2636,-40.2963,5.5405],[175.2692,-40.2959,5.0975],[175.2737,-40.2908,7.4884],[175.2823,-40.2878,6.8261],[175.2844,-40.2836,8.827],[175.2966,-40.2792,9.2377],[175.301,-40.2701,10.1933],[175.3094,-40.266,11.627],[175.3122,-40.2616,19.7993],[175.3179,-40.2571,16.5492],[175.3397,-40.2075,28.4225],[175.3468,-40.2023,28.4475],[175.3504,-40.1947,31.9137],[175.3642,-40.1881,37.3365],[175.381,-40.1899,41.1081],[175.3875,-40.1889,37.2307],[175.3939,-40.1857,42.9874],[175.3988,-40.1856,42.7655],[175.4011,-40.1841,45.9406],[175.4034,-40.1775,49.1335],[175.4083,-40.1765,46.2415],[175.4064,-40.1755,49.6601],[175.4181,-40.1704,44.1123],[175.4243,-40.1636,49.9392],[175.4329,-40.1591,49.779],[175.4351,-40.148,56.71],[175.4345,-40.1436,57.3006],[175.4393,-40.1342,64.5235],[175.4367,-40.1308,62.7029],[175.437,-40.1276,59.1714],[175.4445,-40.124,62.3608],[175.4493,-40.1194,59.0],[175.4477,-40.1139,63.1547],[175.4408,-40.1101,65.7129],[175.4392,-40.1075,69.4416],[175.4421,-40.0996,66.342],[175.4418,-40.0951,74.171],[175.4474,-40.0922,70.5435],[175.4521,-40.0832,72.25],[175.4558,-40.0808,77.1138],[175.4744,-40.0795,79.9896],[175.4922,-40.0673,88.9319],[175.496,-40.0589,88.2804],[175.4973,-40.0468,96.14],[175.5028,-40.0429,93.6435],[175.5049,-40.0393,95.8411],[175.5044,-40.0319,101.167],[175.5059,-40.0296,101.9793],[175.5116,-40.0269,100.8558],[175.5389,-40.0204,106.8561],[175.5436,-40.0157,109.1723],[175.5487,-40.005,111.1675],[175.551,-40.004,113.0287],[175.5652,-40.0075,115.2598],[175.5695,-40.0119,116.9455],[175.5704,-40.0192,124.2296],[175.5747,-40.0217,121.6322],[175.5803,-40.0214,142.7484],[175.5812,-40.0199,120.5676],[175.5789,-40.007,120.5958],[175.5803,-40.0023,124.2215],[175.5896,-40.0016,124.1741],[175.5958,-39.9984,126.5406],[175.5997,-39.9903,129.506],[175.6046,-39.9861,140.9193],[175.6184,-39.9839,141.6825],[175.6203,-39.9811,146.1446],[175.6199,-39.976,189.1496],[175.6266,-39.979,136.0209],[175.6325,-39.9739,142.4134],[175.6327,-39.9701,140.3436],[175.6275,-39.9639,142.2069],[175.6314,-39.9622,158.0257],[175.6364,-39.9661,144.0252],[175.6382,-39.9644,145.4163],[175.6354,-39.9585,148.4417],[175.6307,-39.9556,147.2585],[175.6369,-39.9538,151.7636],[175.638,-39.9472,153.4781],[175.6474,-39.942,157.48],[175.6465,-39.94,168.6223],[175.6396,-39.9365,171.609],[175.6375,-39.9338,195.2556],[175.6459,-39.9342,160.724],[175.6499,-39.9323,158.0949],[175.6492,-39.9299,163.0915],[175.6422,-39.9289,167.9913],[175.6453,-39.9238,165.3461],[175.6456,-39.9182,165.6041],[175.6478,-39.9155,165.5039],[175.6553,-39.9139,175.3693],[175.6593,-39.9114,174.9429],[175.661,-39.9013,174.4872],[175.6642,-39.9005,174.8174],[175.6705,-39.9038,178.0984],[175.6749,-39.9018,175.7574],[175.6743,-39.8924,181.1777],[175.6796,-39.8865,188.7112],[175.676,-39.8809,196.0351],[175.6768,-39.879,183.4874],[175.685,-39.8766,188.3404],[175.6868,-39.874,197.783],[175.6895,-39.8748,185.3958],[175.6903,-39.8792,189.2171],[175.6923,-39.8789,189.9977],[175.6947,-39.8745,197.5901],[175.6992,-39.8787,202.985],[175.7024,-39.8793,196.0424],[175.7055,-39.8733,196.6161],[175.7108,-39.879,199.7235],[175.7178,-39.8805,200.1903],[175.7193,-39.878,200.7384],[175.7173,-39.8725,204.1215],[175.7266,-39.8721,205.7578],[175.7329,-39.8685,219.8739],[175.729,-39.8634,210.5601],[175.7327,-39.8582,216.599],[175.7361,-39.8576,238.226],[175.7417,-39.8607,214.9041],[175.745,-39.8598,247.865],[175.7445,-39.8576,218.651],[175.7417,-39.8564,226.5603],[175.7427,-39.8502,217.5261],[175.748,-39.8501,225.173],[175.7522,-39.8462,237.6388],[175.7584,-39.8464,283.2227],[175.7644,-39.8409,244.6275],[175.7667,-39.8415,233.8868],[175.768,-39.8447,228.6882],[175.7707,-39.8443,235.4308],[175.7719,-39.8405,235.0005],[175.7735,-39.8399,239.5399],[175.7807,-39.844,235.4861],[175.7917,-39.8392,273.5945],[175.7941,-39.837,312.0026],[175.7944,-39.8343,292.8367],[175.7837,-39.8265,324.6057],[175.7874,-39.822,251.7732],[175.7852,-39.8156,251.6854],[175.7873,-39.8123,286.5775],[175.7932,-39.8164,285.7806],[175.796,-39.8163,288.0749],[175.7968,-39.8109,254.7327],[175.7987,-39.8087,258.1663],[175.8083,-39.8112,263.5895],[175.8067,-39.8054,260.6855],[175.8109,-39.803,274.1215],[175.8158,-39.805,315.5107],[175.8188,-39.8045,346.6637],[175.8242,-39.8103,308.5378],[175.8375,-39.7984,531.3208],[175.8377,-39.8019,479.9359],[175.8409,-39.8006,535.571],[175.8411,-39.8034,512.6237],[175.8462,-39.7981,545.3461],[175.8501,-39.7982,553.1818],[175.851,-39.7995,553.1818],[175.8531,-39.7985,549.1762],[175.8547,-39.8002,513.9772],[175.8558,-39.7984,538.9438],[175.8576,-39.7998,507.3957],[175.8701,-39.7988,532.0461],[175.8737,-39.8014,541.4415],[175.8781,-39.8019,548.803],[175.8788,-39.8062,547.2927],[175.8902,-39.8091,571.8972],[175.8976,-39.8143,632.5529],[175.909,-39.8111,647.4156],[175.9121,-39.813,609.9866],[175.9137,-39.8113,627.4493],[175.9169,-39.8135,622.6897],[175.9164,-39.8156,636.4644],[175.9194,-39.8184,637.5438],[175.9228,-39.8141,667.696],[175.9266,-39.8174,666.1486],[175.9294,-39.8155,642.5818],[175.9316,-39.8171,642.5381],[175.9293,-39.8268,542.8263],[175.9545,-39.8302,641.0371],[175.9529,-39.8368,564.8246],[175.963,-39.8381,548.6667],[175.9637,-39.8423,562.0508],[175.96,-39.8448,614.9417],[175.9611,-39.8461,606.3763],[175.9632,-39.8453,600.5447],[175.9643,-39.8478,631.3798],[175.9661,-39.847,640.1129],[175.9707,-39.8489,635.1263],[175.9771,-39.8462,593.1364],[175.9854,-39.8501,594.7554],[175.9856,-39.8466,602.2009],[175.994,-39.8443,660.5476],[175.994,-39.8381,653.4485],[175.9997,-39.8323,530.1477],[175.9995,-39.835,498.6323],[176.0026,-39.835,507.0646],[176.0036,-39.8369,561.4429],[176.0055,-39.836,551.1194],[176.0113,-39.8388,560.1882],[176.0132,-39.8378,567.0848],[176.0144,-39.8392,540.4066],[176.017,-39.8389,554.2854],[176.0537,-39.8667,1517.3872],[176.1033,-39.8826,1649.2305],[176.1098,-39.8903,1667.4138],[176.1172,-39.8868,1587.574],[176.1268,-39.8615,1642.213],[176.135,-39.8506,1585.2273],[176.138,-39.8239,1615.0607],[176.1768,-39.744,1452.4878],[176.1691,-39.7179,1433.1196],[176.1805,-39.7111,1488.4424],[176.1839,-39.6862,1380.2416]]]]}
,"properties": {"GID_2": "NZL.7.4_1","GID_0": "NZL","country": "NewZealand","GID_1": "NZL.7_1","province": "Manawatu-Wanganui","NL_NAME_1": "NA","county": "Rangitikei","VARNAME_2": "NA","NL_NAME_2": "NA","TYPE_2": "District","ENGTYPE_2": "District","CC_2": "038","HASC_2": "NZ.MW.RT","name": "Rangitikei.county","area_km2": 4476.814,"hist_schema_id": "Elevation0-9000","hist_area_km2": {"0": 64.598,"25": 165.836,"50": 97.563,"75": 98.598,"100": 105.422,"125": 104.983,"150": 94.718,"175": 87.357,"200": 87.139,"225": 75.357,"250": 65.117,"275": 68.952,"300": 76.412,"325": 74.173,"350": 64.26,"375": 61.741,"400": 66.287,"425": 77.59,"450": 86.73,"475": 103.232,"500": 118.994,"525": 135.906,"550": 141.21,"575": 141.001,"600": 127.289,"625": 114.608,"650": 104.689,"675": 93.329,"700": 87.044,"725": 88.762,"750": 87.291,"775": 79.314,"800": 76.685,"825": 73.077,"850": 73.216,"875": 94.738,"900": 91.967,"925": 82.724,"950": 73.556,"975": 68.179,"1000": 59.811,"1025": 56.633,"1050": 54.846,"1075": 53.465,"1100": 51.926,"1125": 52.861,"1150": 51.212,"1175": 48.698,"1200": 45.621,"1225": 43.848,"1250": 41.387,"1275": 37.22,"1300": 33.514,"1325": 29.285,"1350": 25.45,"1375": 23.319,"1400": 19.232,"1425": 15.102,"1450": 12.344,"1475": 9.526,"1500": 8.248,"1525": 6.839,"1550": 4.91,"1575": 4.434,"1600": 3.075,"1625": 2.125,"1650": 1.34,"1675": 0.62,"1700": 0.228,"1725": 0.049}}}