{"type": "Feature","id": "3407","bbox": [168.1261,-46.66074,171.17254,-43.96264],"geometry": {"type": "Polygon","coordinates": [[[169.67195,-43.97551,1346.1462],[169.6426,-43.96264,2067.5449],[169.62399,-43.96285,1939.2355],[169.59898,-43.96595,1505.5212],[169.58214,-43.98352,1909.0912],[169.56767,-44.00414,1065.672],[169.54772,-44.02346,1097.5818],[169.51847,-44.03473,1206.7719],[169.48168,-44.05328,1671.0552],[169.43982,-44.06847,1944.7324],[169.40654,-44.08708,1267.3529],[169.36726,-44.10206,674.7522],[169.33471,-44.09576,1233.781],[169.30939,-44.08568,914.3442],[169.29233,-44.07622,1565.2175],[169.26257,-44.077,786.3069],[169.22505,-44.09137,925.793],[169.16252,-44.09839,922.0541],[169.11343,-44.09648,1306.3676],[169.07106,-44.10144,1265.6917],[169.02517,-44.11632,1543.634],[168.97752,-44.14402,1912.6924],[168.96698,-44.15389,1253.7036],[168.95623,-44.17219,1584.7036],[168.92088,-44.20355,1214.5764],[168.88585,-44.21828,2097.7996],[168.8628,-44.23472,2079.645],[168.8444,-44.25089,1797.7427],[168.83427,-44.27228,1330.821],[168.82766,-44.29197,1759.9121],[168.80306,-44.34008,2080.543],[168.78032,-44.3653,1557.4015],[168.7427,-44.39362,2509.4146],[168.7148,-44.40613,2050.781],[168.64948,-44.41269,2088.9595],[168.45394,-44.48054,1443.1306],[168.32888,-44.49,1845.0588],[168.30717,-44.50638,2041.1316],[168.274,-44.52302,1512.9685],[168.24041,-44.55361,1667.1145],[168.20506,-44.59666,716.0706],[168.18584,-44.63392,1203.7567],[168.16041,-44.70885,1291.2888],[168.16331,-44.74492,1074.9873],[168.14698,-44.82491,928.2274],[168.1261,-44.863,1259.9906],[168.13137,-44.90067,1502.5463],[168.14129,-44.93333,1215.0365],[168.16072,-44.96444,1455.9833],[168.18904,-44.99105,1554.0829],[168.21653,-45.0095,1343.496],[168.27286,-45.0281,1285.7316],[168.27596,-45.04707,1447.9849],[168.23906,-45.13177,1367.1062],[168.24372,-45.16086,1433.8564],[168.26067,-45.19445,1308.0052],[168.29229,-45.24179,833.4574],[168.29394,-45.26948,708.9285],[168.30759,-45.29951,1603.1444],[168.35668,-45.3177,1266.0723],[168.39668,-45.31925,1507.6044],[168.46251,-45.31558,1372.3866],[168.6378,-45.25817,1431.3752],[168.66064,-45.26695,1145.6134],[168.68999,-45.31739,1086.929],[168.75376,-45.38167,1147.2954],[168.77846,-45.41666,1226.3311],[168.81226,-45.42663,1137.4624],[168.85122,-45.43087,1364.4535],[168.89494,-45.4163,1246.2605],[169.0047,-45.30364,1528.7819],[169.04966,-45.28659,1661.4841],[169.08583,-45.30168,1545.1135],[169.17741,-45.37361,1488.0245],[169.19508,-45.41614,1233.929],[169.15281,-45.444,1326.1963],[169.08335,-45.57262,1114.3828],[169.02155,-45.66155,809.3444],[169.00605,-45.70589,952.7086],[169.00016,-45.73772,1046.2026],[168.99974,-45.76542,905.6708],[169.00202,-45.78335,600.1106],[169.00791,-45.80377,369.372],[169.01245,-45.83865,604.549],[169.0293,-45.85208,405.9344],[169.05896,-45.87115,206.6572],[169.07168,-45.89265,187.2363],[169.07591,-45.91787,195.9126],[169.07188,-45.94614,170.841],[169.07281,-45.97554,182.6843],[169.0818,-46.00779,179.0959],[169.10775,-46.03347,185.6828],[169.13503,-46.06732,148.4753],[169.14599,-46.10137,120.282],[169.14433,-46.1268,217.9297],[169.15549,-46.1545,147.6382],[169.18764,-46.20969,177.8838],[169.18547,-46.27454,341.4134],[169.17896,-46.30332,588.5714],[169.16449,-46.32864,293.5173],[169.15715,-46.35913,136.9525],[169.16934,-46.38435,312.2874],[169.17772,-46.41086,223.6061],[169.17741,-46.43691,424.5775],[169.18247,-46.45825,273.7346],[169.22381,-46.49737,404.5078],[169.22505,-46.51737,239.1524],[169.21286,-46.54315,152.9273],[169.19601,-46.56481,344.4556],[169.1927,-46.61801,38.5794],[169.19272,-46.61802,38.5794],[169.19451,-46.61834,44.4292],[169.19703,-46.62982,99.8057],[169.19321,-46.64983,21.9274],[169.20631,-46.65911,26.3814],[169.21974,-46.66074,0.0],[169.25465,-46.65732,0.0],[169.26661,-46.65472,0.0],[169.27858,-46.6487,0.0],[169.29908,-46.63299,0.0],[169.31251,-46.62672,95.6392],[169.33009,-46.62566,36.7166],[169.36451,-46.62998,0.0],[169.37086,-46.63209,0.0],[169.39177,-46.64365,0.0],[169.41033,-46.62038,0.0],[169.44109,-46.622,0.0],[169.47462,-46.62908,0.0],[169.50172,-46.62314,0.0],[169.4961,-46.61834,0.0],[169.48618,-46.6067,0.0],[169.48048,-46.60198,0.0],[169.53338,-46.58001,0.0],[169.54607,-46.57155,0.0],[169.56691,-46.56504,0.0],[169.59498,-46.57,0.0],[169.62086,-46.57741,0.0],[169.6351,-46.57838,0.0],[169.66814,-46.55885,0.0],[169.70411,-46.549,0.0],[169.73552,-46.53411,0.0],[169.75554,-46.49961,0.0],[169.67506,-46.49676,52.5593],[169.65935,-46.49212,91.6107],[169.67547,-46.48903,9.5935],[169.70427,-46.48016,4.8179],[169.72145,-46.47845,1.8791],[169.73845,-46.48065,0.0],[169.77215,-46.49,0.0],[169.78932,-46.49212,0.0],[169.79737,-46.48895,0.0],[169.82081,-46.47479,0.0],[169.84897,-46.46754,0.0],[169.85369,-46.45729,0.0],[169.85125,-46.43076,0.0],[169.86476,-46.37835,0.0],[169.89942,-46.3449,0.0],[170.03785,-46.27606,0.0],[170.05681,-46.26084,0.0],[170.07399,-46.24261,0.0],[170.09571,-46.22422,0.0],[170.12045,-46.21315,0.0],[170.17335,-46.19793,0.0],[170.19451,-46.18808,0.0],[170.21697,-46.17295,0.0],[170.23487,-46.15399,0.0],[170.2422,-46.13275,0.0],[170.24415,-46.12363,0.0],[170.25318,-46.10516,0.0],[170.25636,-46.07513,0.0],[170.26002,-46.06365,0.0],[170.27573,-46.0403,0.0],[170.33375,-45.98154,0.0],[170.40797,-45.94329,0.0],[170.49342,-45.92295,0.0],[170.70045,-45.90781,0.0],[170.70265,-45.90228,0.0],[170.7024,-45.89544,0.0],[170.70769,-45.88885,0.0],[170.71795,-45.88307,0.0],[170.72202,-45.88161,0.0],[170.74244,-45.88258,0.0],[170.76385,-45.88128,0.0],[170.77858,-45.87615,0.0],[170.78728,-45.86305,0.0],[170.79078,-45.80836,0.0],[170.78688,-45.7929,0.0],[170.77662,-45.78021,0.0],[170.76596,-45.79404,0.0],[170.75457,-45.79876,0.0],[170.74204,-45.80104,6.9922],[170.72828,-45.80755,105.2614],[170.71616,-45.81943,95.2368],[170.70102,-45.84222,0.0],[170.68719,-45.85166,0.0],[170.64194,-45.86403,117.3606],[170.61158,-45.88258,198.8063],[170.57553,-45.88934,170.95],[170.55681,-45.89625,45.636],[170.56642,-45.87916,0.0],[170.60369,-45.86175,78.9279],[170.61622,-45.83636,0.0],[170.62615,-45.8327,0.0],[170.63754,-45.83099,0.0],[170.64625,-45.82871,56.3373],[170.65366,-45.82236,0.0],[170.67286,-45.80071,0.0],[170.69288,-45.79323,0.0],[170.74155,-45.78631,46.2803],[170.75929,-45.77679,0.0],[170.7588,-45.76344,0.0],[170.73854,-45.75311,0.0],[170.71225,-45.74342,0.0],[170.69402,-45.73235,0.0],[170.68067,-45.74383,0.0],[170.66782,-45.74245,0.0],[170.65455,-45.73626,0.0],[170.63941,-45.73235,0.0],[170.63038,-45.73203,0.0],[170.62615,-45.72975,0.0],[170.62517,-45.72454,0.0],[170.62517,-45.71502,0.0],[170.62672,-45.70631,0.0],[170.63136,-45.70574,0.0],[170.63795,-45.70729,0.0],[170.64625,-45.70517,0.0],[170.66676,-45.69256,0.0],[170.67937,-45.68694,0.0],[170.6906,-45.68467,0.0],[170.69842,-45.67929,0.0],[170.72202,-45.643,0.0],[170.69923,-45.64072,0.0],[170.68458,-45.63104,0.0],[170.68409,-45.6207,0.0],[170.70427,-45.61566,0.0],[170.74024,-45.61647,0.0],[170.7531,-45.61256,0.0],[170.76979,-45.6015,0.0],[170.76075,-45.58221,0.0],[170.75733,-45.57204,0.0],[170.75611,-45.56113,0.0],[170.77312,-45.57041,0.0],[170.78679,-45.57147,0.0],[170.79884,-45.56552,0.0],[170.81072,-45.55364,0.0],[170.80356,-45.52907,0.0],[170.82423,-45.5136,0.0],[170.85206,-45.50018,0.0],[170.86598,-45.48203,0.0],[170.86354,-45.46917,0.0],[170.85971,-45.45827,0.0],[170.85987,-45.44736,0.0],[170.86915,-45.43385,0.0],[170.90626,-45.40276,0.0],[170.90821,-45.37982,0.0],[170.89088,-45.36826,0.0],[170.87696,-45.35589,0.0],[170.88893,-45.3305,0.0],[170.90219,-45.30967,0.0],[170.92612,-45.23838,0.0],[170.98032,-45.15496,0.0],[171.09116,-45.07366,0.0],[171.1587,-44.98349,0.0],[171.1629,-44.96832,0.0],[171.17254,-44.95333,0.0],[171.12506,-44.94699,5.9801],[171.01972,-44.91657,37.5148],[170.84202,-44.88171,87.2385],[170.75767,-44.89793,206.7899],[170.7184,-44.89855,271.5174],[170.67902,-44.9061,285.5025],[170.64357,-44.91886,308.8212],[170.48761,-45.02066,741.9847],[170.39004,-45.0604,1336.7251],[170.36999,-45.0466,1422.0381],[170.34757,-45.02082,1504.5503],[170.33764,-44.99513,1289.9821],[170.33165,-44.96738,733.8373],[170.33516,-44.94542,693.0464],[170.32235,-44.92578,1141.5907],[170.30374,-44.91653,1464.7717],[170.26561,-44.91509,1184.6588],[170.17745,-44.92889,1283.6838],[170.10655,-44.92496,1383.9417],[170.07533,-44.91312,1311.5704],[170.05363,-44.89395,1439.0811],[170.02366,-44.85959,1514.1188],[169.98893,-44.8,1465.2909],[169.95731,-44.72771,1487.4664],[169.93364,-44.69216,1262.7646],[169.90325,-44.66472,1406.5359],[169.87101,-44.65371,1455.9597],[169.79732,-44.66068,1390.8896],[169.74109,-44.61779,1355.5851],[169.71381,-44.59102,1712.4003],[169.6858,-44.59428,1464.7864],[169.66306,-44.58482,1080.9739],[169.64363,-44.56586,1142.6466],[169.62771,-44.49951,1233.4252],[169.61221,-44.47351,1188.5922],[169.58379,-44.45532,1019.1771],[169.55258,-44.44602,1558.2776],[169.5471,-44.43078,1711.3043],[169.5442,-44.40649,1184.5203],[169.54431,-44.22526,1928.0668],[169.547,-44.20324,1822.5115],[169.56736,-44.18009,1876.9312],[169.57996,-44.16046,1861.3298],[169.60405,-44.13286,1814.1399],[169.62554,-44.11317,1575.7061],[169.64291,-44.08625,1850.1016],[169.66792,-44.05561,1965.0425],[169.6797,-44.03085,2054.7961],[169.67195,-43.97551,1346.1462]]]}
,"properties": {"ISO3166-1-Alpha-3": "NZL","country": "New Zealand","fill": "#FF0","name": "Otago","area_km2": 32844.81,"hist_schema_id": "Elevation0-9000","hist_area_km2": {"0": 1434.09,"25": 624.09,"50": 685.38,"75": 741.12,"100": 593.45,"125": 605.58,"150": 652.66,"175": 589.22,"200": 659.55,"225": 647.55,"250": 631.51,"275": 855.43,"300": 988.39,"325": 771.03,"350": 985.26,"375": 913.73,"400": 890.38,"425": 844.59,"450": 760.11,"475": 707.32,"500": 678.74,"525": 653.04,"550": 651.92,"575": 591.7,"600": 544.93,"625": 520.59,"650": 496.45,"675": 492.63,"700": 484.28,"725": 444.7,"750": 437.57,"775": 439.95,"800": 463.72,"825": 497.22,"850": 475.39,"875": 445.92,"900": 420.53,"925": 398.62,"950": 384.11,"975": 366.15,"1000": 355.62,"1025": 332.32,"1050": 328.4,"1075": 330.39,"1100": 307.26,"1125": 290.25,"1150": 277.45,"1175": 267.69,"1200": 259.58,"1225": 254.82,"1250": 251.04,"1275": 244.43,"1300": 234.58,"1325": 237.41,"1350": 237.74,"1375": 226.22,"1400": 219.18,"1425": 211.67,"1450": 202.64,"1475": 193.73,"1500": 184.88,"1525": 173.96,"1550": 162.29,"1575": 154.28,"1600": 143.48,"1625": 134.26,"1650": 123.93,"1675": 114.15,"1700": 104.84,"1725": 98.93,"1750": 85.8,"1775": 80.26,"1800": 74.11,"1825": 63.62,"1850": 57.27,"1875": 50.73,"1900": 43.04,"1925": 37.78,"1950": 33.61,"1975": 27.08,"2000": 24.6,"2025": 20.74,"2050": 18.73,"2075": 15.84,"2100": 13.8,"2125": 12.27,"2150": 10.78,"2175": 8.75,"2200": 7.51,"2225": 6.11,"2250": 5.16,"2275": 4.16,"2300": 3.61,"2325": 3.05,"2350": 2.01,"2375": 2.0,"2400": 1.54,"2425": 1.09,"2450": 1.03,"2475": 0.47,"2500": 0.54,"2525": 0.48,"2550": 0.3}}}