{"type":"Feature","properties":{"GID_1":"NZL.12_1","GID_0":"NZL","country":"NewZealand","province":"Otago","VARNAME_1":"NA","NL_NAME_1":"NA","TYPE_1":"Region","ENGTYPE_1":"Region","CC_1":"14","HASC_1":"NZ.OT","ISO_1":"NZ-OTA","name":"Otago.province"},
"geometry":{"type": "MultiPolygon","coordinates": [[[[170.6413,-45.8378,0.0],[170.64,-45.8377,0.0],[170.6399,-45.8386,0.0],[170.6413,-45.8384,0.0],[170.6413,-45.8378,0.0]]],
[[[170.6703,-45.8332,33.3137],[170.6702,-45.8331,3.128],[170.67,-45.8332,3.128],[170.6701,-45.8333,3.128],[170.6703,-45.8332,33.3137]]],
[[[170.6323,-45.8264,25.6266],[170.6288,-45.827,7.2314],[170.6331,-45.8285,1.8448],[170.6324,-45.8304,0.0],[170.6355,-45.8311,0.0],[170.6377,-45.8293,0.0],[170.6347,-45.8284,19.3428],[170.6323,-45.8264,25.6266]]],
[[[170.6271,-45.8229,0.0],[170.6254,-45.8245,18.2769],[170.627,-45.826,10.312],[170.6278,-45.8253,0.0],[170.6271,-45.8229,0.0]]],
[[[169.72025,-46.4858,0.9005],[169.7204,-46.4859,0.9005],[169.7203,-46.4858,0.9005],[169.72025,-46.4858,0.9005]]],
[[[169.72025,-46.4858,0.9005],[169.7201,-46.4857,0.9005],[169.7202,-46.4858,0.9005],[169.72025,-46.4858,0.9005]]],
[[[169.6834,-46.4835,0.1339],[169.6851,-46.483,0.0],[169.6853,-46.4825,0.0],[169.6821,-46.482,0.0],[169.6834,-46.4835,0.1339]]],
[[[170.2189,-46.0559,0.6933],[170.2164,-46.0577,7.1078],[170.2165,-46.0601,0.1946],[170.2188,-46.0581,0.8099],[170.2189,-46.0559,0.6933]]],
[[[170.716,-45.88,0.0],[170.7149,-45.8791,0.0],[170.7137,-45.8796,0.0],[170.7156,-45.8806,0.0],[170.716,-45.88,0.0]]],
[[[170.2034,-46.0519,2.3473],[170.2129,-46.0511,0.728],[170.2138,-46.0463,0.0],[170.2197,-46.0379,0.0],[170.2447,-46.0088,0.0],[170.2598,-45.9989,0.0],[170.2687,-45.9873,1.6158],[170.2826,-45.976,3.3191],[170.2896,-45.968,0.0],[170.3041,-45.9595,0.0],[170.3355,-45.9494,1.5198],[170.3369,-45.9479,0.0],[170.3362,-45.946,19.2168],[170.342,-45.9427,1.2127],[170.4029,-45.9306,0.0],[170.4276,-45.9288,17.9914],[170.4323,-45.9323,18.6673],[170.4356,-45.9299,0.0],[170.4356,-45.9268,14.8361],[170.4433,-45.9233,24.6393],[170.4509,-45.9246,0.0],[170.4518,-45.9235,42.6803],[170.4504,-45.9232,42.6803],[170.4578,-45.9211,54.2781],[170.4593,-45.922,0.0748],[170.4605,-45.9201,6.1412],[170.465,-45.9215,0.0],[170.4653,-45.9201,16.2138],[170.4713,-45.9207,0.0],[170.4727,-45.9193,53.3087],[170.4812,-45.919,14.8937],[170.4863,-45.9175,16.9453],[170.4855,-45.9163,16.9453],[170.4887,-45.9145,0.6587],[170.4884,-45.9132,0.6587],[170.4982,-45.9107,0.0],[170.5298,-45.9082,0.0],[170.5355,-45.9106,9.1764],[170.5403,-45.9049,15.3097],[170.5401,-45.9076,0.0],[170.554,-45.9076,37.2964],[170.5586,-45.9092,0.0],[170.5654,-45.9061,36.2617],[170.5645,-45.9081,0.0],[170.5674,-45.9095,46.6724],[170.5836,-45.9039,78.5775],[170.5931,-45.9033,0.0],[170.6062,-45.8976,11.5096],[170.6232,-45.8978,39.7004],[170.625,-45.899,9.449],[170.6275,-45.898,35.5478],[170.6316,-45.9005,28.6037],[170.6322,-45.9028,2.1727],[170.6411,-45.8965,0.0],[170.6512,-45.8985,0.0],[170.6525,-45.9015,0.0],[170.6591,-45.8985,8.5907],[170.6631,-45.9038,0.0],[170.6759,-45.8962,81.3769],[170.6859,-45.8949,0.0],[170.6855,-45.8927,19.0298],[170.6872,-45.892,0.0],[170.6837,-45.8905,7.6149],[170.685,-45.8889,0.1782],[170.6828,-45.8892,1.7264],[170.6782,-45.8851,69.0316],[170.679,-45.879,2.2145],[170.6738,-45.8794,1.5417],[170.6701,-45.8753,19.5936],[170.6678,-45.871,16.1997],[170.6696,-45.8688,7.319],[170.6662,-45.867,2.8117],[170.6636,-45.8688,1.1944],[170.6633,-45.8657,0.0],[170.6595,-45.8666,2.8672],[170.658,-45.8649,0.1655],[170.6624,-45.8591,0.0],[170.6606,-45.851,12.8128],[170.6771,-45.857,8.7086],[170.6824,-45.8572,6.7347],[170.6868,-45.8623,0.569],[170.6874,-45.8695,0.0],[170.6739,-45.8721,0.0],[170.6814,-45.8774,6.1904],[170.6805,-45.8813,0.0],[170.7003,-45.8759,3.4734],[170.7098,-45.8751,0.0],[170.7169,-45.8774,15.2881],[170.7206,-45.876,92.1317],[170.7235,-45.8769,8.9902],[170.725,-45.8797,5.2382],[170.7297,-45.882,1.3995],[170.7321,-45.8801,0.0],[170.7319,-45.8766,53.4593],[170.7364,-45.8761,130.5055],[170.7392,-45.8793,36.8611],[170.7479,-45.8729,12.6421],[170.7463,-45.8713,45.9175],[170.7506,-45.8675,0.0],[170.7437,-45.8657,0.0],[170.7414,-45.8593,28.0644],[170.7492,-45.8558,11.1411],[170.7428,-45.8493,12.8211],[170.7485,-45.8459,0.0],[170.7301,-45.8477,1.5796],[170.7203,-45.8469,21.2905],[170.717,-45.8497,20.1071],[170.7095,-45.8486,18.3997],[170.6949,-45.8545,0.0],[170.6909,-45.8546,12.5004],[170.6837,-45.8521,0.6221],[170.6828,-45.8472,0.0],[170.6802,-45.8462,21.3061],[170.6845,-45.8446,0.0],[170.6875,-45.8401,2.5687],[170.6955,-45.8381,0.0],[170.719,-45.8451,0.0],[170.7323,-45.8451,0.0],[170.7305,-45.835,0.0],[170.7338,-45.8231,0.0],[170.738,-45.816,42.3484],[170.7469,-45.8147,0.0],[170.7438,-45.8143,0.0],[170.7439,-45.8123,0.0],[170.7478,-45.806399999999996,66.9231],[170.7509,-45.8046,0.0],[170.7504,-45.8027,0.0],[170.7452,-45.8038,4.3447],[170.7411,-45.7963,24.5067],[170.7426,-45.7931,0.0],[170.741,-45.7911,0.0],[170.7425,-45.7878,6.8627],[170.7477,-45.7872,2.044],[170.7442,-45.7866,6.8627],[170.7415,-45.7792,5.0639],[170.7383,-45.7792,10.585],[170.7397,-45.7783,10.585],[170.7386,-45.7772,0.0],[170.7304,-45.7752,15.1383],[170.7283,-45.7722,0.0],[170.7254,-45.775,3.714],[170.7282,-45.7771,15.4065],[170.7287,-45.78,34.1952],[170.7231,-45.7829,0.0],[170.7265,-45.7864,17.5422],[170.7263,-45.7917,2.4475],[170.721,-45.7982,3.0518],[170.715,-45.7977,0.0],[170.7121,-45.8004,1.9395],[170.7052,-45.8008,0.0],[170.6988,-45.8041,0.6125],[170.6843,-45.8054,0.0],[170.6794,-45.8118,1.9146],[170.6692,-45.8145,0.0],[170.6683,-45.8171,1.2665],[170.6702,-45.8206,0.0],[170.6707,-45.8299,2.753],[170.6732,-45.8316,13.7072],[170.6719,-45.8331,33.3137],[170.6575,-45.8376,1.3039],[170.6536,-45.835,33.1795],[170.6565,-45.8335,0.0],[170.6559,-45.8318,0.0],[170.6485,-45.8294,2.4518],[170.6479,-45.8263,0.0],[170.6425,-45.8243,1.2622],[170.6429,-45.8265,6.8811],[170.6405,-45.8288,1.4583],[170.6439,-45.8301,15.2444],[170.6427,-45.8315,0.0],[170.6463,-45.8321,22.0277],[170.6465,-45.8343,7.8585],[170.6514,-45.8376,4.9236],[170.6511,-45.8393,0.0],[170.6436,-45.8381,8.9217],[170.6407,-45.84,0.0],[170.6412,-45.8428,2.7437],[170.6375,-45.8421,3.5344],[170.6317,-45.8441,6.5228],[170.6328,-45.8463,8.981],[170.6229,-45.8441,0.0],[170.6249,-45.8454,0.0],[170.6242,-45.847,3.8165],[170.6156,-45.8493,1.0244],[170.6058,-45.8451,22.9049],[170.6027,-45.8453,19.9469],[170.6007,-45.848,39.0162],[170.601,-45.8518,21.0585],[170.5981,-45.8542,0.0],[170.5985,-45.8566,1.4399],[170.6008,-45.8579,13.9045],[170.5973,-45.8609,0.0],[170.5968,-45.8696,15.4961],[170.5907,-45.8707,0.0],[170.5739,-45.8792,0.0],[170.5381,-45.879,6.4799],[170.5293,-45.8808,0.0],[170.5266,-45.8821,10.2968],[170.5276,-45.8837,4.6954],[170.5245,-45.8848,29.153],[170.5186,-45.8936,14.0229],[170.512,-45.8916,4.5476],[170.5072,-45.8872,2.3916],[170.5071,-45.8834,1.7732],[170.5173,-45.8756,2.7824],[170.5273,-45.8738,0.8222],[170.525,-45.8716,2.7226],[170.5497,-45.8681,0.0],[170.5677,-45.862,0.0],[170.5742,-45.8562,15.6931],[170.5797,-45.8465,8.5402],[170.5918,-45.8332,0.0],[170.5964,-45.829,12.2836],[170.6021,-45.8311,4.5723],[170.602,-45.8297,4.5723],[170.6053,-45.8281,0.0],[170.6042,-45.8261,0.0],[170.6012,-45.8254,6.0737],[170.6055,-45.8208,3.6881],[170.614,-45.8196,0.0],[170.6171,-45.8215,18.0228],[170.615,-45.8233,17.1915],[170.6153,-45.8277,13.0256],[170.6184,-45.8275,32.91],[170.6188,-45.8254,50.0626],[170.6234,-45.8224,0.0],[170.6231,-45.8196,0.0],[170.6263,-45.8178,34.496],[170.6267,-45.8199,0.0],[170.6292,-45.8194,0.0],[170.6293,-45.8142,0.0],[170.6239,-45.8145,2.786],[170.628,-45.8085,0.0],[170.6251,-45.8098,5.1288],[170.6226,-45.8076,23.5986],[170.6285,-45.8041,0.0],[170.6261,-45.8014,52.3949],[170.6285,-45.7964,0.0],[170.6327,-45.7956,9.1504],[170.6358,-45.7973,13.5761],[170.6449,-45.7977,8.2954],[170.648,-45.7924,10.2994],[170.6521,-45.7916,3.3055],[170.6543,-45.7926,41.1493],[170.6557,-45.7957,13.2998],[170.6573,-45.7946,3.2466],[170.6578,-45.79,29.5081],[170.6625,-45.7877,26.8909],[170.6684,-45.7897,0.0],[170.6718,-45.7861,22.4555],[170.6764,-45.7861,24.4396],[170.6809,-45.7841,2.1829],[170.6912,-45.7849,0.0],[170.6948,-45.7833,0.4234],[170.6942,-45.7843,0.4234],[170.6991,-45.7862,0.3777],[170.7077,-45.781,2.6331],[170.7099,-45.7828,0.0],[170.7112,-45.7819,0.0],[170.7152,-45.7831,0.0],[170.7165,-45.7867,0.8945],[170.7178,-45.7866,0.0],[170.7172,-45.7831,1.7161],[170.7082,-45.7788,1.3447],[170.7118,-45.7759,0.0],[170.7009,-45.7704,0.0],[170.696,-45.7641,3.1805],[170.6958,-45.7596,12.639],[170.6922,-45.7554,0.9748],[170.6882,-45.7613,20.5277],[170.6824,-45.7609,0.0],[170.6756,-45.7581,18.3374],[170.6724,-45.7621,26.0162],[170.6613,-45.7602,9.7684],[170.6511,-45.7533,0.0],[170.6417,-45.7418,2.645],[170.6382,-45.74,7.901],[170.6385,-45.7385,1.2446],[170.6319,-45.738,20.1519],[170.627,-45.7417,0.6631],[170.6273,-45.7456,30.2028],[170.6312,-45.7475,36.1467],[170.6334,-45.7518,16.2546],[170.6292,-45.7524,8.9038],[170.6288,-45.7552,5.6942],[170.6314,-45.7567,33.76],[170.6261,-45.7632,6.8505],[170.6195,-45.757,1.3502],[170.6223,-45.7539,3.7159],[170.6178,-45.7517,6.393],[170.6178,-45.7495,7.3804],[170.6217,-45.7482,3.0874],[170.6297,-45.7487,0.0],[170.6263,-45.7457,9.2316],[170.6267,-45.7426,0.6631],[170.6169,-45.7363,0.9916],[170.6181,-45.7343,0.0],[170.6128,-45.7356,8.9201],[170.6063,-45.7328,0.0],[170.5982,-45.733,1.4922],[170.5942,-45.7348,0.0],[170.5973,-45.7354,3.9832],[170.5972,-45.7415,15.9542],[170.59,-45.7397,11.6449],[170.5868,-45.7418,5.2754],[170.587,-45.7438,6.4154],[170.5838,-45.7437,0.0],[170.5805,-45.7468,7.2299],[170.5772,-45.7456,0.2504],[170.5759,-45.7467,1.3545],[170.5731,-45.744,0.1205],[170.5715,-45.7459,0.7509],[170.5693,-45.7456,3.645],[170.5681,-45.7404,0.0],[170.5709,-45.7341,3.8694],[170.5696,-45.7271,0.0],[170.5713,-45.7219,2.9717],[170.5761,-45.7208,0.0],[170.5773,-45.7185,0.3031],[170.576,-45.7181,0.3031],[170.5778,-45.7173,0.1109],[170.5755,-45.7161,19.0623],[170.5776,-45.7152,7.0103],[170.5858,-45.7127,17.1196],[170.5913,-45.7134,0.0],[170.5963,-45.721,4.3637],[170.5978,-45.7277,0.0],[170.5966,-45.7308,0.0],[170.5988,-45.7308,0.0],[170.6021,-45.7281,0.0],[170.6009,-45.7108,1.1449],[170.6032,-45.7099,0.0547],[170.6033,-45.706,6.9236],[170.61,-45.6991,14.9556],[170.6101,-45.6965,31.8083],[170.6149,-45.6947,0.0],[170.6156,-45.6925,1.4166],[170.6142,-45.6917,12.2737],[170.6155,-45.6903,10.2547],[170.6299,-45.6859,4.1349],[170.6416,-45.6782,0.0],[170.644,-45.6739,31.9612],[170.6528,-45.671,5.3591],[170.6502,-45.6692,6.3619],[170.6548,-45.6659,0.0],[170.6508,-45.6628,43.6005],[170.6546,-45.6575,0.0],[170.653,-45.6553,38.9932],[170.6543,-45.6508,0.0],[170.6618,-45.6435,0.7042],[170.6743,-45.6402,0.0],[170.6697,-45.6381,10.2054],[170.6594,-45.6417,8.0865],[170.6543,-45.6369,0.1917],[170.653,-45.631,7.2945],[170.6495,-45.6279,0.6089],[170.6494,-45.6248,1.0351],[170.6462,-45.6215,0.6252],[170.6476,-45.6206,0.7478],[170.6538,-45.6279,0.5818],[170.6578,-45.6283,3.6192],[170.6565,-45.6316,1.1127],[170.6574,-45.6338,0.0],[170.6593,-45.6374,0.0],[170.6631,-45.6399,5.1014],[170.6605,-45.6322,0.0],[170.664,-45.6239,0.0],[170.6718,-45.6168,0.0],[170.6824,-45.6123,0.0],[170.6808,-45.6082,4.9894],[170.6709,-45.6077,1.5602],[170.6715,-45.6008,4.987],[170.674,-45.5984,1.5038],[170.6771,-45.5996,6.8749],[170.6764,-45.6031,1.0],[170.6792,-45.6037,5.2933],[170.6831,-45.6021,2.6936],[170.6794,-45.6051,2.7212],[170.6761,-45.6053,1.0],[170.6796,-45.6062,2.7212],[170.6825,-45.6091,4.9894],[170.6838,-45.6119,0.0],[170.6899,-45.6121,11.7489],[170.6907,-45.6162,1.9289],[170.6931,-45.6165,34.814],[170.6929,-45.6183,10.2352],[170.6946,-45.6193,10.2352],[170.7072,-45.6114,0.0],[170.7075,-45.6094,8.8821],[170.7179,-45.5997,0.0],[170.7253,-45.5959,6.9791],[170.7294,-45.5862,5.4499],[170.7275,-45.5793,31.7925],[170.7299,-45.5728,27.6432],[170.7266,-45.5691,0.0],[170.7282,-45.5613,0.6101],[170.726,-45.5569,0.2356],[170.7283,-45.5577,6.8834],[170.7287,-45.5561,7.8742],[170.7267,-45.5559,0.409],[170.7256,-45.5528,4.8436],[170.7275,-45.5496,8.389],[170.7214,-45.5508,1.7133],[170.7236,-45.5514,0.1507],[170.7226,-45.5528,0.1507],[170.7161,-45.5504,0.7119],[170.7152,-45.5488,3.5684],[170.7087,-45.5511,19.3511],[170.7156,-45.5595,13.6148],[170.6368,-45.5598,116.9899],[170.6281,-45.5671,178.5961],[170.6272,-45.5692,172.571],[170.6301,-45.571,204.2342],[170.6115,-45.5758,221.6167],[170.6048,-45.574,263.3064],[170.6035,-45.5714,254.7971],[170.5977,-45.5694,262.7994],[170.5905,-45.5724,293.0662],[170.5842,-45.5706,338.3351],[170.5798,-45.5675,394.4288],[170.5801,-45.5635,422.1028],[170.5756,-45.5607,398.3422],[170.5753,-45.557,375.9636],[170.5729,-45.5546,376.1149],[170.5618,-45.5539,427.9094],[170.5632,-45.5511,411.9898],[170.5628,-45.546,397.7855],[170.5603,-45.542,383.6051],[170.5624,-45.5383,352.8713],[170.5546,-45.524,213.329],[170.5537,-45.5179,191.6695],[170.5558,-45.5155,193.0092],[170.5514,-45.5123,170.3081],[170.5554,-45.5143,161.5961],[170.5563,-45.5132,161.5961],[170.5558,-45.5104,169.7251],[170.5529,-45.5094,176.6292],[170.4816,-45.5092,519.4759],[170.4764,-45.533,513.4197],[170.4672,-45.5289,587.4745],[170.4558,-45.5286,639.9462],[170.4313,-45.5232,666.7369],[170.4193,-45.5187,726.035],[170.3877,-45.5541,689.6536],[170.3775,-45.5545,655.3575],[170.3713,-45.5542,603.0328],[170.367,-45.5492,661.6785],[170.3417,-45.5458,500.413],[170.3508,-45.5282,489.3742],[170.3593,-45.5212,508.2957],[170.31,-45.4979,352.7607],[170.3081,-45.4997,366.7086],[170.3044,-45.4996,334.783],[170.2853,-45.4946,534.3621],[170.2854,-45.4974,548.9296],[170.2737,-45.5056,544.8726],[170.2672,-45.5046,533.1034],[170.2639,-45.5067,531.9551],[170.2094,-45.5067,277.8361],[170.2092,-45.4819,438.8096],[170.2268,-45.482,549.0757],[170.2515,-45.4637,655.5057],[170.2572,-45.4621,668.0252],[170.2616,-45.4561,661.5337],[170.2596,-45.4529,674.0997],[170.2608,-45.4488,681.449],[170.2657,-45.4441,661.342],[170.2849,-45.4442,485.1848],[170.2843,-45.3496,380.0822],[170.2887,-45.3496,374.4468],[170.3034,-45.3563,480.3914],[170.3249,-45.3625,602.6507],[170.3251,-45.3241,541.1451],[170.3755,-45.3269,720.0844],[170.3755,-45.3309,666.6111],[170.3811,-45.3265,668.0114],[170.3949,-45.3279,702.8041],[170.409,-45.3197,696.4444],[170.4209,-45.3079,712.3099],[170.4234,-45.2954,703.8653],[170.4151,-45.2879,673.1639],[170.411,-45.2803,711.2556],[170.3941,-45.2686,745.3055],[170.3136,-45.2684,534.2307],[170.3137,-45.2425,463.0068],[170.3192,-45.2423,490.6414],[170.3284,-45.2367,526.9796],[170.3346,-45.2391,575.5264],[170.3396,-45.2392,638.4152],[170.343,-45.2429,651.6343],[170.3499,-45.2414,742.8158],[170.347,-45.2363,815.7259],[170.3545,-45.2363,811.1479],[170.353,-45.2319,824.4833],[170.3543,-45.2291,763.1819],[170.3686,-45.223,721.6103],[170.3831,-45.2125,652.4122],[170.3836,-45.2072,658.2229],[170.3814,-45.2016,663.3245],[170.3642,-45.187,680.3461],[170.3743,-45.1844,661.7668],[170.3766,-45.181399999999996,653.2864],[170.3772,-45.1768,627.6115],[170.3825,-45.1738,601.0103],[170.3916,-45.1773,586.2107],[170.4007,-45.1785,583.53],[170.4075,-45.1783,599.3694],[170.412,-45.1756,613.968],[170.4161,-45.1623,703.7163],[170.428,-45.1539,774.5261],[170.4289,-45.1505,815.7233],[170.4351,-45.1456,889.8725],[170.4313,-45.1403,1171.5569],[170.4395,-45.1337,1495.9713],[170.4352,-45.1282,1382.4471],[170.424,-45.1284,1244.5303],[170.4126,-45.124,1243.0079],[170.4092,-45.1247,1226.2955],[170.4039,-45.1226,1354.4412],[170.3997,-45.1153,1353.0275],[170.4053,-45.1133,1316.7087],[170.4084,-45.1023,1346.7388],[170.3972,-45.0931,1389.9244],[170.3986,-45.0865,1400.9998],[170.3978,-45.0809,1596.52],[170.3855,-45.0779,1545.666],[170.3862,-45.0733,1526.5669],[170.3792,-45.067,1526.8632],[170.3805,-45.0608,1545.1095],[170.3683,-45.0548,1515.082],[170.3633,-45.0435,1309.6974],[170.3629,-45.0368,1305.0708],[170.3558,-45.0292,1299.9623],[170.3533,-45.024,1487.2777],[170.3494,-45.0217,1522.8204],[170.3519,-45.0078,1231.7615],[170.3473,-44.9896,1342.447],[170.3541,-44.9827,1332.7585],[170.3698,-44.9723,1280.1274],[170.3689,-44.9602,1039.0079],[170.3734,-44.9524,918.2966],[170.3721,-44.948,968.3668],[170.3666,-44.9444,1184.8218],[170.3656,-44.9401,1271.3323],[170.357,-44.939,1007.3088],[170.3491,-44.9431,1144.0168],[170.3506,-44.9317,1132.0593],[170.354,-44.9281,1088.4071],[170.3522,-44.9201,1203.0825],[170.3528,-44.9151,1184.5149],[170.3502,-44.9078,1435.4127],[170.3401,-44.9039,1468.0017],[170.3194,-44.903,1544.8884],[170.3047,-44.9105,1445.9879],[170.3017,-44.9195,1500.6444],[170.2907,-44.9141,1409.5474],[170.2818,-44.9166,1316.0562],[170.2726,-44.9216,1252.9161],[170.2652,-44.9199,1209.7266],[170.2596,-44.9216,1214.7156],[170.252,-44.9188,1201.0447],[170.2469,-44.9223,1222.2001],[170.2421,-44.9307,1207.7025],[170.2252,-44.9347,1307.0491],[170.2204,-44.9334,1308.4886],[170.2105,-44.9346,1347.0195],[170.2001,-44.939,1379.3489],[170.1895,-44.94,1343.7729],[170.1793,-44.943,1428.0034],[170.1757,-44.9418,1455.7413],[170.1645,-44.946,1444.3042],[170.1584,-44.9436,1501.9553],[170.1503,-44.9433,1496.5354],[170.1475,-44.9409,1544.1165],[170.1405,-44.9428,1477.6592],[170.1309,-44.9407,1553.3112],[170.1271,-44.9411,1546.7347],[170.1205,-44.9474,1512.4969],[170.1113,-44.9469,1481.1875],[170.1037,-44.9426,1428.7644],[170.0941,-44.94,1477.2025],[170.0913,-44.9375,1545.5784],[170.0914,-44.9342,1647.5364],[170.0848,-44.9274,1635.6956],[170.0687,-44.9232,1570.5271],[170.0744,-44.916,1403.0928],[170.0819,-44.9121,1556.604],[170.0695,-44.8998,1530.3447],[170.0638,-44.8836,1636.1012],[170.0503,-44.8774,1600.0742],[170.0431,-44.8768,1552.4231],[170.0382,-44.8725,1537.181],[170.0309,-44.8701,1550.2788],[170.0267,-44.859,1614.1176],[170.0185,-44.8556,1604.0197],[170.0126,-44.8435,1611.5427],[170.0055,-44.8368,1605.468],[169.9978,-44.8247,1590.033],[169.9966,-44.8204,1602.4318],[169.9989,-44.8087,1694.515],[169.995,-44.7988,1666.7021],[169.9937,-44.7865,1690.3711],[169.9841,-44.7725,1801.5167],[169.9822,-44.7671,1844.9064],[169.9811,-44.7545,1844.0947],[169.9702,-44.7441,1867.0317],[169.9634,-44.7088,1843.5397],[169.9442,-44.654,1799.2866],[169.8913,-44.6443,1428.328],[169.8416,-44.6654,1733.9659],[169.8362,-44.6689,1633.8119],[169.8171,-44.6655,1250.3088],[169.822,-44.6636,1260.8767],[169.8056,-44.6613,1338.4958],[169.7549,-44.6389,1808.092],[169.7533,-44.631,1809.4429],[169.7537,-44.6183,1811.8745],[169.7572,-44.6121,1781.0721],[169.7554,-44.6075,1755.4738],[169.7478,-44.6001,1704.8866],[169.7486,-44.5943,1781.7773],[169.7463,-44.5861,1753.587],[169.7366,-44.5705,1692.8391],[169.7306,-44.5651,1743.2168],[169.7186,-44.5735,1707.6293],[169.7187,-44.5794,1699.9926],[169.7133,-44.598,1734.7322],[169.7085,-44.601,1712.9524],[169.6969,-44.6014,1781.8092],[169.6853,-44.6061,1794.1304],[169.6886,-44.6029,1750.4705],[169.6885,-44.6011,1718.8091],[169.6818,-44.5979,1512.9064],[169.6578,-44.5936,1133.6548],[169.641,-44.596,1252.8372],[169.6445,-44.5843,933.8235],[169.6427,-44.576,1055.3907],[169.6408,-44.5747,1044.9691],[169.6434,-44.5693,1129.356],[169.6407,-44.5648,1246.0411],[169.6452,-44.561,1328.1887],[169.6455,-44.5551,1258.5446],[169.6521,-44.5486,1252.3977],[169.653,-44.5459,1295.2422],[169.6634,-44.5372,1490.7841],[169.6523,-44.5352,1460.6163],[169.6477,-44.5311,1497.0078],[169.647,-44.5261,1489.6763],[169.6501,-44.521,1516.7263],[169.6456,-44.5192,1482.861],[169.6432,-44.5154,1432.4333],[169.6377,-44.5116,1468.1754],[169.6373,-44.5063,1391.6274],[169.6343,-44.5018,1483.2152],[169.6349,-44.4989,1440.8857],[169.6412,-44.4951,1477.7208],[169.6436,-44.4867,1368.0515],[169.6475,-44.4812,1539.123],[169.6441,-44.479,1366.5498],[169.641,-44.4719,1232.55],[169.6419,-44.4664,1485.1097],[169.6337,-44.4624,1571.5394],[169.615,-44.4606,1538.8499],[169.6033,-44.4636,1374.5453],[169.6024,-44.4618,1415.2385],[169.6004,-44.4629,1359.0444],[169.5921,-44.4591,1343.1467],[169.5739,-44.4623,1341.6719],[169.5698,-44.4597,1449.3715],[169.5623,-44.4602,1541.365],[169.5544,-44.4572,1723.3896],[169.5535,-44.4552,1721.1726],[169.5425,-44.4486,1882.5431],[169.5478,-44.4428,1668.4668],[169.5562,-44.4376,1795.3136],[169.5545,-44.4325,1695.2236],[169.5489,-44.4289,1724.8857],[169.5459,-44.4227,1848.6252],[169.5521,-44.4129,1640.614],[169.5631,-44.4056,1591.3273],[169.5656,-44.4023,1629.4565],[169.5664,-44.3968,1645.5579],[169.5594,-44.39,1728.5687],[169.5567,-44.381,1716.1155],[169.5659,-44.3722,1697.5667],[169.5708,-44.3583,1782.5212],[169.5679,-44.3541,1708.8293],[169.5772,-44.3456,1780.712],[169.5788,-44.3401,1710.9351],[169.5787,-44.3376,1732.7816],[169.5712,-44.3332,1713.9371],[169.5684,-44.3193,1700.1223],[169.573,-44.3121,1805.96],[169.5723,-44.3056,1621.5723],[169.5748,-44.3001,1642.7126],[169.5711,-44.2962,1604.0234],[169.5748,-44.2842,1571.1772],[169.573,-44.2792,1493.7539],[169.5794,-44.2643,1465.5808],[169.5806,-44.2523,1485.7367],[169.5768,-44.2495,1541.8322],[169.5733,-44.2433,1670.2039],[169.5735,-44.2398,1738.1261],[169.5705,-44.2367,1841.6316],[169.5485,-44.2276,2171.9954],[169.5471,-44.2207,2218.2737],[169.5435,-44.2164,2098.6958],[169.5445,-44.2117,1985.2252],[169.5432,-44.2078,1847.5819],[169.5489,-44.2047,1821.47],[169.5608,-44.2054,2071.3591],[169.5619,-44.1938,2006.9358],[169.5659,-44.1883,1911.2976],[169.5664,-44.1851,1996.2041],[169.571,-44.1823,1993.3483],[169.5712,-44.1771,1922.7804],[169.5813,-44.1726,2093.6731],[169.586,-44.1666,2100.0393],[169.5963,-44.1624,2172.3789],[169.5984,-44.1601,2323.3997],[169.6039,-44.1603,2384.1125],[169.6058,-44.1585,2216.6155],[169.5989,-44.1503,2199.8274],[169.6204,-44.14,2218.7317],[169.6183,-44.1358,2287.1753],[169.6209,-44.1279,1915.0283],[169.625,-44.1225,2122.8599],[169.6351,-44.1218,2108.634],[169.6387,-44.1199,2059.7246],[169.6363,-44.1141,2044.6742],[169.6405,-44.1057,1999.8109],[169.6391,-44.102,2061.7546],[169.6484,-44.098,1865.5699],[169.6544,-44.0927,2199.874],[169.6612,-44.0915,2156.9641],[169.6624,-44.0847,2072.6306],[169.6576,-44.0776,2074.678],[169.665,-44.0677,2256.9331],[169.6786,-44.0705,2434.5723],[169.6821,-44.0683,2255.5457],[169.6797,-44.0615,2297.252],[169.6829,-44.0545,1951.6409],[169.6809,-44.0483,2150.8875],[169.6848,-44.0451,1925.9364],[169.686,-44.0419,2168.4407],[169.6942,-44.0411,2151.3718],[169.699,-44.0428,2214.6924],[169.7194,-44.0367,2010.0227],[169.7196,-44.0346,2011.0973],[169.7076,-44.0171,1971.8093],[169.7094,-44.0144,2028.5125],[169.7065,-44.0106,2217.0801],[169.7061,-44.0033,1916.6501],[169.7111,-43.999,1988.8334],[169.7112,-43.9956,2039.3406],[169.7061,-43.9905,2001.6649],[169.7037,-43.9835,2017.4635],[169.6991,-43.9797,2033.342],[169.6994,-43.977,2011.2349],[169.7021,-43.9744,1919.0974],[169.7021,-43.9697,2029.4734],[169.6993,-43.9635,2154.9326],[169.6953,-43.9597,2262.1494],[169.6832,-43.9562,1912.4656],[169.6694,-43.9554,2008.4988],[169.6557,-43.9568,2058.3787],[169.6329,-43.9638,2149.9009],[169.6233,-43.957,2172.3398],[169.5928,-43.9581,2016.1152],[169.5868,-43.9651,1901.635],[169.5868,-43.9732,1721.1703],[169.5826,-43.9805,1868.1743],[169.5842,-43.9832,1833.1196],[169.5829,-43.9851,1990.8657],[169.592,-43.9913,1576.0337],[169.592,-44.0102,1945.3632],[169.5914,-44.0125,2093.8384],[169.582,-44.0226,1959.361],[169.5813,-44.03,2102.7605],[169.579,-44.0341,2227.2852],[169.5716,-44.0355,2226.5793],[169.5623,-44.0323,1874.0422],[169.5571,-44.0332,1747.8145],[169.5506,-44.0319,1715.2876],[169.5411,-44.0333,1671.0012],[169.5285,-44.0387,1663.7485],[169.5168,-44.0536,1964.7826],[169.5117,-44.058,2068.3794],[169.5067,-44.0592,1991.9167],[169.4863,-44.0553,1773.0402],[169.4626,-44.0593,1769.0214],[169.4573,-44.0636,2108.0532],[169.4505,-44.0662,2439.9048],[169.4502,-44.0728,2212.2002],[169.4455,-44.0765,2048.3501],[169.4438,-44.0841,1994.3623],[169.4333,-44.0897,1950.9679],[169.4285,-44.0965,2045.8888],[169.4236,-44.0965,1946.5278],[169.4096,-44.102,1920.8545],[169.4074,-44.1046,1959.6534],[169.4084,-44.107,1914.447],[169.3906,-44.1127,1740.8722],[169.3871,-44.1187,1645.2965],[169.373,-44.117,1259.9073],[169.3541,-44.1069,608.3612],[169.3387,-44.1025,1183.6329],[169.3297,-44.0888,1306.9185],[169.3306,-44.0794,1504.2896],[169.3287,-44.0778,1420.699],[169.3284,-44.0751,1322.2311],[169.3231,-44.0717,1355.9149],[169.321,-44.0641,1670.2797],[169.309,-44.0606,1639.3351],[169.2908,-44.0627,1744.6202],[169.2902,-44.0739,1713.0726],[169.2847,-44.0799,1536.9623],[169.2795,-44.0938,1678.9583],[169.2714,-44.101,1628.3131],[169.2573,-44.1081,1789.8705],[169.2421,-44.1061,1533.4355],[169.2328,-44.1086,1445.8855],[169.2192,-44.1094,1421.2928],[169.2062,-44.1069,1629.1516],[169.1988,-44.1095,1420.5132],[169.1881,-44.1105,1559.7535],[169.169,-44.1046,1570.0228],[169.1597,-44.1049,1540.9907],[169.1514,-44.0946,1294.0691],[169.1477,-44.0861,1571.589],[169.148,-44.0827,1616.4005],[169.1459,-44.0799,1746.9183],[169.1389,-44.0807,1615.7504],[169.1301,-44.0869,1807.4731],[169.119,-44.0875,1611.2749],[169.1108,-44.0932,1687.0505],[169.1045,-44.0954,1798.9375],[169.0958,-44.0973,1621.2355],[169.0887,-44.0953,1500.7179],[169.0815,-44.097,1545.5845],[169.0752,-44.1028,1451.1639],[169.0736,-44.1096,1777.0748],[169.0581,-44.1093,1321.5665],[169.046,-44.1161,1601.1855],[169.0374,-44.1183,1898.2891],[169.0203,-44.1146,1634.3341],[169.0134,-44.1148,1811.8428],[169.0098,-44.124,1846.0642],[169.0159,-44.1309,1811.4462],[169.0088,-44.1361,1739.2941],[169.0008,-44.1396,1886.7131],[168.9811,-44.1415,1826.9529],[168.9751,-44.144,1983.1975],[168.9767,-44.1508,1838.6354],[168.9858,-44.1634,2209.1543],[168.9874,-44.1689,2222.5022],[168.9743,-44.173,1725.705],[168.9652,-44.1738,1845.6798],[168.9613,-44.1824,1637.1658],[168.9633,-44.2004,1647.6804],[168.9592,-44.2058,1847.0043],[168.9446,-44.2035,1822.4004],[168.919,-44.2095,1838.3665],[168.9109,-44.2098,2091.5254],[168.9048,-44.2182,2031.9919],[168.8933,-44.2175,1964.4335],[168.8772,-44.2228,2178.1716],[168.8737,-44.2259,2138.2109],[168.8722,-44.2302,2339.0999],[168.8733,-44.234,2377.7134],[168.871,-44.2389,2108.4661],[168.8561,-44.2425,2046.9049],[168.8494,-44.2461,2103.3091],[168.8518,-44.2537,1999.7599],[168.8516,-44.2586,2015.2632],[168.8573,-44.2697,2028.9742],[168.8547,-44.2742,1935.0358],[168.8463,-44.2785,1662.6602],[168.8427,-44.2833,1680.6423],[168.8443,-44.2897,1804.62],[168.84,-44.3024,1552.6366],[168.8414,-44.3119,1608.6401],[168.8376,-44.3168,1922.4785],[168.8332,-44.3192,2064.5071],[168.8319,-44.3228,2135.5603],[168.8361,-44.3399,2052.5942],[168.8318,-44.3518,1799.6022],[168.8178,-44.3561,1934.5449],[168.8112,-44.3617,2302.2749],[168.8079,-44.3627,2299.7441],[168.7876,-44.377,1626.6083],[168.784,-44.383,1924.6758],[168.7779,-44.3879,2160.7598],[168.7696,-44.3911,2220.0933],[168.757,-44.39,2203.9775],[168.7534,-44.3922,2084.9739],[168.7413,-44.4054,1947.4337],[168.7412,-44.4093,1970.8915],[168.7445,-44.4169,2010.8291],[168.7433,-44.4206,2251.6572],[168.7372,-44.4211,2340.2573],[168.7238,-44.4174,2172.5176],[168.7154,-44.4114,2268.4185],[168.6993,-44.4046,1939.1479],[168.693,-44.3949,1895.0436],[168.6886,-44.3919,1919.7533],[168.6862,-44.392,1939.4545],[168.6802,-44.396,1585.6455],[168.6653,-44.4012,1656.4083],[168.6548,-44.4114,2145.9365],[168.6416,-44.4166,1790.0259],[168.6316,-44.425,1662.8773],[168.6255,-44.4339,2407.8962],[168.6069,-44.4362,2367.8745],[168.5935,-44.4418,2390.7656],[168.5901,-44.4502,2305.4758],[168.5861,-44.4538,2357.499],[168.5736,-44.4513,2158.8459],[168.5574,-44.4517,1998.9823],[168.5478,-44.4565,2111.1292],[168.5235,-44.4604,2042.0957],[168.5068,-44.4668,2297.0918],[168.5035,-44.4698,2192.8713],[168.5009,-44.4754,2245.1531],[168.4878,-44.4789,2103.5876],[168.4606,-44.4955,2139.1401],[168.4525,-44.4926,1797.4805],[168.4416,-44.4922,1734.6189],[168.4155,-44.4974,1897.9377],[168.3991,-44.4961,1713.0927],[168.3902,-44.4991,1964.8752],[168.378,-44.4959,1906.312],[168.3658,-44.4948,2043.8933],[168.3585,-44.4919,2160.551],[168.3449,-44.4971,2024.7297],[168.319,-44.4949,2002.8699],[168.3068,-44.4998,2111.0579],[168.2897,-44.4964,1861.8232],[168.2772,-44.5139,1796.1477],[168.2748,-44.5204,1623.9696],[168.2578,-44.526,1535.853],[168.2496,-44.5304,1723.7206],[168.2349,-44.5426,1860.4614],[168.2371,-44.5496,1933.1565],[168.238,-44.5608,1889.2965],[168.2369,-44.5758,1973.146],[168.235,-44.5787,2153.2385],[168.2248,-44.583,1903.4705],[168.2252,-44.5866,1842.947],[168.2232,-44.5893,1695.6125],[168.2257,-44.5981,1538.1121],[168.2144,-44.6035,1188.9924],[168.2075,-44.6181,1403.2192],[168.2038,-44.6229,1676.3263],[168.202,-44.6303,1615.7419],[168.1967,-44.6366,1649.7312],[168.1959,-44.6392,1716.8359],[168.1973,-44.6433,1919.489],[168.185,-44.6461,1725.8481],[168.1888,-44.649,1534.0929],[168.1911,-44.6559,1362.749],[168.1847,-44.6695,1645.1575],[168.192,-44.6775,1421.0212],[168.1925,-44.6807,1499.1791],[168.1856,-44.687,1714.3506],[168.1849,-44.6905,1778.166],[168.175,-44.6977,1630.3501],[168.1708,-44.7126,1596.8162],[168.172,-44.7186,1384.0],[168.1692,-44.7213,1479.7312],[168.1747,-44.7288,1347.6959],[168.1753,-44.7335,1511.9114],[168.1813,-44.738,1587.4904],[168.1819,-44.7452,1764.1025],[168.1916,-44.743,1649.7651],[168.1945,-44.7405,1732.156],[168.1994,-44.7402,1756.3425],[168.2034,-44.7419,1589.6475],[168.2053,-44.7463,1607.1697],[168.2021,-44.7542,1377.9822],[168.1979,-44.7569,1506.3883],[168.1943,-44.7642,1640.5018],[168.191,-44.7668,1632.9958],[168.1928,-44.7716,1511.1033],[168.1914,-44.7744,1634.6508],[168.1926,-44.778,1653.5074],[168.1901,-44.7821,1784.7146],[168.1848,-44.7841,1739.859],[168.1847,-44.7889,1536.2983],[168.1821,-44.7918,1726.5311],[168.1833,-44.7978,1535.0813],[168.1797,-44.8044,1614.8583],[168.172,-44.81,1694.0111],[168.1676,-44.8283,1424.4167],[168.1274,-44.8286,1015.2949],[168.1287,-44.8405,1008.3544],[168.1274,-44.8436,1039.907],[168.125,-44.8448,1069.5725],[168.1221,-44.8554,1218.8627],[168.1231,-44.8637,1302.1238],[168.1172,-44.8711,1394.3916],[168.1164,-44.8808,1444.241],[168.1176,-44.8834,1468.3965],[168.127,-44.8846,1308.0725],[168.1298,-44.9013,1521.1552],[168.1344,-44.9049,1389.9281],[168.1372,-44.9135,1638.5381],[168.1364,-44.9191,1653.4534],[168.1307,-44.9223,1753.3735],[168.1361,-44.9268,1615.984],[168.1283,-44.9309,1584.8389],[168.1317,-44.934,1600.4481],[168.1317,-44.9391,1732.9072],[168.1363,-44.9422,1767.9401],[168.1455,-44.9424,1529.1379],[168.1489,-44.9446,1595.265],[168.1493,-44.9483,1564.7692],[168.1524,-44.9483,1592.699],[168.1645,-44.9552,1533.4657],[168.1763,-44.9666,1451.6696],[168.1763,-44.9717,1541.1661],[168.1735,-44.9768,1602.934],[168.1743,-44.9807,1698.0781],[168.1829,-44.9831,1507.4558],[168.1996,-44.9967,1525.4415],[168.2053,-44.9984,1516.5999],[168.2089,-45.0017,1465.2662],[168.2144,-45.0021,1450.526],[168.2204,-45.0059,1550.6045],[168.2218,-45.0169,1485.6379],[168.2352,-45.0241,910.9841],[168.2489,-45.0273,765.1847],[168.2793,-45.0251,1459.4719],[168.2859,-45.0204,1703.043],[168.286,-45.017,1647.4891],[168.2961,-45.0139,1667.5657],[168.3003,-45.0152,1748.3031],[168.3097,-45.026,1703.3015],[168.3089,-45.0279,1692.1161],[168.3026,-45.03,1688.9447],[168.2962,-45.038,1761.075],[168.2914,-45.0405,1702.7528],[168.2946,-45.0465,1684.6382],[168.2982,-45.0484,1639.7756],[168.2986,-45.0522,1710.5673],[168.294,-45.0554,1597.376],[168.2927,-45.0664,1533.2534],[168.2942,-45.0701,1589.3567],[168.2935,-45.0748,1612.0271],[168.2846,-45.0846,1597.132],[168.2854,-45.0866,1563.1702],[168.2841,-45.0882,1630.783],[168.2864,-45.0932,1637.9237],[168.2838,-45.1002,1478.8267],[168.2849,-45.1021,1443.7539],[168.2842,-45.1062,1351.3679],[168.2704,-45.1122,885.8082],[168.2661,-45.119,892.4218],[168.2455,-45.1262,1000.807],[168.2362,-45.1338,1457.8987],[168.227,-45.1375,1504.8088],[168.2256,-45.1397,1541.1157],[168.217,-45.1444,1650.1339],[168.2229,-45.1469,1598.4753],[168.2248,-45.1494,1562.2817],[168.2281,-45.1493,1504.3386],[168.2342,-45.1532,1550.6151],[168.2394,-45.1544,1590.3051],[168.2383,-45.1608,1599.724],[168.2361,-45.1626,1579.0808],[168.236,-45.1669,1470.3713],[168.2455,-45.1708,1387.3645],[168.2486,-45.1783,1634.1781],[168.2549,-45.1852,1618.5171],[168.2507,-45.1941,1635.5476],[168.2515,-45.1995,1649.819],[168.2567,-45.2039,1681.9988],[168.2633,-45.2056,1472.2435],[168.2694,-45.21,1397.6664],[168.286,-45.2133,895.2077],[168.2907,-45.2183,817.815],[168.297,-45.2215,866.103],[168.2997,-45.2212,861.7524],[168.3008,-45.2246,896.3808],[168.2997,-45.2278,919.2501],[168.2949,-45.2356,921.1361],[168.292,-45.2375,907.0249],[168.2882,-45.2449,844.3859],[168.2988,-45.2513,693.9504],[168.307,-45.2604,836.4116],[168.3078,-45.2667,1093.325],[168.3027,-45.28,1262.277],[168.3038,-45.2886,1557.7126],[168.3003,-45.2939,1730.6349],[168.3027,-45.2956,1765.1615],[168.3233,-45.3275,1964.788],[168.4608,-45.3251,1813.634],[168.5394,-45.3093,1512.9548],[168.5412,-45.3063,1447.2369],[168.5494,-45.3002,1554.645],[168.5528,-45.2995,1614.7102],[168.5641,-45.2915,1635.9994],[168.5668,-45.2861,1835.2079],[168.5759,-45.2847,1666.2664],[168.584,-45.2785,1753.402],[168.5939,-45.2807,1600.9004],[168.6076,-45.2778,1489.61],[168.6174,-45.2718,1535.5127],[168.6201,-45.2663,1533.8617],[168.6331,-45.2618,1356.3136],[168.6493,-45.2457,1676.4255],[168.6587,-45.2465,1520.2927],[168.6683,-45.2429,1571.5117],[168.6741,-45.2431,1635.6266],[168.6834,-45.2477,1582.4429],[168.6838,-45.2515,1528.3079],[168.6802,-45.2566,1555.5732],[168.6805,-45.2597,1629.4088],[168.6901,-45.2726,1710.4299],[168.6873,-45.2758,1647.0184],[168.6874,-45.2821,1654.3851],[168.694,-45.292,1638.4404],[168.6917,-45.2971,1517.2188],[168.6978,-45.3119,1384.4434],[168.6909,-45.3365,756.7236],[168.6922,-45.3397,581.4326],[168.7197,-45.3491,395.3015],[168.7516,-45.3676,1431.417],[168.756,-45.3633,1344.9408],[168.7593,-45.3623,1373.4086],[168.7699,-45.3628,1576.1121],[168.7746,-45.3652,1628.5083],[168.7728,-45.371,1573.1638],[168.7751,-45.3773,1604.678],[168.7726,-45.383,1567.0728],[168.7739,-45.3918,1513.4414],[168.7687,-45.4031,1451.0096],[168.7739,-45.4148,1300.4203],[168.7739,-45.4205,1250.0162],[168.7777,-45.4243,1163.5582],[168.7797,-45.4336,1046.1749],[168.7787,-45.4366,1062.2012],[168.7823,-45.4371,1029.5571],[168.7896,-45.4339,1004.7584],[168.7962,-45.4334,998.5017],[168.8252,-45.4461,1531.7864],[168.8256,-45.4411,1489.6731],[168.8305,-45.4376,1411.5142],[168.854,-45.4321,1388.666],[168.8601,-45.4383,1467.6628],[168.8588,-45.452,1447.1356],[168.8869,-45.4628,1639.9963],[168.8929,-45.457,1667.3032],[168.8996,-45.4557,1750.6406],[168.9068,-45.4495,1797.4939],[168.9596,-45.3591,1833.4668],[169.0128,-45.3035,1683.0273],[169.0677,-45.269,1716.8313],[169.0729,-45.2711,1724.1956],[169.0902,-45.2861,1618.7434],[169.0881,-45.287,1635.8174],[169.0882,-45.2908,1632.2749],[169.0928,-45.2982,1586.3016],[169.0993,-45.3199,1561.4216],[169.1057,-45.3219,1547.549],[169.114,-45.3287,1504.2855],[169.1216,-45.3318,1515.4513],[169.1295,-45.3376,1563.6019],[169.1482,-45.3388,1621.8003],[169.1547,-45.3493,1613.252],[169.1532,-45.3535,1626.0195],[169.1614,-45.3633,1618.0109],[169.1645,-45.3707,1586.9829],[169.1683,-45.3735,1593.801],[169.1707,-45.3805,1594.8755],[169.1748,-45.3823,1620.0533],[169.1809,-45.3904,1630.2175],[169.1965,-45.3884,1660.875],[169.1991,-45.393,1638.5637],[169.2093,-45.4024,1611.1898],[169.2109,-45.4172,1574.9728],[169.1996,-45.4343,1485.4702],[169.1835,-45.439,1377.9413],[169.1602,-45.4396,1352.2301],[169.1472,-45.4506,1253.8606],[169.1461,-45.4556,1232.476],[169.1402,-45.4643,1164.8181],[169.1419,-45.4711,1197.6062],[169.1365,-45.4834,1164.5754],[169.129,-45.5208,1021.4966],[169.1303,-45.5247,1046.8921],[169.1231,-45.5297,1057.1904],[169.1119,-45.5418,1184.4132],[169.099,-45.5807,1380.7903],[169.0935,-45.5869,1408.6711],[169.0808,-45.5956,1393.3635],[169.0777,-45.6014,1376.5151],[169.0736,-45.6044,1322.7991],[169.0655,-45.6221,1285.4629],[169.0658,-45.6275,1212.2972],[169.0635,-45.6296,1250.5696],[169.0587,-45.6411,1187.6075],[169.044,-45.6525,1157.3945],[169.0353,-45.6526,1067.4207],[169.0247,-45.6596,1000.0057],[169.0249,-45.6637,1033.2784],[169.0219,-45.6674,1091.5149],[169.0187,-45.6776,1127.2894],[169.0201,-45.681,1121.8093],[169.018,-45.6883,1086.1691],[169.0188,-45.6898,1068.592],[169.0054,-45.6984,919.1024],[169.0076,-45.711,967.2315],[169.0037,-45.7182,1065.9558],[169.0031,-45.7271,974.3352],[169.0001,-45.726,943.1401],[168.9934,-45.7285,991.2549],[168.9945,-45.7372,967.11],[169.0019,-45.7387,1071.6598],[169.0045,-45.7496,1069.6261],[169.0035,-45.7958,388.6144],[169.0135,-45.8036,338.4838],[169.024,-45.8052,301.882],[169.0289,-45.8089,283.4366],[169.0254,-45.8219,606.9692],[169.0198,-45.8248,642.2549],[169.0178,-45.8299,651.3665],[169.012,-45.8341,621.4807],[169.0088,-45.8443,563.3881],[169.0055,-45.8479,596.0731],[169.0052,-45.8635,542.4889],[169.0504,-45.864,245.9367],[169.0497,-45.8585,254.0482],[169.0566,-45.8501,287.7047],[169.0805,-45.8582,483.8943],[169.0732,-45.865,431.8925],[169.0745,-45.8711,410.1269],[169.0822,-45.873,357.9109],[169.0915,-45.8826,299.9299],[169.0965,-45.8826,265.7965],[169.0991,-45.8844,273.0596],[169.0935,-45.892,251.1366],[169.0914,-45.8913,227.7656],[169.0894,-45.8955,204.8526],[169.0888,-45.9,185.9175],[169.0849,-45.9059,169.674],[169.0847,-45.9167,213.3213],[169.0765,-45.9196,221.7022],[169.0752,-45.9216,214.6983],[169.0769,-45.9226,227.5427],[169.0734,-45.9247,228.8122],[169.0822,-45.9295,206.6476],[169.0846,-45.9338,193.4053],[169.0904,-45.9376,179.0639],[169.0972,-45.9386,174.6642],[169.0997,-45.948,169.8455],[169.0944,-45.9595,159.5838],[169.0881,-45.9639,162.7545],[169.0811,-45.9653,175.2079],[169.0748,-45.9703,174.9336],[169.0751,-45.9729,177.1054],[169.0706,-45.9754,184.7475],[169.0713,-45.9765,188.7077],[169.0672,-45.9804,185.1343],[169.0664,-45.983,194.7682],[169.0681,-45.9836,203.2658],[169.0666,-45.9853,193.0708],[169.0714,-45.9885,199.4045],[169.0708,-45.997,192.7019],[169.0725,-45.9977,200.8488],[169.0727,-46.0016,210.3621],[169.0887,-46.0012,170.3497],[169.1082,-45.9951,150.8899],[169.1172,-46.0003,142.6808],[169.1264,-46.0018,133.7652],[169.1278,-46.0031,134.3245],[169.0797,-46.0027,205.4268],[169.0813,-46.0043,201.4356],[169.0798,-46.0052,204.0226],[169.0797,-46.0083,187.4652],[169.083,-46.0114,201.2718],[169.0818,-46.0144,194.0338],[169.0888,-46.0178,196.3811],[169.0882,-46.0216,189.923],[169.0896,-46.0242,178.674],[169.0983,-46.0291,192.6639],[169.1001,-46.0334,176.3703],[169.1026,-46.0336,182.6793],[169.1035,-46.036,184.0175],[169.1098,-46.0375,195.2049],[169.119,-46.037,184.4603],[169.1285,-46.0417,165.6828],[169.1362,-46.0481,224.0418],[169.1533,-46.0487,269.3171],[169.158,-46.0622,329.1165],[169.1579,-46.0684,344.5895],[169.1531,-46.0735,309.0271],[169.138,-46.0781,275.077],[169.1356,-46.0854,251.6409],[169.1484,-46.0855,207.9972],[169.1483,-46.0923,197.147],[169.1581,-46.0924,178.9381],[169.1633,-46.0958,169.5764],[169.1579,-46.1067,142.1548],[169.1622,-46.1119,133.6698],[169.1601,-46.1161,125.847],[169.1632,-46.1171,127.8907],[169.1559,-46.1222,157.7891],[169.1553,-46.1242,187.6483],[169.1485,-46.1242,224.0303],[169.1376,-46.1273,216.3022],[169.1376,-46.1304,250.3074],[169.1334,-46.1315,254.5137],[169.1327,-46.1337,247.5483],[169.1348,-46.1368,237.3072],[169.1289,-46.1386,235.1107],[169.1301,-46.1401,230.3999],[169.1298,-46.1477,147.8197],[169.1316,-46.1476,148.3376],[169.1334,-46.1511,143.9876],[169.1436,-46.1499,144.9491],[169.1511,-46.1546,171.2112],[169.1609,-46.1521,155.0368],[169.1622,-46.1576,162.8803],[169.1693,-46.161,151.7627],[169.1596,-46.1756,152.9453],[169.1621,-46.1812,156.4651],[169.1704,-46.1828,159.8954],[169.1669,-46.1918,158.0299],[169.1698,-46.1925,159.5349],[169.1715,-46.1905,164.6117],[169.174,-46.1906,160.2336],[169.1751,-46.1885,160.2156],[169.1858,-46.1893,164.2611],[169.1873,-46.1903,164.1015],[169.1838,-46.1924,166.1096],[169.1819,-46.1957,164.7405],[169.1896,-46.1956,166.649],[169.1983,-46.2004,168.3408],[169.1981,-46.2126,174.4657],[169.1863,-46.2233,225.1596],[169.1863,-46.2305,234.91309999999999],[169.1962,-46.2376,215.8835],[169.1918,-46.2472,235.666],[169.1857,-46.2548,307.3644],[169.1883,-46.2588,332.5656],[169.1886,-46.2618,282.1465],[169.1859,-46.2665,292.3685],[169.1892,-46.266,274.9339],[169.189,-46.2799,422.4928],[169.1768,-46.2857,530.6704],[169.1839,-46.2914,469.7347],[169.185,-46.2991,564.8247],[169.1894,-46.3013,588.6456],[169.1886,-46.3024,634.8403],[169.1969,-46.3043,399.0864],[169.1884,-46.3135,304.1647],[169.1774,-46.3219,317.8254],[169.1908,-46.3264,185.9555],[169.1736,-46.3359,197.1452],[169.1613,-46.3449,182.9472],[169.1603,-46.3479,171.2912],[169.1556,-46.3482,174.3524],[169.1424,-46.3535,170.2324],[169.1466,-46.356,147.8807],[169.1463,-46.3591,133.0294],[169.1374,-46.3662,125.5728],[169.1362,-46.3741,273.0034],[169.1341,-46.3754,312.632],[169.1442,-46.3824,364.3744],[169.1611,-46.3818,256.7331],[169.175,-46.3864,364.6404],[169.1787,-46.3884,376.6653],[169.1778,-46.3918,379.2059],[169.1868,-46.3956,366.5151],[169.1889,-46.399,476.9018],[169.1913,-46.3993,492.5197],[169.1959,-46.4042,530.6329],[169.194,-46.4084,503.1206],[169.1995,-46.4164,387.4493],[169.1993,-46.4199,394.31],[169.1882,-46.4276,608.113],[169.1908,-46.4341,645.4475],[169.1968,-46.4388,706.9724],[169.1859,-46.4431,662.5754],[169.1832,-46.4488,395.5346],[169.1799,-46.4515,462.1622],[169.1648,-46.4559,315.0125],[169.1631,-46.4589,282.4024],[169.1639,-46.4625,316.3793],[169.1615,-46.465,286.5089],[169.1619,-46.4678,275.7101],[169.1659,-46.4724,327.0178],[169.178,-46.4776,292.9237],[169.1786,-46.4808,295.3008],[169.173,-46.4861,318.2109],[169.1777,-46.4898,332.0858],[169.2025,-46.4949,443.7983],[169.2054,-46.4993,472.7097],[169.2148,-46.5023,473.7498],[169.2348,-46.5123,485.9127],[169.247,-46.5101,452.0997],[169.2507,-46.5147,437.6699],[169.2457,-46.5215,377.3259],[169.2448,-46.5296,263.7037],[169.2363,-46.5361,309.6893],[169.2253,-46.5501,277.9922],[169.2162,-46.5542,271.6721],[169.1937,-46.5551,328.3358],[169.1905,-46.5569,339.3837],[169.1961,-46.5605,377.5734],[169.2009,-46.5607,364.0387],[169.2303,-46.573,324.2001],[169.2345,-46.5731,353.8779],[169.2379,-46.5752,317.3778],[169.2451,-46.5752,227.7302],[169.2511,-46.581,204.9616],[169.2542,-46.5806,207.4458],[169.2649,-46.5859,170.3046],[169.2643,-46.594,83.3576],[169.2665,-46.5936,68.886],[169.2672,-46.5959,94.2795],[169.2616,-46.5986,103.1828],[169.2741,-46.6113,263.4099],[169.2654,-46.6157,44.0104],[169.2756,-46.6217,63.2137],[169.3047,-46.6247,22.973],[169.3056,-46.6262,22.973],[169.3042,-46.6269,1.6897],[169.3066,-46.6286,14.1578],[169.3045,-46.6293,0.0],[169.3123,-46.6319,11.3572],[169.3109,-46.6342,0.7891],[169.3134,-46.6342,1.9876],[169.3126,-46.632,11.3572],[169.3151,-46.6304,2.5804],[169.3156,-46.6281,0.0],[169.3212,-46.6273,30.1159],[169.3309,-46.6344,0.0],[169.3342,-46.6322,15.5075],[169.3396,-46.632,69.3383],[169.3424,-46.6367,0.0],[169.3461,-46.6345,77.146],[169.3535,-46.6381,5.7266],[169.3569,-46.636,85.8122],[169.3607,-46.6371,45.6609],[169.3653,-46.6318,12.5847],[169.3555,-46.6216,8.0788],[169.356,-46.6199,0.0],[169.3634,-46.6139,19.1951],[169.3793,-46.607,21.3076],[169.383,-46.6087,16.5574],[169.3914,-46.6076,38.3761],[169.3968,-46.6092,29.9669],[169.3989,-46.6135,0.0],[169.4027,-46.6107,46.4865],[169.4048,-46.6124,9.7227],[169.4104,-46.6076,68.4413],[169.4123,-46.6088,15.6732],[169.4167,-46.6029,80.5487],[169.4204,-46.6028,28.3593],[169.4222,-46.6047,1.8181],[169.426,-46.6048,12.713],[169.4249,-46.6062,2.9553],[169.4258,-46.607,4.1131],[169.4275,-46.6059,12.7058],[169.4284,-46.6075,12.2285],[169.4326,-46.6067,7.6916],[169.4356,-46.6079,13.3002],[169.4347,-46.6146,0.0],[169.4381,-46.6128,3.8965],[169.4395,-46.6113,3.8965],[169.4389,-46.6085,16.1525],[169.4419,-46.6052,7.3697],[169.4474,-46.6059,0.767],[169.4407,-46.6003,8.8853],[169.4309,-46.6001,0.0],[169.43,-46.5978,1.0019],[169.4333,-46.5914,4.2787],[169.4416,-46.5831,0.0],[169.4563,-46.5775,3.6137],[169.4548,-46.5765,0.0],[169.4638,-46.578,8.5623],[169.4641,-46.5807,10.8371],[169.4677,-46.5807,24.5545],[169.4717,-46.5732,2.3904],[169.4763,-46.5716,6.8728],[169.4753,-46.5706,22.7958],[169.4772,-46.5706,3.8209],[169.4793,-46.5678,0.0],[169.4769,-46.5657,3.0394],[169.477,-46.5611,2.6133],[169.5073,-46.5565,0.0],[169.5305,-46.5583,54.2608],[169.5362,-46.5599,33.9496],[169.5357,-46.5618,13.3678],[169.5399,-46.5627,36.6953],[169.5407,-46.5648,5.3211],[169.544,-46.5646,0.0],[169.5444,-46.5629,6.4567],[169.546,-46.5632,0.0],[169.5444,-46.5619,6.4567],[169.548,-46.5607,0.6797],[169.5619,-46.5611,5.5212],[169.563,-46.5615,0.0],[169.562,-46.5643,2.1574],[169.5646,-46.5643,19.552],[169.5657,-46.562,3.3381],[169.5696,-46.5636,24.2364],[169.5692,-46.5655,6.9137],[169.5734,-46.5635,24.9219],[169.5753,-46.5645,5.8833],[169.5799,-46.5697,9.8908],[169.5779,-46.5756,16.3795],[169.5852,-46.5783,0.3472],[169.5867,-46.5774,0.0],[169.5848,-46.5757,32.3896],[169.5888,-46.5734,0.3769],[169.5863,-46.5708,11.5146],[169.5878,-46.5709,11.5146],[169.5865,-46.5677,13.5444],[169.5875,-46.5658,37.6433],[169.5951,-46.5668,0.0],[169.5947,-46.5646,18.2339],[169.5977,-46.5648,0.0],[169.5977,-46.5629,107.1067],[169.6007,-46.5603,22.8143],[169.6026,-46.5609,1.6373],[169.6028,-46.5589,73.2018],[169.612,-46.558,3.5348],[169.6098,-46.5545,45.5226],[169.6126,-46.553,0.0],[169.6122,-46.5505,19.2092],[169.6183,-46.5481,3.1674],[169.6147,-46.5442,0.0],[169.6169,-46.5403,18.8683],[169.6286,-46.5379,102.5081],[169.6524,-46.539,7.3687],[169.6609,-46.5338,4.3397],[169.657,-46.5318,19.2554],[169.6599,-46.5283,13.0321],[169.6646,-46.5265,69.3242],[169.6665,-46.5283,0.0],[169.6682,-46.5271,36.7921],[169.6699,-46.5279,36.7921],[169.6699,-46.5266,36.7921],[169.674,-46.5276,5.3973],[169.673,-46.5261,118.9218],[169.6767,-46.5244,113.6408],[169.6757,-46.5228,155.6804],[169.6796,-46.5249,13.2648],[169.6833,-46.5241,56.6412],[169.6827,-46.5254,8.6079],[169.6936,-46.5206,49.1056],[169.6979,-46.5203,0.0],[169.699,-46.519,0.0],[169.6939,-46.5158,6.495],[169.6933,-46.5142,8.9623],[169.6951,-46.5129,0.0],[169.693,-46.5121,12.0142],[169.6942,-46.5113,12.0142],[169.6928,-46.51,47.2742],[169.6956,-46.5093,7.335],[169.6958,-46.5075,19.3604],[169.699,-46.5083,0.0],[169.7029,-46.5064,14.3666],[169.7031,-46.5073,14.3666],[169.7053,-46.5046,9.9956],[169.7089,-46.5062,39.3152],[169.7113,-46.5013,21.2252],[169.7092,-46.4993,2.1024],[169.709,-46.493899999999996,9.5607],[169.7134,-46.4917,4.2463],[169.722,-46.4916,0.0],[169.7229,-46.4903,11.8714],[169.7207,-46.486,0.9005],[169.7106,-46.4838,0.9251],[169.7074,-46.4793,0.0],[169.7073,-46.4768,0.0],[169.7058,-46.4775,0.0],[169.7068,-46.479,0.0],[169.7049,-46.4791,0.3793],[169.7058,-46.4745,0.0],[169.7051,-46.4734,0.0],[169.7035,-46.4737,0.0],[169.7054,-46.4743,0.0],[169.704,-46.4774,0.0],[169.6986,-46.4793,0.0],[169.696,-46.4815,0.0],[169.6968,-46.4836,0.0],[169.6953,-46.4845,0.0],[169.683,-46.4849,1.3829],[169.678,-46.4789,1.0166],[169.6747,-46.4774,2.2739],[169.6776,-46.4776,1.0576],[169.6773,-46.4749,1.6023],[169.6635,-46.4713,1.5713],[169.6568,-46.4763,2.3055],[169.6295,-46.4902,3.4785],[169.6223,-46.4891,0.3287],[169.6162,-46.4818,0.7712],[169.6142,-46.4815,0.896],[169.6152,-46.4798,0.3083],[169.6281,-46.4757,8.5437],[169.6339,-46.4764,0.0],[169.6375,-46.4695,4.8115],[169.6397,-46.4684,1.5365],[169.6496,-46.4705,9.8519],[169.6542,-46.4668,6.0602],[169.6575,-46.4674,11.2099],[169.6575,-46.47,0.0],[169.664,-46.4692,32.8574],[169.6802,-46.4717,0.0],[169.6837,-46.477,0.0],[169.6875,-46.479,0.1185],[169.6907,-46.4776,11.7728],[169.6919,-46.479,0.0],[169.6934,-46.4764,0.0],[169.7009,-46.473,0.0],[169.7072,-46.4725,0.0],[169.7174,-46.4739,2.9111],[169.7177,-46.4786,0.6383],[169.7194,-46.4792,0.6383],[169.7408,-46.4758,7.1569],[169.7478,-46.4763,0.0],[169.7502,-46.4781,0.0],[169.7489,-46.4818,0.0],[169.7534,-46.4832,0.0],[169.7506,-46.4803,8.3803],[169.7548,-46.4811,1.3917],[169.7537,-46.4788,32.2873],[169.7581,-46.4803,2.2947],[169.7561,-46.4788,29.9458],[169.7575,-46.4774,72.2047],[169.7596,-46.478,0.0],[169.7577,-46.4766,72.2047],[169.76,-46.4771,0.0],[169.7524,-46.474,5.1202],[169.7539,-46.4699,3.426],[169.7585,-46.466,4.6067],[169.7603,-46.4678,27.5279],[169.7635,-46.467,44.8907],[169.7711,-46.469,5.1527],[169.7724,-46.4675,123.262],[169.7769,-46.4692,4.6902],[169.7748,-46.465,37.7254],[169.7771,-46.4664,20.5535],[169.7762,-46.465,14.4094],[169.7817,-46.4651,1.3945],[169.7823,-46.4629,6.173],[169.7803,-46.46,11.5773],[169.782,-46.4597,2.0507],[169.7789,-46.4556,21.9079],[169.7811,-46.4525,22.0528],[169.7826,-46.454,4.1155],[169.7864,-46.4527,45.4293],[169.7898,-46.4536,0.9353],[169.7931,-46.4519,11.4404],[169.7927,-46.4505,75.9425],[169.7974,-46.4521,2.0931],[169.7971,-46.4496,42.7254],[169.8012,-46.4458,45.401],[169.8037,-46.4463,0.0],[169.8049,-46.4486,1.1082],[169.811,-46.4495,24.8738],[169.8153,-46.4483,40.7136],[169.8191,-46.4497,0.2906],[169.8166,-46.4473,5.8112],[169.7989,-46.4406,8.2984],[169.7972,-46.4366,10.5627],[169.7942,-46.4347,2.6613],[169.7935,-46.4277,25.8993],[169.7956,-46.4243,0.8446],[169.7941,-46.4232,0.8446],[169.7951,-46.4187,2.8429],[169.7999,-46.4122,0.1095],[169.7916,-46.4075,0.0],[169.7908,-46.4032,11.5555],[169.7857,-46.4025,0.0],[169.7803,-46.3976,2.7149],[169.7815,-46.3884,1.2254],[169.786,-46.3843,0.0],[169.7828,-46.3827,7.9733],[169.7847,-46.376,9.0099],[169.7833,-46.3736,10.765],[169.7924,-46.3606,0.0],[169.7981,-46.3547,0.0],[169.8086,-46.349,0.0],[169.8177,-46.3415,0.0],[169.8407,-46.3292,0.0],[169.8772,-46.3169,18.1709],[169.8911,-46.3151,1.208],[169.8973,-46.3094,23.501],[169.9086,-46.3057,20.9338],[169.9143,-46.301,22.112],[169.9239,-46.2984,3.0434],[169.9238,-46.295,11.8836],[169.9269,-46.2905,6.3168],[169.9337,-46.2849,0.0],[169.956,-46.2751,4.6943],[169.9729,-46.2719,0.0],[169.9839,-46.2597,3.8103],[169.9991,-46.2517,5.0477],[170.0031,-46.2432,0.6614],[170.0096,-46.238,0.8376],[170.0401,-46.2252,3.1532],[170.0536,-46.2151,0.0],[170.0776,-46.2027,7.6938],[170.1222,-46.1861,8.3682],[170.1267,-46.1837,7.2216],[170.1281,-46.1804,5.5562],[170.1306,-46.1802,2.8678],[170.1318,-46.1782,0.2786],[170.1307,-46.1775,13.4914],[170.1345,-46.1775,9.4854],[170.1411,-46.1723,5.8579],[170.1404,-46.1713,5.8579],[170.1473,-46.1676,7.2736],[170.1503,-46.1631,3.6905],[170.1528,-46.1627,6.371],[170.1556,-46.1576,13.5663],[170.1589,-46.1586,1.2936],[170.1709,-46.1531,2.6393],[170.175,-46.1465,0.3946],[170.1785,-46.1451,0.8508],[170.1792,-46.1403,5.2065],[170.1832,-46.1373,2.6576],[170.1853,-46.1302,4.6044],[170.1824,-46.1268,8.9939],[170.1821,-46.1237,8.4555],[170.1835,-46.1231,1.6932],[170.1824,-46.1221,9.5371],[170.1853,-46.121,2.0287],[170.183,-46.1194,14.8791],[170.1927,-46.1118,5.4774],[170.1932,-46.1088,5.9293],[170.1954,-46.1076,5.9941],[170.1978,-46.1016,0.1479],[170.1972,-46.0963,1.5738],[170.2003,-46.0919,3.9944],[170.1972,-46.0862,0.0],[170.2001,-46.0827,2.2612],[170.1994,-46.0797,1.2042],[170.2012,-46.073,0.0906],[170.198,-46.0695,2.2854],[170.1969,-46.0626,2.9537],[170.1994,-46.0556,0.0],[170.194,-46.0546,6.484],[170.1922,-46.0528,0.7177],[170.1986,-46.0511,18.4718],[170.2034,-46.0519,2.3473]]]]}}