{"type": "Feature","bbox": [176.0741,-37.7706,176.4148,-37.6251],"geometry": {"type": "MultiPolygon","coordinates": [[[[176.1999,-37.7211,11.8022],[176.1998,-37.721,11.8022],[176.1997,-37.721,11.8022],[176.1998,-37.7211,11.8022],[176.1999,-37.7211,11.8022]]],
[[[176.1997,-37.721,11.8022],[176.1995,-37.721,11.8022],[176.1996,-37.7211,11.8022],[176.1997,-37.721,11.8022]]],
[[[176.4148,-37.7478,1.8741],[176.3894,-37.738,8.4751],[176.347,-37.7171,1.5701],[176.2913,-37.6982,6.8582],[176.2502,-37.6801,4.5765],[176.2083,-37.6537,1.9259],[176.1913,-37.6401,2.2884],[176.1867,-37.6347,8.0199],[176.1776,-37.6313,7.3077],[176.1752,-37.6261,0.948],[176.1732,-37.6251,10.6629],[176.1662,-37.6291,0.0],[176.1664,-37.6314,0.0],[176.1688,-37.636,14.2675],[176.1759,-37.6338,2.8679],[176.1815,-37.6399,3.3449],[176.183,-37.6494,5.3967],[176.1814,-37.6585,5.5207],[176.1823,-37.6615,2.4703],[176.1796,-37.6686,1.6798],[176.1856,-37.6721,1.2094],[176.1944,-37.681,0.8788],[176.1969,-37.6811,0.4429],[176.1943,-37.68,0.8788],[176.1982,-37.6796,0.0],[176.2004,-37.6767,0.806],[176.2026,-37.6765,0.8034],[176.2044,-37.6784,0.2492],[176.204,-37.6821,1.7112],[176.2055,-37.6848,0.0],[176.2047,-37.6882,1.4214],[176.1983,-37.6938,1.4252],[176.1896,-37.6882,2.2907],[176.1848,-37.688,1.2309],[176.1861,-37.6861,0.0],[176.1812,-37.6917,8.2983],[176.1831,-37.6968,9.9473],[176.1917,-37.7054,0.5674],[176.2127,-37.6958,3.7904],[176.2093,-37.6939,1.1028],[176.208,-37.6948,8.8828],[176.2077,-37.6913,1.1372],[176.2151,-37.6863,1.023],[176.2194,-37.6921,0.2033],[176.2315,-37.693,2.1012],[176.2372,-37.6965,4.2283],[176.2356,-37.7008,2.8119],[176.2312,-37.7047,10.1618],[176.2262,-37.704,0.0],[176.2278,-37.7073,0.8],[176.2319,-37.7079,15.7254],[176.2355,-37.7117,1.0419],[176.2331,-37.7118,1.0235],[176.2308,-37.7142,5.7214],[176.2291,-37.7116,0.8306],[176.2285,-37.7141,0.8933],[176.2257,-37.715,3.7315],[176.2218,-37.7113,4.0932],[176.2191,-37.714,1.3721],[176.2162,-37.7129,0.0],[176.2135,-37.7152,15.8125],[176.2138,-37.7127,5.8257],[176.2083,-37.7118,2.5334],[176.202,-37.7135,3.3748],[176.203,-37.7159,0.195],[176.1999,-37.7193,5.3043],[176.2004,-37.7218,9.6169],[176.1998,-37.7234,8.1382],[176.1979,-37.7231,6.584],[176.1998,-37.7226,9.6169],[176.1993,-37.721,0.0],[176.1973,-37.7208,0.0],[176.1908,-37.7251,6.8378],[176.1888,-37.7242,0.4396],[176.1844,-37.7261,3.216],[176.1821,-37.7235,4.0208],[176.1753,-37.7246,6.4795],[176.1795,-37.7233,1.116],[176.1838,-37.7164,1.3991],[176.1916,-37.7171,0.0],[176.1906,-37.7131,12.4981],[176.1852,-37.7083,8.2954],[176.1783,-37.7154,3.1191],[176.1669,-37.7221,7.1059],[176.1651,-37.7157,1.4606],[176.1671,-37.7047,1.3049],[176.1659,-37.6973,2.5288],[176.1706,-37.6886,0.0],[176.1706,-37.6764,0.0],[176.1746,-37.6583,6.1941],[176.1679,-37.6595,0.0],[176.1642,-37.6711,0.0],[176.1589,-37.6672,1.517],[176.152,-37.665,2.0764],[176.1245,-37.6598,0.0],[176.123,-37.6626,0.0],[176.1174,-37.6652,10.0654],[176.1139,-37.6715,3.3886],[176.1198,-37.6731,0.0],[176.1269,-37.6707,3.3036],[176.1288,-37.6725,1.1545],[176.1223,-37.6773,1.014],[176.1216,-37.6831,1.5986],[176.1152,-37.6784,1.6655],[176.1107,-37.6787,4.4766],[176.1033,-37.6816,17.6937],[176.1017,-37.6837,11.1269],[176.0988,-37.6837,1.3371],[176.0943,-37.6867,0.0],[176.0915,-37.6912,0.0],[176.0936,-37.6979,0.6002],[176.0992,-37.7006,17.4533],[176.1023,-37.707,0.3774],[176.1024,-37.7113,0.7169],[176.0943,-37.7285,2.0102],[176.084,-37.7363,2.7681],[176.0827,-37.7396,9.426],[176.0926,-37.7433,34.8221],[176.0924,-37.7476,50.5085],[176.0889,-37.7521,62.3959],[176.0781,-37.7536,21.505],[176.0741,-37.7566,5.7039],[176.0801,-37.7612,7.9418],[176.0946,-37.7634,9.8244],[176.0967,-37.7689,15.2744],[176.1017,-37.7699,82.4873],[176.1041,-37.766,66.821],[176.1066,-37.7655,49.3659],[176.1076,-37.7672,56.5407],[176.1099,-37.7672,61.0045],[176.1099,-37.7705,74.2668],[176.1162,-37.7706,67.82],[176.1147,-37.7616,37.5142],[176.1189,-37.7544,45.246],[176.1414,-37.7573,57.5023],[176.1437,-37.7566,54.0772],[176.1432,-37.754,42.9518],[176.1463,-37.7508,27.8865],[176.15,-37.7534,29.2754],[176.1543,-37.7529,60.5385],[176.1579,-37.7565,57.3037],[176.1588,-37.7601,66.3335],[176.1698,-37.7567,119.511],[176.1702,-37.7582,117.5691],[176.1761,-37.7544,73.1634],[176.1768,-37.7531,69.7797],[176.1747,-37.7509,47.5523],[176.1814,-37.7487,91.56],[176.1839,-37.7503,109.4546],[176.1923,-37.7492,120.9161],[176.1911,-37.7479,99.8268],[176.1945,-37.7434,128.3052],[176.1991,-37.745,82.3202],[176.2048,-37.744,114.9509],[176.2026,-37.7401,108.6971],[176.2061,-37.7387,58.6909],[176.2081,-37.7332,85.7958],[176.2126,-37.7322,56.9037],[176.2096,-37.7261,33.4389],[176.2146,-37.7241,42.4906],[176.2172,-37.719,23.7144],[176.2234,-37.7195,13.57],[176.2372,-37.7163,21.0665],[176.239,-37.7181,16.7601],[176.25,-37.7208,45.9434],[176.2527,-37.7188,34.243],[176.264,-37.7181,34.9119],[176.2651,-37.7169,13.6203],[176.2673,-37.7199,22.4635],[176.2713,-37.7205,16.6219],[176.2759,-37.7239,21.4197],[176.2853,-37.7244,20.431],[176.2844,-37.717,13.3079],[176.288,-37.7193,5.2068],[176.2928,-37.7193,4.147],[176.2928,-37.7143,5.9731],[176.3074,-37.7144,6.2527],[176.3073,-37.7197,4.3781],[176.3134,-37.7233,3.005],[176.3286,-37.7271,4.9286],[176.346,-37.7339,4.8012],[176.3539,-37.7377,6.0077],[176.3536,-37.741,1.4599],[176.3556,-37.7404,2.0652],[176.3603,-37.7445,2.6994],[176.3667,-37.747,1.5827],[176.3759,-37.7456,2.3003],[176.4025,-37.7525,1.0905],[176.4058,-37.7506,0.781],[176.4126,-37.7514,0.9558],[176.4148,-37.7478,1.8741]]],
[[[176.1684,-37.7118,0.0],[176.1688,-37.7118,0.0],[176.1703,-37.7103,1.7439],[176.1682,-37.711,0.0],[176.1684,-37.7118,0.0]]],
[[[176.195,-37.6319,0.0],[176.1944,-37.63,0.0],[176.1937,-37.6304,0.0],[176.1941,-37.6321,0.0],[176.195,-37.6319,0.0]]],
[[[176.1841,-37.6323,0.8585],[176.1856,-37.6308,3.9246],[176.1858,-37.6292,0.0],[176.1844,-37.6305,0.0],[176.1841,-37.6323,0.8585]]]]}
,"properties": {"GID_2": "NZL.2.5_1","GID_0": "NZL","country": "NewZealand","GID_1": "NZL.2_1","province": "BayofPlenty","NL_NAME_1": "NA","county": "Tauranga","VARNAME_2": "NA","NL_NAME_2": "NA","TYPE_2": "City","ENGTYPE_2": "City","CC_2": "023","HASC_2": "NZ.BP.TG","name": "Tauranga.county","area_km2": 138.197,"hist_schema_id": "Elevation0-9000","hist_area_km2": {"0": 74.7677,"25": 40.2552,"50": 17.2383,"75": 3.4707,"100": 1.8946,"125": 0.436,"150": 0.0504,"200": 0.0504,"225": 0.0336}}}