{"type": "Feature","bbox": [175.5184,-39.3003,176.6977,-38.3012],"geometry": {"type": "MultiPolygon","coordinates": [[[[176.0279,-38.3858,253.5],[176.0232,-38.3863,253.5],[176.024,-38.3896,253.5],[176.0212,-38.3891,282.6027],[176.0137,-38.3925,245.068],[176.0023,-38.4018,246.1228],[175.9921,-38.4063,227.0],[175.9934,-38.4091,229.8129],[175.9922,-38.4112,226.5],[175.983,-38.4106,233.506],[175.9783,-38.4145,229.0229],[175.9607,-38.4187,226.8901],[175.9581,-38.4213,228.5692],[175.9404,-38.4209,224.0],[175.9313,-38.4183,224.0],[175.8999,-38.4264,224.0],[175.896,-38.4298,261.1148],[175.8799,-38.4252,223.0],[175.8661,-38.4269,222.5],[175.8631,-38.4255,222.5],[175.8558,-38.4338,232.5456],[175.8541,-38.4334,222.0],[175.8445,-38.4386,221.5],[175.8296,-38.4397,220.5],[175.8202,-38.4358,220.0],[175.8196,-38.4317,220.0],[175.8166,-38.4303,220.0],[175.8176,-38.4277,219.5],[175.8163,-38.4259,222.6578],[175.8091,-38.4214,219.0],[175.8111,-38.4188,250.1698],[175.8023,-38.416,240.0498],[175.7871,-38.4065,210.8188],[175.7785,-38.4044,199.4805],[175.7763,-38.399,211.0541],[175.7696,-38.3955,190.5],[175.7699,-38.3915,190.508],[175.7816,-38.3793,189.0],[175.7844,-38.3732,188.5],[175.784,-38.3664,188.5],[175.7791,-38.3605,188.5],[175.7667,-38.3551,190.3998],[175.7492,-38.353,194.6491],[175.7468,-38.3522,187.3397],[175.7465,-38.3496,210.7123],[175.7386,-38.3491,135.3502],[175.7382,-38.3447,157.5815],[175.7357,-38.3406,132.7199],[175.7246,-38.3326,141.2969],[175.7238,-38.3296,129.7742],[175.7172,-38.3221,129.0082],[175.6914,-38.3105,125.5],[175.6904,-38.3072,127.9622],[175.6878,-38.3066,125.5],[175.6833,-38.3012,125.0],[175.6745,-38.3035,172.8673],[175.6751,-38.306,187.7915],[175.6726,-38.3081,187.0316],[175.669,-38.3075,170.6155],[175.6679,-38.3105,180.1554],[175.6655,-38.3103,171.9246],[175.6605,-38.3187,223.3851],[175.661,-38.3213,198.8973],[175.6675,-38.3248,212.2588],[175.6776,-38.3277,192.6326],[175.6788,-38.331,210.135],[175.6854,-38.333,218.1674],[175.6889,-38.3324,195.9341],[175.6891,-38.3368,226.7858],[175.6865,-38.3383,223.6584],[175.6869,-38.3418,225.2877],[175.6929,-38.3475,219.5714],[175.6894,-38.3523,224.9082],[175.6913,-38.3542,227.2262],[175.6897,-38.3621,222.2398],[175.6938,-38.3656,223.6179],[175.6968,-38.366,244.1801],[175.6964,-38.3682,238.4094],[175.6978,-38.3687,250.5584],[175.6948,-38.3719,239.7108],[175.6989,-38.3786,240.3369],[175.6957,-38.3815,241.6316],[175.6883,-38.382,248.9218],[175.6868,-38.3849,248.7278],[175.6836,-38.3857,257.3181],[175.681,-38.3886,256.6074],[175.6794,-38.3972,263.3863],[175.6753,-38.3996,271.0999],[175.6723,-38.4049,272.7695],[175.6664,-38.408,282.6758],[175.6594,-38.4077,277.0342],[175.6531,-38.4094,277.3792],[175.649,-38.4135,286.9897],[175.6476,-38.4221,297.1235],[175.6407,-38.4265,384.0954],[175.6364,-38.4277,359.3481],[175.631,-38.4269,381.2071],[175.6232,-38.4309,424.0894],[175.617,-38.4413,463.0421],[175.6111,-38.4421,488.6044],[175.6114,-38.4478,508.7878],[175.6154,-38.4487,513.3646],[175.6059,-38.4616,530.0101],[175.6262,-38.5409,923.3195],[175.6254,-38.5452,1016.0493],[175.6288,-38.5512,1135.8792],[175.6369,-38.5525,1069.656],[175.6355,-38.5578,984.8344],[175.6368,-38.5645,906.0695],[175.6337,-38.5661,878.2585],[175.6349,-38.5699,872.5926],[175.6327,-38.5795,877.6256],[175.6325,-38.5916,909.0473],[175.6289,-38.5954,931.1901],[175.6285,-38.6007,911.1147],[175.6217,-38.6067,928.8335],[175.6147,-38.6181,967.1139],[175.6003,-38.6341,1055.2637],[175.5923,-38.6374,1022.147],[175.5759,-38.6499,945.3212],[175.5793,-38.6527,929.0425],[175.5778,-38.6559,914.8378],[175.5786,-38.6599,891.5798],[175.5767,-38.663,898.4028],[175.5787,-38.6655,896.0042],[175.5754,-38.6724,905.612],[175.5758,-38.6745,906.0861],[175.5807,-38.6776,892.0784],[175.5796,-38.6818,888.1569],[175.5731,-38.6904,874.0599],[175.565,-38.6954,851.937],[175.5581,-38.709,821.3206],[175.5345,-38.7347,906.7814],[175.5294,-38.7436,924.6771],[175.5239,-38.7457,921.876],[175.5237,-38.7498,913.1122],[175.5197,-38.75,940.6001],[175.5184,-38.7519,897.247],[175.5197,-38.7586,890.8766],[175.5269,-38.7634,795.3753],[175.5278,-38.7701,818.0602],[175.5306,-38.7749,826.1001],[175.5352,-38.7764,854.0455],[175.5375,-38.7791,860.6003],[175.5417,-38.7951,965.6504],[175.5534,-38.7893,994.3004],[175.5555,-38.7902,965.4274],[175.5637,-38.8037,792.2896],[175.5734,-38.8144,877.381],[175.5772,-38.8232,991.7026],[175.577,-38.8309,1051.4775],[175.5698,-38.833,1012.033],[175.5615,-38.8386,1017.4864],[175.5604,-38.8434,945.7864],[175.5464,-38.8599,940.5121],[175.5447,-38.8645,891.5054],[175.5492,-38.8728,847.205],[175.5552,-38.8772,782.1133],[175.5607,-38.8842,787.8628],[175.5613,-38.8924,770.0563],[175.58,-38.9107,723.4707],[175.5761,-38.9185,772.4428],[175.566,-38.9299,718.0115],[175.5649,-38.9385,725.4652],[175.5539,-38.9557,690.5664],[175.5608,-38.9727,651.5505],[175.5675,-38.9687,638.4172],[175.5694,-38.9701,636.9464],[175.565,-38.9725,637.9468],[175.5656,-38.9773,645.5553],[175.5626,-38.9868,684.3481],[175.6063,-38.9818,701.8622],[175.6269,-38.974,654.5616],[175.6412,-38.9803,659.4835],[175.682,-38.9797,1055.2148],[175.6481,-39.0144,634.427],[175.648,-39.0279,618.8751],[175.6358,-39.0453,665.1],[175.6312,-39.0489,683.2664],[175.6318,-39.0456,678.5035],[175.6136,-39.0506,686.4171],[175.615,-39.0551,770.4338],[175.6184,-39.0579,768.427],[175.6246,-39.0599,753.5129],[175.6172,-39.0749,839.955],[175.6187,-39.0826,895.0212],[175.622,-39.087,967.572],[175.626,-39.0858,995.0902],[175.6324,-39.0889,1080.8044],[175.6354,-39.0887,1085.5515],[175.6374,-39.0901,1122.2102],[175.6399,-39.0974,1196.1963],[175.6421,-39.0967,1211.0405],[175.6456,-39.1001,1267.0533],[175.6478,-39.1001,1283.7014],[175.6428,-39.1043,1328.2976],[175.6372,-39.1291,1938.0176],[175.6347,-39.1584,2247.022],[175.5579,-39.276,2672.1177],[175.6692,-39.2969,1226.5054],[175.7048,-39.2883,1100.9912],[175.7411,-39.2975,1071.1021],[175.741,-39.2926,1067.26],[175.7518,-39.2879,1131.3531],[175.7653,-39.2914,1299.7545],[175.7696,-39.295,1362.9353],[175.7801,-39.2934,1245.2881],[175.7836,-39.2943,1224.5304],[175.7909,-39.2998,1353.0686],[175.8126,-39.3003,1338.0338],[175.8286,-39.289,1298.7344],[175.8335,-39.2833,1344.9019],[175.836,-39.2768,1455.4263],[175.8426,-39.2707,1342.5463],[175.8627,-39.2665,1515.7416],[175.8681,-39.263,1632.5581],[175.869,-39.2591,1632.9934],[175.8566,-39.252,1623.704],[175.8547,-39.2442,1610.4202],[175.8585,-39.2444,1526.1865],[175.8726,-39.2391,1376.3428],[175.8856,-39.2293,1378.7092],[175.8864,-39.2271,1378.9817],[175.8927,-39.2236,1436.9014],[175.8929,-39.2138,1434.4392],[175.8882,-39.2114,1539.1174],[175.886,-39.2059,1653.01],[175.8992,-39.2038,1499.6102],[175.9035,-39.1999,1488.5594],[175.9195,-39.1987,1533.7562],[175.9189,-39.191,1568.7021],[175.9212,-39.1897,1578.2104],[175.945,-39.1869,1564.6835],[175.95,-39.188,1553.6761],[175.9597,-39.1842,1566.8899],[175.9647,-39.1793,1503.869],[175.9677,-39.1704,1560.2079],[175.9638,-39.1623,1620.5839],[175.964,-39.1595,1651.9314],[175.9716,-39.1577,1515.5703],[175.976,-39.15,1427.4659],[176.0441,-39.1569,1675.0012],[176.0775,-39.156,1082.0095],[176.081,-39.1572,1100.0126],[176.0961,-39.1546,1092.0631],[176.1028,-39.1512,1046.4019],[176.1118,-39.152,1024.4038],[176.1162,-39.1471,1045.858],[176.1344,-39.143,999.0134],[176.1358,-39.1397,980.4775],[176.14,-39.1389,978.2429],[176.1414,-39.1365,973.2169],[176.1466,-39.1345,999.1646],[176.1546,-39.1383,970.7202],[176.1624,-39.1363,956.2586],[176.1761,-39.1439,947.9336],[176.1847,-39.1336,1029.2507],[176.1826,-39.1294,866.4316],[176.1847,-39.1266,809.0809],[176.1886,-39.1266,798.0934],[176.1964,-39.1236,783.9205],[176.1974,-39.1215,769.6335],[176.2077,-39.119,747.6784],[176.2215,-39.1104,753.1556],[176.2258,-39.1107,709.9167],[176.2265,-39.1083,700.3959],[176.2284,-39.1084,708.377],[176.2318,-39.1044,695.8262],[176.2331,-39.0979,686.9826],[176.3404,-39.1731,1111.1655],[176.3953,-39.1619,543.2344],[176.3909,-39.1561,558.2778],[176.3969,-39.1509,594.244],[176.3899,-39.1513,554.4342],[176.3862,-39.1466,566.9275],[176.3863,-39.1445,658.1096],[176.3894,-39.1422,670.7438],[176.3869,-39.1409,575.8367],[176.3872,-39.137,592.8894],[176.3822,-39.1341,579.6921],[176.3783,-39.1384,612.5994],[176.3759,-39.134,582.8184],[176.3702,-39.134,561.3735],[176.3696,-39.1326,605.8109],[176.4168,-39.1163,1200.6016],[176.4435,-39.1208,1082.4011],[176.4202,-39.0619,987.8561],[176.4492,-39.0016,936.1613],[176.547,-39.0018,532.0581],[176.541,-38.9992,508.7729],[176.541,-38.9977,569.2781],[176.6103,-38.9983,540.8556],[176.6081,-38.996,586.7518],[176.6129,-38.9891,533.2886],[176.6119,-38.9871,543.6363],[176.6092,-38.9875,543.2383],[176.6058,-38.9857,541.7943],[176.6061,-38.9806,536.1375],[176.6019,-38.9794,542.1248],[176.603,-38.9769,563.3835],[176.5999,-38.976,557.7524],[176.601,-38.9723,590.3811],[176.5988,-38.9694,570.0859],[176.6026,-38.965,582.6323],[176.5967,-38.9592,580.1324],[176.598,-38.9577,593.5818],[176.5964,-38.9534,624.0516],[176.5981,-38.9467,606.7536],[176.5971,-38.9414,616.833],[176.5995,-38.9342,641.3221],[176.5985,-38.9333,655.0954],[176.6977,-38.856,1174.4438],[176.6482,-38.783,811.4421],[176.6372,-38.7633,775.2739],[176.6242,-38.7543,787.8726],[176.6175,-38.7013,799.6496],[176.646,-38.6059,644.6839],[176.6178,-38.5947,358.5544],[176.6173,-38.5975,398.9136],[176.6122,-38.6027,376.5068],[176.612,-38.6072,362.5019],[176.6056,-38.6087,362.3724],[176.552,-38.5808,433.8163],[176.553,-38.5778,434.4008],[176.5407,-38.5602,449.8565],[176.5432,-38.5544,425.6794],[176.5364,-38.5523,435.9831],[176.5295,-38.5443,476.3384],[176.5334,-38.5351,477.4308],[176.5028,-38.5265,531.0601],[176.5022,-38.5108,549.846],[176.4763,-38.5101,550.548],[176.4747,-38.5166,550.7343],[176.4775,-38.5281,553.2451],[176.4764,-38.5333,554.7657],[176.4685,-38.5309,527.7029],[176.4598,-38.5315,528.647],[176.4549,-38.5275,541.9175],[176.3868,-38.5065,373.713],[176.359,-38.5687,446.0095],[176.3022,-38.553,328.0992],[176.2999,-38.551,293.569],[176.304,-38.547,289.8906],[176.2984,-38.5374,288.6057],[176.3041,-38.5362,287.7162],[176.3025,-38.5341,288.8203],[176.3113,-38.5271,290.4815],[176.311,-38.5229,287.5],[176.3186,-38.513,289.1859],[176.3179,-38.5081,288.2715],[176.3232,-38.5072,292.692],[176.3212,-38.5022,293.7177],[176.3164,-38.5046,293.4174],[176.3151,-38.4985,287.7869],[176.3092,-38.4977,288.2239],[176.3086,-38.4923,287.8311],[176.3031,-38.4854,288.0],[176.2994,-38.4881,287.9911],[176.2955,-38.4853,286.6388],[176.29,-38.4854,289.9519],[176.2768,-38.489,289.7728],[176.2647,-38.5052,286.0],[176.2601,-38.5037,293.0634],[176.2547,-38.5082,296.6453],[176.2461,-38.5086,291.5341],[176.2405,-38.5138,291.724],[176.232,-38.5182,288.9441],[176.2292,-38.5222,286.9898],[176.2266,-38.5219,290.5967],[176.2239,-38.5191,290.625],[176.2136,-38.5194,291.5515],[176.2025,-38.5234,286.7158],[176.1913,-38.5173,288.9369],[176.1838,-38.5192,290.227],[176.1791,-38.5187,293.109],[176.171,-38.5061,286.0],[176.1703,-38.5022,336.1316],[176.1723,-38.4981,289.3012],[176.1601,-38.4914,294.1621],[176.1546,-38.4931,289.7843],[176.1539,-38.4904,290.7363],[176.1479,-38.4873,286.0],[176.1451,-38.4758,286.0],[176.147,-38.4661,286.0],[176.1465,-38.4636,286.0],[176.1428,-38.4617,299.6558],[176.1415,-38.4586,286.0],[176.1423,-38.451,286.0],[176.1376,-38.4419,286.0],[176.1392,-38.4389,286.0],[176.132,-38.4327,286.0],[176.13,-38.4259,286.0],[176.1188,-38.4133,286.0],[176.1117,-38.4112,286.0],[176.1058,-38.4134,286.0],[176.0967,-38.4123,286.0],[176.088,-38.4067,268.5618],[176.0829,-38.4086,270.108],[176.0739,-38.4079,274.2216],[176.0689,-38.4056,261.0384],[176.0684,-38.4013,256.9691],[176.0655,-38.398,278.6503],[176.0631,-38.3961,253.5],[176.0616,-38.3968,255.559],[176.0529,-38.3895,258.4466],[176.0427,-38.3852,253.5],[176.0279,-38.3858,253.5]]]]}
,"properties": {"GID_2": "NZL.17.6_1","GID_0": "NZL","country": "NewZealand","GID_1": "NZL.17_1","province": "Waikato","NL_NAME_1": "NA","county": "Taupo","VARNAME_2": "NA","NL_NAME_2": "NA","TYPE_2": "District","ENGTYPE_2": "District","CC_2": "021","HASC_2": "NZ.WK.TP","name": "Taupo.county","area_km2": 6951.798,"hist_schema_id": "Elevation0-9000","hist_area_km2": {"125": 0.615,"150": 0.732,"175": 0.782,"200": 6.849,"225": 23.913,"250": 31.921,"275": 49.242,"300": 86.936,"325": 98.847,"350": 748.174,"375": 140.167,"400": 144.114,"425": 175.416,"450": 229.089,"475": 287.131,"500": 294.795,"525": 290.279,"550": 276.229,"575": 294.561,"600": 273.868,"625": 278.304,"650": 293.22,"675": 275.399,"700": 282.538,"725": 323.704,"750": 252.492,"775": 213.861,"800": 170.707,"825": 140.915,"850": 122.405,"875": 110.757,"900": 101.987,"925": 86.974,"950": 74.379,"975": 65.959,"1000": 56.488,"1025": 51.985,"1050": 47.034,"1075": 48.432,"1100": 43.038,"1125": 40.369,"1150": 39.165,"1175": 36.467,"1200": 36.664,"1225": 35.692,"1250": 31.351,"1275": 27.865,"1300": 25.511,"1325": 24.423,"1350": 20.445,"1375": 17.734,"1400": 16.5,"1425": 15.416,"1450": 12.852,"1475": 9.958,"1500": 9.022,"1525": 7.789,"1550": 6.508,"1575": 5.472,"1600": 4.092,"1625": 3.401,"1650": 3.007,"1675": 2.416,"1700": 2.63,"1725": 2.531,"1750": 1.742,"1775": 1.626,"1800": 1.528,"1825": 1.397,"1850": 2.104,"1875": 0.871,"1900": 0.756,"1925": 0.755,"1950": 0.739,"1975": 0.575,"2000": 0.443,"2025": 0.41,"2050": 0.427,"2075": 0.328,"2100": 0.394,"2125": 0.394,"2150": 0.296,"2175": 0.328,"2200": 0.23,"2225": 0.312,"2250": 0.279,"2275": 0.295,"2300": 0.164,"2325": 0.263,"2350": 0.246,"2375": 0.164,"2400": 0.197,"2425": 0.213,"2450": 0.361,"2475": 0.23,"2500": 0.148,"2525": 0.181,"2550": 0.23,"2575": 0.41,"2600": 0.755,"2625": 0.328,"2650": 0.066,"2675": 0.066}}}