{"type": "Feature","bbox": [171.1135,-43.9037,172.6278,-42.7408],"geometry": {"type": "MultiPolygon","coordinates": [[[[172.1949,-43.9037,3.9897],[172.2169,-43.8992,0.8675],[172.3079,-43.8691,2.1525],[172.3534,-43.8597,2.9089],[172.3527,-43.8611,2.9089],[172.3615,-43.8597,0.0],[172.573,-43.7702,0.0],[172.5741,-43.7636,0.0],[172.5726,-43.761,1.3922],[172.5732,-43.7575,1.1332],[172.5851,-43.7532,1.1034],[172.5916,-43.7556,1.2822],[172.6056,-43.7501,1.2407],[172.6045,-43.7373,1.3347],[172.6072,-43.7357,1.2553],[172.6073,-43.7314,1.2934],[172.5968,-43.7266,1.6858],[172.5886,-43.7268,2.0517],[172.5843,-43.7234,3.8217],[172.5838,-43.7214,2.2448],[172.5972,-43.716,64.1606],[172.5966,-43.7133,89.3092],[172.6058,-43.7017,164.8433],[172.6052,-43.6993,203.7882],[172.6071,-43.6974,235.4273],[172.6057,-43.6948,255.3499],[172.6082,-43.6906,268.0808],[172.6186,-43.6864,403.4358],[172.6247,-43.6667,446.4241],[172.6234,-43.6503,473.9488],[172.6273,-43.6478,389.1997],[172.6227,-43.6379,480.9419],[172.6278,-43.6239,416.3531],[172.6217,-43.6231,443.4668],[172.6166,-43.6252,345.2789],[172.6132,-43.6286,216.4136],[172.601,-43.623,131.1685],[172.5976,-43.6196,72.1312],[172.593,-43.6196,91.5288],[172.582,-43.616,17.5892],[172.5698,-43.6215,15.8953],[172.5687,-43.6184,9.8098],[172.5707,-43.6146,11.043],[172.5683,-43.6069,16.4384],[172.5557,-43.6071,10.8921],[172.5525,-43.6049,10.6093],[172.5609,-43.5985,13.2119],[172.5544,-43.5964,12.5815],[172.5504,-43.5991,13.9317],[172.5488,-43.5936,15.1347],[172.5402,-43.5903,14.9998],[172.5374,-43.5865,15.9377],[172.533,-43.5883,16.4259],[172.5329,-43.5865,16.4065],[172.5186,-43.5741,22.7822],[172.5219,-43.57,22.6658],[172.4967,-43.5583,32.7404],[172.4868,-43.5503,38.4838],[172.4782,-43.553,37.7941],[172.4784,-43.5553,37.1189],[172.4755,-43.556399999999996,38.6346],[172.4711,-43.5552,40.6391],[172.4578,-43.5602,43.8345],[172.424,-43.5127,73.7254],[172.439,-43.4685,76.2722],[172.4104,-43.4669,87.6306],[172.3985,-43.4627,90.3816],[172.393,-43.463,96.2392],[172.3957,-43.4557,85.7357],[172.3299,-43.4606,113.4675],[172.295,-43.46,128.1304],[172.2587,-43.4552,146.923],[172.2231,-43.4475,160.7394],[172.2015,-43.4448,168.8586],[172.1803,-43.4387,178.5],[172.176,-43.4358,181.7188],[172.1403,-43.4224,197.7109],[172.1042,-43.4029,218.0053],[172.0839,-43.381,231.6164],[172.0818,-43.3749,234.9263],[172.0675,-43.3652,243.0468],[172.0584,-43.3611,243.4915],[172.0463,-43.36,248.125],[172.041,-43.357,251.103],[172.0275,-43.3541,255.4037],[172.0034,-43.3419,269.5008],[171.986,-43.3261,280.8572],[171.9838,-43.314,285.8363],[171.954,-43.2911,301.8453],[171.956,-43.2838,305.6279],[171.9504,-43.2814,309.801],[171.9461,-43.275,330.8953],[171.9417,-43.2755,331.7942],[171.9396,-43.2742,354.7583],[171.949,-43.264,326.0753],[171.9462,-43.2585,353.7308],[171.9512,-43.2506,320.4189],[171.961,-43.2478,323.5],[171.9569,-43.2434,334.4772],[171.964,-43.2413,330.9062],[171.9585,-43.236,332.8927],[171.9559,-43.2299,338.7584],[171.9289,-43.2204,349.509],[171.9284,-43.218,354.829],[171.9322,-43.208,353.4986],[171.9315,-43.2041,412.9099],[171.9417,-43.2037,367.3959],[171.9447,-43.2017,383.9311],[171.9448,-43.1986,358.5815],[171.9506,-43.1951,367.1443],[171.9497,-43.1875,426.7232],[171.9524,-43.1784,415.4424],[171.9961,-43.1786,1303.3162],[171.9951,-43.1758,1239.1606],[171.9985,-43.1719,1245.8173],[172.0034,-43.1535,1163.6073],[172.0107,-43.1488,1489.5154],[172.02,-43.1464,1623.6663],[172.0261,-43.1382,1621.3091],[172.0232,-43.1333,1599.9399],[172.0257,-43.1256,1579.548],[172.0244,-43.1202,1515.4414],[172.0186,-43.1133,1803.2314],[172.0206,-43.1035,1895.0977],[172.0193,-43.0972,1880.1672],[172.0497,-43.0763,1657.4543],[172.0542,-43.0712,1765.1329],[172.0608,-43.0516,1665.8051],[172.0701,-43.0473,1523.7063],[172.0783,-43.054,1665.5157],[172.0843,-43.0538,1590.3748],[172.0926,-43.0476,1596.0139],[172.0966,-43.0418,1528.6621],[172.0924,-43.0324,1619.0518],[172.0975,-43.0285,1631.1724],[172.1008,-43.0198,1500.6674],[172.1096,-43.0141,1561.0107],[172.1138,-43.0092,1544.5823],[172.1194,-43.0067,1642.5287],[172.1178,-43.0033,1577.1934],[172.1196,-42.994,1712.9324],[172.1246,-42.9865,1714.8064],[172.1351,-42.986,1666.4297],[172.1497,-42.9936,1635.1506],[172.1555,-42.9941,1720.0591],[172.1617,-42.9898,1682.1125],[172.1618,-42.9822,1572.5765],[172.166,-42.9754,1596.5729],[172.166,-42.9714,1648.7788],[172.1731,-42.9649,1557.1677],[172.1814,-42.9626,1768.4191],[172.1846,-42.9597,1768.6337],[172.1906,-42.9593,1564.2131],[172.1979,-42.9562,1517.436],[172.219,-42.9542,1396.5774],[172.2231,-42.9566,1425.0884],[172.2263,-42.9526,1442.8429],[172.2336,-42.9515,1491.8945],[172.2421,-42.946,1617.9316],[172.2474,-42.9371,1682.5552],[172.244,-42.9168,1584.564],[172.2365,-42.914,1649.3579],[172.2309,-42.91,1730.9028],[172.2439,-42.8945,1372.7725],[172.2539,-42.8864,1558.0044],[172.2584,-42.8778,1763.6385],[172.2575,-42.8709,1696.7532],[172.2502,-42.8666,1751.8051],[172.242,-42.8661,1797.6582],[172.2392,-42.8638,1833.4954],[172.2311,-42.8683,1743.3523],[172.216,-42.8692,1762.5625],[172.2114,-42.8733,1741.6195],[172.209,-42.8736,1706.7296],[172.2026,-42.8705,1455.2523],[172.1944,-42.8636,1339.8094],[172.189,-42.8616,1359.3889],[172.1768,-42.8681,1491.7578],[172.1723,-42.8682,1501.4716],[172.169,-42.8656,1520.3682],[172.1644,-42.8665,1551.1912],[172.154,-42.8725,1538.4365],[172.1483,-42.8722,1561.6193],[172.1401,-42.8685,1605.3263],[172.1293,-42.8717,1529.9277],[172.1266,-42.875,1569.516],[172.1246,-42.8711,1476.6641],[172.1196,-42.8694,1405.2749],[172.1108,-42.8698,1324.2571],[172.1072,-42.8708,1285.7001],[172.1055,-42.873,1318.4224],[172.0994,-42.8659,1157.8887],[172.1001,-42.8589,1326.9226],[172.085,-42.843,1737.4012],[172.0828,-42.8371,1857.9307],[172.0775,-42.8354,1846.745],[172.074,-42.8363,1866.4922],[172.0715,-42.8295,1932.4683],[172.0619,-42.8293,1901.7295],[172.0577,-42.8263,1827.891],[172.0547,-42.8207,1756.116],[172.049,-42.8185,1909.9244],[172.0465,-42.8075,1807.1372],[172.0372,-42.8058,1826.6926],[172.0361,-42.7985,1675.1316],[172.0285,-42.7951,1408.8798],[172.0298,-42.789,1472.671],[172.0274,-42.7857,1658.1555],[172.0251,-42.7846,1681.3975],[172.0165,-42.7857,1594.0156],[172.0037,-42.7908,1776.2761],[172.0009,-42.7819,1679.4729],[171.997,-42.781,1550.1597],[171.9919,-42.7829,1516.6311],[171.9739,-42.7759,1155.8009],[171.966,-42.7757,1209.196],[171.9606,-42.7724,1323.9709],[171.9498,-42.7709,1586.5072],[171.941,-42.7626,1524.291],[171.9325,-42.7636,1502.6562],[171.92,-42.7566,1605.5879],[171.9147,-42.7513,1531.5771],[171.9149,-42.7458,1719.6046],[171.9073,-42.7408,1647.7352],[171.8801,-42.7515,1610.077],[171.8736,-42.7481,1466.6462],[171.8637,-42.7505,1432.7107],[171.8577,-42.7546,1415.4368],[171.856,-42.7575,1392.8259],[171.848,-42.7615,1349.0477],[171.8463,-42.767,1458.2733],[171.8419,-42.7708,1482.9069],[171.8433,-42.7748,1633.057],[171.8327,-42.7751,1591.2109],[171.8296,-42.7771,1586.4099],[171.8271,-42.7813,1641.0964],[171.8125,-42.7838,1139.7882],[171.8145,-42.7874,1074.4492],[171.8126,-42.79,1019.3326],[171.8066,-42.7893,1277.2029],[171.8017,-42.7866,1443.6277],[171.7946,-42.788,1472.2983],[171.7891,-42.7828,1740.5214],[171.7832,-42.7843,1666.7406],[171.7762,-42.7903,1693.4467],[171.7691,-42.7891,1584.533],[171.764,-42.7915,1642.2703],[171.7616,-42.8022,1640.9362],[171.7571,-42.8091,1621.6737],[171.7595,-42.8142,1510.5059],[171.7545,-42.8188,1652.2712],[171.7564,-42.8227,1662.7966],[171.7614,-42.8248,1570.2736],[171.7628,-42.8285,1602.9465],[171.7611,-42.8342,1479.5315],[171.7626,-42.8373,1498.6975],[171.7601,-42.8407,1241.6143],[171.7516,-42.8463,1078.7999],[171.737,-42.8471,1458.96],[171.733,-42.8533,1454.3716],[171.7374,-42.8587,1511.8601],[171.7368,-42.8609,1433.4036],[171.733,-42.8632,1486.3973],[171.7337,-42.8646,1401.4202],[171.7409,-42.8682,1624.3391],[171.7464,-42.8741,1679.9518],[171.7401,-42.8785,1667.6327],[171.7373,-42.8785,1650.7556],[171.7354,-42.8825,1657.4258],[171.7265,-42.8884,1723.7996],[171.7108,-42.8958,1067.4697],[171.7101,-42.9038,1636.53],[171.7036,-42.9035,1572.1461],[171.6992,-42.9069,1694.8225],[171.6943,-42.9083,1780.0117],[171.6869,-42.9061,1665.3817],[171.6903,-42.8999,1826.9185],[171.6804,-42.8991,1505.3612],[171.6794,-42.8941,1260.615],[171.6721,-42.8914,1379.8647],[171.6651,-42.8863,1779.1161],[171.6603,-42.8909,1762.64],[171.6544,-42.8935,1810.002],[171.653,-42.897,1828.8862],[171.6444,-42.8981,1675.1331],[171.6341,-42.9026,1434.3654],[171.6192,-42.9015,1228.9404],[171.6142,-42.9036,1457.8384],[171.6106,-42.9002,1613.0194],[171.6056,-42.8987,1574.8054],[171.5916,-42.9014,1808.5719],[171.591,-42.8961,1895.7017],[171.5869,-42.8957,1791.7472],[171.5739,-42.8996,1526.3805],[171.5701,-42.9033,1318.9943],[171.5603,-42.9073,925.1663],[171.5397,-42.9046,1624.1533],[171.5266,-42.9067,1777.7366],[171.5172,-42.9142,2164.7061],[171.5117,-42.911,2131.5459],[171.5077,-42.902,1865.6991],[171.5011,-42.8979,1791.7848],[171.4953,-42.898,1791.4874],[171.491,-42.8959,1921.5244],[171.4837,-42.9056,1962.3258],[171.4688,-42.9142,1902.0717],[171.4655,-42.9152,1841.8792],[171.4629,-42.9124,1601.6689],[171.4542,-42.9092,1315.1536],[171.4492,-42.9092,1319.4164],[171.4423,-42.9137,1555.5889],[171.4344,-42.9214,1669.4218],[171.4354,-42.9271,1707.6173],[171.4409,-42.9303,1741.1943],[171.4375,-42.9357,1794.0609],[171.4258,-42.9354,1484.9287],[171.4211,-42.9392,1316.927],[171.4181,-42.9462,1561.8105],[171.4114,-42.9509,1810.5652],[171.4048,-42.9532,1891.1812],[171.4015,-42.9525,1982.2354],[171.3978,-42.955,2051.4153],[171.396,-42.9593,2140.5596],[171.3924,-42.9561,1935.9237],[171.3947,-42.9509,1723.0077],[171.3948,-42.9444,2006.4922],[171.3911,-42.9414,2065.4006],[171.3822,-42.9461,2043.813],[171.3722,-42.9389,1626.9801],[171.362,-42.9372,1817.772],[171.3528,-42.9457,1497.6348],[171.3452,-42.9497,1365.0543],[171.34,-42.9487,1382.3203],[171.3402,-42.9451,1401.2562],[171.3361,-42.9433,1479.8195],[171.3163,-42.9475,1903.1697],[171.3092,-42.9513,1841.6194],[171.3031,-42.9581,1896.1025],[171.305,-42.9602,1806.1614],[171.3095,-42.9614,1922.1143],[171.3084,-42.9662,1811.64],[171.2984,-42.9661,1614.7295],[171.2903,-42.971,1653.4712],[171.2824,-42.973,1941.1725],[171.2736,-42.98,1970.3718],[171.2609,-42.9851,1920.1259],[171.2561,-42.9898,1770.4011],[171.2569,-42.9919,1751.4125],[171.2539,-42.9975,1594.0942],[171.2418,-42.9988,1919.0498],[171.2377,-43.0025,1966.9622],[171.2404,-43.008,1775.1089],[171.2393,-43.013,1660.5486],[171.2435,-43.0162,1738.9897],[171.2367,-43.0242,1828.0299],[171.2368,-43.0264,1855.532],[171.2408,-43.0287,1846.9175],[171.2407,-43.031,1847.2644],[171.2338,-43.0393,1963.5542],[171.227,-43.0402,1930.231],[171.2227,-43.0433,1910.9452],[171.222,-43.0583,1988.6797999999999],[171.2196,-43.0647,2011.7396],[171.2114,-43.0657,1846.6707],[171.204,-43.0727,1885.9105],[171.1982,-43.0743,2064.4375],[171.195,-43.0726,2049.8457],[171.1909,-43.0667,1957.0314],[171.1842,-43.0644,1946.0171],[171.1783,-43.068,2010.7888],[171.1757,-43.0743,2058.6672],[171.1585,-43.0771,2036.7542],[171.1459,-43.0888,1973.8486],[171.1407,-43.0826,1900.8353],[171.1299,-43.0812,1938.3376],[171.1164,-43.0863,1784.6398],[171.1135,-43.0957,1453.5094],[171.1185,-43.0957,1383.6169],[171.1226,-43.0992,1217.1444],[171.1402,-43.1056,1011.7865],[171.1539,-43.1062,865.1458],[171.1516,-43.1081,915.7518],[171.151,-43.1115,868.5188],[171.1524,-43.1138,833.6471],[171.1505,-43.1247,803.8262],[171.15,-43.1432,753.0114],[171.1418,-43.1561,727.3359],[171.137,-43.1834,667.0315],[171.1444,-43.1987,643.0811],[171.1544,-43.2087,626.2525],[171.156,-43.2174,616.4257],[171.1581,-43.2205,611.7764],[171.1638,-43.2236,605.9291],[171.1837,-43.2289,588.6686],[171.237,-43.2574,528.556],[171.2444,-43.2628,518.3248],[171.2712,-43.2737,497.1134],[171.3041,-43.2795,467.8597],[171.3382,-43.2749,452.726],[171.3528,-43.2781,444.7963],[171.3621,-43.2833,438.1373],[171.372,-43.2924,429.9562],[171.4101,-43.3194,402.4238],[171.427,-43.3352,395.3881],[171.4722,-43.3527,377.1558],[171.5052,-43.3607,364.3347],[171.5159,-43.3678,358.4117],[171.5269,-43.3811,348.125],[171.5405,-43.3897,342.5],[171.5563,-43.3926,339.2725],[171.5649,-43.3962,335.0],[171.5737,-43.4093,330.1771],[171.5826,-43.4149,326.6249],[171.5843,-43.4178,325.8864],[171.5843,-43.4239,322.9961],[171.5862,-43.4266,322.1623],[171.5989,-43.4345,315.9761],[171.6118,-43.4535,306.8929],[171.6233,-43.4643,301.5843],[171.6244,-43.4675,301.0795],[171.623,-43.4699,297.375],[171.6087,-43.4763,298.0218],[171.6068,-43.4792,296.682],[171.6221,-43.484,291.3334],[171.6221,-43.4886,288.5245],[171.6251,-43.4919,286.875],[171.6244,-43.4948,362.4233],[171.6322,-43.4998,286.0789],[171.6317,-43.5046,297.4955],[171.6431,-43.5079,281.1042],[171.6403,-43.5135,276.0],[171.6555,-43.5174,275.5621],[171.6598,-43.5261,271.5522],[171.6636,-43.5296,266.5],[171.6855,-43.5422,259.1878],[171.7083,-43.5415,250.9118],[171.7143,-43.5435,249.3083],[171.7395,-43.5657,236.3362],[171.7926,-43.604,213.4232],[171.8075,-43.6184,202.8883],[171.8401,-43.6451,186.0449],[171.8713,-43.6677,171.1988],[171.8962,-43.6822,159.7968],[171.9251,-43.6961,147.625],[171.9538,-43.7072,137.8032],[172.0371,-43.743899999999996,103.3853],[172.0307,-43.7494,107.2579],[172.0397,-43.751,99.0176],[172.0455,-43.7565,98.3257],[172.0515,-43.7587,93.8172],[172.053,-43.7608,93.9622],[172.0523,-43.7622,92.3593],[172.0572,-43.768,92.034],[172.0641,-43.7724,87.927],[172.0622,-43.7741,92.0838],[172.0669,-43.7762,85.3099],[172.0674,-43.7796,84.3898],[172.0749,-43.7851,81.1291],[172.0838,-43.7981,72.5184],[172.0867,-43.7974,69.8419],[172.0929,-43.8033,66.8806],[172.0943,-43.8075,66.0546],[172.097,-43.8088,65.2022],[172.0986,-43.8122,63.3213],[172.1021,-43.8136,60.2761],[172.1046,-43.8228,58.9488],[172.1127,-43.8271,52.8695],[172.1136,-43.8301,52.0752],[172.1178,-43.8337,55.9031],[172.1213,-43.8352,46.9754],[172.1235,-43.834,43.625],[172.1359,-43.847,38.6768],[172.143,-43.8496,35.2776],[172.1458,-43.8549,31.7262],[172.1448,-43.8571,30.7082],[172.1492,-43.8641,35.3714],[172.1725,-43.8762,16.7802],[172.1746,-43.8811,19.8225],[172.1788,-43.8838,15.3548],[172.1818,-43.8893,20.0742],[172.1881,-43.8932,19.051],[172.1885,-43.896,17.8286],[172.1949,-43.9037,3.9897]]]]}
,"properties": {"GID_2": "NZL.3.6_1","GID_0": "NZL","country": "NewZealand","GID_1": "NZL.3_1","province": "Canterbury","NL_NAME_1": "NA","county": "Selwyn","VARNAME_2": "NA","NL_NAME_2": "NA","TYPE_2": "District","ENGTYPE_2": "District","CC_2": "062","HASC_2": "NZ.CA.SY","name": "Selwyn.county","area_km2": 6545.405,"hist_schema_id": "Elevation0-9000","hist_area_km2": {"0": 394.002,"25": 295.678,"50": 228.501,"75": 218.382,"100": 203.9,"125": 177.1,"150": 168.8,"175": 155.42,"200": 140.034,"225": 112.046,"250": 85.117,"275": 69.689,"300": 69.76,"325": 67.223,"350": 62.313,"375": 71.38,"400": 65.024,"425": 59.326,"450": 69.424,"475": 76.01,"500": 120.426,"525": 98.582,"550": 103.414,"575": 104.278,"600": 108.11,"625": 113.101,"650": 99.008,"675": 101.662,"700": 92.81,"725": 89.544,"750": 89.678,"775": 92.326,"800": 86.574,"825": 83.688,"850": 78.961,"875": 73.122,"900": 71.952,"925": 72.531,"950": 72.467,"975": 70.534,"1000": 70.353,"1025": 69.921,"1050": 69.557,"1075": 69.421,"1100": 69.386,"1125": 69.178,"1150": 70.13,"1175": 69.574,"1200": 69.294,"1225": 68.498,"1250": 68.435,"1275": 66.393,"1300": 67.867,"1325": 63.698,"1350": 64.115,"1375": 62.723,"1400": 61.109,"1425": 61.004,"1450": 57.16,"1475": 55.672,"1500": 53.811,"1525": 54.415,"1550": 49.783,"1575": 47.501,"1600": 44.243,"1625": 42.23,"1650": 39.082,"1675": 36.646,"1700": 33.775,"1725": 30.47,"1750": 28.115,"1775": 24.348,"1800": 20.955,"1825": 19.033,"1850": 15.857,"1875": 13.439,"1900": 11.752,"1925": 9.584,"1950": 7.648,"1975": 6.814,"2000": 5.481,"2025": 3.793,"2050": 3.097,"2075": 2.416,"2100": 1.766,"2125": 1.363,"2150": 1.007,"2175": 0.605,"2200": 0.356,"2225": 0.186,"2250": 0.217,"2275": 0.109}}}