{"type":"Feature","properties":{"GID_2":"NZL.2.1_1","GID_0":"NZL","country":"NewZealand","GID_1":"NZL.2_1","province":"BayofPlenty","NL_NAME_1":"NA","county":"AreaOutsideTerritorialAuthori","VARNAME_2":"NA","NL_NAME_2":"NA","TYPE_2":"AreaOutsideTerritorialAuthori","ENGTYPE_2":"AreaOutsideTerritorialAuthori","CC_2":"999","HASC_2":"NZ.BP.XX","name":"Area_Outside_Territorial_Authori.county"},
"geometry":{"type": "MultiPolygon","coordinates": [[[[177.0299,-39.8321,0.4541],[177.0268,-39.8317,34.7277],[177.0233,-39.8376,0.0895],[177.025,-39.8353,4.6185],[177.0298,-39.8338,0.1935],[177.0299,-39.8321,0.4541]]],
[[[176.9675,-37.8471,57.4372],[176.9646,-37.8466,1.2231],[176.9614,-37.8483,0.0],[176.9618,-37.8501,2.4873],[176.9594,-37.853,0.1001],[176.9607,-37.8563,0.0],[176.9658,-37.8557,12.054],[176.9679,-37.8589,3.7961],[176.9735,-37.8608,17.9797],[176.9806,-37.8579,71.1008],[176.9852,-37.8595,4.3065],[176.9871,-37.8573,41.4696],[176.985,-37.8551,13.4909],[176.9788,-37.8554,109.7341],[176.9758,-37.8525,19.2388],[176.9685,-37.8514,68.1962],[176.9664,-37.85,127.3823],[176.9675,-37.8471,57.4372]]],
[[[176.8839,-37.8342,0.0],[176.8839,-37.8328,1.9571],[176.8875,-37.8308,0.0],[176.8864,-37.8297,1.0654],[176.8819,-37.8319,0.3735],[176.8813,-37.8341,0.6039],[176.8839,-37.8342,0.0]]],
[[[177.184,-37.512,47.7476],[177.183,-37.5107,8.8638],[177.1777,-37.5111,3.3659],[177.1671,-37.5173,0.0],[177.1793,-37.5294,15.2848],[177.187,-37.5301,0.0],[177.1904,-37.5268,13.4358],[177.1948,-37.5268,8.9838],[177.1922,-37.5202,57.0032],[177.1943,-37.5159,15.0481],[177.1879,-37.5153,33.2606],[177.184,-37.512,47.7476]]],
[[[176.8739,-37.8314,0.0],[176.8772,-37.8283,0.5629],[176.8769,-37.8264,0.1024],[176.8706,-37.83,9.2931],[176.8712,-37.8309,9.2931],[176.8686,-37.8306,0.0],[176.8697,-37.8336,0.0],[176.8739,-37.8314,0.0]]],
[[[176.5606,-37.6633,0.522],[176.5622,-37.6622,0.9749],[176.5617,-37.6581,0.0],[176.5581,-37.6625,1.4695],[176.5606,-37.6633,0.522]]],
[[[176.4157,-37.603,11.398],[176.4123,-37.6044,0.8882],[176.4151,-37.6051,0.0],[176.4162,-37.6072,37.6371],[176.4144,-37.6123,0.0],[176.4173,-37.6166,18.3238],[176.4141,-37.6189,0.1452],[176.415,-37.6203,0.0],[176.4136,-37.6242,8.6044],[176.4082,-37.6242,0.0],[176.4075,-37.6257,17.4608],[176.4082,-37.6353,27.4306],[176.4049,-37.6543,0.0],[176.408,-37.6537,0.0],[176.4065,-37.6492,0.0],[176.4107,-37.6425,15.0614],[176.416,-37.6433,0.0],[176.4242,-37.6412,0.0],[176.4247,-37.6386,5.626],[176.4278,-37.6366,17.5998],[176.429,-37.6294,33.0048],[176.4317,-37.6292,23.1575],[176.4323,-37.6264,0.0],[176.4381,-37.6208,14.229],[176.4357,-37.6193,18.303],[176.4363,-37.6149,0.0],[176.4318,-37.6142,23.6338],[176.4285,-37.6108,4.4236],[176.4259,-37.6116,22.169],[176.4223,-37.6054,12.9218],[176.4164,-37.6043,11.398],[176.4157,-37.603,11.398]]],
[[[176.5271,-37.6073,0.0],[176.526,-37.6081,0.0],[176.5259,-37.6089,0.0],[176.5271,-37.6088,0.0],[176.5271,-37.6073,0.0]]],
[[[177.1353,-37.4758,0.0],[177.1336,-37.4753,0.0],[177.1319,-37.4772,0.0],[177.1342,-37.4783,0.0],[177.1353,-37.4758,0.0]]],
[[[176.1333,-37.5306,18.7423],[176.1327,-37.5285,7.5842],[176.1293,-37.5296,0.0],[176.1308,-37.531,13.4292],[176.1333,-37.5306,18.7423]]],
[[[176.2658,-37.2677,0.0],[176.2559,-37.2684,0.0],[176.2522,-37.2703,25.6304],[176.2476,-37.2695,0.0],[176.2426,-37.2749,120.32],[176.2394,-37.2724,0.723],[176.2376,-37.2733,27.9645],[176.232,-37.2786,0.0],[176.2315,-37.2845,34.4296],[176.2345,-37.2876,90.3651],[176.2357,-37.2919,0.0],[176.2315,-37.2971,11.627],[176.2337,-37.2981,0.0],[176.2366,-37.2968,16.6684],[176.2374,-37.2992,0.0],[176.2424,-37.3019,0.0],[176.2487,-37.3016,1.8498],[176.2525,-37.304,19.0247],[176.2558,-37.3102,3.5853],[176.2594,-37.3097,0.0],[176.2591,-37.3077,0.0],[176.2566,-37.3069,24.0191],[176.2579,-37.3052,20.0228],[176.2621,-37.3071,2.1298],[176.2645,-37.3039,39.8232],[176.2695,-37.305,0.0],[176.2709,-37.3015,39.4068],[176.2684,-37.3006,43.904],[176.2692,-37.2961,84.1904],[176.2759,-37.2914,0.0],[176.2753,-37.2891,33.4051],[176.2713,-37.2866,24.7578],[176.2726,-37.284,11.4006],[176.2768,-37.2822,0.0],[176.2746,-37.2805,76.7899],[176.2744,-37.2768,98.0703],[176.2759,-37.2751,20.6573],[176.2795,-37.2756,13.0515],[176.2805,-37.2736,2.7055],[176.2763,-37.2737,18.6184],[176.2778,-37.2706,0.0],[176.2767,-37.2688,8.288],[176.2698,-37.2697,85.6638],[176.2658,-37.2677,0.0]]]]}}