{"type": "Feature","bbox": [168.1956,-46.6532,168.5428,-46.3222],"geometry": {"type": "MultiPolygon","coordinates": [[[[168.4081,-46.6489,3.7253],[168.4051,-46.6485,2.8147],[168.4046,-46.6497,0.454],[168.4094,-46.6515,7.3645],[168.4098,-46.653,0.0],[168.4151,-46.6532,0.0],[168.4137,-46.6507,0.5037],[168.4081,-46.6489,3.7253]]],
[[[168.5428,-46.6,0.0],[168.5286,-46.5926,1.4978],[168.5243,-46.5974,2.0342],[168.5185,-46.5985,1.1085],[168.483,-46.5911,0.0],[168.4743,-46.5869,1.9895],[168.4684,-46.5894,2.1855],[168.4513,-46.5867,3.8866],[168.4518,-46.5847,1.85],[168.4497,-46.5846,1.9941],[168.4555,-46.5829,0.7833],[168.454,-46.5813,1.4513],[168.4401,-46.5871,1.9012],[168.4297,-46.5853,2.2607],[168.4137,-46.5791,1.2154],[168.4176,-46.5711,0.0709],[168.41,-46.5737,1.2916],[168.4059,-46.5815,3.2966],[168.3767,-46.5829,0.2861],[168.3735,-46.5915,4.66],[168.3668,-46.5918,2.5716],[168.3655,-46.596,0.1174],[168.3605,-46.5987,1.7577],[168.3628,-46.6015,0.2527],[168.3701,-46.6022,1.347],[168.3701,-46.5989,2.6258],[168.3745,-46.5961,5.0046],[168.3897,-46.5949,1.6484],[168.4113,-46.5987,5.9291],[168.429,-46.6059,4.8831],[168.4581,-46.6067,2.5378],[168.4934,-46.6102,0.0],[168.5185,-46.6069,0.0],[168.5428,-46.6,0.0]]],
[[[168.4655,-46.582,0.6679],[168.4668,-46.5822,0.2986],[168.4635,-46.581,0.9358],[168.4638,-46.5815,0.4642],[168.4655,-46.582,0.6679]]],
[[[168.4334,-46.5798,0.6406],[168.4331,-46.5795,1.258],[168.4314,-46.5802,0.3238],[168.4319,-46.5804,0.6406],[168.4334,-46.5798,0.6406]]],
[[[168.4357,-46.5786,1.461],[168.4307,-46.5787,0.5943],[168.435,-46.5797,0.2436],[168.4406,-46.5786,0.6412],[168.4343,-46.5791,1.0066],[168.4372,-46.5787,1.461],[168.4357,-46.5786,1.461]]],
[[[168.4443,-46.5777,0.0],[168.4346,-46.5752,1.1471],[168.4335,-46.576,1.1471],[168.436,-46.577,3.3061],[168.4357,-46.5783,1.461],[168.4408,-46.5782,0.6412],[168.4482,-46.5819,1.5372],[168.4571,-46.5804,1.2369],[168.449,-46.5804,1.8564],[168.4463,-46.5788,1.1979],[168.4617,-46.5802,0.8184],[168.4562,-46.5785,2.0176],[168.4572,-46.5784,2.0176],[168.4689,-46.5817,0.3194],[168.4641,-46.5798,0.9358],[168.4576,-46.5782,2.0176],[168.4443,-46.5777,0.0]]],
[[[168.3715,-46.6026,1.347],[168.372,-46.603,0.0],[168.3722,-46.6029,0.2432],[168.3716,-46.6022,1.347],[168.3715,-46.6026,1.347]]],
[[[168.3308,-46.5682,0.0],[168.3304,-46.5675,0.0],[168.3298,-46.5681,0.0],[168.3305,-46.568,0.0],[168.3308,-46.5682,0.0]]],
[[[168.3911,-46.5705,0.3415],[168.395,-46.5664,0.0877],[168.3959,-46.5644,2.318],[168.3857,-46.5708,0.5623],[168.3911,-46.5705,0.3415]]],
[[[168.353,-46.5434,0.6866],[168.3523,-46.5433,0.6866],[168.3519,-46.5443,0.6866],[168.3523,-46.5444,0.6866],[168.353,-46.5434,0.6866]]],
[[[168.3137,-46.5919,0.8055],[168.314,-46.5918,0.8055],[168.3133,-46.5916,0.8055],[168.3135,-46.5918,0.8055],[168.3137,-46.5919,0.8055]]],
[[[168.3089,-46.5896,2.6492],[168.3092,-46.5896,2.6492],[168.3094,-46.5893,0.0],[168.3087,-46.5892,0.0],[168.3089,-46.5896,2.6492]]],
[[[168.3201,-46.5688,2.6121],[168.3181,-46.5689,0.0],[168.3174,-46.5721,2.0133],[168.3146,-46.5744,1.6751],[168.3228,-46.5699,0.2187],[168.3201,-46.5688,2.6121]]],
[[[168.3245,-46.5694,0.0],[168.3233,-46.5691,0.6084],[168.3229,-46.5702,0.2187],[168.3233,-46.5697,0.2187],[168.3245,-46.5694,0.0]]],
[[[168.3115,-46.5513,5.0496],[168.308,-46.5524,2.4949],[168.3132,-46.5553,0.9525],[168.3141,-46.5515,1.9222],[168.3115,-46.5513,5.0496]]],
[[[168.2218,-46.5157,0.1591],[168.2197,-46.514,0.0],[168.2181,-46.5152,2.9894],[168.2198,-46.5166,0.0],[168.2218,-46.5157,0.1591]]],
[[[168.3502,-46.5433,0.7053],[168.3498,-46.5418,0.922],[168.3475,-46.5443,1.9801],[168.3493,-46.5445,0.7053],[168.3502,-46.5433,0.7053]]],
[[[168.5113,-46.5741,1.2314],[168.5128,-46.5739,2.3241],[168.5068,-46.5705,1.649],[168.5158,-46.5624,5.145],[168.4468,-46.5255,12.2549],[168.4468,-46.5067,12.5197],[168.452,-46.5067,15.2516],[168.452,-46.5001,11.1494],[168.4591,-46.5001,13.3882],[168.4586,-46.431399999999996,25.8267],[168.4535,-46.427,19.7009],[168.4534,-46.4047,17.3529],[168.4534,-46.3958,20.9545],[168.4588,-46.3962,21.1616],[168.4588,-46.3836,19.9455],[168.4536,-46.3845,20.4568],[168.4536,-46.3645,23.7437],[168.4322,-46.3645,22.209],[168.4322,-46.3609,24.2112],[168.3848,-46.3609,16.7572],[168.3847,-46.3489,16.477],[168.3584,-46.3458,16.2042],[168.3584,-46.3366,17.7124],[168.3661,-46.3366,18.5068],[168.3661,-46.3222,18.9852],[168.3403,-46.3222,18.6517],[168.3403,-46.3439,16.7513],[168.3273,-46.3441,15.1926],[168.3273,-46.3509,15.3718],[168.2941,-46.351,3.035],[168.2906,-46.3539,2.2545],[168.2855,-46.3534,2.1504],[168.2835,-46.3551,1.9325],[168.2847,-46.3576,2.2457],[168.2828,-46.3599,1.8345],[168.2797,-46.3595,1.8887],[168.2765,-46.3611,2.0651],[168.2682,-46.3592,2.0331],[168.2665,-46.3614,2.1109],[168.2677,-46.365,1.5051],[168.2656,-46.3665,1.5056],[168.262,-46.3645,1.6356],[168.2542,-46.364,1.3594],[168.2503,-46.3677,1.941],[168.2497,-46.3749,1.5489],[168.2574,-46.381,0.7007],[168.2576,-46.3826,1.5805],[168.2526,-46.3811,1.6271],[168.2441,-46.3821,1.176],[168.239,-46.3934,0.9137],[168.2112,-46.391,4.7125],[168.1956,-46.3916,0.0],[168.2253,-46.4294,0.6202],[168.2349,-46.452,0.0],[168.2462,-46.4698,0.0],[168.2497,-46.4747,0.0],[168.2505,-46.4717,5.192],[168.2637,-46.4924,6.7321],[168.2706,-46.4969,6.4201],[168.2777,-46.4984,2.3859],[168.3042,-46.4948,0.1935],[168.3028,-46.4926,11.2486],[168.3044,-46.4887,0.3219],[168.3027,-46.4871,6.7176],[168.303,-46.4848,7.217],[168.3003,-46.4829,2.2885],[168.3001,-46.4786,3.2003],[168.2933,-46.4702,12.6192],[168.3026,-46.4687,1.164],[168.3031,-46.464,0.0],[168.2921,-46.4614,0.0],[168.2759,-46.4632,0.0],[168.267,-46.4604,0.0],[168.2641,-46.4572,0.0],[168.2637,-46.4539,0.0],[168.2684,-46.4417,0.3275],[168.273,-46.4416,5.9671],[168.267,-46.4483,4.7415],[168.2652,-46.4544,3.1786],[168.2668,-46.4577,0.0],[168.2711,-46.4598,2.6895],[168.2813,-46.4611,5.8118],[168.2897,-46.4571,5.193],[168.3183,-46.4558,1.5684],[168.3273,-46.4494,2.1646],[168.3216,-46.4381,1.1331],[168.3117,-46.4295,1.7368],[168.3398,-46.418,3.3326],[168.3416,-46.4232,3.9766],[168.3469,-46.4259,7.6681],[168.3395,-46.4258,7.3447],[168.3399,-46.4283,4.0467],[168.3448,-46.4346,0.3659],[168.3416,-46.4296,1.4659],[168.3422,-46.4283,2.924],[168.3469,-46.4282,1.0],[168.3494,-46.4319,3.9859],[168.349,-46.4395,1.0292],[168.3456,-46.4355,0.7017],[168.352,-46.4462,1.7558],[168.3548,-46.463,1.8496],[168.3583,-46.4682,2.1037],[168.3705,-46.4786,0.4284],[168.3746,-46.479,0.2449],[168.3733,-46.4777,1.9529],[168.3749,-46.4752,1.0695],[168.3754,-46.4781,0.2449],[168.3786,-46.4798,0.7859],[168.3786,-46.4831,0.8268],[168.3753,-46.4863,1.3949],[168.3655,-46.4853,0.0],[168.3632,-46.4905,1.077],[168.3611,-46.4913,1.5289],[168.3586,-46.4899,0.7086],[168.3566,-46.4913,1.0361],[168.3612,-46.4964,1.2091],[168.3472,-46.4971,0.9551],[168.3328,-46.5053,2.1791],[168.3149,-46.5109,0.8217],[168.3,-46.5117,2.257],[168.2945,-46.5082,1.855],[168.291,-46.5148,3.5533],[168.2865,-46.5175,4.274],[168.2878,-46.5196,6.372],[168.2862,-46.524,6.1229],[168.2901,-46.5263,1.6102],[168.2956,-46.5259,6.3078],[168.2954,-46.5275,0.0],[168.2893,-46.527,0.1658],[168.2895,-46.5286,2.4222],[168.2926,-46.5306,0.775],[168.2954,-46.5297,0.3578],[168.2974,-46.5332,1.0171],[168.281,-46.5375,0.0],[168.2778,-46.5401,1.7167],[168.2748,-46.5375,7.3858],[168.2817,-46.5272,0.0],[168.2823,-46.5189,1.6703],[168.289,-46.5129,1.2848],[168.2709,-46.5109,2.323],[168.2601,-46.517,3.7316],[168.2347,-46.5137,4.9718],[168.2249,-46.5171,5.258],[168.2261,-46.519,22.0515],[168.2241,-46.5235,28.2702],[168.2269,-46.526,15.8671],[168.2262,-46.5278,15.4009],[168.233,-46.5318,1.6705],[168.2327,-46.5366,1.6128],[168.2367,-46.5388,10.2167],[168.2369,-46.543,21.9707],[168.2301,-46.5499,9.784],[168.2307,-46.5524,7.1127],[168.236,-46.5531,0.0],[168.2435,-46.5509,20.5004],[168.252,-46.5528,21.8125],[168.2536,-46.5546,0.0],[168.2669,-46.5565,0.5438],[168.2722,-46.5621,1.0942],[168.2707,-46.5674,1.5425],[168.2762,-46.5702,0.3806],[168.2738,-46.5732,0.4174],[168.2744,-46.5776,0.6415],[168.2728,-46.579,0.0],[168.2757,-46.585,1.7038],[168.2796,-46.5861,33.1612],[168.2849,-46.5902,0.4104],[168.2974,-46.5923,5.3933],[168.3,-46.595,1.1389],[168.31,-46.5939,5.5559],[168.3137,-46.5966,3.5895],[168.3113,-46.5986,0.0],[168.3152,-46.6003,6.6536],[168.3142,-46.6013,15.6085],[168.3163,-46.6082,3.0962],[168.319,-46.6118,4.9812],[168.3162,-46.6176,28.715],[168.3174,-46.6193,8.2137],[168.3221,-46.6192,18.8059],[168.3303,-46.6251,0.0],[168.3432,-46.6247,0.0],[168.3516,-46.6219,0.0],[168.3537,-46.6201,1.0635],[168.3538,-46.6162,26.6607],[168.3602,-46.6122,0.1016],[168.3578,-46.6103,0.0],[168.3559,-46.6052,0.0],[168.3466,-46.5988,2.6118],[168.3487,-46.5989,0.0],[168.3448,-46.5981,4.0011],[168.3473,-46.598,0.0],[168.3409,-46.5958,0.0],[168.3443,-46.5973,0.0],[168.3315,-46.5959,0.0],[168.3326,-46.5945,2.5009],[168.3388,-46.5956,1.6367],[168.3371,-46.5941,2.5913],[168.3392,-46.594,0.0],[168.3328,-46.5927,0.5363],[168.3331,-46.5915,0.5363],[168.3359,-46.5915,0.9449],[168.3314,-46.5886,0.0],[168.3225,-46.588,1.89],[168.3324,-46.5944,2.5009],[168.3314,-46.5959,0.0],[168.3245,-46.5926,0.0],[168.3238,-46.5943,2.6495],[168.315,-46.5936,5.128],[168.3062,-46.5883,1.1829],[168.3054,-46.585,0.9672],[168.3082,-46.5788,0.0],[168.3071,-46.5768,2.9791],[168.3092,-46.5763,0.2206],[168.3045,-46.574,0.6031],[168.3,-46.5672,0.9549],[168.3006,-46.5481,1.2575],[168.3042,-46.5499,0.0],[168.3107,-46.549,0.9226],[168.325,-46.5443,2.3013],[168.3304,-46.5464,0.0],[168.3317,-46.5501,1.1731],[168.3343,-46.551,1.1488],[168.3364,-46.5458,2.7558],[168.3412,-46.5431,0.0],[168.3419,-46.5395,1.6226],[168.349,-46.5356,0.9398],[168.3532,-46.5364,0.1996],[168.3613,-46.5462,1.4078],[168.3742,-46.548,2.3686],[168.3657,-46.5499,2.5666],[168.3658,-46.5519,3.1064],[168.3625,-46.5555,0.4764],[168.3782,-46.5741,1.6409],[168.3743,-46.5693,1.9499],[168.4057,-46.5612,7.1823],[168.4162,-46.5598,1.3526],[168.436,-46.5602,3.6241],[168.4431,-46.5618,0.9388],[168.4506,-46.5603,2.1954],[168.4528,-46.562,2.1646],[168.466,-46.565,0.6335],[168.4757,-46.5659,1.3508],[168.4795,-46.5649,1.9695],[168.4851,-46.5664,0.7838],[168.4928,-46.5701,0.5655],[168.4958,-46.5733,0.5928],[168.5113,-46.5741,1.2314]]]]}
,"properties": {"GID_2": "NZL.14.2_1","GID_0": "NZL","country": "NewZealand","GID_1": "NZL.14_1","province": "Southland","NL_NAME_1": "NA","county": "Invercargill","VARNAME_2": "NA","NL_NAME_2": "NA","TYPE_2": "City","ENGTYPE_2": "City","CC_2": "075","HASC_2": "NZ.SO.IC","name": "Invercargill.county","area_km2": 386.1614,"hist_schema_id": "Elevation0-9000","hist_area_km2": {"0": 267.2099,"25": 97.9893,"50": 8.193,"75": 4.6792,"100": 3.3674,"125": 1.8368,"150": 1.312,"175": 0.8016,"200": 0.5245,"225": 0.233,"250": 0.0146}}}