{"type":"Feature","properties":{"GID_1":"NZL.9_1","GID_0":"NZL","country":"NewZealand","province":"Nelson","VARNAME_1":"NA","NL_NAME_1":"NA","TYPE_1":"Region","ENGTYPE_1":"Region","CC_1":"17","HASC_1":"NZ.NE","ISO_1":"NZ-NSN","name":"Nelson.province"},
"geometry":{"type": "MultiPolygon","coordinates": [[[[173.193,-41.3097,0.8963],[173.193,-41.3098,0.8963],[173.1931,-41.3099,0.0],[173.193,-41.3096,0.8963],[173.193,-41.3097,0.8963]]],
[[[173.2004,-41.3078,0.5209],[173.1999,-41.3073,0.5209],[173.1992,-41.3073,1.4452],[173.1999,-41.3078,0.5209],[173.2004,-41.3078,0.5209]]],
[[[173.191,-41.3057,1.4047],[173.1898,-41.3045,0.4174],[173.1916,-41.3102,0.8963],[173.1929,-41.31,0.8963],[173.1903,-41.3053,2.491],[173.1924,-41.3076,2.5614],[173.1917,-41.3063,2.5614],[173.195,-41.3068,1.0078],[173.1963,-41.3057,0.8104],[173.1988,-41.3067,1.4452],[173.1961,-41.3054,0.8104],[173.1944,-41.3067,1.0078],[173.191,-41.3057,1.4047]]],
[[[173.2004,-41.3029,5.224],[173.2032,-41.3012,0.9538],[173.2005,-41.3003,2.5565],[173.1993,-41.3012,2.5565],[173.2004,-41.3029,5.224]]],
[[[173.2011,-41.3105,0.0],[173.2013,-41.3107,0.0],[173.2017,-41.3103,0.0],[173.2017,-41.3102,0.0],[173.2011,-41.3105,0.0]]],
[[[173.2589,-41.2691,0.0],[173.2586,-41.2656,1.4839],[173.2573,-41.2652,1.4839],[173.2568,-41.2687,0.0],[173.2589,-41.2691,0.0]]],
[[[173.5971,-41.059,264.8037],[173.5939,-41.0511,0.0],[173.5866,-41.0639,20.9088],[173.5796,-41.0665,58.1871],[173.5708,-41.0641,0.0],[173.5659,-41.0732,5.2669],[173.5656,-41.0783,37.0771],[173.5589,-41.075,0.0],[173.5565,-41.0777,0.0],[173.5589,-41.0856,82.782],[173.5518,-41.0908,123.1933],[173.5464,-41.0971,63.0149],[173.5295,-41.1031,33.2218],[173.5215,-41.1021,25.4705],[173.5196,-41.1057,32.3882],[173.5163,-41.1035,30.6658],[173.514,-41.1044,0.0],[173.5136,-41.1085,36.5863],[173.5077,-41.1153,0.0],[173.5092,-41.118899999999996,9.1415],[173.5082,-41.1232,16.5202],[173.5095,-41.1277,21.7808],[173.506,-41.1316,86.5927],[173.5064,-41.1348,91.6091],[173.5,-41.1417,56.4585],[173.4958,-41.1429,3.4426],[173.4926,-41.1494,1.1626],[173.4877,-41.1518,58.1492],[173.4826,-41.1569,33.443],[173.4416,-41.1611,0.0],[173.4456,-41.1623,0.7509],[173.4699,-41.1598,3.957],[173.4636,-41.1664,4.7491],[173.4553,-41.1668,6.6522],[173.4518,-41.1646,21.5853],[173.4499,-41.167,30.1143],[173.4463,-41.1664,33.6608],[173.4455,-41.1702,6.371],[173.4429,-41.1693,0.0],[173.4398,-41.1714,13.2764],[173.4337,-41.1692,0.0],[173.4314,-41.171,0.0],[173.4375,-41.1707,14.3622],[173.4383,-41.1721,13.2764],[173.4299,-41.1767,11.2777],[173.4287,-41.1746,1.8122],[173.4258,-41.1748,2.7829],[173.4245,-41.1695,7.9699],[173.4136,-41.1634,16.7442],[173.4135,-41.1611,2.8985],[173.4191,-41.1574,9.8449],[173.4245,-41.1623,20.933],[173.4263,-41.1661,61.671],[173.432,-41.1653,9.1499],[173.4362,-41.1619,1.4462],[173.4376,-41.1637,0.687],[173.438,-41.1595,11.458],[173.4389,-41.1619,0.8443],[173.4443,-41.1644,0.0],[173.4387,-41.1604,1.2335],[173.4399,-41.1528,34.8261],[173.4351,-41.1439,8.9243],[173.4365,-41.1416,0.0],[173.4336,-41.138,8.9818],[173.4309,-41.1395,14.6926],[173.4168,-41.1362,3.8814],[173.417,-41.1379,21.5909],[173.413,-41.1383,13.16],[173.4119,-41.1422,26.068],[173.4141,-41.1445,39.3141],[173.4125,-41.1491,1.9761],[173.4174,-41.1538,61.6254],[173.4182,-41.1568,9.8449],[173.4158,-41.1592,0.9676],[173.413,-41.1601,27.3199],[173.4105,-41.1578,0.0],[173.4038,-41.1557,0.8505],[173.3963,-41.1633,17.6031],[173.3892,-41.1677,0.8324],[173.3735,-41.1737,42.4792],[173.3637,-41.1841,0.0],[173.3483,-41.1907,0.0],[173.3434,-41.1944,0.7167],[173.3329,-41.1974,0.0],[173.3189,-41.207,0.4104],[173.3122,-41.2159,0.0],[173.3238,-41.2221,0.0],[173.3195,-41.2267,10.3198],[173.3182,-41.2327,0.0],[173.3154,-41.2362,0.0],[173.3166,-41.2417,17.1957],[173.3119,-41.25,6.0787],[173.299,-41.2557,0.5971],[173.2904,-41.263,3.7636],[173.2841,-41.2609,0.0],[173.2843,-41.2542,0.0],[173.2801,-41.2545,0.0],[173.2825,-41.2551,0.7213],[173.2822,-41.2607,1.1016],[173.2804,-41.2624,1.9037],[173.2807,-41.2557,1.1757],[173.2777,-41.255,2.5039],[173.2758,-41.2564,2.3491],[173.2791,-41.2575,3.2929],[173.2791,-41.2588,1.6816],[173.2746,-41.2589,0.0],[173.2728,-41.2618,3.2955],[173.2702,-41.2604,1.4162],[173.2537,-41.2777,0.0],[173.2504,-41.279,0.0],[173.2326,-41.2786,0.0],[173.2292,-41.2849,0.0],[173.2305,-41.2864,3.0493],[173.2253,-41.2887,1.0827],[173.2199,-41.2941,2.0873],[173.2061,-41.2988,2.6919],[173.207,-41.3009,1.5168],[173.2119,-41.2972,1.6411],[173.2184,-41.2967,1.0262],[173.2194,-41.2997,1.9859],[173.2146,-41.3008,1.4862],[173.2147,-41.3021,2.4093],[173.2251,-41.3025,4.069],[173.2167,-41.3035,1.2391],[173.2098,-41.3029,0.0],[173.2052,-41.306399999999996,0.0],[173.2062,-41.3079,0.7256],[173.2095,-41.3051,3.3397],[173.2209,-41.3041,2.8844],[173.2173,-41.3057,0.0],[173.2195,-41.306399999999996,0.9984],[173.2188,-41.3091,2.5265],[173.2167,-41.3103,2.2065],[173.2167,-41.3122,3.8855],[173.2135,-41.3134,0.0],[173.2093,-41.3262,0.8949],[173.2039,-41.3303,3.1396],[173.1989,-41.3306,1.1331],[173.2191,-41.3489,165.7043],[173.2178,-41.3548,243.1744],[173.2242,-41.3604,495.9003],[173.232,-41.3627,455.2458],[173.23,-41.3688,314.5737],[173.2378,-41.3719,164.4328],[173.2395,-41.3683,156.6592],[173.2453,-41.3677,160.4833],[173.2476,-41.3646,158.1086],[173.2496,-41.3646,239.9888],[173.248,-41.3705,398.9803],[173.2564,-41.3822,714.493],[173.2639,-41.3819,786.4371],[173.2722,-41.3787,937.8427],[173.2993,-41.3934,884.3885],[173.3047,-41.3933,913.7952],[173.3216,-41.387,964.7303],[173.3376,-41.3855,924.4626],[173.3405,-41.3784,876.2897],[173.3572,-41.3609,861.338],[173.3607,-41.3532,874.0746],[173.376,-41.3423,1115.4922],[173.4068,-41.331,939.4068],[173.4147,-41.3231,989.2506],[173.4175,-41.3175,820.9624],[173.4166,-41.3134,816.915],[173.4204,-41.3101,839.7438],[173.4209,-41.3077,808.5242],[173.4191,-41.3052,750.6049],[173.421,-41.2998,826.7966],[173.4155,-41.2888,1155.6543],[173.437,-41.2729,1108.1599],[173.4402,-41.2694,1055.9531],[173.4417,-41.2643,1021.0299],[173.4557,-41.2561,973.3139],[173.4605,-41.2502,894.5439],[173.4712,-41.2427,791.3278],[173.4727,-41.2341,949.7181],[173.4761,-41.229,902.2512],[173.4834,-41.2259,908.1134],[173.4877,-41.2216,998.8771],[173.5158,-41.2139,798.0521],[173.5192,-41.2105,756.298],[173.5204,-41.2066,777.1011],[173.522,-41.2066,777.1011],[173.5201,-41.2,878.2654],[173.5223,-41.1983,793.2972],[173.5343,-41.1959,537.7856],[173.5439,-41.1898,441.2821],[173.557,-41.1917,226.5136],[173.5582,-41.1898,328.0206],[173.5625,-41.191,361.7133],[173.5674,-41.19,440.2109],[173.5691,-41.187,467.7338],[173.5744,-41.1837,488.1211],[173.5763,-41.1714,302.0265],[173.5809,-41.164,373.609],[173.5793,-41.1593,453.7651],[173.5813,-41.1553,471.7603],[173.5782,-41.1517,624.7159],[173.5818,-41.1466,625.6537],[173.5786,-41.1359,847.4446],[173.5808,-41.1313,705.5051],[173.5791,-41.1241,646.8396],[173.5799,-41.1208,548.4719],[173.5834,-41.118899999999996,462.1764],[173.59,-41.1085,487.242],[173.5873,-41.1039,628.7729],[173.5882,-41.1001,671.9057],[173.5966,-41.0894,552.4133],[173.5939,-41.0803,407.4954],[173.5919,-41.0784,443.6155],[173.5986,-41.0712,354.8416],[173.5987,-41.068,331.8552],[173.5961,-41.0633,291.1811],[173.5971,-41.059,264.8037]]]]}}