{"type": "Feature","id": "3402","bbox": [173.18498,-41.38864,173.59109,-41.05568],"geometry": {"type": "Polygon","coordinates": [[[173.28527,-41.38864,709.7423],[173.311,-41.3814,755.6663],[173.34408,-41.36388,772.9932],[173.39017,-41.32973,811.522],[173.47719,-41.22772,858.534],[173.51874,-41.19754,856.6597],[173.54923,-41.1672,145.0267],[173.56515,-41.14813,234.723],[173.5822,-41.11315,447.2664],[173.59037,-41.08085,352.6122],[173.59109,-41.06292,202.1553],[173.59047,-41.05568,4.1926],[173.58863,-41.05633,0.0],[173.57114,-41.06813,23.003],[173.56202,-41.08196,157.8624],[173.57211,-41.09287,266.2126],[173.56398,-41.10377,208.2967],[173.55551,-41.10329,28.4978],[173.54689,-41.09922,147.4967],[173.5381,-41.0997,5.1137],[173.53004,-41.10638,172.8185],[173.51385,-41.1303,180.8295],[173.50017,-41.14137,56.4585],[173.48325,-41.15,0.0],[173.44874,-41.16107,1.9854],[173.45248,-41.1539,0.0],[173.45541,-41.14479,0.0],[173.45493,-41.13698,0.0],[173.44874,-41.13372,0.0],[173.43832,-41.13698,0.0],[173.42709,-41.15154,339.4603],[173.40219,-41.1596,172.8511],[173.3401,-41.20599,1.8104],[173.30152,-41.247,0.0],[173.28435,-41.26141,0.0],[173.24977,-41.27744,0.0],[173.21274,-41.30185,0.0],[173.19361,-41.30901,0.5065],[173.18498,-41.31021,0.0],[173.18905,-41.32259,0.0],[173.21034,-41.34745,112.4056],[173.24889,-41.37489,484.9359],[173.28527,-41.38864,709.7423]]]}
,"properties": {"ISO3166-1-Alpha-3": "NZL","country": "New Zealand","fill": "#F0F","name": "Nelson City","area_km2": 390.1442,"hist_schema_id": "Elevation0-9000","hist_area_km2": {"0": 34.5061,"25": 18.0952,"50": 14.3035,"75": 16.249,"100": 16.2002,"125": 16.9185,"150": 16.2014,"175": 15.8502,"200": 15.7707,"225": 15.5634,"250": 15.26,"275": 14.7333,"300": 14.047,"325": 14.0143,"350": 13.8383,"375": 13.1679,"400": 12.4817,"425": 10.711,"450": 10.4868,"475": 9.3057,"500": 8.4127,"525": 7.7103,"550": 7.1202,"575": 6.5943,"600": 6.4029,"625": 5.9247,"650": 5.1914,"675": 4.8092,"700": 4.2518,"725": 3.7901,"750": 3.2009,"775": 3.0414,"800": 2.5794,"825": 2.2138,"850": 1.7835,"875": 1.4016,"900": 1.3538,"925": 1.0194,"950": 1.1467,"975": 0.8442,"1000": 0.7805,"1025": 0.7167,"1050": 0.7009,"1075": 0.4141,"1100": 0.3027,"1125": 0.2231,"1150": 0.2549,"1175": 0.1753,"1200": 0.0797}}}