{"type": "Feature","bbox": [176.98780452610504,-38.804385297723343,177.1543791606897,-38.717534971010537],"geometry": {"type": "Polygon","coordinates": [[[177.03658347672456,-38.747278233583415,583.0],[177.02409130644412,-38.752037155595076,599.8859],[177.01576319292349,-38.756796077606737,589.9064],[177.01814265392932,-38.760960134366883,677.0743],[177.00863717408276,-38.764934361794815,597.0731],[177.00267615739165,-38.768098517384374,583.0],[176.99613263962544,-38.770477978390204,594.9282],[177.00009809436756,-38.776768354112789,645.0264],[176.99315831336833,-38.781780418167955,671.6334],[176.98780452610504,-38.794272588448507,583.0],[176.99196858286518,-38.804385297723343,583.0],[177.00208129214002,-38.799031510460168,583.0],[177.01040940566043,-38.789513666436847,583.0],[177.01754778867792,-38.789513666436847,583.0],[177.02349644119249,-38.782375283419356,602.5289],[177.02587590219832,-38.775236900401865,585.7321],[177.03955780298179,-38.772262574144634,616.1288],[177.04565566967005,-38.77545873021927,654.5055],[177.04193726398762,-38.784754744425186,583.0],[177.04550645549659,-38.791893127442677,583.0],[177.05502429951991,-38.790108531688361,589.0435],[177.06454214354324,-38.7853496096767,583.0],[177.07405998756656,-38.784159879173785,632.3397],[177.08595729259571,-38.77880609191061,583.0],[177.09844946287615,-38.787134205431016,592.6412],[177.11332109416253,-38.797841779957253,583.0],[177.12283893818585,-38.797246914705852,583.0],[177.12997732120334,-38.786539340179615,608.0883],[177.13116705170648,-38.768693382635888,584.6959],[177.13949516522666,-38.759770403863968,583.0],[177.1543791606897,-38.757201113525866,690.8995],[177.15377193126164,-38.749062829337731,583.0],[177.14187462623249,-38.749657694589246,605.3624],[177.12938245595194,-38.749062829337731,616.5359],[177.11451082466567,-38.745493637828986,631.3181],[177.10024642280723,-38.750657595759833,613.0898],[177.09191830928683,-38.74887300000546,585.8408],[177.09012134935574,-38.74370904207467,640.601],[177.08774188834991,-38.734786063302749,583.0],[177.07881890957822,-38.740734715817325,583.0],[177.07228775598855,-38.732216772964648,701.4255],[177.06276991196523,-38.723888659444242,631.3503],[177.05383456901677,-38.717534971010537,601.5485],[177.04610132074788,-38.721104162519282,583.0],[177.05086024275954,-38.730027141291089,583.0],[177.06037808678286,-38.734786063302749,583.0],[177.06811133505175,-38.7460885030805,596.3107],[177.06911016250103,-38.7535797089476,612.5052],[177.06574423822269,-38.757201113525866,655.5202],[177.0586058552052,-38.763149766040442,707.1654],[177.05146747218771,-38.758985709280239,815.0289],[177.04432908917022,-38.7595805745317,653.3129],[177.03896293773039,-38.754416616600906,583.0],[177.0401526682333,-38.747278233583415,583.0],[177.03658347672456,-38.747278233583415,583.0]]]}
,"properties": {"featurecla": "Reservoir","scalerank": 7,"name": "Lake Waikaremoana","name_abb": "L. Waikaremoana","name_alt": null,"note": "natural lake","delta": null,"dam_name": null,"year": -99,"admin": null,"min_zoom": 5.7,"min_label": 6.7,"area_km2": 52.10684,"hist_schema_id": "Elevation0-9000","hist_area_km2": {"575": 45.82423,"600": 1.76898,"625": 1.62017,"650": 1.00856,"675": 0.74398,"700": 0.44642,"725": 0.38033,"750": 0.16534,"775": 0.13228,"800": 0.01654}}}