{"type":"Feature","properties":{"GID_2":"NZL.7.7_1","GID_0":"NZL","country":"NewZealand","GID_1":"NZL.7_1","province":"Manawatu-Wanganui","NL_NAME_1":"NA","county":"Whanganui","VARNAME_2":"NA","NL_NAME_2":"NA","TYPE_2":"District","ENGTYPE_2":"District","CC_2":"037","HASC_2":"NZ.MW.WU","name":"Whanganui.county"},
"geometry":{"type": "MultiPolygon","coordinates": [[[[175.4882,-39.5447,613.4082],[175.4808,-39.5473,586.9412],[175.4669,-39.5449,562.4044],[175.4193,-39.5457,533.8149],[175.4182,-39.5473,509.6665],[175.4213,-39.5478,504.7325],[175.4205,-39.5507,490.5731],[175.418,-39.5511,493.1022],[175.4199,-39.5568,499.2479],[175.4173,-39.5582,490.2499],[175.424,-39.5597,462.8533],[175.4259,-39.5625,466.1572],[175.4299,-39.564,464.9859],[175.4275,-39.5661,469.2535],[175.4307,-39.5689,436.5148],[175.4296,-39.5706,454.2334],[175.4332,-39.5733,433.0957],[175.4302,-39.5759,417.1089],[175.4273,-39.5761,437.0679],[175.4306,-39.5791,409.5437],[175.4292,-39.5812,426.1158],[175.4338,-39.5863,390.9198],[175.4301,-39.5871,387.3777],[175.4279,-39.5855,403.612],[175.4218,-39.5872,377.6732],[175.4167,-39.5845,398.3938],[175.4116,-39.5874,361.2598],[175.4137,-39.5893,366.6056],[175.4093,-39.5894,355.8656],[175.4086,-39.5915,357.7249],[175.411,-39.5908,354.3835],[175.4108,-39.5927,350.6469],[175.4078,-39.5943,347.9558],[175.4063,-39.5931,350.2281],[175.4032,-39.5939,394.1997],[175.4031,-39.5922,400.3616],[175.4054,-39.5916,394.5881],[175.4043,-39.5893,407.1738],[175.3929,-39.588,474.0828],[175.3902,-39.5853,489.4672],[175.3871,-39.5848,532.9815],[175.3815,-39.5781,648.3213],[175.3755,-39.5745,634.1733],[175.3647,-39.5734,577.7896],[175.3602,-39.5791,474.6195],[175.3616,-39.5866,443.2295],[175.3595,-39.5923,390.3121],[175.3464,-39.6065,555.5151],[175.3421,-39.6028,541.1083],[175.3367,-39.6058,417.4144],[175.313,-39.6128,324.4957],[175.3082,-39.6161,242.6533],[175.3054,-39.623,217.0197],[175.3081,-39.625,207.0847],[175.3117,-39.6231,187.0658],[175.3133,-39.6263,178.1002],[175.2833,-39.6194,512.0626],[175.2587,-39.6178,614.8951],[175.2499,-39.6191,635.129],[175.2427,-39.6066,476.693],[175.234,-39.6014,571.9258],[175.2303,-39.587,593.5286],[175.2194,-39.5825,562.8353],[175.217,-39.5833,607.2197],[175.2155,-39.582,592.1469],[175.2174,-39.5847,573.662],[175.2164,-39.5856,573.662],[175.207,-39.5866,472.6238],[175.2086,-39.5914,449.4228],[175.2055,-39.5925,434.5925],[175.2035,-39.5909,363.0197],[175.2034,-39.5544,469.6199],[175.2151,-39.5577,387.1663],[175.2244,-39.5553,375.6716],[175.2277,-39.553,332.7911],[175.2243,-39.5435,318.769],[175.2274,-39.5418,340.4299],[175.2234,-39.5387,287.6175],[175.2203,-39.5399,350.2214],[175.2,-39.5348,443.8257],[175.1973,-39.5367,501.9032],[175.1929,-39.5355,570.6978],[175.177,-39.5383,597.768],[175.1557,-39.5378,546.7118],[175.1375,-39.5438,369.1896],[175.1508,-39.5351,403.6174],[175.1637,-39.5343,437.1798],[175.165,-39.5325,379.7336],[175.1535,-39.5281,306.0827],[175.1446,-39.5201,231.5879],[175.1402,-39.5195,233.3868],[175.1377,-39.5213,225.8181],[175.1339,-39.4968,491.9448],[175.1241,-39.498,381.3123],[175.1212,-39.4943,436.1053],[175.121,-39.4895,457.1537],[175.1184,-39.4869,482.8781],[175.1176,-39.4818,517.6354],[175.1102,-39.485,578.1047],[175.1064,-39.4833,566.2767],[175.1044,-39.4843,570.5016],[175.1021,-39.4821,573.4957],[175.0992,-39.4849,560.8798],[175.0954,-39.484,586.5767],[175.0872,-39.486,530.3135],[175.0813,-39.4924,414.1934],[175.0811,-39.4974,436.7689],[175.078,-39.503,492.079],[175.0793,-39.5056,468.115],[175.0782,-39.5086,418.5662],[175.0733,-39.512,343.0787],[175.0729,-39.5142,313.3039],[175.0685,-39.5144,428.411],[175.0578,-39.5254,69.4219],[175.0527,-39.521,35.0987],[175.0475,-39.5119,41.2214],[175.0448,-39.5036,110.0642],[175.0512,-39.4967,64.1931],[175.0478,-39.4838,44.3484],[175.0439,-39.4801,35.2453],[175.0384,-39.4806,32.0532],[175.0358,-39.4794,26.25],[175.0352,-39.4762,30.2636],[175.0377,-39.4708,33.478],[175.0325,-39.4644,42.5793],[175.0331,-39.4556,53.1112],[175.0272,-39.4463,40.3798],[175.0258,-39.4394,38.6985],[175.0223,-39.4368,64.1282],[175.0163,-39.4367,66.2211],[175.0148,-39.4347,43.9892],[175.0204,-39.4271,80.6297],[175.0372,-39.4249,62.3189],[175.0396,-39.4204,65.8314],[175.0397,-39.4088,64.8566],[175.0444,-39.4044,64.1037],[175.031,-39.4019,74.6518],[175.02,-39.395,134.6743],[175.0134,-39.3852,60.275],[175.0128,-39.3771,64.7837],[175.0142,-39.3739,90.4034],[175.0054,-39.3625,66.4576],[175.0045,-39.3547,64.9862],[174.9969,-39.3517,101.1134],[174.9923,-39.3455,61.2933],[174.9932,-39.3409,56.7819],[174.9921,-39.337,46.8618],[175.0031,-39.3247,51.5617],[175.0074,-39.3173,56.0718],[175.0077,-39.3131,95.4243],[175.001,-39.3107,66.4075],[174.9888,-39.3113,72.4094],[174.9715,-39.3088,62.2266],[174.964,-39.3056,66.6405],[174.9615,-39.3027,79.4328],[174.9619,-39.2984,67.3059],[174.9703,-39.2844,65.8557],[174.9685,-39.2814,100.7088],[174.964,-39.2829,86.9069],[174.9608,-39.2917,133.91],[174.9528,-39.2954,81.3487],[174.9405,-39.2903,85.636],[174.929,-39.2924,77.3386],[174.9271,-39.2881,75.9726],[174.9279,-39.2787,105.1092],[174.9247,-39.2763,113.1663],[174.9158,-39.2795,79.3598],[174.9119,-39.2835,82.2999],[174.91,-39.2884,91.6716],[174.9059,-39.2886,85.8641],[174.9028,-39.2767,94.7573],[174.8904,-39.2716,79.0804],[174.8834,-39.263,71.0253],[174.8853,-39.2588,60.0],[174.8924,-39.2538,64.6704],[174.8932,-39.2482,80.1231],[174.8895,-39.2466,77.5381],[174.8793,-39.2462,82.9173],[174.8775,-39.2442,72.105],[174.877,-39.2399,71.3326],[174.8807,-39.2368,90.8105],[174.8731,-39.2368,128.4963],[174.8685,-39.2319,95.97],[174.8614,-39.2305,124.8372],[174.8595,-39.2332,259.6843],[174.8618,-39.2357,299.3569],[174.8615,-39.24,302.5642],[174.8644,-39.2428,316.6061],[174.8627,-39.2445,306.4554],[174.865,-39.2469,338.5315],[174.862,-39.2555,221.7248],[174.8556,-39.2614,336.1277],[174.8518,-39.2618,296.475],[174.8471,-39.2599,348.5797],[174.8452,-39.2643,286.3326],[174.8455,-39.2704,192.3856],[174.8407,-39.2764,97.6214],[174.838,-39.2878,164.2944],[174.832,-39.2926,254.2967],[174.8309,-39.2962,199.728],[174.8202,-39.3017,355.7634],[174.8179,-39.31,494.8912],[174.8129,-39.3136,701.9964],[174.8148,-39.3143,683.2902],[174.8152,-39.318,627.1151],[174.8204,-39.3228,503.5864],[174.8198,-39.3261,522.6481],[174.8226,-39.3298,607.2065],[174.8207,-39.3311,624.8162],[174.8228,-39.334,626.3671],[174.8271,-39.3325,531.269],[174.8384,-39.337,685.3431],[174.8425,-39.3359,642.9185],[174.8502,-39.3368,668.3892],[174.8544,-39.3399,695.3205],[174.8539,-39.3413,674.5179],[174.8588,-39.3409,656.0803],[174.8614,-39.3437,682.8726],[174.8642,-39.3434,670.7268],[174.8707,-39.3468,683.4757],[174.872,-39.3518,700.2731],[174.8769,-39.3537,690.8004],[174.8769,-39.3568,703.682],[174.8804,-39.3534,636.5231],[174.8833,-39.3528,611.4591],[174.8871,-39.3535,649.6663],[174.8883,-39.3562,660.1243],[174.8916,-39.3581,695.8918],[174.8882,-39.3647,684.7467],[174.8904,-39.3688,681.4456],[174.8892,-39.3737,654.5083],[174.8819,-39.3784,653.0752],[174.8848,-39.3817,639.5466],[174.8795,-39.3902,641.9264],[174.8766,-39.3917,647.3458],[174.8729,-39.3887,613.999],[174.8703,-39.3905,609.3304],[174.8659,-39.3891,657.8186],[174.8699,-39.3955,584.6532],[174.8713,-39.401,550.2543],[174.8768,-39.4033,540.8513],[174.8794,-39.408,538.6306],[174.8874,-39.4145,526.2404],[174.8886,-39.4228,416.1583],[174.8852,-39.4252,465.7324],[174.8877,-39.4273,453.0814],[174.8893,-39.4336,517.2194],[174.8843,-39.4344,538.5236],[174.8846,-39.4355,535.5444],[174.889,-39.4351,506.6672],[174.8921,-39.4388,486.709],[174.8918,-39.4404,483.4542],[174.897,-39.4453,486.7754],[174.9047,-39.4452,473.1117],[174.9066,-39.4474,466.1924],[174.9042,-39.4511,436.64],[174.907,-39.4547,496.8497],[174.9097,-39.4555,402.7919],[174.9094,-39.459,446.9652],[174.9154,-39.4627,419.138],[174.9206,-39.4681,560.9412],[174.9217,-39.4713,567.4882],[174.9285,-39.4762,529.1364],[174.9396,-39.4794,508.4842],[174.947,-39.4783,508.2093],[174.9514,-39.4817,571.9141],[174.9566,-39.4798,593.2938],[174.9636,-39.4853,593.4167],[174.9673,-39.4848,593.4631],[174.961,-39.4929,591.2039],[174.9635,-39.4938,557.5193],[174.9651,-39.4997,538.2635],[174.9695,-39.5037,525.0679],[174.966,-39.5048,585.6451],[174.9653,-39.5075,593.9343],[174.9696,-39.5131,613.7308],[174.9688,-39.5163,585.6999],[174.972,-39.5207,600.1548],[174.9704,-39.5219,591.694],[174.9703,-39.5254,549.5955],[174.9758,-39.5275,564.6326],[174.9781,-39.5329,549.8444],[174.9824,-39.537,616.5142],[174.988,-39.5385,617.4564],[174.9897,-39.537,653.1418],[174.9899,-39.5396,643.7867],[174.9918,-39.5403,645.3477],[174.987,-39.5472,620.6883],[174.9889,-39.5522,612.681],[174.9871,-39.556,617.1832],[174.9798,-39.5573,591.8571],[174.9769,-39.5593,568.0812],[174.9776,-39.5613,557.4057],[174.9737,-39.5635,583.7772],[174.9753,-39.5664,595.8528],[174.9724,-39.5676,656.8668],[174.9757,-39.5728,645.6117],[174.9728,-39.5752,630.9081],[174.9743,-39.5779,628.1867],[174.9715,-39.5821,606.9501],[174.974,-39.5845,579.4373],[174.9718,-39.5849,601.3498],[174.9741,-39.5911,555.135],[174.9693,-39.5953,535.7059],[174.9699,-39.5982,501.6957],[174.9684,-39.6017,438.3814],[174.9696,-39.6041,476.8615],[174.9676,-39.6052,446.079],[174.9725,-39.6129,413.2386],[174.9705,-39.6188,422.2878],[174.9716,-39.6228,373.9603],[174.97,-39.6255,401.7714],[174.9728,-39.6282,381.5618],[174.9706,-39.6314,413.3555],[174.9734,-39.633,372.3308],[174.9744,-39.6379,431.6778],[174.9764,-39.6377,381.2586],[174.97,-39.6438,450.9114],[174.971,-39.645,478.2911],[174.9697,-39.6463,422.3094],[174.9741,-39.6467,438.6349],[174.9758,-39.6491,432.3312],[174.9722,-39.6537,405.7831],[174.9758,-39.6552,414.4582],[174.9763,-39.657,405.9499],[174.9834,-39.6571,425.9559],[174.9837,-39.6611,410.2651],[174.9883,-39.6611,424.4694],[174.9865,-39.6641,393.4123],[174.988,-39.6654,418.2975],[174.9734,-39.6703,391.6009],[174.9726,-39.672,379.8685],[174.9746,-39.6749,387.4423],[174.9698,-39.6768,418.3761],[174.9648,-39.6756,381.6961],[174.958,-39.6793,361.7326],[174.9516,-39.68,398.8488],[174.9502,-39.6774,377.0078],[174.9463,-39.676,332.3645],[174.9421,-39.6779,365.1696],[174.9388,-39.6767,363.3911],[174.9404,-39.6805,360.1658],[174.9357,-39.6856,344.8488],[174.9299,-39.6829,292.9424],[174.9288,-39.6846,302.8976],[174.9305,-39.685,353.3136],[174.9284,-39.687,333.5007],[174.9297,-39.6882,349.5596],[174.9291,-39.6907,358.3095],[174.9226,-39.6954,331.3665],[174.9245,-39.6999,375.1831],[174.9275,-39.7009,382.5959],[174.922,-39.7038,351.8149],[174.9278,-39.7122,392.8781],[174.9278,-39.7176,401.8792],[174.9319,-39.7205,425.0963],[174.9316,-39.7232,439.8946],[174.9272,-39.7254,466.7246],[174.9238,-39.7295,507.4761],[174.9268,-39.7321,462.766],[174.9253,-39.7335,460.2669],[174.9229,-39.7329,505.2362],[174.9249,-39.7351,429.2418],[174.9229,-39.7376,467.6998],[174.9199,-39.7382,418.7283],[174.924,-39.7404,360.1576],[174.921,-39.7454,394.8869],[174.9175,-39.7453,394.6113],[174.9179,-39.7497,346.856],[174.9155,-39.7473,390.3676],[174.9161,-39.7442,366.2511],[174.9144,-39.7453,282.8426],[174.9124,-39.7424,282.7456],[174.9113,-39.7436,278.367],[174.9096,-39.7417,315.0193],[174.9095,-39.7429,315.0193],[174.9073,-39.7416,319.6761],[174.9079,-39.7431,328.9469],[174.8995,-39.7487,405.8904],[174.8945,-39.7472,316.5458],[174.8882,-39.7513,403.9077],[174.8893,-39.7533,364.0502],[174.8868,-39.7547,336.2217],[174.8865,-39.7572,295.8654],[174.8713,-39.7667,266.4135],[174.8721,-39.7706,335.2855],[174.8703,-39.7733,321.6412],[174.8625,-39.7734,337.0964],[174.8578,-39.7769,326.5577],[174.85,-39.7776,266.4186],[174.8495,-39.7832,303.0704],[174.8519,-39.7892,285.5676],[174.8366,-39.7962,225.4104],[174.8345,-39.8005,222.7335],[174.803,-39.8031,181.8795],[174.7937,-39.8205,115.5753],[174.7998,-39.8202,117.4128],[174.7934,-39.8336,79.559],[174.7849,-39.8316,83.4484],[174.7793,-39.8431,60.5375],[174.7663,-39.8529,38.6012],[174.7841,-39.858,0.0],[174.8067,-39.8591,43.4221],[174.8239,-39.8652,16.4641],[174.8435,-39.8679,40.19],[174.8693,-39.8742,45.8186],[174.8985,-39.8855,0.0],[174.9024,-39.8884,0.0],[174.9279,-39.8994,44.3586],[174.9477,-39.9113,1.583],[174.97,-39.9321,6.3872],[174.9831,-39.9489,0.0],[174.9886,-39.9468,0.0],[174.9921,-39.9473,0.0],[174.9901,-39.9485,2.3696],[174.9911,-39.95,1.0389],[175.0134,-39.961,5.3985],[175.0374,-39.9787,1.1276],[175.0688,-40.0066,2.3247],[175.0995,-40.0406,0.0],[175.104,-40.0368,0.5],[175.1076,-40.0306,1.0],[175.1122,-40.028,3.3284],[175.1168,-40.0297,4.5902],[175.1154,-40.0365,3.3705],[175.1211,-40.0376,9.9168],[175.1231,-40.0354,9.0364],[175.1215,-40.0305,5.5173],[175.122,-40.0224,7.431],[175.127,-40.0163,7.7048],[175.1323,-40.0166,7.0819],[175.1335,-40.012,8.3454],[175.1436,-40.007,36.7952],[175.1468,-40.0067,9.0027],[175.1474,-40.01,10.1561],[175.1494,-40.0108,9.9783],[175.1596,-40.006,14.3369],[175.1597,-40.0099,12.8116],[175.1617,-40.0109,9.3791],[175.1647,-40.0051,11.6176],[175.1716,-40.0072,12.1013],[175.1756,-40.003,11.8489],[175.1847,-40.0046,14.5317],[175.1884,-39.998,15.0162],[175.1933,-40.0007,17.928],[175.1991,-39.9982,15.9889],[175.2093,-39.998,17.1161],[175.211,-39.9966,15.3008],[175.2097,-39.9928,16.3737],[175.2124,-39.9912,17.8824],[175.2224,-39.9929,17.0225],[175.2231,-39.9908,18.375],[175.2196,-39.9876,19.5639],[175.2264,-39.9856,18.8591],[175.2262,-39.9797,20.7228],[175.2318,-39.9799,21.6849],[175.2344,-39.9779,19.9693],[175.2341,-39.9695,26.8803],[175.2368,-39.9666,21.5041],[175.2462,-39.9667,22.9716],[175.2456,-39.971,20.8389],[175.247,-39.9725,21.6485],[175.2545,-39.9705,23.5508],[175.2592,-39.9722,25.2056],[175.2623,-39.9754,23.2497],[175.266,-39.9742,24.6358],[175.2681,-39.9695,40.9388],[175.2626,-39.9703,24.6493],[175.2619,-39.9687,24.5516],[175.2719,-39.9645,24.1157],[175.2727,-39.9613,25.9368],[175.2718,-39.9588,26.165],[175.2663,-39.9571,26.5864],[175.2655,-39.9554,27.3582],[175.2734,-39.9565,28.4272],[175.2744,-39.9546,28.0664],[175.2692,-39.9493,59.2188],[175.2717,-39.9468,30.8132],[175.2775,-39.948,30.6923],[175.2781,-39.9433,29.6285],[175.2811,-39.9417,30.0599],[175.281,-39.9383,30.6454],[175.2859,-39.9363,70.7892],[175.2826,-39.9351,32.9103],[175.2767,-39.9379,35.0163],[175.2686,-39.9315,32.2045],[175.2777,-39.929,47.7953],[175.2738,-39.9229,64.9042],[175.2784,-39.9222,34.3638],[175.2778,-39.9179,43.3619],[175.2846,-39.9188,37.1786],[175.2904,-39.9249,52.9443],[175.2928,-39.9239,39.1185],[175.2875,-39.9161,37.7801],[175.2786,-39.9092,37.4205],[175.2846,-39.9049,61.7875],[175.284,-39.8995,45.8252],[175.2886,-39.9002,41.7512],[175.2908,-39.8956,42.1771],[175.2954,-39.8951,41.0074],[175.2875,-39.8866,44.3128],[175.287,-39.8822,41.5873],[175.288,-39.8809,43.7929],[175.2944,-39.8812,54.7476],[175.2952,-39.8801,54.7476],[175.2865,-39.8765,45.8986],[175.2851,-39.8773,41.0892],[175.2869,-39.8793,41.8592],[175.2852,-39.8801,45.3555],[175.2768,-39.88,66.3156],[175.2737,-39.878,64.8102],[175.2927,-39.8699,78.4305],[175.2956,-39.8649,49.1465],[175.29,-39.8621,50.0578],[175.2897,-39.8604,50.1202],[175.3013,-39.8592,49.8662],[175.308,-39.8561,52.5157],[175.3271,-39.8731,244.211],[175.3346,-39.8753,227.2514],[175.3377,-39.8736,236.1478],[175.3486,-39.8733,235.7791],[175.3512,-39.8702,232.9238],[175.3511,-39.8679,176.2845],[175.3532,-39.8667,198.1833],[175.352,-39.86,225.6017],[175.3563,-39.8587,178.0235],[175.3575,-39.8564,180.7155],[175.3638,-39.8574,185.6635],[175.366,-39.8557,194.2974],[175.3671,-39.8575,194.4645],[175.3718,-39.8546,181.9571],[175.3759,-39.8496,216.1799],[175.3735,-39.8457,245.5217],[175.377,-39.8427,264.3223],[175.3757,-39.8395,265.6223],[175.3832,-39.8356,270.5124],[175.3862,-39.8321,283.3086],[175.4003,-39.8343,301.0118],[175.4139,-39.8335,210.7086],[175.418,-39.8274,241.8259],[175.4378,-39.8276,354.023],[175.4378,-39.8187,398.0298],[175.4393,-39.8182,405.303],[175.4496,-39.8224,418.9461],[175.4528,-39.8221,395.7587],[175.4528,-39.8107,335.2064],[175.4511,-39.8101,387.8466],[175.4505,-39.8045,355.2327],[175.4533,-39.7994,369.9283],[175.4527,-39.7969,382.7259],[175.4568,-39.7959,396.5741],[175.4594,-39.7856,465.1244],[175.4617,-39.7834,474.5573],[175.4602,-39.7789,472.5132],[175.4754,-39.7704,567.1865],[175.4782,-39.7678,565.9406],[175.4813,-39.7609,638.5639],[175.4856,-39.7588,631.8271],[175.4803,-39.7568,609.7863],[175.4814,-39.7551,660.5953],[175.4799,-39.7528,619.6929],[175.4825,-39.7464,579.3826],[175.4796,-39.7418,603.2668],[175.4801,-39.7388,628.7048],[175.4855,-39.7361,539.3054],[175.4871,-39.7316,534.9448],[175.498,-39.7249,516.7229],[175.4969,-39.7197,498.1716],[175.501,-39.7154,464.2444],[175.5013,-39.7081,406.9799],[175.507,-39.7033,474.862],[175.5102,-39.6972,510.3134],[175.5068,-39.6881,538.1371],[175.5105,-39.6869,523.5062],[175.5152,-39.6815,596.5236],[175.515,-39.679,582.6849],[175.5102,-39.6761,626.6337],[175.5109,-39.6715,622.2574],[175.491,-39.6715,606.4069],[175.4876,-39.6676,605.4511],[175.4865,-39.6606,641.8121],[175.4944,-39.6609,612.6962],[175.4957,-39.6572,681.3182],[175.4618,-39.6421,320.3821],[175.462,-39.6404,319.1713],[175.4661,-39.6382,332.1412],[175.4652,-39.6355,317.3995],[175.4692,-39.6358,350.459],[175.4705,-39.6326,309.3013],[175.4693,-39.6314,309.3013],[175.475,-39.6314,337.5805],[175.4792,-39.628,358.2951],[175.4791,-39.6263,322.3178],[175.4824,-39.6252,342.6815],[175.4814,-39.6244,336.1458],[175.4831,-39.6224,368.8678],[175.4888,-39.6204,352.2057],[175.4892,-39.6166,347.9434],[175.492,-39.6163,377.8643],[175.494,-39.6141,406.236],[175.492,-39.6113,372.8777],[175.4926,-39.6094,391.7924],[175.4953,-39.608,402.3804],[175.4945,-39.6068,355.4012],[175.4967,-39.6055,372.3769],[175.4974,-39.601,406.6081],[175.4996,-39.5999,374.3509],[175.4972,-39.5968,384.6835],[175.4985,-39.5914,387.9088],[175.5026,-39.5886,393.467],[175.5034,-39.5824,419.3711],[175.5056,-39.5809,404.8109],[175.5023,-39.5805,431.9301],[175.498,-39.5835,501.1134],[175.494,-39.5836,575.2725],[175.4882,-39.5792,588.9143],[175.4882,-39.5447,613.4082]]]]}}