{"type": "Feature","bbox": [170.5823,-44.501,171.5068,-43.452],"geometry": {"type": "MultiPolygon","coordinates": [[[[170.5973,-43.4641,2327.8745],[170.5823,-43.465,2781.3096],[170.5888,-43.4687,2293.3621],[170.5898,-43.476,2326.7241],[170.5983,-43.4785,2090.1455],[170.604,-43.4849,2245.9307],[170.6246,-43.488,2001.4059],[170.6279,-43.4901,2066.2046],[170.6283,-43.4928,2058.7637],[170.6252,-43.4978,2011.5155],[170.627,-43.502,1876.5254],[170.6259,-43.5068,1874.5394],[170.6346,-43.5107,1976.9482],[170.6349,-43.5128,2004.1951],[170.6384,-43.5153,2019.0991],[170.6384,-43.5218,2115.9927],[170.6407,-43.5254,2105.2793],[170.639,-43.5292,2106.5952],[170.6462,-43.5337,1984.4778],[170.6526,-43.5346,1942.5706],[170.6572,-43.5406,1964.7716],[170.6642,-43.5454,2049.0278],[170.6679,-43.5457,2056.7397],[170.6733,-43.5428,2235.6167],[170.68,-43.547,1867.9421],[170.6845,-43.5475,1918.0691],[170.6867,-43.5462,1913.4398],[170.6917,-43.5487,2084.0269],[170.6926,-43.5521,2112.1421],[170.6982,-43.5542,2273.96],[170.7111,-43.5528,2257.6431],[170.7275,-43.5558,2407.208],[170.73,-43.5649,2396.3682],[170.7183,-43.5743,2385.6792],[170.7178,-43.5785,2373.4365],[170.7214,-43.5813,2251.8896],[170.7227,-43.5878,2322.1365],[170.7268,-43.5915,2438.707],[170.7275,-43.5946,2404.3525],[170.7367,-43.6006,2252.4189],[170.7367,-43.6029,2278.2144],[170.7411,-43.6094,2182.5449],[170.741,-43.6124,2251.4846],[170.7376,-43.6137,2218.3777],[170.7363,-43.6166,2188.3826],[170.7327,-43.619,2192.5154],[170.7295,-43.6287,2283.7742],[170.7254,-43.6341,2213.3145],[170.711,-43.644,2327.5955],[170.7077,-43.6511,2219.4248],[170.7123,-43.656,2170.9976],[170.7102,-43.6603,2160.2935],[170.7053,-43.663,2047.7407],[170.702,-43.6671,2109.2666],[170.7091,-43.6735,2163.0002],[170.6931,-43.6875,2010.5786],[170.6987,-43.6967,1943.3522],[170.6984,-43.6989,1947.829],[170.6851,-43.7121,2005.8711],[170.6836,-43.7167,2027.322],[170.6888,-43.7232,1954.0057],[170.694,-43.7261,2034.9293],[170.6918,-43.7298,2037.8737],[170.6937,-43.7329,2022.0654],[170.692,-43.7369,2008.4618],[170.686,-43.742,1968.9678],[170.6947,-43.7508,1910.2593],[170.6946,-43.753,1935.572],[170.7014,-43.7622,1929.8987],[170.7093,-43.7656,2013.7386],[170.7198,-43.762,1875.814],[170.724,-43.7644,1889.3606],[170.732,-43.7606,1883.7102],[170.7378,-43.7646,1933.0521],[170.7373,-43.7702,1934.9055],[170.7336,-43.7794,1988.5099],[170.7299,-43.7833,1905.7948],[170.7291,-43.7871,1977.7568],[170.7238,-43.7911,2021.3295],[170.7209,-43.8002,2207.2764],[170.7153,-43.8054,2143.4404],[170.7244,-43.8128,1838.0194],[170.7294,-43.8154,1728.1953],[170.7379,-43.8142,1626.1245],[170.7498,-43.8174,1500.0488],[170.7631,-43.8171,1377.3998],[170.7693,-43.8121,1336.7189],[170.7703,-43.8007,1240.5149],[170.7782,-43.7937,1215.9857],[170.7804,-43.7898,1198.7501],[170.782,-43.7821,1141.9518],[170.7847,-43.7782,1122.752],[170.7832,-43.7772,1146.0723],[170.7836,-43.7752,1091.8503],[170.8069,-43.7834,2173.7771],[170.8075,-43.7803,2151.365],[170.8111,-43.7765,2133.6023],[170.8168,-43.7735,2154.6909],[170.8213,-43.7763,2022.3215],[170.8399,-43.7797,1758.5383],[170.8537,-43.7864,1910.2928],[170.8509,-43.79,1960.9375],[170.8504,-43.7936,1976.3871],[170.8524,-43.796,1980.4437],[170.851,-43.8003,1861.6028],[170.8615,-43.8088,1592.5117],[170.8705,-43.8118,1354.4838],[170.8828,-43.8117,1291.0348],[170.8911,-43.8034,902.7766],[170.9018,-43.806,808.3571],[170.9149,-43.8047,762.8027],[170.9173,-43.795,1175.7449],[170.914,-43.7951,1208.2902],[170.9114,-43.7895,966.3877],[170.9298,-43.7827,872.9755],[170.9418,-43.7833,845.9386],[170.9492,-43.7777,873.9633],[170.9742,-43.7698,765.8947],[170.9849,-43.7645,824.0115],[170.998,-43.7521,720.344],[171.0079,-43.7486,688.7802],[171.0258,-43.7484,668.0862],[171.0346,-43.7504,668.6952],[171.0452,-43.7573,642.2239],[171.05,-43.7588,638.935],[171.0634,-43.754,676.7661],[171.0645,-43.7514,719.9158],[171.0683,-43.7498,820.4963],[171.0693,-43.7523,765.6652],[171.0781,-43.7524,715.8497],[171.087,-43.7548,744.6504],[171.0895,-43.7573,755.3233],[171.0914,-43.7667,809.1528],[171.0984,-43.77,1017.9019],[171.1007,-43.7739,1139.7687],[171.1086,-43.775,1290.7819],[171.1164,-43.7822,1416.8248],[171.1335,-43.7819,1495.6736],[171.1388,-43.7798,1603.0363],[171.142,-43.789,1379.7163],[171.1446,-43.7914,1458.7401],[171.1425,-43.7951,1492.7583],[171.1448,-43.7995,1497.176],[171.1533,-43.8079,1472.2708],[171.1682,-43.8062,1464.4458],[171.1766,-43.8123,1417.3599],[171.1839,-43.826,1226.0077],[171.1922,-43.8276,1190.1514],[171.1963,-43.8342,1017.7527],[171.2088,-43.8414,708.3137],[171.2107,-43.8471,515.6423],[171.2159,-43.8511,436.8533],[171.2208,-43.8497,423.7007],[171.219,-43.8556,478.9444],[171.2156,-43.8587,564.9365],[171.2168,-43.8643,628.5039],[171.2117,-43.8681,767.9835],[171.2183,-43.8729,962.9971],[171.2177,-43.8787,1145.3732],[171.2227,-43.8879,733.4838],[171.2209,-43.8902,636.7491],[171.2181,-43.8898,650.6103],[171.2197,-43.8948,533.504],[171.2172,-43.8969,635.0096],[171.2171,-43.8998,610.1572],[171.2088,-43.9006,444.8588],[171.2023,-43.8931,523.3812],[171.1976,-43.8911,578.1599],[171.193,-43.893,747.6385],[171.1869,-43.8925,600.0538],[171.1711,-43.8947,371.8471],[171.1706,-43.903,332.9438],[171.1792,-43.9068,317.7168],[171.1725,-43.9107,335.202],[171.1764,-43.9148,323.8272],[171.1751,-43.9193,316.5048],[171.1815,-43.9225,313.384],[171.1762,-43.9276,339.1079],[171.166,-43.9301,370.3797],[171.1592,-43.929,390.5533],[171.1581,-43.9307,357.3235],[171.1556,-43.9304,375.449],[171.1541,-43.9323,411.0998],[171.1509,-43.9327,418.215],[171.141,-43.9327,426.5002],[171.1239,-43.9298,443.1583],[171.1206,-43.9298,440.6205],[171.1182,-43.932,459.2145],[171.1031,-43.9309,558.3879],[171.0975,-43.9322,599.7465],[171.091,-43.9371,812.6603],[171.0869,-43.9486,855.7949],[171.0826,-43.9514,661.0444],[171.0836,-43.9585,597.731],[171.0775,-43.961,606.6863],[171.068,-43.9607,668.6051],[171.0665,-43.9594,725.3236],[171.06,-43.9609,747.6477],[171.0476,-43.9557,1146.1777],[171.0447,-43.9574,1217.785],[171.0315,-43.9588,1056.7168],[171.0116,-43.9447,727.6118],[171.0149,-43.9406,709.1453],[171.0105,-43.9361,692.9066],[171.0028,-43.9319,669.0771],[171.0022,-43.9295,658.062],[170.9914,-43.9206,647.6549],[170.9848,-43.9236,626.0318],[170.9843,-43.941,801.1724],[170.9941,-43.9481,881.9451],[170.989,-43.9566,1298.4623],[170.9925,-43.9622,1287.5564],[170.9919,-43.9644,1227.5591],[170.9829,-43.966,814.1365],[170.9693,-43.9658,667.9977],[170.9692,-43.9733,633.4357],[170.966,-43.9811,566.0542],[170.9675,-43.988,543.1436],[170.9715,-43.9892,602.3345],[170.9682,-43.9912,535.0947],[170.9684,-43.9931,517.9964],[170.9648,-43.9961,517.6758],[170.9544,-43.9999,504.9955],[170.9522,-44.0043,639.7469],[170.9438,-44.0077,435.1106],[170.9573,-44.0142,505.3987],[170.9606,-44.0132,545.6463],[170.9688,-44.0181,667.0603],[170.9699,-44.0193,667.0603],[170.9626,-44.0229,764.0303],[170.9657,-44.0281,726.7188],[170.9751,-44.0324,699.5502],[170.9815,-44.0389,701.5981],[170.9886,-44.0423,740.7],[170.979,-44.0537,639.803],[170.9767,-44.0595,483.7089],[170.9714,-44.0602,429.5435],[170.9709,-44.0622,425.601],[170.9675,-44.0644,279.0771],[170.9719,-44.0674,273.5553],[170.9776,-44.0659,299.116],[170.9798,-44.0675,284.0124],[170.9821,-44.0767,259.4065],[170.9798,-44.0775,246.3472],[170.9801,-44.0798,252.8787],[170.976,-44.0829,240.5084],[170.9805,-44.0867,239.9347],[170.9798,-44.09,234.1919],[170.982,-44.092,232.2782],[170.9801,-44.0953,228.0901],[170.9824,-44.0975,230.5073],[170.9812,-44.1002,224.0759],[170.9834,-44.1019,228.007],[170.9828,-44.1092,219.4968],[170.9892,-44.122,200.9726],[170.9947,-44.1269,198.9036],[170.9944,-44.1304,199.5459],[170.9995,-44.1353,192.6127],[171.002,-44.1463,175.198],[170.9953,-44.1575,186.073],[170.9978,-44.1647,163.7304],[170.996,-44.1702,156.1818],[170.9931,-44.1744,148.3026],[170.9801,-44.1734,157.7405],[170.9633,-44.1671,160.8758],[170.9406,-44.1678,182.2459],[170.9345,-44.1695,178.5024],[170.9337,-44.1652,208.6035],[170.9267,-44.161,258.9733],[170.9187,-44.162,220.9062],[170.9127,-44.1603,234.0046],[170.9116,-44.1563,226.0358],[170.9085,-44.1552,227.8893],[170.9094,-44.153,286.5005],[170.9077,-44.1495,305.6399],[170.9005,-44.15,255.8911],[170.8958,-44.1467,239.2719],[170.8919,-44.1489,253.0974],[170.8917,-44.1469,262.6369],[170.8875,-44.1459,265.6157],[170.8875,-44.1427,275.4762],[170.8846,-44.1404,292.8477],[170.8784,-44.1395,286.6349],[170.8758,-44.1371,257.7052],[170.8704,-44.1384,258.6175],[170.8676,-44.153,292.9789],[170.8725,-44.1631,305.5577],[170.8602,-44.177,273.0111],[170.8642,-44.1843,266.3031],[170.87,-44.2069,245.19],[170.8757,-44.2101,243.091],[170.8802,-44.2185,234.0895],[170.8787,-44.2244,229.1463],[170.8796,-44.227,225.6348],[170.8881,-44.2326,219.0597],[170.891,-44.2393,239.7986],[170.8958,-44.2449,208.6411],[170.8992,-44.2612,197.5019],[170.9082,-44.267,200.6242],[170.9154,-44.278,181.6386],[170.9209,-44.2798,183.0688],[170.9282,-44.2862,201.8796],[170.9299,-44.2891,174.4004],[170.9301,-44.2947,168.3925],[170.9327,-44.2987,170.2026],[170.9407,-44.3007,164.5891],[170.9476,-44.3063,157.2466],[170.9462,-44.3089,164.6911],[170.9449,-44.3085,162.3375],[170.9476,-44.3111,164.3466],[170.9462,-44.313,214.5469],[170.9486,-44.3132,197.0913],[170.9475,-44.3166,225.7584],[170.9453,-44.3168,217.0055],[170.9532,-44.3237,197.426],[170.9569,-44.3295,189.5938],[170.9641,-44.3536,164.312],[170.9772,-44.3713,142.8851],[170.9772,-44.3742,141.5609],[170.9851,-44.3763,138.167],[170.9896,-44.3797,139.8883],[171.0002,-44.3953,118.079],[171.0126,-44.3984,134.2465],[171.0237,-44.3958,152.5961],[171.0252,-44.3965,116.2027],[171.0258,-44.4001,133.8752],[171.0355,-44.3934,99.3316],[171.0377,-44.3933,98.7375],[171.043,-44.3997,103.5212],[171.044,-44.4063,90.6153],[171.0541,-44.41,87.7491],[171.0597,-44.4096,87.2886],[171.0645,-44.4167,82.0123],[171.0702,-44.4206,76.7471],[171.0935,-44.4296,66.5478],[171.1167,-44.4408,56.8596],[171.1369,-44.4584,41.1311],[171.1432,-44.4705,42.0895],[171.1712,-44.4845,21.5296],[171.2143,-44.501,2.5827],[171.2336,-44.4756,2.3562],[171.2616,-44.4433,0.0],[171.2596,-44.4402,0.0],[171.2608,-44.4322,4.1396],[171.2568,-44.4294,0.0],[171.2564,-44.4268,5.1482],[171.267,-44.4127,0.0],[171.2618,-44.4097,3.9693],[171.2607,-44.4045,4.6319],[171.2627,-44.3955,6.589],[171.2683,-44.3862,0.0],[171.2668,-44.3859,0.0],[171.2675,-44.3875,0.8965],[171.2658,-44.3903,4.1021],[171.2606,-44.392,3.2296],[171.2601,-44.3894,0.0],[171.2597,-44.3919,3.2296],[171.2563,-44.3942,2.0038],[171.2547,-44.3931,2.0038],[171.2569,-44.3916,0.0],[171.2539,-44.3925,3.5079],[171.2562,-44.3908,2.7005],[171.2534,-44.3918,3.5079],[171.2576,-44.3868,3.0566],[171.26,-44.388,0.0],[171.2577,-44.3867,3.0566],[171.2588,-44.3848,0.0],[171.2618,-44.3862,0.0],[171.2572,-44.3838,0.453],[171.2543,-44.3886,1.3567],[171.25,-44.3875,1.2392],[171.2464,-44.3861,15.171],[171.2472,-44.3839,0.0],[171.2449,-44.3817,2.2276],[171.2514,-44.3772,1.7382],[171.2517,-44.374,2.3572],[171.2681,-44.3549,0.0],[171.3281,-44.2997,0.0],[171.3523,-44.2806,0.4301],[171.4233,-44.2324,3.0876],[171.4557,-44.2141,7.1867],[171.5068,-44.1894,1.0168],[171.4986,-44.1754,9.1022],[171.4929,-44.1391,30.0291],[171.4845,-44.1116,47.2364],[171.4709,-44.095,58.9202],[171.4585,-44.0881,65.9103],[171.4451,-44.0831,72.5624],[171.4155,-44.0559,95.0829],[171.4062,-44.051,100.9631],[171.3905,-44.047,107.3835],[171.3769,-44.0367,118.4156],[171.3393,-44.0145,148.3023],[171.3208,-44.0003,162.981],[171.3093,-43.9862,175.2229],[171.3001,-43.9703,186.6283],[171.2958,-43.952,201.6699],[171.2886,-43.9408,215.1989],[171.275,-43.9119,233.7732],[171.2724,-43.9014,242.4527],[171.2735,-43.892,250.5406],[171.2632,-43.8715,274.2299],[171.2648,-43.8624,278.2081],[171.2585,-43.8513,289.1224],[171.2619,-43.8391,298.4166],[171.2577,-43.8353,299.0901],[171.2607,-43.8295,305.3224],[171.2592,-43.8241,309.7938],[171.2637,-43.8161,314.7036],[171.2592,-43.8121,321.1537],[171.2611,-43.8058,323.0353],[171.2501,-43.8023,332.1094],[171.2495,-43.7985,331.3354],[171.2546,-43.7922,339.0395],[171.2492,-43.7897,344.5233],[171.248,-43.7829,350.4912],[171.2452,-43.7796,353.1414],[171.2377,-43.7773,378.2251],[171.2396,-43.7712,360.3906],[171.2375,-43.7662,362.2595],[171.2334,-43.7642,385.7979],[171.2218,-43.7639,377.9919],[171.2126,-43.7547,398.1097],[171.2055,-43.7505,420.1205],[171.2019,-43.7487,396.8453],[171.1933,-43.7483,402.2831],[171.1916,-43.7446,395.7446],[171.1815,-43.7383,405.5763],[171.1823,-43.734,401.6565],[171.1812,-43.7329,419.562],[171.1746,-43.7332,402.375],[171.1516,-43.7389,408.7688],[171.1448,-43.7377,408.5],[171.1329,-43.7306,410.9178],[171.1187,-43.7262,412.5802],[171.1026,-43.7131,416.2041],[171.0846,-43.7108,418.7668],[171.0653,-43.7034,422.7784],[171.0278,-43.7001,430.0915],[170.9943,-43.6815,437.0],[170.9728,-43.6716,442.445],[170.9648,-43.6656,445.5074],[170.9427,-43.6342,462.7856],[170.9286,-43.6273,467.9985],[170.9232,-43.6227,471.7979],[170.9223,-43.6204,472.8552],[170.9248,-43.6159,472.75],[170.9242,-43.614,473.5],[170.9127,-43.6008,484.2299],[170.9006,-43.5825,498.845],[170.8813,-43.5584,524.7816],[170.854,-43.5319,563.8513],[170.8246,-43.5257,578.0668],[170.8003,-43.5181,605.4941],[170.7743,-43.5163,630.1407],[170.7632,-43.5123,643.4537],[170.7545,-43.5068,655.3162],[170.7393,-43.4909,684.9547],[170.7173,-43.4787,717.1663],[170.7075,-43.4692,739.6818],[170.7045,-43.461,757.7081],[170.6916,-43.4522,797.0946],[170.6823,-43.452,822.3164],[170.6719,-43.4566,878.8848],[170.6422,-43.4643,994.2223],[170.6303,-43.462,1128.5173],[170.6211,-43.4554,1231.1191],[170.6142,-43.4546,1462.9287],[170.6125,-43.4557,1447.5088],[170.6136,-43.4649,1767.8137],[170.6016,-43.4667,2051.998],[170.5973,-43.4641,2327.8745]]]]}
,"properties": {"GID_2": "NZL.3.7_1","GID_0": "NZL","country": "NewZealand","GID_1": "NZL.3_1","province": "Canterbury","NL_NAME_1": "NA","county": "Timaru","VARNAME_2": "NA","NL_NAME_2": "NA","TYPE_2": "District","ENGTYPE_2": "District","CC_2": "064","HASC_2": "NZ.CA.TU","name": "Timaru.county","area_km2": 2727.659,"hist_schema_id": "Elevation0-9000","hist_area_km2": {"0": 106.372,"25": 235.421,"50": 186.862,"75": 173.257,"100": 148.295,"125": 131.951,"150": 125.365,"175": 120.224,"200": 103.247,"225": 86.07,"250": 65.468,"275": 48.598,"300": 38.371,"325": 29.284,"350": 25.489,"375": 23.52,"400": 24.666,"425": 37.476,"450": 44.043,"475": 38.144,"500": 39.306,"525": 37.848,"550": 34.101,"575": 33.206,"600": 28.784,"625": 25.026,"650": 24.146,"675": 24.891,"700": 23.348,"725": 21.244,"750": 18.009,"775": 17.103,"800": 14.873,"825": 14.372,"850": 13.255,"875": 12.906,"900": 13.443,"925": 13.692,"950": 13.202,"975": 13.648,"1000": 12.561,"1025": 12.9,"1050": 12.55,"1075": 11.966,"1100": 12.292,"1125": 12.351,"1150": 13.197,"1175": 11.649,"1200": 12.447,"1225": 13.276,"1250": 13.57,"1275": 12.542,"1300": 13.078,"1325": 11.869,"1350": 13.586,"1375": 13.141,"1400": 13.157,"1425": 13.325,"1450": 14.277,"1475": 13.863,"1500": 13.726,"1525": 13.344,"1550": 11.734,"1575": 12.975,"1600": 13.175,"1625": 12.883,"1650": 12.653,"1675": 12.468,"1700": 12.897,"1725": 12.1,"1750": 12.56,"1775": 11.716,"1800": 10.995,"1825": 10.337,"1850": 10.335,"1875": 8.266,"1900": 8.298,"1925": 7.454,"1950": 5.997,"1975": 4.602,"2000": 3.943,"2025": 3.514,"2050": 2.563,"2075": 1.995,"2100": 2.041,"2125": 1.596,"2150": 1.55,"2175": 1.336,"2200": 0.906,"2225": 0.891,"2250": 0.599,"2275": 0.553,"2300": 0.476,"2325": 0.384,"2350": 0.169,"2375": 0.2,"2400": 0.169,"2550": 0.031}}}