{"type":"Feature","properties":{"GID_1":"NZL.5_1","GID_0":"NZL","country":"NewZealand","province":"Gisborne","VARNAME_1":"NA","NL_NAME_1":"NA","TYPE_1":"Region","ENGTYPE_1":"Region","CC_1":"05","HASC_1":"NZ.GI","ISO_1":"NZ-GIS","name":"Gisborne.province"},
"geometry":{"type": "MultiPolygon","coordinates": [[[[178.0497,-38.7061,0.0],[178.0486,-38.7051,6.0608],[178.0473,-38.7064,6.0521],[178.0506,-38.7066,0.0],[178.0497,-38.7061,0.0]]],
[[[178.3432,-38.379,1.1265],[178.3417,-38.385,7.1128],[178.343,-38.3883,0.0],[178.3488,-38.3879,2.6838],[178.3457,-38.3859,0.0],[178.3466,-38.383,0.0],[178.3445,-38.382,14.4519],[178.3485,-38.3794,0.0],[178.3432,-38.379,1.1265]]],
[[[177.2047,-38.5244,1250.6885],[177.2025,-38.5243,1279.4858],[177.1965,-38.5326,1246.3405],[177.1892,-38.537,1171.016],[177.177,-38.5609,1041.3127],[177.1663,-38.5678,896.2778],[177.164,-38.5729,909.8856],[177.167,-38.5778,906.0779],[177.1595,-38.578,1006.3024],[177.1525,-38.5838,1210.5132],[177.1487,-38.5842,1274.7361],[177.1456,-38.5835,1266.933],[177.1405,-38.5776,1344.431],[177.1382,-38.5768,1352.8615],[177.1222,-38.5839,1280.1147],[177.3076,-38.6597,537.507],[177.309,-38.5969,879.829],[177.3534,-38.6246,902.7695],[177.3624,-38.6219,897.3727],[177.3924,-38.6221,902.386],[177.4159,-38.6325,693.9539],[177.4359,-38.6321,374.1572],[177.4397,-38.6327,353.853],[177.4415,-38.6351,368.4249],[177.4478,-38.6359,343.0192],[177.4515,-38.64,318.1719],[177.4471,-38.6414,325.7767],[177.4466,-38.6434,352.5303],[177.4432,-38.645,336.934],[177.4446,-38.646,374.4016],[177.4431,-38.6466,339.2566],[177.4438,-38.6487,349.4277],[177.4419,-38.6493,347.6558],[177.4432,-38.6496,369.8445],[177.4425,-38.6512,369.8445],[177.4361,-38.6594,376.4168],[177.436,-38.663,397.0272],[177.431,-38.6692,428.9356],[177.4229,-38.6712,485.4367],[177.4187,-38.6739,481.0943],[177.4188,-38.6766,523.5253],[177.4212,-38.6783,574.0134],[177.4152,-38.6822,694.2527],[177.4088,-38.6994,738.1509],[177.4107,-38.6998,717.2178],[177.4143,-38.6964,736.2164],[177.4248,-38.6958,767.7771],[177.4293,-38.6922,771.3523],[177.4348,-38.6941,756.3246],[177.4365,-38.6968,763.2209],[177.4344,-38.6985,773.2327],[177.4356,-38.7012,758.6726],[177.4397,-38.7041,725.1672],[177.4662,-38.7056,528.2975],[177.4629,-38.7094,578.4479],[177.4651,-38.7133,542.729],[177.4691,-38.7139,501.4411],[177.4691,-38.7175,451.7086],[177.4716,-38.7193,370.1986],[177.4719,-38.7226,382.5719],[177.4694,-38.7272,425.1416],[177.4759,-38.7318,491.019],[177.4748,-38.7338,441.7217],[177.4759,-38.7381,375.0247],[177.4722,-38.7408,454.1581],[177.4708,-38.7401,484.861],[177.4675,-38.7443,495.4121],[177.4709,-38.7467,486.5294],[177.4699,-38.7554,550.859],[177.4735,-38.7578,480.8283],[177.4835,-38.7551,250.5901],[177.4942,-38.778,351.1999],[177.5144,-38.7744,110.9658],[177.5166,-38.7792,135.439],[177.5216,-38.7817,98.7026],[177.5313,-38.7915,100.5895],[177.5273,-38.7948,94.4293],[177.5371,-38.8003,102.2422],[177.5353,-38.8038,76.7303],[177.5378,-38.8071,102.0958],[177.5352,-38.8095,70.965],[177.5389,-38.8126,72.1493],[177.5375,-38.8149,109.3048],[177.5308,-38.818,118.5206],[177.5306,-38.8197,205.6916],[177.5389,-38.8185,258.4734],[177.543,-38.8125,179.4555],[177.5463,-38.8113,309.2812],[177.5456,-38.8081,275.298],[177.5494,-38.8057,305.0638],[177.5576,-38.8058,421.8809],[177.561,-38.8016,385.7489],[177.5678,-38.8052,537.9341],[177.5758,-38.802,586.0162],[177.5931,-38.8031,836.4136],[177.5975,-38.807,945.2767],[177.5905,-38.8284,874.8168],[177.5945,-38.827,907.5136],[177.5998,-38.8519,488.5037],[177.6261,-38.8434,209.6529],[177.6244,-38.8452,210.6923],[177.6298,-38.8511,197.0011],[177.6291,-38.8525,179.4453],[177.6328,-38.8589,167.8623],[177.6309,-38.861,186.1087],[177.6313,-38.8628,178.8221],[177.6356,-38.8668,163.2551],[177.6343,-38.8698,170.2612],[177.6375,-38.8711,184.9574],[177.6387,-38.8686,187.8085],[177.6406,-38.8682,167.1716],[177.6367,-38.8652,161.1218],[177.6403,-38.8635,173.6488],[177.6395,-38.8611,212.7431],[177.6449,-38.8584,187.7954],[177.6457,-38.8621,191.3757],[177.6479,-38.8628,203.7188],[177.6514,-38.8583,222.0876],[177.6507,-38.856,226.2142],[177.6533,-38.8542,224.0826],[177.6527,-38.8519,239.7498],[177.6577,-38.8487,246.4228],[177.6602,-38.8494,249.0378],[177.6624,-38.8459,264.6221],[177.6621,-38.8524,309.942],[177.6604,-38.8524,349.0369],[177.6602,-38.9047,544.7393],[177.6628,-38.9028,603.2781],[177.6707,-38.9026,517.3054],[177.674,-38.899,573.7974],[177.6871,-38.9036,599.1675],[177.6991,-38.9016,621.2426],[177.7089,-38.9042,581.2463],[177.7106,-38.9065,596.629],[177.7136,-38.906,595.7781],[177.7124,-38.8993,457.7111],[177.7217,-38.8983,573.0217],[177.7294,-38.9034,632.0114],[177.7249,-38.9132,637.5634],[177.7289,-38.9188,638.7859],[177.7352,-38.9137,604.1812],[177.7385,-38.9046,566.2964],[177.7451,-38.9013,585.2927],[177.7492,-38.8967,585.1953],[177.7761,-38.9128,252.1627],[177.7803,-38.9105,266.7816],[177.7801,-38.9073,258.0812],[177.7855,-38.9082,286.7314],[177.785,-38.9057,270.2026],[177.7888,-38.9042,260.2564],[177.7894,-38.9024,289.5809],[177.7921,-38.9022,340.1507],[177.7886,-38.8979,298.2144],[177.799,-38.8944,301.7284],[177.8046,-38.8971,357.0748],[177.7998,-38.8969,378.1344],[177.8039,-38.9007,422.5929],[177.8037,-38.905,406.6859],[177.8067,-38.9067,403.3495],[177.8062,-38.9114,363.0152],[177.8047,-38.9118,363.0152],[177.8219,-38.9217,450.4848],[177.8214,-38.9198,473.2411],[177.8309,-38.915,478.8861],[177.8293,-38.9129,512.5117],[177.8305,-38.9116,512.5117],[177.8309,-38.9131,493.3801],[177.8357,-38.9141,465.6541],[177.8354,-38.9156,471.6713],[177.8413,-38.9206,539.0187],[177.8445,-38.9215,551.91],[177.8453,-38.9284,535.4941],[177.8394,-38.9354,515.9031],[177.8399,-38.9413,491.5509],[177.8344,-38.9484,446.3492],[177.8348,-38.9528,462.666],[177.837,-38.9542,449.593],[177.8369,-38.956,453.0872],[177.843,-38.9575,378.7527],[177.8424,-38.9593,380.918],[177.8629,-38.9636,137.4749],[177.8609,-38.9652,113.7603],[177.8968,-38.9728,149.3775],[177.8988,-38.9722,18.5389],[177.8962,-38.9655,22.4471],[177.9021,-38.956,4.2341],[177.9023,-38.9505,29.9486],[177.9043,-38.9485,19.3128],[177.9028,-38.9432,50.5035],[177.9028,-38.9323,56.6261],[177.9087,-38.9248,11.2982],[177.9104,-38.9131,2.5123],[177.9097,-38.9052,0.7098],[177.9028,-38.8905,54.9413],[177.903,-38.8879,71.1345],[177.9086,-38.88,4.5947],[177.9122,-38.8785,10.4072],[177.9205,-38.8669,0.0],[177.9193,-38.8652,52.4969],[177.9203,-38.8616,11.7462],[177.9171,-38.8621,12.3612],[177.9109,-38.8499,55.9834],[177.9103,-38.8455,5.9051],[177.9125,-38.8434,0.0],[177.9132,-38.8401,46.003],[177.9108,-38.8322,26.3499],[177.9118,-38.8279,36.0091],[177.9178,-38.8224,15.803],[177.9232,-38.8214,15.2111],[177.9226,-38.8174,2.8067],[177.9199,-38.8152,3.811],[177.9196,-38.8104,43.1161],[177.9254,-38.7929,9.1317],[177.9292,-38.7871,1.8867],[177.9391,-38.7834,0.0],[177.9498,-38.7698,25.7571],[177.9511,-38.7636,6.8275],[177.9593,-38.7618,0.0],[177.9617,-38.7596,0.0],[177.9723,-38.7579,22.9333],[177.9712,-38.7556,0.0],[177.959,-38.7532,21.3308],[177.9482,-38.7549,68.7813],[177.9437,-38.7537,6.1505],[177.9446,-38.7529,0.0],[177.9426,-38.751,0.0],[177.9409,-38.7523,0.0],[177.9382,-38.7514,0.0],[177.9387,-38.7532,1.0385],[177.9352,-38.7505,0.6241],[177.9366,-38.7495,0.0],[177.9362,-38.7473,0.0],[177.9399,-38.7455,0.5788],[177.9393,-38.7391,0.0],[177.9373,-38.7398,1.0144],[177.9367,-38.7326,0.7412],[177.9372,-38.7308,0.8758],[177.9396,-38.7305,0.0],[177.9404,-38.7269,0.0],[177.9403,-38.7228,0.0],[177.9358,-38.7225,0.9683],[177.9354,-38.72,0.9966],[177.9373,-38.7197,0.9863],[177.9368,-38.7171,1.1317],[177.9518,-38.6976,3.3826],[177.9677,-38.6843,3.7799],[177.9819,-38.6771,3.6302],[178.0047,-38.6709,2.4588],[178.0148,-38.6709,3.2527],[178.0203,-38.6722,0.5101],[178.0186,-38.678,0.0],[178.0224,-38.6758,0.4395],[178.0256,-38.6804,0.563],[178.0382,-38.6853,11.9499],[178.0382,-38.6884,12.0248],[178.042,-38.6909,20.5458],[178.0499,-38.7014,0.0],[178.0486,-38.7039,0.0],[178.0551,-38.6995,26.0772],[178.0599,-38.7002,6.3172],[178.0642,-38.7019,54.2402],[178.0697,-38.7079,9.0971],[178.0689,-38.7016,9.3605],[178.0718,-38.6959,11.0567],[178.0718,-38.6918,9.1747],[178.0805,-38.6783,3.8044],[178.0914,-38.6711,6.5852],[178.1051,-38.6662,8.2494],[178.1082,-38.6596,0.0],[178.1245,-38.6507,18.1277],[178.1322,-38.6503,1.8131],[178.1425,-38.6537,5.1401],[178.1472,-38.652,8.0627],[178.1458,-38.6453,2.6942],[178.1488,-38.6413,0.0],[178.1557,-38.6375,22.0018],[178.1588,-38.629,5.0549],[178.1724,-38.629,7.4975],[178.1759,-38.6246,3.7231],[178.1766,-38.6182,19.8149],[178.18,-38.6124,2.217],[178.1855,-38.6082,0.0],[178.1992,-38.6052,32.306],[178.2008,-38.6013,34.9037],[178.1998,-38.5921,5.4383],[178.2033,-38.5872,16.4959],[178.2136,-38.5791,29.7748],[178.232,-38.5722,0.0],[178.2307,-38.5655,0.0],[178.237,-38.5596,0.0],[178.2469,-38.5572,1.079],[178.2484,-38.5523,1.4432],[178.2553,-38.5519,0.0],[178.262,-38.5491,20.3362],[178.2638,-38.5449,9.1236],[178.2689,-38.5397,0.0],[178.2811,-38.5401,0.0],[178.2838,-38.5308,6.0148],[178.2896,-38.5282,0.466],[178.2919,-38.5293,2.5435],[178.2931,-38.5224,5.2257999999999996],[178.2831,-38.5109,61.225],[178.2829,-38.5035,23.17],[178.2858,-38.4998,3.3876],[178.2867,-38.4929,0.0],[178.2841,-38.4825,0.0],[178.28,-38.4792,0.8187],[178.2799,-38.475,1.6096],[178.2834,-38.4709,52.1222],[178.2884,-38.4692,4.7549],[178.2907,-38.4606,27.4851],[178.3006,-38.4446,0.0],[178.3118,-38.4339,2.496],[178.3196,-38.4284,0.0],[178.339,-38.4234,8.7511],[178.3468,-38.4158,0.0],[178.3425,-38.4159,55.6908],[178.3438,-38.4135,0.0],[178.3417,-38.4125,5.6217],[178.3365,-38.4051,2.317],[178.3379,-38.4012,0.0],[178.3357,-38.3969,0.0],[178.3403,-38.3892,10.2727],[178.3403,-38.3787,3.5694],[178.3351,-38.3805,7.5186],[178.3379,-38.3787,2.2034],[178.3367,-38.3777,0.0],[178.3176,-38.3825,1.6132],[178.3053,-38.3727,1.321],[178.3057,-38.3627,32.7536],[178.3184,-38.3577,83.1736],[178.3203,-38.355,12.0424],[178.3259,-38.355,3.6974],[178.3297,-38.3524,0.0],[178.3248,-38.3411,3.7791],[178.3242,-38.3345,3.922],[178.3318,-38.3314,0.0],[178.3333,-38.3264,0.0],[178.3311,-38.3215,17.1168],[178.3251,-38.3195,6.7488],[178.3231,-38.316,0.6855],[178.3256,-38.3054,4.9426],[178.3334,-38.298,0.8206],[178.3402,-38.2979,25.9939],[178.3478,-38.2954,6.9628],[178.353,-38.2966,0.0],[178.356,-38.2912,4.1806],[178.3594,-38.289,45.6989],[178.3589,-38.2874,15.0767],[178.3541,-38.2856,8.3057],[178.3402,-38.2863,51.7453],[178.3347,-38.2832,63.6221],[178.3301,-38.2734,6.4875],[178.3323,-38.2706,0.0],[178.3331,-38.26,50.0923],[178.3252,-38.2546,40.5003],[178.3243,-38.2503,1.4273],[178.3175,-38.2477,0.9229],[178.3108,-38.239,0.0],[178.3097,-38.2341,0.0],[178.3084,-38.2342,30.8301],[178.3121,-38.2283,4.6232],[178.3185,-38.2259,27.5822],[178.318,-38.2234,47.7683],[178.32,-38.2216,0.0],[178.3261,-38.2195,57.9142],[178.3308,-38.2213,0.0],[178.3352,-38.2198,19.084],[178.3328,-38.2157,5.9415],[178.3337,-38.2029,25.0769],[178.3368,-38.1997,0.0],[178.3384,-38.1916,1.2202],[178.3525,-38.1863,8.636],[178.3559,-38.1817,18.8594],[178.3542,-38.1782,3.256],[178.3553,-38.1771,14.1981],[178.3597,-38.1788,8.7456],[178.3676,-38.1759,0.0],[178.3597,-38.1743,0.0],[178.3565,-38.1755,4.0407],[178.348,-38.171,0.0],[178.3234,-38.1507,0.0],[178.3178,-38.1394,1.6497],[178.318,-38.1301,2.5729],[178.3218,-38.1223,0.0],[178.3273,-38.1182,0.0],[178.3406,-38.1123,0.7487],[178.3414,-38.1093,19.021],[178.3475,-38.11,0.0],[178.3494,-38.107,8.8511],[178.3521,-38.1067,0.0],[178.3546,-38.1074,47.998],[178.355,-38.11,0.0],[178.3594,-38.1099,0.0],[178.3642,-38.1043,0.0],[178.366,-38.0996,16.378],[178.3739,-38.0936,12.1678],[178.3712,-38.0866,0.0],[178.3727,-38.0721,0.0],[178.3641,-38.071,16.4601],[178.3616,-38.0686,84.0299],[178.3653,-38.0589,230.3788],[178.3671,-38.0592,146.7294],[178.3662,-38.0577,153.7054],[178.3682,-38.052,184.0304],[178.3714,-38.0512,0.0],[178.3716,-38.0498,0.0],[178.3671,-38.0485,46.7944],[178.3558,-38.0497,56.0166],[178.3552,-38.0462,0.0],[178.3472,-38.0444,2.3012],[178.3448,-38.0397,2.679],[178.3368,-38.0372,5.2946],[178.3341,-38.0247,25.7034],[178.3342,-38.0202,5.3964],[178.3372,-38.0162,2.1474],[178.3372,-38.0093,11.9138],[178.3457,-37.9972,0.0],[178.351,-37.993,0.3946],[178.3523,-37.9897,1.6199],[178.3619,-37.9855,16.9856],[178.3685,-37.9853,0.0],[178.3719,-37.9808,5.8716],[178.3753,-37.969,11.462],[178.378,-37.9658,32.3056],[178.387,-37.9647,0.0],[178.3914,-37.9612,0.0],[178.392,-37.9559,19.8117],[178.3987,-37.9446,0.0],[178.3993,-37.9409,0.0],[178.391,-37.9342,0.0],[178.3888,-37.9274,49.7294],[178.3886,-37.9185,7.8972],[178.387,-37.9192,7.8972],[178.401,-37.9035,5.7945],[178.4023,-37.8957,14.9254],[178.405,-37.8921,29.6873],[178.404,-37.8859,8.0634],[178.406,-37.881,0.0],[178.4059,-37.8727,0.0],[178.4085,-37.8663,1.9674],[178.4137,-37.8594,8.1201],[178.425,-37.8513,0.0],[178.4297,-37.8455,31.4557],[178.4335,-37.8435,15.187],[178.4384,-37.8434,0.0],[178.4517,-37.8332,0.0],[178.4458,-37.8234,17.2849],[178.45,-37.8134,55.5933],[178.4613,-37.7979,7.9321],[178.4741,-37.7852,16.1937],[178.4776,-37.7769,0.0],[178.4796,-37.7754,0.0],[178.4789,-37.7746,0.6174],[178.4835,-37.7715,1.7138],[178.491,-37.762,10.2822],[178.5035,-37.7502,5.8184],[178.5094,-37.7464,5.5337],[178.514,-37.7455,28.3806],[178.5173,-37.7412,31.841],[178.5176,-37.738,43.013],[178.5239,-37.7336,15.0601],[178.5257,-37.7278,12.269],[178.523,-37.7244,0.0],[178.5237,-37.7212,14.9899],[178.5319,-37.7102,2.8656],[178.544,-37.7024,13.1554],[178.5462,-37.6968,0.0],[178.5503,-37.6924,18.0413],[178.5497,-37.6873,0.0],[178.5385,-37.6735,9.435],[178.5281,-37.6735,5.2622],[178.5189,-37.6705,3.4231],[178.49,-37.6512,0.0],[178.4807,-37.6401,4.5594],[178.4697,-37.6383,5.4788],[178.4613,-37.6413,7.9146],[178.4496,-37.6409,0.0],[178.4411,-37.6367,0.8819],[178.4179,-37.6297,4.161],[178.4074,-37.6325,7.4666],[178.3991,-37.6301,3.1681],[178.3941,-37.6311,0.0],[178.3907,-37.6285,2.6593],[178.3819,-37.629,9.0463],[178.3778,-37.6328,0.2692],[178.3716,-37.633,6.2406],[178.3408,-37.6217,2.0166],[178.3346,-37.6145,0.4018],[178.3245,-37.6081,3.1579],[178.3186,-37.6021,2.5214],[178.3163,-37.602,32.0694],[178.3239,-37.5966,6.658],[178.3251,-37.5909,9.6201],[178.3206,-37.5906,3.167],[178.3167,-37.5931,78.453],[178.3076,-37.5935,17.3032],[178.3014,-37.5962,5.3629],[178.3001,-37.5925,24.8394],[178.3023,-37.5914,1.7243],[178.298,-37.5914,20.0863],[178.2941,-37.5844,0.9016],[178.2922,-37.5782,0.0],[178.2939,-37.57,3.9077],[178.3107,-37.5683,0.0],[178.3169,-37.5662,18.1242],[178.3173,-37.5635,20.2778],[178.3221,-37.5602,4.7926],[178.3147,-37.5562,1.0449],[178.2933,-37.5554,21.7789],[178.291,-37.5538,11.0723],[178.2819,-37.5535,14.3344],[178.278,-37.5552,27.9238],[178.2714,-37.5521,9.8381],[178.2655,-37.5532,29.9384],[178.259,-37.5503,15.586],[178.2433,-37.5501,22.0379],[178.2241,-37.5477,14.78],[178.2225,-37.5463,14.78],[178.2164,-37.5469,9.9808],[178.2135,-37.5429,29.4923],[178.2152,-37.538,12.6609],[178.2139,-37.5362,6.4732],[178.2095,-37.5352,23.7523],[178.1967,-37.5367,14.6521],[178.1896,-37.5348,12.6865],[178.1876,-37.5384,53.8195],[178.1824,-37.5389,13.9413],[178.179,-37.5378,0.0],[178.1755,-37.5343,1.2917],[178.1714,-37.5344,0.6306],[178.1703,-37.5366,6.8732],[178.1734,-37.5384,59.2152],[178.1685,-37.5421,0.0],[178.1669,-37.5487,9.8536],[178.168,-37.5508,0.0],[178.1639,-37.5525,2.5462],[178.1596,-37.5504,6.5607],[178.1418,-37.5508,39.2535],[178.1425,-37.548,0.2695],[178.1378,-37.5464,8.8398],[178.1333,-37.55,20.8937],[178.1204,-37.547,7.4937],[178.1153,-37.5468,8.349],[178.111,-37.5486,24.1166],[178.1084,-37.5459,0.8279],[178.0853,-37.5424,5.2702],[178.0891,-37.5512,358.8199],[178.0983,-37.586,222.9576],[178.1076,-37.5987,139.804],[178.0398,-37.5975,33.3047],[178.0375,-37.5999,87.0535],[178.034,-37.5997,51.0329],[178.0338,-37.6026,49.8232],[178.0302,-37.6042,47.8928],[178.0262,-37.6032,51.8185],[178.0252,-37.6049,75.0439],[177.9867,-37.6088,306.6465],[177.9801,-37.6132,302.7294],[177.9781,-37.617,285.7564],[177.9784,-37.6214,294.6038],[177.9759,-37.6249,305.3285],[177.9751,-37.6302,293.9844],[177.9777,-37.6305,345.357],[177.9785,-37.6336,334.604],[177.9826,-37.6362,260.4999],[177.9817,-37.6382,301.6447],[177.9831,-37.6413,269.8448],[177.9896,-37.6449,333.7236],[177.9872,-37.6481,205.8968],[177.9913,-37.6499,199.9569],[177.9887,-37.6539,194.8659],[177.9913,-37.6536,192.9824],[177.9917,-37.6581,189.7731],[177.993,-37.6583,189.7731],[177.9915,-37.6678,230.8371],[177.9938,-37.6695,237.0374],[177.9947,-37.6742,205.9916],[177.9921,-37.6796,173.3366],[177.9949,-37.681,168.3783],[177.9919,-37.6862,160.0775],[177.9937,-37.6871,164.4089],[177.9921,-37.688,167.3539],[177.9936,-37.6889,167.3539],[177.9924,-37.6905,168.603],[177.9982,-37.6896,152.0385],[177.9948,-37.6919,135.6846],[177.9934,-37.6967,140.3851],[177.9866,-37.6972,140.3667],[177.9885,-37.6992,138.7359],[177.9859,-37.7007,126.6673],[177.9877,-37.7017,158.8733],[177.985,-37.7035,187.6812],[177.9866,-37.7044,134.5724],[177.9858,-37.7072,151.6198],[177.9893,-37.7113,113.0314],[177.9887,-37.7145,117.8943],[177.9933,-37.7166,116.7904],[177.9924,-37.7196,109.7319],[177.9889,-37.7213,127.9382],[177.987,-37.7252,95.5112],[177.9786,-37.7308,88.3404],[177.9781,-37.7343,83.8715],[177.98,-37.736,85.2032],[177.9768,-37.7406,95.878],[177.9781,-37.7442,111.5332],[177.9922,-37.7528,179.6985],[177.9966,-37.7603,186.3319],[177.9946,-37.7643,179.4572],[178.0387,-37.7331,303.0404],[178.073,-37.7636,1195.3528],[177.9723,-37.845,1382.5466],[177.9168,-37.9814,1420.8823],[177.861,-38.1117,1394.5179],[177.8557,-38.1074,1051.2998],[177.8504,-38.1089,871.8412],[177.849,-38.1113,896.1459],[177.7727,-38.0598,1282.9941],[177.74,-38.042,1267.4375],[177.7244,-38.0226,1047.0743],[177.7008,-38.0222,794.6739],[177.6983,-38.0186,779.5436],[177.6912,-38.0163,401.7314],[177.69,-38.014,275.8694],[177.6824,-38.015,288.3697],[177.6811,-38.0124,184.8178],[177.6795,-38.0155,218.4937],[177.6729,-38.0199,196.8054],[177.6743,-38.0262,250.5404],[177.6801,-38.0309,193.6436],[177.6828,-38.0393,300.1849],[177.6893,-38.0467,228.0772],[177.6911,-38.0516,245.3111],[177.6941,-38.0534,194.4042],[177.6942,-38.058,244.7352],[177.6976,-38.0607,282.5018],[177.69,-38.0673,227.5905],[177.6877,-38.0776,245.3714],[177.6805,-38.0786,224.8402],[177.6772,-38.0862,247.0767],[177.6799,-38.0859,244.5942],[177.6823,-38.0829,306.2685],[177.6856,-38.0833,218.2593],[177.6882,-38.091,310.3856],[177.6934,-38.0929,288.1224],[177.6897,-38.0973,254.5365],[177.6952,-38.097,260.6468],[177.6946,-38.0998,322.6217],[177.7026,-38.1057,266.8925],[177.6944,-38.1033,316.7558],[177.6911,-38.1091,354.6603],[177.6879,-38.1092,321.8868],[177.6858,-38.1071,353.1057],[177.6849,-38.1107,343.8211],[177.6791,-38.1139,300.0529],[177.6681,-38.1134,380.0111],[177.668,-38.1182,331.8828],[177.6642,-38.1163,352.4643],[177.6638,-38.1228,338.2568],[177.6605,-38.1259,327.221],[177.6622,-38.1284,342.0815],[177.6594,-38.1313,398.2205],[177.6549,-38.132,350.9608],[177.6551,-38.1346,367.1348],[177.6528,-38.1356,339.1802],[177.6509,-38.1416,353.3508],[177.653,-38.1435,379.054],[177.6518,-38.1539,453.3196],[177.6555,-38.1555,369.9078],[177.6536,-38.1586,564.222],[177.6423,-38.1638,756.1932],[177.634,-38.1608,769.2068],[177.6286,-38.1607,852.1301],[177.6246,-38.1638,813.7776],[177.6223,-38.1683,826.6433],[177.6182,-38.1684,891.2258],[177.6153,-38.172,843.4739],[177.6094,-38.1712,746.7045],[177.6045,-38.173,589.142],[177.6024,-38.1712,512.3138],[177.6048,-38.1866,636.3393],[177.6014,-38.1846,582.8669],[177.597,-38.1901,565.4789],[177.5903,-38.1896,647.7278],[177.5837,-38.1936,714.4535],[177.5786,-38.1913,728.7634],[177.5764,-38.1933,745.7405],[177.5732,-38.1927,665.0012],[177.5565,-38.2047,758.5125],[177.5573,-38.208,772.3488],[177.5604,-38.2094,774.8308],[177.5337,-38.2093,450.9569],[177.5333,-38.2184,676.5464],[177.5321,-38.2185,679.4008],[177.5268,-38.2184,699.0052],[177.5174,-38.2146,665.5698],[177.512,-38.2175,612.3682],[177.5062,-38.2167,517.8528],[177.5032,-38.2127,296.1599],[177.501,-38.2134,296.927],[177.5009,-38.2154,337.9066],[177.5026,-38.2164,373.3107],[177.5019,-38.2178,346.8943],[177.4981,-38.2182,295.2241],[177.4983,-38.2205,322.685],[177.495,-38.2206,317.6341],[177.4939,-38.2223,317.7415],[177.4956,-38.2228,317.7415],[177.4951,-38.2249,361.8073],[177.4935,-38.2241,376.5997],[177.4946,-38.2267,396.0159],[177.4928,-38.2291,363.0812],[177.4935,-38.2323,366.9295],[177.4906,-38.2336,355.8191],[177.4923,-38.2358,372.7246],[177.4919,-38.2397,387.3055],[177.4863,-38.2391,430.6438],[177.4841,-38.2371,426.3756],[177.4818,-38.2399,443.5512],[177.4833,-38.2431,465.2462],[177.4911,-38.2501,467.4277],[177.4887,-38.2582,534.3134],[177.4899,-38.2612,558.6064],[177.4923,-38.2625,586.335],[177.4975,-38.2608,644.481],[177.4843,-38.2745,978.2007],[177.4863,-38.2963,840.3527],[177.4637,-38.3335,848.4081],[177.2369,-38.4263,512.7672],[177.2574,-38.5083,1111.1245],[177.2547,-38.513,1118.2583],[177.2523,-38.5137,1038.5193],[177.2431,-38.51,1131.8477],[177.2406,-38.5104,1123.0454],[177.2379,-38.5195,1168.7502],[177.2302,-38.5272,1210.0325],[177.2258,-38.5341,1243.3184],[177.214,-38.5301,998.0974],[177.2047,-38.5244,1250.6885]]],
[[[178.5765,-37.6894,8.6356],[178.5736,-37.6918,20.1423],[178.5738,-37.693,0.0],[178.5768,-37.6924,15.0127],[178.5765,-37.6894,8.6356]]]]}}