{"type":"Feature","properties":{"ISO3166-1-Alpha-3":"NZL","country":"New Zealand","fill":"#FF0","id":"3396","name":"Gisborne District"},
"geometry":{"type": "Polygon","coordinates": [[[177.91245,-38.96071,0.0],[177.92612,-38.93125,0.0],[177.93686,-38.87265,0.0],[177.93775,-38.82008,0.0],[177.9441,-38.79778,0.0],[177.96168,-38.77288,0.0],[177.96404,-38.76141,0.0],[177.95541,-38.75026,0.0],[177.93686,-38.7348,0.8068],[177.93474,-38.73008,0.0],[177.93165,-38.7195,0.6766],[177.93133,-38.71429,1.0717],[177.93238,-38.70241,1.1707],[177.93621,-38.70176,1.1008],[177.94239,-38.70387,0.9373],[177.95118,-38.70062,0.0],[177.97218,-38.68841,0.0],[177.99733,-38.68328,0.0],[178.0228,-38.68776,0.0],[178.06227,-38.71649,0.0],[178.07984,-38.70908,0.0],[178.18181,-38.63836,0.0],[178.29461,-38.53981,0.0],[178.30014,-38.53167,0.0],[178.29933,-38.46697,0.0],[178.30372,-38.45827,0.0],[178.34132,-38.44264,0.0],[178.34832,-38.43434,0.0],[178.34889,-38.42018,0.0],[178.34295,-38.4096,0.0],[178.33277,-38.40244,84.2547],[178.32049,-38.39902,106.7754],[178.32716,-38.38592,48.1063],[178.3296,-38.36395,0.0],[178.33399,-38.35125,0.0],[178.35011,-38.33733,0.0],[178.3589,-38.32773,0.0],[178.36207,-38.3165,0.0],[178.35174,-38.30299,0.0],[178.33237,-38.28558,72.3806],[178.31853,-38.26572,107.6718],[178.32407,-38.24505,0.0],[178.33937,-38.2278,0.0],[178.35125,-38.2081,0.0],[178.35467,-38.18808,0.0],[178.3296,-38.14593,0.0],[178.33937,-38.13014,0.0],[178.35955,-38.1181,0.0],[178.37574,-38.10475,0.0],[178.38111,-38.07871,0.0],[178.37062,-38.0569,0.0],[178.3558,-38.03607,0.0],[178.34832,-38.01263,0.0],[178.35157,-38.00172,0.0],[178.35914,-37.99196,0.0],[178.37574,-37.97503,0.0],[178.38673,-37.95916,211.1921],[178.41481,-37.89642,0.0],[178.42921,-37.87444,0.0],[178.46518,-37.85442,0.0],[178.47901,-37.82977,0.0],[178.49928,-37.7833,0.0],[178.53696,-37.75189,0.0],[178.55592,-37.72674,0.0],[178.5643,-37.71771,0.0],[178.56617,-37.70086,0.0],[178.55055,-37.6806,0.0],[178.52882,-37.66237,0.0],[178.51287,-37.65228,0.0],[178.49806,-37.64691,0.0],[178.48561,-37.64495,0.0],[178.45484,-37.64544,36.3423],[178.44174,-37.64227,21.1872],[178.42254,-37.62811,0.0],[178.41017,-37.62493,0.0],[178.37501,-37.62518,0.0],[178.35808,-37.62322,0.0],[178.34148,-37.61826,0.4629],[178.33058,-37.6111,0.0],[178.31219,-37.59547,92.5626],[178.29998,-37.59092,0.0],[178.29998,-37.58408,0.0],[178.31349,-37.57334,0.0],[178.30104,-37.56504,77.8222],[178.27768,-37.55926,78.6463],[178.07733,-37.55138,338.3388],[178.07722,-37.56794,93.7657],[178.05717,-37.59305,99.42],[177.99992,-37.60773,98.5576],[177.97821,-37.6161,306.7072],[177.97573,-37.62778,306.4041],[177.98049,-37.63698,251.4405],[177.99061,-37.66566,243.4265],[177.98989,-37.69842,161.0466],[177.98142,-37.71842,234.6306],[177.97749,-37.74126,175.554],[178.00033,-37.75614,203.55],[178.02565,-37.73909,326.173],[178.04932,-37.74018,355.508],[178.05893,-37.76147,833.0392],[178.03123,-37.79924,971.1238],[177.99351,-37.82839,611.0443],[177.94183,-37.90668,548.4681],[177.88478,-38.06429,1051.4236],[177.84406,-38.10744,831.6719],[177.80127,-38.08631,1171.342],[177.76107,-38.06036,973.304],[177.72386,-38.02946,920.1948],[177.68924,-38.02145,686.1085],[177.67797,-38.02987,309.174],[177.68965,-38.05318,338.5398],[177.68882,-38.09199,319.5347],[177.68438,-38.11457,442.7619],[177.6634,-38.13287,583.5232],[177.65875,-38.14522,533.7618],[177.65275,-38.15705,480.1548],[177.6388,-38.16475,719.2414],[177.6234,-38.16987,698.1295],[177.60097,-38.18806,539.3553],[177.57669,-38.20335,525.0955],[177.54981,-38.21286,487.3075],[177.52253,-38.21591,590.2527],[177.4971,-38.22433,343.4593],[177.48832,-38.23953,432.2174],[177.49462,-38.25782,686.9504],[177.49059,-38.29379,787.4106],[177.47023,-38.32546,655.3668],[177.4322,-38.35321,831.9031],[177.31138,-38.39259,638.2673],[177.24399,-38.4298,458.5824],[177.24585,-38.46261,694.5706],[177.25516,-38.4977,870.2422],[177.238,-38.5238,1050.8966],[177.45129,-38.6238,579.174],[177.4697,-38.57165,592.9924],[177.55867,-38.61767,445.6174],[177.56174,-38.69437,487.2305],[177.72741,-38.84163,641.8344],[177.83479,-38.91526,459.3329],[177.88081,-38.9214,462.3625],[177.91245,-38.96071,0.0]]]}}