{"type":"Feature","properties":{"ISO3166-1-Alpha-3":"NZL","country":"New Zealand","fill":"#F0F","id":"5476","name":"Three Kings Islands"},
"geometry":{"type": "Polygon","coordinates": [[[172.146,-34.14466,110.3361],[172.14356,-34.14669,0.0],[172.13888,-34.14913,0.0],[172.12547,-34.1473,0.0],[172.11998,-34.14506,0.0],[172.11632,-34.14425,0.0],[172.1147,-34.14649,0.0],[172.11632,-34.15238,0.0],[172.12181,-34.15645,0.0],[172.1277,-34.16153,0.0],[172.13157,-34.166,17.6051],[172.13766,-34.16925,110.884],[172.14478,-34.16905,0.0],[172.14864,-34.16762,0.0],[172.15169,-34.16681,0.0],[172.14823,-34.16498,0.0],[172.14884,-34.16193,0.0],[172.1462,-34.15584,0.0],[172.14579,-34.15238,16.3521],[172.15473,-34.15197,0.0],[172.15839,-34.14811,0.0],[172.15717,-34.14445,0.0],[172.15087,-34.14445,0.0],[172.146,-34.14466,110.3361]]]}}