{"type": "Feature","bbox": [172.03,-34.1908,172.1693,-34.1297],"geometry": {"type": "MultiPolygon","coordinates": [[[[172.0322,-34.1837,24.1741],[172.0306,-34.1832,24.1741],[172.03,-34.1847,0.0],[172.0352,-34.1873,31.4056],[172.0369,-34.1908,0.0],[172.0373,-34.1865,4.342],[172.0339,-34.1835,17.0816],[172.0322,-34.1837,24.1741]]],
[[[172.0367,-34.1792,6.1018],[172.0378,-34.1797,0.0],[172.039,-34.1776,0.0],[172.0353,-34.1783,0.0],[172.0367,-34.1792,6.1018]]],
[[[172.0569,-34.1761,6.8578],[172.0533,-34.1764,3.7784],[172.0558,-34.18,0.0],[172.0572,-34.1789,0.0],[172.0569,-34.1761,6.8578]]],
[[[172.0475,-34.1758,1.8488],[172.0406,-34.1766,0.0],[172.0404,-34.178,0.0],[172.0428,-34.1794,0.0],[172.0525,-34.1769,0.883],[172.0522,-34.1758,0.0],[172.0475,-34.1758,1.8488]]],
[[[172.0553,-34.1823,0.0],[172.0568,-34.183,0.0],[172.0574,-34.1816,0.0],[172.0559,-34.1812,0.0],[172.0553,-34.1823,0.0]]],
[[[172.0739,-34.1748,0.0],[172.0683,-34.17,0.0],[172.0672,-34.1706,0.0],[172.0669,-34.1775,0.0],[172.0715,-34.1785,0.0],[172.0717,-34.1825,0.0],[172.0772,-34.18,0.314],[172.0739,-34.1748,0.0]]],
[[[172.1499,-34.1444,0.0],[172.1465,-34.1435,0.0],[172.1441,-34.1447,101.868],[172.1441,-34.149,149.6643],[172.1418,-34.1513,55.0651],[172.1374,-34.1523,0.0],[172.1272,-34.1523,8.0713],[172.1195,-34.1484,2.5726],[172.1194,-34.1517,0.0],[172.1217,-34.1544,22.3465],[172.1208,-34.1569,0.0],[172.1275,-34.1589,34.7978],[172.1297,-34.1642,72.6857],[172.1321,-34.166,17.6051],[172.1357,-34.1653,78.0299],[172.1367,-34.1702,3.9738],[172.1408,-34.1711,6.4851],[172.1456,-34.169,0.0],[172.1469,-34.1669,0.0],[172.1522,-34.1676,0.0],[172.1522,-34.1664,0.0],[172.1456,-34.1654,34.2291],[172.1455,-34.1629,24.6707],[172.1485,-34.1615,0.0],[172.1444,-34.1554,0.0],[172.1479,-34.1526,24.0204],[172.1537,-34.1532,0.0],[172.1538,-34.1507,82.5933],[172.1575,-34.1488,2.1613],[172.1563,-34.1476,0.0],[172.1581,-34.1453,0.0],[172.1553,-34.1436,0.0],[172.1499,-34.1444,0.0]]],
[[[172.1662,-34.134,0.0],[172.1679,-34.1352,0.0],[172.1693,-34.1336,8.4174],[172.1672,-34.1297,6.2489],[172.1656,-34.1323,0.0],[172.1662,-34.134,0.0]]]]}
,"properties": {"GID_2": "NZL.10.2_1","GID_0": "NZL","country": "NewZealand","GID_1": "NZL.10_1","province": "NorthernIslands","NL_NAME_1": "NA","county": "ThreeKings","VARNAME_2": "NA","NL_NAME_2": "NA","TYPE_2": "Territory","ENGTYPE_2": "Territory","CC_2": "NZ.01.02","HASC_2": "NA","name": "Three_Kings.county","area_km2": 6.105363,"hist_schema_id": "Elevation0-9000","hist_area_km2": {"0": 1.842018,"25": 0.526329,"50": 0.421054,"75": 0.666697,"100": 0.684265,"125": 0.649142,"150": 0.438611,"175": 0.263172,"200": 0.245628,"225": 0.192995,"250": 0.122816,"275": 0.052636}}}