{"type":"Feature","properties":{"GID_2":"NZL.18.5_1","GID_0":"NZL","country":"NewZealand","GID_1":"NZL.18_1","province":"Wellington","NL_NAME_1":"NA","county":"Porirua","VARNAME_2":"NA","NL_NAME_2":"NA","TYPE_2":"City","ENGTYPE_2":"City","CC_2":"044","HASC_2":"NZ.WG.PR","name":"Porirua.county"},
"geometry":{"type": "MultiPolygon","coordinates": [[[[174.7822,-41.0778,1.1633],[174.7809,-41.0778,0.6218],[174.7711,-41.0918,13.9647],[174.7726,-41.0974,14.9296],[174.7839,-41.0947,0.0],[174.7897,-41.0903,2.1304],[174.7882,-41.0863,0.0],[174.79,-41.0794,0.0],[174.7822,-41.0778,1.1633]]],
[[[174.932,-41.004,7.6938],[174.9273,-41.0056,4.1668],[174.9148,-41.0175,0.3812],[174.9017,-41.025,7.5783],[174.8981,-41.0292,1.6131],[174.8866,-41.0279,0.0],[174.8822,-41.0299,38.7068],[174.8707,-41.0307,2.3809],[174.8705,-41.0343,7.3174],[174.8635,-41.0421,0.0],[174.856,-41.0465,84.7306],[174.8486,-41.0475,0.4634],[174.8463,-41.0499,57.5541],[174.8394,-41.0612,16.3103],[174.8393,-41.0642,74.4833],[174.8433,-41.0663,0.0],[174.8513,-41.0659,28.5636],[174.8554,-41.0747,0.0],[174.8589,-41.0743,4.4083],[174.8624,-41.0779,17.6855],[174.863,-41.0828,0.0],[174.8654,-41.0832,0.6293],[174.8672,-41.0867,2.4632],[174.8661,-41.0911,15.04],[174.8674,-41.0931,2.8678],[174.8648,-41.0983,1.7485],[174.8681,-41.1001,2.6444],[174.8688,-41.103,0.0],[174.8617,-41.1098,0.0],[174.8587,-41.1157,1.7062],[174.8439,-41.1284,1.501],[174.8435,-41.1326,5.3841],[174.8408,-41.1296,3.6825],[174.8404,-41.1252,0.6275],[174.8373,-41.1247,3.8972],[174.8407,-41.1176,2.1279],[174.8441,-41.1141,3.5641],[174.8517,-41.1129,20.8885],[174.855,-41.1101,0.0],[174.8537,-41.1071,21.5726],[174.8572,-41.1078,19.6935],[174.86,-41.1042,14.9756],[174.8629,-41.1031,3.9745],[174.8619,-41.0946,2.8307],[174.8543,-41.0934,1.2787],[174.8539,-41.0892,0.0],[174.8521,-41.0903,4.2481],[174.8495,-41.0888,0.0],[174.8488,-41.0905,7.6848],[174.8385,-41.0947,36.3512],[174.8378,-41.0969,45.5747],[174.8326,-41.1007,0.9645],[174.8362,-41.1036,0.0],[174.8337,-41.1077,1.3356],[174.8238,-41.1056,2.4438],[174.8218,-41.1073,10.7851],[174.8161,-41.1075,0.5892],[174.8121,-41.1119,26.4362],[174.8047,-41.1112,0.0],[174.8035,-41.1172,13.7495],[174.8053,-41.1191,14.9478],[174.8032,-41.1226,22.5901],[174.8005,-41.1241,3.9364],[174.7957,-41.1237,8.0382],[174.7927,-41.1281,74.0937],[174.7882,-41.1295,0.0],[174.7891,-41.1317,6.7573],[174.787,-41.1367,54.3266],[174.7781,-41.144,34.3852],[174.7873,-41.1478,239.3922],[174.7902,-41.1435,256.393],[174.8061,-41.1498,407.8979],[174.8035,-41.1556,443.4832],[174.8125,-41.1583,239.3521],[174.8102,-41.1614,273.7625],[174.81,-41.1636,246.698],[174.8113,-41.1641,231.8315],[174.8139,-41.1641,224.0889],[174.827,-41.1546,45.8979],[174.8295,-41.1549,19.8954],[174.8316,-41.1495,26.7416],[174.8327,-41.1496,25.5786],[174.8319,-41.152,20.509],[174.8343,-41.1524,13.7616],[174.8412,-41.1488,14.1907],[174.8396,-41.1546,61.2216],[174.857,-41.162,156.7401],[174.8621,-41.1553,180.4592],[174.8669,-41.1568,167.9612],[174.869,-41.1541,170.658],[174.8708,-41.1561,165.3325],[174.8759,-41.1496,169.7005],[174.8801,-41.1515,209.5625],[174.8833,-41.1474,203.125],[174.8954,-41.1528,207.5932],[174.8992,-41.1479,318.4],[174.9077,-41.1496,282.8387],[174.911,-41.14,137.2771],[174.9155,-41.1409,121.5385],[174.916,-41.147,198.9395],[174.9272,-41.1492,322.7964],[174.9278,-41.1515,339.2356],[174.9329,-41.1505,358.9248],[174.9367,-41.1523,435.3535],[174.9389,-41.1509,406.1544],[174.9487,-41.1531,253.5008],[174.9517,-41.145,272.8883],[174.9646,-41.1475,274.5652],[174.9737,-41.141,247.8953],[174.9724,-41.1365,274.6016],[174.9743,-41.1328,153.317],[174.9778,-41.1361,167.4985],[174.9798,-41.135,192.3162],[174.9821,-41.1322,238.4574],[174.9817,-41.1304,248.9974],[174.9851,-41.1278,301.4226],[174.9837,-41.1265,301.4226],[174.9862,-41.1257,359.2436],[174.9872,-41.1228,351.5062],[174.9902,-41.1222,407.8708],[174.9888,-41.1181,371.8356],[174.9904,-41.1143,390.5545],[174.9882,-41.1127,354.8486],[174.9927,-41.1078,234.1475],[174.9907,-41.1058,228.8881],[174.9955,-41.103,274.0],[174.99,-41.0964,129.1797],[174.9882,-41.0966,139.1611],[174.9845,-41.0905,433.7041],[174.9951,-41.0845,413.1143],[174.9939,-41.0734,234.7885],[174.9862,-41.074,226.6651],[174.9833,-41.076,277.2769],[174.9743,-41.0754,348.2787],[174.9743,-41.0601,341.1746],[174.9719,-41.0617,377.4454],[174.968,-41.0603,395.3815],[174.9757,-41.0379,360.7331],[174.9668,-41.0241,489.9265],[174.9612,-41.0188,380.682],[174.9596,-41.0108,297.1883],[174.936,-41.0062,254.0588],[174.9372,-41.005,254.0588],[174.932,-41.004,7.6938]]]]}}