{"type": "Feature","bbox": [175.7419484867155,-38.956056675027014,176.07964675616404,-38.659610130511453],"geometry": {"type": "Polygon","coordinates": [[[176.07745248853757,-38.769056250438723,358.5986],[176.07888016514096,-38.749068777989748,382.7374],[176.07640875076561,-38.738499716582794,392.3387],[176.07582002251138,-38.734378618802907,387.2032],[176.07964675616404,-38.7111238527595,355.5],[176.07552565838421,-38.702881657199839,355.5],[176.0661060063162,-38.695816918148637,355.5],[176.05668635424774,-38.692873276877378,355.5],[176.05256525646791,-38.697288738784323,355.5],[176.03890522024312,-38.703383126677863,355.5],[176.03372595233145,-38.72289841784476,355.5],[176.01900774597482,-38.727313879751819,456.2709],[176.00811627327107,-38.728491336260277,388.4823],[175.99163188215152,-38.726136423243247,355.5],[175.98250659421046,-38.71877732006493,421.1025],[175.96609371346472,-38.7062384798848,637.7523],[175.9689490666716,-38.691961713849821,427.9656],[175.96386837988177,-38.6819578451761,400.2123],[175.94753391761913,-38.687678684039383,355.5],[175.92573676815664,-38.698734940101417,375.2435],[175.91041432592829,-38.691961713849821,567.6602],[175.92510558942,-38.673739608613744,482.2524],[175.92186758402147,-38.663436864164169,360.2914],[175.898612817978,-38.659610130511453,355.5],[175.89184244305397,-38.66461432067274,355.5],[175.88153969860446,-38.6746227009952,355.5],[175.87212004653611,-38.681098711792117,355.5],[175.86799894875628,-38.67697761401223,379.3311],[175.86564403573936,-38.664025592418511,355.5],[175.85946238906945,-38.661670679401368,355.5],[175.8017670201516,-38.674033972740972,468.8825],[175.77233060743856,-38.695228189894408,355.5],[175.746231516526,-38.724798275730336,360.5385],[175.7419484867155,-38.754779484403741,355.5],[175.74348292297975,-38.780005058508323,355.5],[175.74672092837795,-38.796783813754757,462.0301],[175.75908060595748,-38.797609782508687,430.9479],[175.79323046046488,-38.782654335652467,430.0034],[175.80794866682152,-38.783831792161038,355.5],[175.81707395476246,-38.795900721373414,355.5],[175.81442467761826,-38.832401873137712,355.5],[175.78192343161345,-38.864710582873158,355.5],[175.77350806394702,-38.890097242055617,355.5],[175.7640884118789,-38.921299839531571,355.5],[175.75643494457347,-38.934840589379519,355.5],[175.75320933922728,-38.952296806546826,355.5],[175.79053275364595,-38.956056675027014,358.7575],[175.81333231689041,-38.950371179083106,355.5],[175.85151455763696,-38.944848969702036,360.9711],[175.86187332140923,-38.938949766255064,374.3224],[175.85946238906945,-38.9271871220742,423.2508],[175.85622438367102,-38.9165900134974,355.5],[175.86152293795931,-38.909230910319081,355.5],[175.87830169320603,-38.906581633174937,355.5],[175.90067336686809,-38.906875997302052,355.5],[175.9127422960803,-38.908936546191967,360.1622],[175.92611876856665,-38.901830174564111,355.5],[175.93835197514079,-38.898339437615277,355.5],[175.95042090435322,-38.890685970309846,413.895],[175.98368405071903,-38.8792057693517,417.5419],[176.00105153421987,-38.870963573792039,355.5],[176.02891148401852,-38.84186775721713,403.0558],[176.04461592665712,-38.809031195336729,458.5586],[176.07316945872708,-38.801892812319238,367.6386],[176.07602481193396,-38.781905339870264,359.4323],[176.07745248853757,-38.769056250438723,358.5986]]]}
,"properties": {"featurecla": "Lake","scalerank": 4,"name": "Lake Taupo","name_abb": "L. Taupo","name_alt": null,"note": null,"delta": null,"dam_name": null,"year": -99,"admin": null,"min_zoom": 4.0,"min_label": 5.0,"area_km2": 602.9117,"hist_schema_id": "Elevation0-9000","hist_area_km2": {"350": 586.2753,"375": 5.6209,"400": 2.3152,"425": 1.9015,"450": 2.0342,"475": 1.985,"500": 0.6287,"525": 0.546,"550": 0.2978,"575": 0.3474,"600": 0.2482,"625": 0.2978,"650": 0.3971,"675": 0.0165}}}