{"type": "Feature","bbox": [165.8682,-50.9297,166.3628,-50.485],"geometry": {"type": "MultiPolygon","coordinates": [[[[165.9256,-50.8431,7.3059],[165.92,-50.8378,0.4698],[165.9205,-50.8359,0.0],[165.9162,-50.8367,0.0],[165.9156,-50.8414,17.6439],[165.9111,-50.8444,0.0],[165.9127,-50.8478,0.0],[165.9178,-50.8492,14.4373],[165.9188,-50.8517,151.8682],[165.9067,-50.851,0.0],[165.9025,-50.8546,3.3283],[165.8968,-50.8549,0.0],[165.8986,-50.8572,0.0],[165.9127,-50.8622,0.0],[165.9121,-50.8657,0.0],[165.9134,-50.8668,0.0],[165.9106,-50.8725,0.0],[165.9144,-50.8739,0.0],[165.9173,-50.8727,2.1058],[165.9153,-50.8871,0.0],[165.9405,-50.8914,0.0],[165.948,-50.8805,0.0],[165.9518,-50.8814,0.0],[165.9563,-50.8876,16.6918],[165.955,-50.8921,43.3874],[165.9498,-50.8951,0.0],[165.9496,-50.8993,0.0],[165.9564,-50.901,8.1675],[165.9564,-50.9042,2.552],[165.9698,-50.9036,0.0],[165.9779,-50.907,0.0],[165.986,-50.905,0.0],[165.9969,-50.9085,0.0],[166.0012,-50.9064,0.0],[166.0023,-50.9147,0.0],[166.0256,-50.9158,0.0],[166.0256,-50.9076,319.5795],[166.027,-50.9076,375.5628],[166.0303,-50.9085,316.5888],[166.03,-50.91,0.0],[166.0355,-50.9098,316.499],[166.0444,-50.9133,93.2517],[166.0456,-50.9164,0.0],[166.0444,-50.9169,0.0],[166.0472,-50.9186,0.0],[166.0517,-50.9172,0.0],[166.0583,-50.9192,0.0],[166.0694,-50.925,135.2024],[166.0696,-50.9266,31.4771],[166.0719,-50.927,93.3326],[166.0701,-50.9285,0.2211],[166.0717,-50.9297,0.0],[166.0811,-50.9278,41.8148],[166.1027,-50.9274,0.4638],[166.1091,-50.9237,20.606],[166.1165,-50.9243,0.0],[166.1157,-50.9229,47.0846],[166.1183,-50.9219,0.0],[166.1178,-50.9203,28.7441],[166.125,-50.9192,0.0],[166.1228,-50.9142,0.0],[166.1144,-50.9092,5.1342],[166.0994,-50.9044,45.1982],[166.0928,-50.8981,5.5266],[166.0844,-50.8931,8.133],[166.085,-50.8917,0.0],[166.0945,-50.8958,27.7483],[166.1011,-50.9011,27.188],[166.1211,-50.9094,4.1026],[166.1241,-50.9094,-0.2609],[166.1221,-50.9072,67.9371],[166.1379,-50.9161,0.0],[166.1806,-50.9013,0.0],[166.1714,-50.8951,69.0624],[166.172,-50.8936,130.5512],[166.1794,-50.8922,11.3116],[166.1789,-50.8897,17.214],[166.1678,-50.8836,5.2825],[166.1689,-50.8831,5.2825],[166.1811,-50.8847,0.0],[166.1867,-50.8872,0.0],[166.1906,-50.8844,34.3585],[166.2017,-50.8858,6.6697],[166.2083,-50.8822,0.0],[166.2017,-50.8772,8.1598],[166.1917,-50.8728,0.0],[166.1601,-50.8651,17.4349],[166.1511,-50.8614,23.3775],[166.1361,-50.8611,7.8109],[166.1161,-50.8583,56.4809],[166.1128,-50.8567,12.2358],[166.0972,-50.8556,12.8257],[166.0928,-50.8536,0.0],[166.09,-50.8542,0.0],[166.0872,-50.8517,35.7923],[166.0761,-50.8483,9.7972],[166.065,-50.8528,0.0],[166.0639,-50.8542,0.0],[166.065,-50.8561,0.0],[166.0628,-50.8583,3.3073],[166.0639,-50.8594,3.3073],[166.0567,-50.8653,2.2646],[166.055,-50.8647,2.2646],[166.055,-50.8628,0.0],[166.045,-50.8592,0.0],[166.0261,-50.8653,5.5013],[166.0183,-50.8636,2.6959],[166.0089,-50.8644,2.4022],[166.0056,-50.8625,0.0],[166.0,-50.8622,0.0],[165.9883,-50.8664,6.6707],[165.9695,-50.8625,16.4754],[165.9511,-50.8553,21.1623],[165.9406,-50.8486,0.9321],[165.93,-50.8478,0.0],[165.9256,-50.8431,7.3059]]],
[[[166.1817,-50.5131,37.5115],[166.1759,-50.5117,31.658],[166.1739,-50.5089,0.0],[166.1722,-50.5094,0.0],[166.1733,-50.5117,8.4332],[166.1711,-50.515,0.0],[166.1739,-50.5186,32.5511],[166.1639,-50.5226,7.7361],[166.1582,-50.5209,9.6479],[166.1564,-50.5194,31.0775],[166.1568,-50.5173,7.5123],[166.1538,-50.5171,7.5123],[166.1489,-50.5117,4.6768],[166.1411,-50.5186,0.0],[166.1367,-50.5278,3.991],[166.1261,-50.5347,9.7418],[166.1245,-50.5331,43.6215],[166.1361,-50.5169,7.5759],[166.1356,-50.5153,9.4787],[166.1383,-50.5131,0.0],[166.1335,-50.5097,14.1259],[166.1294,-50.5091,2.2626],[166.1272,-50.5133,28.2787],[166.1184,-50.5127,0.0],[166.1211,-50.5183,0.0],[166.1156,-50.5239,4.2321],[166.1022,-50.5267,14.1736],[166.0872,-50.5228,0.0],[166.0811,-50.5267,0.0],[166.0765,-50.526,0.0],[166.0717,-50.5281,46.3706],[166.0656,-50.5253,0.0],[166.0589,-50.5275,0.0],[166.0561,-50.5306,0.0],[166.0517,-50.5306,0.0],[166.05,-50.5325,0.0],[166.0533,-50.5344,2.8434],[166.06,-50.5339,1.0182],[166.0347,-50.5424,0.0],[166.0391,-50.5464,0.0],[166.0679,-50.5361,34.6281],[166.0678,-50.5411,0.0],[166.0767,-50.5464,0.0],[166.0839,-50.5475,24.757],[166.0917,-50.5522,0.0],[166.0889,-50.5586,0.0],[166.0938,-50.5602,4.4866],[166.0607,-50.5624,0.0],[166.063,-50.5714,0.0],[166.0967,-50.5681,0.0],[166.0967,-50.5769,0.0],[166.0994,-50.5794,0.0],[166.0994,-50.5842,0.0],[166.0961,-50.5864,0.0],[166.0978,-50.5875,0.0],[166.0956,-50.5892,0.0],[166.0983,-50.5914,0.0],[166.095,-50.5947,0.0],[166.0961,-50.5975,35.7925],[166.0922,-50.5997,0.0],[166.0922,-50.6011,0.0],[166.0861,-50.6036,0.0],[166.0856,-50.6081,0.0],[166.0894,-50.6119,1.1743],[166.085,-50.6133,0.0],[166.0861,-50.6153,0.0],[166.0806,-50.6178,0.0],[166.0789,-50.6228,0.0],[166.0722,-50.6253,0.0],[166.0733,-50.6322,0.0],[166.0722,-50.6386,0.0],[166.0733,-50.64,19.6273],[166.0706,-50.6408,0.0],[166.0683,-50.645,0.0],[166.07,-50.6483,0.0],[166.0728,-50.6494,0.0],[166.0717,-50.6547,0.0],[166.0728,-50.6564,0.0],[166.0783,-50.6592,0.0],[166.0767,-50.6631,0.0],[166.0856,-50.6669,0.0],[166.0813,-50.6704,0.0],[166.0828,-50.6731,0.0],[166.0788,-50.6749,39.8514],[166.0701,-50.675,9.5057],[166.0733,-50.6794,12.0957],[166.0711,-50.6833,0.0],[166.0717,-50.6861,33.261],[166.0659,-50.6872,0.0],[166.0606,-50.6919,6.5827],[166.0483,-50.6969,0.0],[166.0461,-50.6989,0.0],[166.0467,-50.7011,65.6745],[166.0367,-50.7064,0.0],[166.0361,-50.7097,0.0],[166.03,-50.7117,0.0],[166.0278,-50.7158,0.0],[166.0233,-50.7158,0.0],[166.02,-50.7178,0.0],[166.005,-50.7183,0.0],[166.0044,-50.7214,0.0],[165.9887,-50.7278,0.0],[165.9744,-50.7252,0.0],[165.9758,-50.7282,0.0],[165.9699,-50.738,40.9718],[165.9653,-50.7392,0.0],[165.9624,-50.7313,0.0],[165.9585,-50.7323,0.0],[165.9604,-50.7401,20.7492],[165.9572,-50.7392,0.0],[165.9559,-50.7401,0.0],[165.9568,-50.7421,33.1407],[165.9548,-50.7436,19.0966],[165.9478,-50.7443,0.0],[165.9438,-50.7477,0.0],[165.9436,-50.7499,0.0],[165.9341,-50.7449,0.0],[165.9301,-50.7486,0.0],[165.9371,-50.7552,0.0],[165.9333,-50.7584,101.7129],[165.9178,-50.7586,0.0],[165.9016,-50.7635,6.1748],[165.8977,-50.7624,0.4409],[165.8967,-50.7658,88.1411],[165.8927,-50.7678,0.0],[165.8853,-50.7663,0.0],[165.8776,-50.7696,0.0],[165.8777,-50.7711,0.0],[165.886,-50.7746,0.0],[165.8867,-50.7777,0.0],[165.8895,-50.7798,0.0],[165.8856,-50.7847,0.0],[165.886,-50.7876,28.4963],[165.8809,-50.7896,0.0],[165.8803,-50.795,25.0039],[165.8682,-50.7997,0.0],[165.8748,-50.8031,0.0],[165.8743,-50.8048,4.7603],[165.8704,-50.8049,0.0],[165.8753,-50.8067,0.0],[165.8771,-50.8095,0.0],[165.8749,-50.8139,0.0],[165.8761,-50.8164,0.0],[165.8835,-50.8193,0.0],[165.8828,-50.8216,3.4978],[165.8778,-50.8249,0.0],[165.8819,-50.8257,5.6209],[165.8817,-50.8283,0.0],[165.8873,-50.8302,0.0],[165.8881,-50.835,27.8191],[165.882,-50.841,0.0],[165.8933,-50.8389,4.3756],[165.9017,-50.8342,35.2191],[165.9044,-50.8356,0.0],[165.9089,-50.835,0.0],[165.9156,-50.8311,0.8647],[165.9183,-50.8247,0.0],[165.9161,-50.82,13.4636],[165.9167,-50.8161,34.0629],[165.9194,-50.8126,6.5199],[165.9233,-50.8269,0.0],[165.9267,-50.8294,1.9445],[165.9339,-50.8281,6.9896],[165.9298,-50.8308,3.3816],[165.9311,-50.8328,3.2012],[165.9294,-50.8342,4.214],[165.9317,-50.8361,36.4695],[165.93,-50.8381,0.0],[165.9367,-50.8411,8.142],[165.9478,-50.8406,3.596],[165.95,-50.8419,10.5804],[165.9506,-50.8456,2.6286],[165.955,-50.8483,0.0],[165.9567,-50.8475,0.0],[165.9556,-50.8453,2.9897],[165.96,-50.8442,21.7999],[165.9639,-50.8489,0.0],[165.9706,-50.8508,13.196],[165.9744,-50.8531,1.0033],[165.9733,-50.8547,0.0],[165.9778,-50.8558,7.4481],[165.9811,-50.855,2.7419],[165.9822,-50.8525,9.7515],[166.01,-50.8536,0.0],[166.0161,-50.8522,2.1856],[166.0122,-50.8467,2.0573],[166.0133,-50.8453,3.3841],[166.0161,-50.8436,4.8059],[166.0155,-50.8461,0.0],[166.0206,-50.8475,5.0465],[166.0222,-50.8461,0.0],[166.0194,-50.8444,11.8237],[166.0244,-50.845,0.0],[166.0261,-50.8436,0.0],[166.0206,-50.8422,2.1278],[166.0206,-50.8403,3.6766],[166.0172,-50.8383,33.7829],[166.0178,-50.8364,2.7937],[166.0117,-50.8353,14.3887],[166.0072,-50.8325,20.1167],[166.0017,-50.8239,0.0],[165.994,-50.8198,44.9268],[165.9931,-50.8179,5.4274],[165.9975,-50.8168,7.5922],[166.01,-50.8219,0.0],[166.0133,-50.8211,14.6627],[166.0167,-50.8186,18.8135],[166.0161,-50.8153,5.7077],[166.0117,-50.8097,0.0],[166.0139,-50.8078,0.0],[166.0022,-50.8022,0.0],[166.0011,-50.7967,0.0],[165.9983,-50.7955,7.0799],[165.9972,-50.7925,0.0],[165.9898,-50.7903,3.7291],[165.9818,-50.7857,1.9683],[165.9843,-50.7839,10.6299],[165.9942,-50.7824,15.3757],[165.9951,-50.78,0.0],[165.9928,-50.7758,0.0],[165.9882,-50.7734,1.6798],[165.9924,-50.7721,6.1677],[165.9973,-50.7757,9.015],[165.999,-50.7796,0.0],[166.0067,-50.7872,0.0],[166.0111,-50.7986,0.0],[166.0233,-50.8031,2.2343],[166.0278,-50.8072,8.5147],[166.0322,-50.8069,0.0],[166.0383,-50.8028,7.1096],[166.04,-50.7956,25.0791],[166.0328,-50.79,9.1994],[166.0344,-50.7875,0.0],[166.0322,-50.7864,4.6657],[166.0322,-50.7844,0.0],[166.0211,-50.7764,21.0806],[166.01,-50.7753,0.0],[166.01,-50.7731,0.0],[166.0067,-50.7703,14.7697],[166.0089,-50.7636,17.0214],[166.0117,-50.7608,0.0],[166.01,-50.7597,0.0],[166.0117,-50.7553,0.0],[166.0094,-50.75,21.8085],[166.0145,-50.7497,0.0],[166.0189,-50.7453,5.0233],[166.0206,-50.7461,6.8042],[166.02,-50.7533,0.0],[166.0311,-50.7606,3.3364],[166.0361,-50.7614,0.0],[166.0561,-50.7583,0.0],[166.0594,-50.76,10.2481],[166.0611,-50.7633,8.7525],[166.0578,-50.7667,0.0],[166.06,-50.7717,11.2957],[166.0578,-50.7744,0.0],[166.0589,-50.7767,33.1722],[166.0567,-50.7789,0.0],[166.0617,-50.7869,18.2749],[166.0578,-50.79,10.6265],[166.0578,-50.7925,7.3307],[166.0644,-50.7969,0.0],[166.0594,-50.8,4.568],[166.0683,-50.8042,24.0578],[166.0672,-50.8056,3.9271],[166.0694,-50.8078,17.9804],[166.0656,-50.8108,23.8483],[166.0594,-50.8097,26.9841],[166.0594,-50.8114,65.3438],[166.0461,-50.8208,3.4065],[166.0367,-50.8239,13.5881],[166.0444,-50.8294,12.4999],[166.0533,-50.8322,4.7444],[166.0578,-50.83,0.0],[166.0611,-50.8233,5.2007],[166.0656,-50.8253,0.0],[166.0739,-50.8253,5.2143],[166.0739,-50.8217,0.0],[166.0717,-50.8203,0.0],[166.0728,-50.8172,0.0],[166.0711,-50.8164,36.142],[166.0733,-50.815,0.0],[166.07,-50.8133,8.5146],[166.0717,-50.8125,0.0],[166.0717,-50.8083,0.0],[166.0778,-50.8072,9.7287],[166.0928,-50.8144,8.5042],[166.0917,-50.8228,0.0],[166.0961,-50.8256,10.3794],[166.1044,-50.8244,19.1171],[166.1111,-50.8258,7.6501],[166.1095,-50.8333,0.0],[166.1167,-50.835,1.6665],[166.1228,-50.8403,3.0171],[166.1289,-50.8411,38.4155],[166.1411,-50.8472,3.7765],[166.1747,-50.8573,41.7326],[166.1711,-50.8609,0.0],[166.1901,-50.8654,0.0],[166.1941,-50.8607,6.1525],[166.2006,-50.8628,5.4278],[166.2067,-50.8606,0.0],[166.2233,-50.8617,0.0],[166.2272,-50.8575,50.2288],[166.2422,-50.8494,0.0],[166.2383,-50.8467,2.4614],[166.2311,-50.8456,1.1808],[166.23,-50.8431,0.0],[166.24,-50.8408,0.0],[166.2367,-50.8369,4.8582],[166.2428,-50.8364,0.0],[166.2444,-50.8344,0.0],[166.2461,-50.8306,3.045],[166.2383,-50.8256,15.8829],[166.2417,-50.8233,7.0305],[166.2372,-50.8233,56.1683],[166.2333,-50.8208,0.0],[166.2206,-50.8186,0.0],[166.2161,-50.8164,11.3742],[166.2121,-50.8179,4.2891],[166.2113,-50.8157,0.0],[166.2076,-50.8169,0.9186],[166.2083,-50.8189,10.634],[166.2049,-50.8189,17.1308],[166.2014,-50.8164,23.5807],[166.225,-50.8111,7.2528],[166.2317,-50.8072,0.0],[166.2228,-50.8028,0.0],[166.2172,-50.8033,41.3568],[166.2128,-50.8017,13.6804],[166.2044,-50.8033,30.3206],[166.1978,-50.8019,0.0],[166.1883,-50.8053,2.7124],[166.1778,-50.806399999999996,58.5208],[166.1739,-50.8061,0.0],[166.1717,-50.8039,14.1046],[166.1756,-50.8019,0.0],[166.1781,-50.8038,0.0],[166.1899,-50.8025,0.0],[166.1894,-50.8,0.0],[166.2011,-50.7997,0.0],[166.2115,-50.7973,12.2237],[166.2172,-50.7986,0.0],[166.2267,-50.7922,4.1641],[166.2256,-50.7906,0.0],[166.2211,-50.79,5.5435],[166.2139,-50.7911,11.3664],[166.2033,-50.79,3.3862],[166.1956,-50.7925,0.0],[166.1917,-50.7917,7.0461],[166.2144,-50.785,5.9355],[166.216,-50.7822,17.8066],[166.2151,-50.7812,20.3058],[166.2084,-50.7799,54.9299],[166.2081,-50.7785,0.0],[166.2137,-50.7778,29.9302],[166.2211,-50.7742,3.1997],[166.2209,-50.7722,0.0],[166.2161,-50.7689,18.2643],[166.2178,-50.7647,0.0],[166.2056,-50.7561,18.8698],[166.2054,-50.7538,6.2363],[166.1987,-50.7523,5.3463],[166.1922,-50.7536,9.6753],[166.1772,-50.7603,61.1109],[166.1717,-50.7606,0.0],[166.1567,-50.7706,9.481],[166.1439,-50.7731,5.9843],[166.1344,-50.7778,0.0],[166.1328,-50.7772,0.0],[166.1389,-50.7725,10.1331],[166.1572,-50.7656,36.8906],[166.1628,-50.7606,0.0],[166.1711,-50.7564,0.0],[166.1889,-50.75,0.0],[166.1878,-50.7475,9.341],[166.1933,-50.7436,0.0],[166.1933,-50.7411,0.0],[166.1828,-50.7392,0.0],[166.1811,-50.7381,3.3013],[166.1822,-50.7369,1.6956],[166.175,-50.7342,0.0],[166.1722,-50.7314,7.9338],[166.1689,-50.7311,0.0],[166.1483,-50.7372,5.991],[166.1439,-50.7358,0.0],[166.13,-50.7392,0.0],[166.1215,-50.7396,56.4379],[166.1181,-50.7378,0.0],[166.1074,-50.7388,0.0],[166.1144,-50.7364,0.0],[166.1228,-50.7372,0.0],[166.1439,-50.7347,0.0],[166.1461,-50.7336,0.0],[166.1383,-50.7297,1.8384],[166.1444,-50.7286,1.3475],[166.16,-50.7294,15.0002],[166.1689,-50.725,3.8465],[166.1615,-50.7186,19.8018],[166.145,-50.7131,17.8037],[166.1306,-50.7131,9.8548],[166.1161,-50.7175,0.0],[166.08,-50.7192,0.0],[166.08,-50.7167,0.0],[166.0822,-50.7158,13.7118],[166.115,-50.7131,0.0],[166.1378,-50.7086,6.4207],[166.1683,-50.7125,17.9177],[166.1783,-50.7172,0.0],[166.1867,-50.7189,3.5272],[166.2006,-50.7161,6.9286],[166.2011,-50.7128,4.5957],[166.2061,-50.71,0.0],[166.1944,-50.7092,14.5688],[166.2067,-50.7075,0.0],[166.2028,-50.7058,20.8892],[166.205,-50.7022,0.0],[166.2044,-50.7006,17.2126],[166.2083,-50.6986,0.0],[166.2028,-50.6944,0.0],[166.195,-50.6964,46.783],[166.1911,-50.6939,0.0],[166.1878,-50.6944,0.0],[166.1778,-50.6917,2.1106],[166.17,-50.695,56.1099],[166.1611,-50.6944,0.0],[166.1417,-50.6978,0.0],[166.1311,-50.7058,21.0971],[166.1283,-50.705,1.0153],[166.1283,-50.7033,2.5189],[166.1333,-50.6992,10.4784],[166.1433,-50.6933,2.9563],[166.1628,-50.6878,0.0],[166.1511,-50.6828,6.4642],[166.1667,-50.6811,22.5666],[166.1833,-50.6828,12.1723],[166.1883,-50.681399999999996,0.0],[166.1872,-50.6797,0.0],[166.1911,-50.6778,5.8201],[166.1917,-50.6758,33.1929],[166.1728,-50.6683,0.0],[166.1733,-50.6672,0.0],[166.1717,-50.6661,31.9171],[166.1733,-50.665,0.0],[166.17,-50.6611,0.0],[166.1711,-50.66,0.0],[166.17,-50.6581,0.0],[166.1667,-50.6572,0.0],[166.1633,-50.6533,3.5223],[166.1672,-50.6519,5.4411],[166.1833,-50.6594,19.6684],[166.1928,-50.6597,0.0],[166.2006,-50.6628,8.9772],[166.2111,-50.6581,0.0],[166.2111,-50.6561,0.0],[166.205,-50.6547,28.2313],[166.2022,-50.6519,8.1827],[166.1922,-50.6511,22.0195],[166.1872,-50.6486,13.6948],[166.1889,-50.6467,0.0],[166.2011,-50.6461,17.3544],[166.2033,-50.6444,0.0],[166.2028,-50.6428,19.6597],[166.1956,-50.6389,16.7283],[166.1717,-50.6319,7.6421],[166.1744,-50.6308,33.4167],[166.1956,-50.6364,0.0],[166.2039,-50.6372,0.0],[166.2044,-50.6361,0.7684],[166.19,-50.6278,0.0],[166.1813,-50.618899999999996,0.0],[166.1678,-50.6147,0.0],[166.1661,-50.61,0.0],[166.1733,-50.6061,0.0],[166.1639,-50.6011,5.0776],[166.1672,-50.6008,17.1441],[166.1744,-50.6044,35.9084],[166.18,-50.6106,0.0],[166.19,-50.6153,22.0323],[166.2056,-50.6269,0.0],[166.215,-50.6306,0.0],[166.2267,-50.6219,9.9007],[166.2339,-50.6203,0.0],[166.2322,-50.6186,0.0],[166.2328,-50.6142,1.1641],[166.2389,-50.6119,0.851],[166.2439,-50.6075,0.0],[166.2378,-50.6039,5.2226],[166.2272,-50.6058,31.3179],[166.2178,-50.6036,0.0],[166.2111,-50.6039,10.9491],[166.2111,-50.6017,1.9452],[166.2178,-50.5983,0.0],[166.2122,-50.5967,7.0397],[166.2117,-50.595,0.0],[166.22,-50.5928,2.7545],[166.225,-50.5881,0.0],[166.2213,-50.5862,0.0],[166.2163,-50.5867,29.3727],[166.2109,-50.584,3.9866],[166.2109,-50.5824,1.4588],[166.2378,-50.5792,3.8346],[166.245,-50.5803,0.8224],[166.2533,-50.5839,1.368],[166.2645,-50.5831,0.0],[166.2683,-50.5844,3.6341],[166.2744,-50.5831,0.0],[166.2828,-50.5856,0.1259],[166.2861,-50.5836,0.5124],[166.2867,-50.5817,0.7978],[166.28,-50.5806,0.5532],[166.2767,-50.5783,0.0],[166.2805,-50.5767,0.0],[166.2794,-50.575,0.0],[166.2822,-50.5731,0.0],[166.2822,-50.5708,0.0],[166.2783,-50.5689,28.0647],[166.2822,-50.5653,0.0],[166.2817,-50.5628,0.0],[166.2733,-50.5636,7.5516],[166.2722,-50.5606,19.2547],[166.2767,-50.5592,7.1962],[166.2761,-50.5567,3.0344],[166.2622,-50.5567,8.1308],[166.2606,-50.5558,1.1194],[166.26,-50.5525,3.4695],[166.2783,-50.5494,2.2023],[166.2906,-50.5394,0.0],[166.2883,-50.5381,1.6023],[166.2828,-50.5411,1.568],[166.2728,-50.5389,16.9904],[166.2756,-50.5367,0.0],[166.2706,-50.5342,5.4147],[166.27,-50.5303,0.0],[166.2722,-50.5278,1.5985],[166.2789,-50.5256,2.4582],[166.2772,-50.5239,0.4552],[166.27,-50.5258,1.6023],[166.2672,-50.5294,0.0],[166.2533,-50.5367,1.536],[166.25,-50.5408,0.0],[166.2422,-50.5433,12.6081],[166.24,-50.5475,10.1951],[166.2345,-50.5522,24.1596],[166.2228,-50.5569,14.32],[166.1978,-50.5575,3.5612],[166.1844,-50.5619,16.3815],[166.1789,-50.5586,3.0056],[166.1706,-50.5608,0.7856],[166.1717,-50.5592,13.9376],[166.1978,-50.5517,0.0],[166.2089,-50.5519,0.0],[166.2128,-50.5489,1.6823],[166.2172,-50.5486,4.2929],[166.2161,-50.5461,1.6088],[166.2111,-50.5444,5.2913],[166.2167,-50.5411,0.0],[166.2122,-50.5378,2.8362],[166.2217,-50.5314,0.0],[166.2211,-50.53,13.0019],[166.2244,-50.5264,0.0],[166.2217,-50.5244,0.0],[166.225,-50.5211,9.7427],[166.2306,-50.5219,0.0],[166.2313,-50.5194,2.3674],[166.2372,-50.5194,0.0],[166.2189,-50.5133,0.2105],[166.2061,-50.5192,0.0],[166.2028,-50.5258,0.0],[166.2006,-50.5267,5.8068],[166.1917,-50.525,53.8024],[166.1911,-50.5239,33.3671],[166.195,-50.5219,0.0],[166.1917,-50.5175,0.4714],[166.1878,-50.5178,3.1691],[166.1856,-50.5164,21.2859],[166.1872,-50.5142,0.0],[166.1817,-50.5131,37.5115]]],
[[[166.0206,-50.6058,0.1854],[166.0228,-50.6069,0.0],[166.0305,-50.6045,0.0],[166.0233,-50.6047,0.9537],[166.0206,-50.6058,0.1854]]],
[[[166.2539,-50.5067,2.8802],[166.2495,-50.5072,0.0],[166.2433,-50.5128,0.0],[166.2361,-50.5142,0.0],[166.2372,-50.5172,0.0],[166.2544,-50.5189,0.0],[166.255,-50.5172,0.0],[166.2528,-50.5161,0.0],[166.2528,-50.5144,0.8461],[166.2583,-50.5117,0.0],[166.2567,-50.5106,0.0],[166.2578,-50.5078,0.0],[166.2539,-50.5067,2.8802]]],
[[[166.3211,-50.5756,0.4121],[166.3189,-50.575,0.0],[166.3178,-50.5764,0.0],[166.3233,-50.5792,-0.0122],[166.325,-50.5783,0.0],[166.3244,-50.5761,0.0],[166.3211,-50.5756,0.4121]]],
[[[166.36,-50.5672,0.3989],[166.3628,-50.5669,0.0],[166.3628,-50.5658,0.0],[166.3583,-50.5664,0.0],[166.36,-50.5672,0.3989]]],
[[[166.3028,-50.525,4.2104],[166.3,-50.5247,14.7017],[166.2978,-50.5264,1.3714],[166.2994,-50.5292,0.0],[166.2928,-50.5306,0.0],[166.2961,-50.5322,0.1383],[166.3017,-50.5314,0.0],[166.3089,-50.5333,0.0],[166.31,-50.5328,0.0],[166.3094,-50.5283,0.8168],[166.3133,-50.5261,0.0],[166.3117,-50.5247,5.6329],[166.3028,-50.525,4.2104]]],
[[[166.3072,-50.4856,0.4141],[166.3017,-50.485,3.4454],[166.3,-50.4883,2.6135],[166.2967,-50.4892,0.0],[166.2817,-50.4875,0.0],[166.2689,-50.4917,8.1257],[166.2633,-50.4956,0.0],[166.2655,-50.4972,10.1029],[166.2639,-50.5,0.0],[166.2655,-50.5014,1.571],[166.2655,-50.5042,0.0],[166.2594,-50.5067,1.3606],[166.2672,-50.5097,0.0],[166.2817,-50.5003,0.0],[166.2922,-50.505,0.0],[166.3078,-50.5075,0.0],[166.3222,-50.5058,0.5611],[166.3206,-50.5044,0.9227],[166.3244,-50.4994,0.0],[166.3206,-50.4972,2.1146],[166.3228,-50.493899999999996,0.0],[166.3206,-50.4908,0.0],[166.3139,-50.4867,0.0],[166.31,-50.4881,5.3572],[166.3072,-50.4856,0.4141]]]]}
,"properties": {"GID_2": "NZL.13.2_1","GID_0": "NZL","country": "NewZealand","GID_1": "NZL.13_1","province": "SouthernIslands","NL_NAME_1": "NA","county": "Aucklandislands","VARNAME_2": "NA","NL_NAME_2": "NA","TYPE_2": "Territory","ENGTYPE_2": "Territory","CC_2": "NZ.02.02","HASC_2": "NA","name": "Aucklandislands.county","area_km2": 597.0744,"hist_schema_id": "Elevation0-9000","hist_area_km2": {"0": 51.9728,"25": 45.4031,"50": 40.1472,"75": 35.9761,"100": 33.2842,"125": 31.3077,"150": 30.795,"175": 29.4888,"200": 29.7738,"225": 29.4605,"250": 29.1796,"275": 26.7668,"300": 25.4765,"325": 24.7753,"350": 23.5421,"375": 20.6736,"400": 18.4565,"425": 15.8918,"450": 13.9604,"475": 11.8129,"500": 10.848,"525": 7.3607,"550": 5.0004,"575": 3.3773,"600": 1.6743,"625": 0.6289,"650": 0.0402}}}