{"type": "Feature","id": "5479","bbox": [165.88649,-50.91204,166.30201,-50.52223],"geometry": {"type": "MultiPolygon","coordinates": [[[[166.13697,-50.86435,148.8495],[166.10711,-50.85231,0.0],[166.09588,-50.85125,0.0],[166.08961,-50.85345,8.0285],[166.07683,-50.8624,150.3013],[165.99985,-50.87477,139.2863],[165.98569,-50.87461,170.9446],[165.95834,-50.85906,27.2124],[165.94239,-50.85296,91.2581],[165.92408,-50.85125,177.9405],[165.93181,-50.8637,438.9267],[165.94191,-50.872,323.6851],[165.96502,-50.88543,506.9645],[165.97389,-50.89373,351.8061],[165.97828,-50.90016,254.5935],[165.98552,-50.90439,0.0],[166.12273,-50.91204,0.0],[166.12965,-50.9026,0.0],[166.1434,-50.90455,0.0],[166.15724,-50.90325,0.0],[166.18426,-50.89414,0.0],[166.21225,-50.89023,0.0],[166.22633,-50.88543,0.0],[166.20525,-50.87566,0.0],[166.13697,-50.86435,148.8495]]],
[[[166.23072,-50.52874,0.0],[166.2326,-50.52223,0.0],[166.21941,-50.52606,15.3379],[166.17115,-50.53281,216.0745],[166.15748,-50.53216,303.1934],[166.1399,-50.52606,67.9539],[166.12648,-50.52776,94.1499],[166.11329,-50.53248,242.2347],[166.09588,-50.5359,311.5748],[166.11769,-50.55242,285.7887],[166.11524,-50.57448,167.2465],[166.1032,-50.59857,434.6611],[166.09588,-50.62127,248.3648],[166.09148,-50.65195,392.3286],[166.07879,-50.67555,39.8514],[166.05909,-50.69354,74.7058],[165.9253,-50.754,0.0],[165.88649,-50.79461,376.4217],[165.89674,-50.85125,0.0],[165.92018,-50.8305,0.0],[165.93312,-50.82138,124.5722],[165.94142,-50.82049,81.8923],[165.95387,-50.83294,147.5337],[165.96534,-50.8401,71.2656],[165.97869,-50.84352,113.9223],[165.99635,-50.84441,116.1101],[166.01108,-50.84238,93.2723],[166.02149,-50.83603,0.0],[166.02687,-50.82537,0.0],[166.02711,-50.81024,0.0],[166.02231,-50.79803,144.1905],[166.01417,-50.79119,226.4229],[166.00392,-50.78533,0.0],[165.99293,-50.77614,0.0],[166.0075,-50.7763,29.0197],[166.03061,-50.78688,23.8358],[166.04444,-50.78973,0.0],[166.05291,-50.7859,0.0],[166.04737,-50.77703,0.0],[166.03614,-50.76775,0.0],[166.02711,-50.76247,0.0],[166.04021,-50.75205,228.3936],[166.05437,-50.75359,63.5508],[166.06764,-50.76198,42.2911],[166.07862,-50.77239,328.9132],[166.08351,-50.7868,355.8577],[166.0774,-50.80242,137.021],[166.06756,-50.81756,84.9285],[166.06121,-50.83074,0.0],[166.08668,-50.82025,0.0],[166.09832,-50.81316,42.7777],[166.1089,-50.80283,353.9157],[166.12501,-50.82448,182.5526],[166.15358,-50.83457,522.7684],[166.18491,-50.84157,335.7367],[166.20883,-50.85467,196.0004],[166.22438,-50.86012,0.0],[166.24008,-50.85101,3.164],[166.25115,-50.83416,0.0],[166.25367,-50.81707,0.0],[166.24594,-50.81048,0.0],[166.22999,-50.80299,0.0],[166.21209,-50.79754,12.2237],[166.19842,-50.79656,126.2273],[166.19842,-50.78973,0.0],[166.2068,-50.7903,17.3355],[166.22413,-50.78916,0.0],[166.2326,-50.78973,0.0],[166.22828,-50.78118,0.0],[166.22682,-50.77239,0.0],[166.2282,-50.76377,0.0],[166.2326,-50.75506,0.0],[166.21941,-50.75351,0.0],[166.19337,-50.75579,106.5315],[166.17791,-50.75506,0.0],[166.18922,-50.73846,0.0],[166.19842,-50.72088,0.0],[166.17726,-50.71982,0.0],[166.14234,-50.70713,84.7574],[166.12273,-50.70721,29.4321],[166.12273,-50.70037,220.3846],[166.14942,-50.69687,36.3776],[166.2024,-50.70078,39.6021],[166.22633,-50.69354,0.0],[166.21209,-50.68678,0.0],[166.19581,-50.68328,0.0],[166.17945,-50.6832,0.0],[166.16432,-50.68678,0.0],[166.18434,-50.67059,0.0],[166.19215,-50.66627,0.0],[166.18914,-50.66058,0.0],[166.18474,-50.64577,30.8455],[166.19117,-50.64804,0.0],[166.20541,-50.65049,0.0],[166.21209,-50.6526,0.0],[166.2024,-50.62819,0.0],[166.19532,-50.61842,21.4803],[166.18474,-50.61102,107.2641],[166.20183,-50.60467,134.6848],[166.21404,-50.60866,88.9102],[166.22625,-50.61142,62.1864],[166.24342,-50.60076,0.0],[166.24708,-50.59319,0.0],[166.24781,-50.58554,0.0],[166.25082,-50.57936,29.2895],[166.26051,-50.57692,38.5193],[166.30201,-50.57692,0.0],[166.29558,-50.57155,0.0],[166.28826,-50.56015,0.0],[166.28419,-50.54844,0.0],[166.28777,-50.54274,0.0],[166.24252,-50.54949,59.1312],[166.22633,-50.549,0.0],[166.22853,-50.54258,0.0],[166.23072,-50.52874,0.0]]]]}
,"properties": {"ISO3166-1-Alpha-3": "NZL","country": "New Zealand","fill": "#F0F","name": "Auckland Islands","area_km2": 515.3845,"hist_schema_id": "Elevation0-9000","hist_area_km2": {"0": 91.29,"25": 23.4236,"50": 26.4859,"75": 25.7412,"100": 23.8415,"125": 23.5149,"150": 23.8605,"175": 22.6762,"200": 22.8896,"225": 23.3567,"250": 23.4926,"275": 22.7136,"300": 21.2215,"325": 20.9643,"350": 19.9446,"375": 17.7471,"400": 16.0941,"425": 14.1067,"450": 12.8066,"475": 11.0618,"500": 10.3652,"525": 7.1726,"550": 4.9197,"575": 3.3504,"600": 1.6743,"625": 0.6289,"650": 0.0402}}}