{"type": "Feature","bbox": [176.21620480843933,-38.137513590461083,176.32827742181405,-38.035434713310963],"geometry": {"type": "Polygon","coordinates": [[[176.22548470636218,-38.0475699644407,280.5],[176.21691864674108,-38.059705215570375,280.5],[176.21620480843933,-38.070412790096611,280.5],[176.22405702975857,-38.09254177745089,280.8657],[176.2419029873023,-38.105390866882374,318.5235],[176.23976147239716,-38.117526118012108,287.0373],[176.24547217881104,-38.126806015934847,282.3192],[176.25974894484602,-38.135372075555836,285.9007],[176.27188419597564,-38.137513590461083,280.5],[176.28616096201063,-38.126806015934847,281.9136],[176.29829621314047,-38.121095309520854,283.2775],[176.30828994936496,-38.109673896692811,280.5],[176.31971136219295,-38.098252483864883,281.3626],[176.3204252004947,-38.083261879528152,280.5],[176.32827742181405,-38.07184046670011,292.0006],[176.32256671539994,-38.051852994251192,280.5],[176.31185914087359,-38.03757622821621,291.8302],[176.28758863861424,-38.035434713310963,332.2009],[176.26046278314766,-38.035434713310963,280.5],[176.2376199574918,-38.0382900665179,280.5],[176.22548470636218,-38.0475699644407,280.5]]]}
,"properties": {"featurecla": "Lake","scalerank": 7,"name": "Lake Rotorua","name_abb": "L. Rotorua","name_alt": null,"note": null,"delta": null,"dam_name": null,"year": -99,"admin": null,"min_zoom": 5.7,"min_label": 6.7,"area_km2": 80.39301,"hist_schema_id": "Elevation0-9000","hist_area_km2": {"275": 78.52364,"300": 0.53408,"325": 0.53415,"350": 0.36721,"375": 0.23367,"400": 0.08345,"425": 0.11682}}}