{"type":"Feature","properties":{"GID_2":"NZL.18.4_1","GID_0":"NZL","country":"NewZealand","GID_1":"NZL.18_1","province":"Wellington","NL_NAME_1":"NA","county":"Masterton","VARNAME_2":"NA","NL_NAME_2":"NA","TYPE_2":"District","ENGTYPE_2":"District","CC_2":"048","HASC_2":"NZ.WG.MT","name":"Masterton.county"},
"geometry":{"type": "MultiPolygon","coordinates": [[[[175.4351,-40.746,1431.9821],[175.4422,-40.7473,1170.2311],[175.4491,-40.7581,779.2239],[175.4534,-40.7606,752.4406],[175.4576,-40.7659,697.1998],[175.4678,-40.768,690.1625],[175.4742,-40.7718,633.5035],[175.4776,-40.7707,654.2679],[175.4807,-40.7742,574.1758],[175.4853,-40.774,570.0497],[175.4921,-40.7767,507.8256],[175.4902,-40.7787,505.4739],[175.4921,-40.7812,508.3784],[175.4901,-40.7832,486.1021],[175.4915,-40.7843,486.1021],[175.49,-40.7919,468.7524],[175.4922,-40.7932,465.3102],[175.4894,-40.7984,472.1418],[175.4906,-40.8043,454.3421],[175.4847,-40.8105,475.9131],[175.4851,-40.8132,432.8153],[175.4823,-40.8171,429.6077],[175.4834,-40.8213,402.197],[175.4814,-40.8227,393.4876],[175.4787,-40.8342,386.9021],[175.4754,-40.8365,358.7362],[175.477,-40.8425,378.7556],[175.4746,-40.8432,370.2903],[175.4737,-40.8455,357.6436],[175.4741,-40.8502,353.9444],[175.4771,-40.8547,387.2961],[175.4814,-40.8573,337.7278],[175.4851,-40.8575,331.6925],[175.4859,-40.8605,340.7384],[175.4924,-40.8648,280.0729],[175.491,-40.8686,282.0393],[175.494,-40.8761,320.1904],[175.4931,-40.8787,279.8034],[175.4967,-40.8817,271.9375],[175.4966,-40.8837,263.7126],[175.5059,-40.8827,258.7829],[175.5095,-40.8851,268.1282],[175.5124,-40.8828,251.6335],[175.5166,-40.8827,257.9171],[175.5236,-40.8869,246.5191],[175.5244,-40.8893,234.8907],[175.5283,-40.8901,234.216],[175.5347,-40.8961,218.4242],[175.5427,-40.8963,210.7611],[175.5476,-40.9005,209.7867],[175.5506,-40.9081,197.9051],[175.5556,-40.914,192.013],[175.5563,-40.9189,184.3102],[175.5607,-40.9242,180.4066],[175.5682,-40.9257,176.6369],[175.573,-40.9294,166.2368],[175.5823,-40.9394,152.009],[175.5935,-40.9461,141.9374],[175.5978,-40.9551,132.0453],[175.6075,-40.9621,120.1807],[175.6127,-40.9681,117.4075],[175.6222,-40.973,109.6698],[175.6264,-40.9798,103.6597],[175.6355,-40.9885,98.7675],[175.6499,-40.9984,92.8744],[175.6598,-41.0013,84.6967],[175.6641,-41.0073,81.6662],[175.6644,-41.0116,80.9868],[175.6612,-41.0236,73.75],[175.656,-41.0306,72.2634],[175.6578,-41.0389,70.5252],[175.6552,-41.0444,67.1067],[175.6494,-41.0494,66.3406],[175.6401,-41.0486,65.4195],[175.6277,-41.0571,62.2225],[175.633,-41.0668,59.2888],[175.6323,-41.0693,59.2652],[175.6373,-41.0648,61.7631],[175.6396,-41.0642,63.6542],[175.6426,-41.0663,62.9801],[175.6459,-41.0643,63.8958],[175.648,-41.065,63.9161],[175.6472,-41.0702,64.1546],[175.6501,-41.0705,64.6145],[175.6595,-41.0652,64.9311],[175.6556,-41.062,66.9849],[175.6586,-41.0597,66.7414],[175.6621,-41.0594,66.9872],[175.6658,-41.0634,74.5745],[175.668,-41.0629,70.6855],[175.669,-41.0585,67.6632],[175.6665,-41.0566,68.146],[175.667,-41.0545,68.6214],[175.6723,-41.0523,68.7876],[175.6755,-41.0491,71.6505],[175.675,-41.0456,70.2638],[175.6725,-41.0445,70.1251],[175.6732,-41.0433,70.3404],[175.6831,-41.0399,72.4442],[175.6882,-41.0426,70.8955],[175.6905,-41.0394,73.956],[175.6964,-41.0394,95.5807],[175.6914,-41.0384,73.2968],[175.6938,-41.0339,73.5151],[175.6911,-41.0329,73.8999],[175.692,-41.0309,75.2158],[175.6897,-41.0315,73.8999],[175.6886,-41.0302,73.5481],[175.688,-41.0237,76.1636],[175.6903,-41.0247,76.0676],[175.6927,-41.0227,80.18],[175.6987,-41.0253,77.4622],[175.6971,-41.0224,76.7024],[175.7192,-41.0203,87.1574],[175.7228,-41.0175,99.813],[175.7291,-41.0197,85.8102],[175.731,-41.014,83.8479],[175.7328,-41.0173,87.8804],[175.7396,-41.0145,80.4027],[175.7362,-41.0121,87.8374],[175.741,-41.0117,104.4645],[175.7407,-41.0098,94.2012],[175.7374,-41.0083,86.5051],[175.7412,-41.0031,85.2588],[175.7425,-41.0059,86.9686],[175.7444,-41.0064,89.8284],[175.7491,-41.0055,102.9179],[175.7508,-41.0026,93.2721],[175.7573,-41.003,99.5997],[175.7567,-41.0121,108.1397],[175.7531,-41.0194,130.4348],[175.7564,-41.0191,124.9751],[175.7585,-41.0226,133.6581],[175.762,-41.023,135.2275],[175.7608,-41.0238,137.4048],[175.7699,-41.0294,246.1768],[175.774,-41.0341,315.8665],[175.7736,-41.0376,310.2392],[175.7773,-41.0399,309.054],[175.777,-41.0412,309.054],[175.754,-41.0524,383.4989],[175.7522,-41.0671,483.4995],[175.7389,-41.0836,449.0617],[175.7527,-41.0879,258.3245],[175.7608,-41.0852,268.2755],[175.7638,-41.0864,201.759],[175.7591,-41.0938,209.3391],[175.7727,-41.1007,178.3642],[175.7734,-41.1019,179.931],[175.77,-41.1063,182.8188],[175.774,-41.1093,176.9814],[175.7738,-41.1109,143.6739],[175.778,-41.1089,142.6252],[175.7834,-41.1109,142.4616],[175.786,-41.1152,152.959],[175.7882,-41.1125,165.0278],[175.7895,-41.1132,149.0717],[175.7911,-41.12,183.726],[175.7941,-41.1225,194.8079],[175.7942,-41.125,164.1255],[175.7985,-41.1254,166.5259],[175.7987,-41.1287,164.9798],[175.7966,-41.1306,161.8246],[175.8043,-41.1302,187.2132],[175.8062,-41.1313,177.112],[175.8058,-41.1331,185.0824],[175.8105,-41.133,183.5623],[175.8129,-41.1377,184.3144],[175.8167,-41.1379,201.1525],[175.8176,-41.1395,173.8711],[175.8157,-41.1401,178.0789],[175.8166,-41.1416,184.3198],[175.8141,-41.1439,181.6085],[175.8171,-41.1463,190.6117],[175.8161,-41.1487,216.8423],[175.818,-41.1496,207.9764],[175.8176,-41.1506,207.9764],[175.8218,-41.1529,194.1633],[175.8243,-41.1516,194.5066],[175.8252,-41.1538,203.2564],[175.8291,-41.1525,214.4985],[175.8294,-41.1542,206.1364],[175.838,-41.16,219.5925],[175.8597,-41.1437,325.0558],[175.8651,-41.1446,314.1577],[175.8782,-41.1409,225.5486],[175.8823,-41.1477,162.5587],[175.8983,-41.1556,224.2917],[175.904,-41.1498,109.5022],[175.9019,-41.1481,101.0157],[175.9037,-41.1469,119.0402],[175.9018,-41.1453,100.6805],[175.91,-41.1471,263.6262],[175.9113,-41.1494,250.8352],[175.9136,-41.15,262.5978],[175.917,-41.1489,285.9333],[175.9192,-41.1504,262.0442],[175.9244,-41.1502,254.3397],[175.9305,-41.155,418.0738],[175.9295,-41.1575,404.9818],[175.9328,-41.1636,371.9005],[175.9351,-41.1645,382.5377],[175.9321,-41.1683,346.0236],[175.9333,-41.1716,396.5736],[175.9376,-41.1753,320.9138],[175.9385,-41.1852,36.789],[175.9453,-41.1863,20.1366],[175.9469,-41.1884,19.5674],[175.9538,-41.1888,14.1749],[175.9587,-41.1918,14.44],[175.9636,-41.1917,12.771],[175.9659,-41.1948,25.9948],[175.9732,-41.1917,22.8621],[175.9738,-41.1942,11.4035],[175.979,-41.1958,9.6196],[175.9821,-41.1958,6.7687],[175.9847,-41.1933,4.6227],[175.9874,-41.1958,4.077],[175.9914,-41.1963,0.372],[175.9947,-41.1824,6.8074],[176.0088,-41.1664,0.0],[176.016,-41.1622,9.7729],[176.0209,-41.1569,0.0],[176.0269,-41.155,0.0],[176.036,-41.1481,0.0],[176.0456,-41.1436,0.0],[176.0562,-41.1327,1.7097],[176.0632,-41.13,1.861],[176.0638,-41.1259,0.852],[176.0661,-41.1253,0.0],[176.0673,-41.1218,1.6106],[176.0655,-41.1191,1.0568],[176.066,-41.1154,0.0],[176.0701,-41.1111,0.0],[176.0689,-41.1038,1.3086],[176.0714,-41.0941,5.5433],[176.0767,-41.0839,1.3914],[176.0835,-41.0804,3.1383],[176.0856,-41.0776,6.7126],[176.0852,-41.0725,2.4026],[176.088,-41.0695,6.2452],[176.089,-41.0651,2.2169],[176.0944,-41.0583,2.7577],[176.0986,-41.0565,0.0],[176.0965,-41.0521,6.9041],[176.0972,-41.0446,3.3971],[176.0989,-41.0414,0.0],[176.1045,-41.0383,2.8519],[176.1029,-41.0313,0.2361],[176.1062,-41.0268,1.3343],[176.1049,-41.0227,0.5979],[176.1069,-41.0153,0.0],[176.1139,-41.0119,1.7977],[176.1285,-40.9983,0.5258],[176.1293,-40.9933,16.2177],[176.133,-40.9867,31.3165],[176.132,-40.9852,19.9014],[176.1333,-40.9781,13.5311],[176.1459,-40.9572,17.5107],[176.1557,-40.9475,2.2929],[176.1722,-40.9386,0.0],[176.1834,-40.9284,0.0],[176.1968,-40.9218,0.0],[176.2071,-40.9126,19.4777],[176.2132,-40.9104,9.4851],[176.2161,-40.9125,39.1315],[176.2197,-40.9118,11.346],[176.2216,-40.9098,16.8583],[176.2196,-40.9086,15.6567],[176.2202,-40.9072,0.0],[176.2286,-40.9043,0.0],[176.2238,-40.9081,0.0],[176.2266,-40.9073,0.0],[176.2325,-40.8999,0.0],[176.2324,-40.8993,0.0],[176.231,-40.8994,0.0],[176.229,-40.9023,0.0],[176.2251,-40.9014,9.6378],[176.2207,-40.898,7.814],[176.219,-40.8908,24.0003],[176.2198,-40.8863,36.7886],[176.2262,-40.873,0.0],[176.2249,-40.8715,4.4183],[176.2405,-40.8603,47.0573],[176.2448,-40.8515,0.0],[176.2448,-40.8443,6.1308],[176.2537,-40.8318,4.1618],[176.2574,-40.824,0.0],[176.2559,-40.8165,6.8485],[176.2588,-40.8122,3.2437],[176.2575,-40.8109,0.0],[176.2583,-40.806,2.3131],[176.2654,-40.795,0.0],[176.2641,-40.7918,5.919],[176.2674,-40.7895,0.0],[176.2672,-40.785,0.0],[176.2705,-40.7808,1.421],[176.2668,-40.7825,1.3227],[176.2641,-40.7808,1.4195],[176.2641,-40.7769,3.3733],[176.2621,-40.7751,10.2159],[176.2654,-40.7722,36.3346],[176.2629,-40.7665,12.5873],[176.2664,-40.7636,26.8406],[176.2593,-40.7616,16.953],[176.2582,-40.7598,11.0423],[176.2603,-40.7564,12.017],[176.2655,-40.7572,76.6289],[176.2636,-40.7533,9.8801],[176.2698,-40.7497,50.7005],[176.264,-40.7484,28.4416],[176.2637,-40.7465,17.1945],[176.2716,-40.7446,53.2103],[176.2661,-40.7401,12.8361],[176.2613,-40.7405,14.8261],[176.2604,-40.7384,16.7164],[176.2586,-40.74,14.8177],[176.2593,-40.7441,65.1986],[176.2551,-40.743,16.4539],[176.2525,-40.7455,20.1726],[176.2508,-40.744,19.6798],[176.2527,-40.7415,20.2797],[176.2497,-40.7401,22.1895],[176.2501,-40.7431,19.6798],[176.2466,-40.7409,26.5502],[176.2445,-40.734,47.1424],[176.2466,-40.7332,26.0091],[176.2506,-40.7349,29.1053],[176.2513,-40.7336,25.5127],[176.248,-40.7307,38.2393],[176.2376,-40.729,47.4339],[176.2413,-40.7259,70.9369],[176.2382,-40.7252,88.2073],[176.2365,-40.7211,43.8487],[176.2398,-40.7201,39.1156],[176.2413,-40.7176,45.7968],[176.2344,-40.7157,39.723],[176.2343,-40.7124,52.3605],[176.2315,-40.7109,50.577],[176.2342,-40.7076,49.7489],[176.2258,-40.7083,72.4283],[176.2252,-40.707,55.6677],[176.228,-40.7054,63.2058],[176.2225,-40.7032,65.4914],[176.2191,-40.7056,58.3957],[176.2167,-40.7034,69.7379],[176.2119,-40.7028,115.6824],[176.2092,-40.7052,80.812],[176.2082,-40.7024,95.8999],[176.2039,-40.7039,73.779],[176.2006,-40.7007,73.9131],[176.198,-40.7019,77.6693],[176.1976,-40.7004,77.1816],[176.1936,-40.6992,87.6049],[176.1908,-40.7007,82.6171],[176.1852,-40.6973,91.5469],[176.1756,-40.7009,89.6124],[176.1572,-40.6922,306.4017],[176.1625,-40.6822,392.8969],[176.1532,-40.677,232.7222],[176.1434,-40.6803,149.3038],[176.144,-40.6826,129.4761],[176.1414,-40.6807,145.2749],[176.1331,-40.6846,179.5746],[176.1299,-40.6824,165.7667],[176.1226,-40.6821,184.8128],[176.1181,-40.6788,213.6286],[176.1175,-40.6804,206.0562],[176.1116,-40.6794,198.0697],[176.1082,-40.6778,205.1395],[176.1072,-40.6742,206.1544],[176.1032,-40.6729,245.4813],[176.1,-40.6755,263.1501],[176.0939,-40.6751,301.199],[176.0823,-40.7082,339.3108],[176.0791,-40.7074,323.6015],[176.082,-40.7157,418.0546],[176.0748,-40.7132,412.8906],[176.062,-40.7146,375.2533],[176.0569,-40.713,331.5475],[176.0556,-40.7168,351.8371],[176.0475,-40.7146,331.9992],[176.0437,-40.7164,349.696],[176.0224,-40.7115,343.6885],[176.0242,-40.7073,284.5872],[176.0172,-40.7056,328.0068],[176.0125,-40.717,343.4741],[176.0106,-40.7132,419.3069],[175.9954,-40.725,431.6507],[175.9934,-40.7238,402.7497],[175.9888,-40.7259,362.2037],[175.9797,-40.7222,352.0916],[175.974,-40.7229,270.3559],[175.9776,-40.7269,296.403],[175.9775,-40.7295,308.0989],[175.9753,-40.7305,332.5601],[175.9777,-40.7305,311.4254],[175.9785,-40.7326,331.8205],[175.9714,-40.7367,416.9793],[175.9755,-40.7383,415.7008],[175.965,-40.7392,490.8006],[175.9606,-40.7364,478.8738],[175.9555,-40.7433,484.7231],[175.9516,-40.7435,493.3812],[175.9434,-40.7407,489.9603],[175.935,-40.7668,362.1676],[175.9099,-40.7509,301.4549],[175.8855,-40.7733,468.0127],[175.8716,-40.7779,331.2809],[175.8666,-40.7696,303.1491],[175.8628,-40.7698,336.8206],[175.8497,-40.7614,313.525],[175.8423,-40.7691,286.7023],[175.8363,-40.7656,316.4004],[175.8328,-40.7661,307.2752],[175.8304,-40.7645,263.3907],[175.8282,-40.7661,272.6003],[175.8272,-40.7655,272.6003],[175.8285,-40.7615,239.8218],[175.8269,-40.7609,281.1105],[175.8109,-40.7796,378.8237],[175.8033,-40.7758,274.5844],[175.8016,-40.7771,342.6661],[175.7974,-40.7758,331.213],[175.796,-40.7731,330.5561],[175.7886,-40.768,215.6608],[175.7855,-40.7723,215.9254],[175.7647,-40.7681,221.4926],[175.767,-40.7592,300.8836],[175.7664,-40.755,318.3445],[175.7677,-40.7531,308.0222],[175.7753,-40.7508,330.0583],[175.7762,-40.7453,352.3453],[175.7806,-40.7441,377.5765],[175.7816,-40.7395,399.4821],[175.7907,-40.7256,218.4236],[175.7781,-40.7239,275.762],[175.7765,-40.7197,323.1074],[175.774,-40.719,325.8386],[175.7771,-40.714,331.3656],[175.7807,-40.7114,351.6589],[175.7814,-40.7082,336.7241],[175.7701,-40.6989,346.0203],[175.7542,-40.7093,322.4484],[175.7572,-40.7057,308.9028],[175.7559,-40.7005,296.6376],[175.7524,-40.6974,288.5534],[175.6906,-40.6966,364.6342],[175.6905,-40.7049,454.8445],[175.6939,-40.705,459.1207],[175.6937,-40.7163,274.7621],[175.6823,-40.7161,293.6129],[175.6835,-40.7229,286.0045],[175.6759,-40.7294,295.0126],[175.6615,-40.7254,475.9409],[175.6583,-40.7282,400.4701],[175.6532,-40.7425,429.054],[175.628,-40.7427,488.2077],[175.6278,-40.7455,441.4408],[175.6321,-40.7463,506.5466],[175.6277,-40.7528,473.6859],[175.6085,-40.743899999999996,433.7854],[175.6053,-40.7447,448.1747],[175.5977,-40.7387,549.6598],[175.5905,-40.737,545.8588],[175.5874,-40.7342,639.6829],[175.5863,-40.7357,589.3043],[175.576,-40.7331,782.7725],[175.5678,-40.7366,789.2047],[175.5608,-40.7349,843.5503],[175.5591,-40.7326,832.9996],[175.5605,-40.7288,961.6417],[175.4734,-40.6934,1006.372],[175.4471,-40.7261,1458.5176],[175.4416,-40.742,1367.5535],[175.4351,-40.746,1431.9821]]]]}}