{"type":"Feature","properties":{"GID_2":"NZL.19.2_1","GID_0":"NZL","country":"NewZealand","GID_1":"NZL.19_1","province":"WestCoast","NL_NAME_1":"NA","county":"Grey","VARNAME_2":"NA","NL_NAME_2":"NA","TYPE_2":"District","ENGTYPE_2":"District","CC_2":"056","HASC_2":"NZ.WC.GR","name":"Grey.county"},
"geometry":{"type": "MultiPolygon","coordinates": [[[[172.1958,-42.4963,1725.9802],[172.1894,-42.493,1618.6472],[172.1792,-42.4927,1576.087],[172.1646,-42.4953,1596.1655],[172.1588,-42.499,1642.6438],[172.1539,-42.5,1615.1172],[172.1469,-42.4985,1512.2405],[172.1342,-42.5047,1560.3531],[172.1289,-42.505,1464.2623],[172.1212,-42.5086,1541.0055],[172.1084,-42.5076,1394.5828],[172.0855,-42.5134,1371.0961],[172.0788,-42.5185,1400.554],[172.0724,-42.5176,1316.3688],[172.0641,-42.5192,1357.064],[172.0545,-42.524,1441.4674],[172.0345,-42.5232,1469.4241],[172.0295,-42.5162,1429.2334],[172.0228,-42.5125,1537.2919],[172.002,-42.5092,1398.5824],[171.9961,-42.5072,1381.4414],[171.993,-42.5034,1433.2716],[171.983,-42.5072,1437.3993],[171.9824,-42.5113,1455.553],[171.9703,-42.5086,1245.5828],[171.9655,-42.5092,1130.9084],[171.9588,-42.5055,798.4038],[171.9573,-42.5015,643.2342],[171.9451,-42.4964,486.3883],[171.9387,-42.4903,775.7925],[171.9335,-42.4891,995.8278],[171.9272,-42.4844,1150.0269],[171.9236,-42.4791,1189.3544],[171.9244,-42.4734,1124.8318],[171.9213,-42.4682,1212.1509],[171.9176,-42.4655,1398.2129],[171.9256,-42.4618,1247.4454],[171.9255,-42.4577,1247.002],[171.9211,-42.4547,1299.8438],[171.9357,-42.4397,1297.4006],[171.9389,-42.4383,1303.5581],[171.9484,-42.4407,1426.0586],[171.9539,-42.4293,1101.2327],[171.958,-42.4258,866.7145],[171.9581,-42.421,693.4678],[171.9613,-42.414,575.1491],[171.9571,-42.4103,691.7418],[171.9441,-42.4044,889.6907],[171.924,-42.4034,416.4465],[171.9187,-42.3982,380.4931],[171.9187,-42.3935,583.4105],[171.9105,-42.3858,938.2468],[171.9118,-42.3829,993.8665],[171.9107,-42.381,1090.851],[171.9054,-42.3793,1248.6333],[171.9058,-42.375,1358.8116],[171.8883,-42.345,215.7426],[171.8794,-42.3465,209.0266],[171.8742,-42.3499,220.8459],[171.867,-42.3474,218.4198],[171.866,-42.3449,247.6556],[171.8586,-42.346,250.1777],[171.8578,-42.3474,223.4654],[171.8602,-42.3512,202.1436],[171.8592,-42.3543,202.9846],[171.8531,-42.36,191.7915],[171.8451,-42.3614,220.1411],[171.8418,-42.3691,180.1363],[171.8141,-42.3593,177.1165],[171.808,-42.3625,169.5786],[171.8032,-42.36,180.6143],[171.786,-42.3613,194.9871],[171.7842,-42.3588,153.9462],[171.7878,-42.3548,161.9589],[171.782,-42.352,149.6507],[171.7825,-42.3492,156.2708],[171.7701,-42.3449,143.0449],[171.7667,-42.3386,140.4724],[171.7598,-42.3314,134.2911],[171.7388,-42.3249,126.0983],[171.725,-42.3148,119.788],[171.7178,-42.3133,116.7525],[171.6882,-42.2962,104.6441],[171.6797,-42.2885,99.86],[171.6631,-42.2862,96.0599],[171.6562,-42.2836,93.8741],[171.6422,-42.2836,90.1778],[171.6502,-42.2783,94.5958],[171.6543,-42.2736,99.8247],[171.6551,-42.265,103.7842],[171.6581,-42.2567,113.3499],[171.6561,-42.2525,115.6711],[171.6571,-42.2481,122.2679],[171.6535,-42.2269,145.5295],[171.6463,-42.2204,147.7738],[171.6427,-42.2112,155.2374],[171.6435,-42.2037,161.2384],[171.6384,-42.1976,169.4597],[171.6209,-42.1892,183.9317],[171.6175,-42.185,196.0787],[171.6019,-42.1828,215.0564],[171.5994,-42.175,262.6001],[171.5859,-42.1535,307.6684],[171.5848,-42.1493,323.5498],[171.581,-42.1474,282.8216],[171.5778,-42.1421,303.4943],[171.5765,-42.1326,311.3452],[171.5797,-42.1276,336.1034],[171.5808,-42.1218,350.6013],[171.5926,-42.1163,378.9337],[171.5936,-42.1138,371.8654],[171.5963,-42.1139,367.702],[171.6028,-42.1072,385.5266],[171.6064,-42.1061,403.8483],[171.6062,-42.1038,419.0411],[171.6136,-42.1002,407.6298],[171.6266,-42.0801,487.2417],[171.6139,-42.0698,595.051],[171.5934,-42.062,795.1182],[171.5856,-42.0563,1140.8684],[171.5817,-42.058,1057.5671],[171.584,-42.0623,1200.4525],[171.583,-42.0669,1151.4053],[171.5667,-42.0653,1271.8929],[171.563,-42.0664,1189.9231],[171.5573,-42.0647,1297.8937],[171.5525,-42.0663,1285.9683],[171.5452,-42.0723,1321.8583],[171.5434,-42.079,1193.1289],[171.5473,-42.0894,1234.5966],[171.5365,-42.1013,1274.4542],[171.5394,-42.1086,1082.4902],[171.5392,-42.1161,1136.9486],[171.5345,-42.1187,1043.6376],[171.526,-42.1203,1149.8988],[171.5233,-42.1271,1030.3278],[171.5231,-42.1346,1071.975],[171.511,-42.1459,1088.3868],[171.5094,-42.1583,1073.7112],[171.501,-42.1613,1078.0637],[171.4992,-42.1677,1093.3834],[171.4887,-42.1813,1199.1447],[171.4715,-42.1862,1052.0938],[171.4665,-42.1898,1085.97],[171.4637,-42.1971,1162.4205],[171.4606,-42.1984,1106.8335],[171.4509,-42.1973,899.3474],[171.4404,-42.206,885.6368],[171.4393,-42.214,944.9504],[171.4414,-42.2165,951.5475],[171.4417,-42.2242,912.1949],[171.4445,-42.2287,991.4417],[171.4387,-42.2398,1052.2279],[171.429,-42.2372,644.2876],[171.4262,-42.2317,479.7802],[171.4177,-42.2278,421.6253],[171.4163,-42.2242,348.4893],[171.4127,-42.2209,337.5305],[171.415,-42.2132,288.7824],[171.4122,-42.2088,250.1559],[171.4107,-42.2089,248.0636],[171.4081,-42.2025,249.2732],[171.4055,-42.2017,233.5411],[171.4036,-42.1946,192.7581],[171.4118,-42.189,177.1239],[171.4135,-42.1808,162.2433],[171.4125,-42.1765,172.0565],[171.4108,-42.1754,174.2982],[171.4107,-42.1775,156.7098],[171.4064,-42.181,137.196],[171.4041,-42.1801,161.3033],[171.4038,-42.182,145.043],[171.4004,-42.1836,138.5992],[171.4041,-42.1872,192.6121],[171.399,-42.188,186.831],[171.3964,-42.1849,195.0082],[171.3987,-42.1834,138.5992],[171.3956,-42.1835,141.9706],[171.3933,-42.1816,118.9533],[171.3952,-42.1757,108.8484],[171.3944,-42.1721,94.9157],[171.3871,-42.1689,97.6908],[171.3862,-42.1669,83.9759],[171.3759,-42.164,89.9992],[171.3688,-42.1569,50.9309],[171.3713,-42.1533,31.5693],[171.3622,-42.1487,33.1175],[171.3651,-42.1412,23.2808],[171.3632,-42.1392,24.1821],[171.3636,-42.1372,18.5345],[171.3594,-42.1366,21.5353],[171.3579,-42.1347,16.1017],[171.3521,-42.1359,15.1548],[171.3472,-42.1299,97.2058],[171.3449,-42.1238,21.2229],[171.3362,-42.1265,72.9094],[171.3295,-42.1223,3.2756],[171.3271,-42.1235,4.1146],[171.3285,-42.1265,0.0],[171.3279,-42.1343,1.6725],[171.3262,-42.1432,4.9069],[171.32,-42.1579,0.0],[171.3187,-42.1794,4.0909],[171.3143,-42.1964,0.0],[171.3091,-42.2435,0.0],[171.3036,-42.2707,1.2516],[171.3005,-42.2758,1.9102],[171.2923,-42.2803,0.0],[171.288,-42.2943,29.4538],[171.2839,-42.3,0.6899],[171.2843,-42.3026,0.8346],[171.2805,-42.3131,6.7411],[171.2735,-42.3206,37.6083],[171.2665,-42.3242,0.0],[171.2646,-42.331,2.4608],[171.2604,-42.3345,0.0],[171.2577,-42.3466,3.6482],[171.2514,-42.3528,33.4836],[171.2405,-42.3732,4.1854],[171.2345,-42.3786,23.6113],[171.2294,-42.3806,0.0],[171.222,-42.3819,15.0168],[171.2186,-42.3796,14.1188],[171.2157,-42.395,56.9408],[171.2028,-42.431399999999996,1.0296],[171.1973,-42.4388,7.6416],[171.1898,-42.44,0.0],[171.194,-42.4429,2.4661],[171.1834,-42.4742,4.1878],[171.1759,-42.491,2.8874],[171.1639,-42.5142,2.1223],[171.1553,-42.5271,3.225],[171.1291,-42.5599,1.6075],[171.1357,-42.5626,1.9941],[171.1486,-42.5603,2.2879],[171.1516,-42.5613,4.2272],[171.1561,-42.5683,3.5],[171.1624,-42.5741,29.058],[171.1627,-42.5763,5.25],[171.16,-42.5797,8.0603],[171.163,-42.5912,11.2633],[171.168,-42.5964,13.2901],[171.1703,-42.6033,23.5942],[171.1794,-42.6173,19.8245],[171.198,-42.6267,23.2239],[171.1993,-42.6313,82.8053],[171.1977,-42.6348,31.2763],[171.1993,-42.6373,41.032],[171.2096,-42.6387,28.8287],[171.2143,-42.6426,25.0],[171.2164,-42.6466,28.6137],[171.2316,-42.654,29.125],[171.2362,-42.6583,35.5571],[171.2377,-42.6623,31.6183],[171.2311,-42.6673,34.021],[171.2294,-42.6774,39.9188],[171.2331,-42.6884,39.2216],[171.2396,-42.6939,40.375],[171.2442,-42.7004,42.875],[171.2443,-42.7074,45.25],[171.2458,-42.7099,46.625],[171.2614,-42.7165,53.7509],[171.2881,-42.7204,60.6085],[171.2927,-42.7223,61.7966],[171.3057,-42.7369,69.4755],[171.3091,-42.7455,73.0936],[171.3166,-42.7501,77.2333],[171.329,-42.7497,81.8799],[171.3388,-42.7573,84.6906],[171.3577,-42.7576,94.2722],[171.373,-42.7467,102.827],[171.3959,-42.7422,109.4528],[171.407,-42.7353,115.0088],[171.4197,-42.7324,122.3267],[171.4403,-42.7317,130.6063],[171.4532,-42.7342,136.1312],[171.4641,-42.7309,142.0612],[171.4754,-42.7325,146.5938],[171.5026,-42.7425,162.7745],[171.513,-42.7378,169.9867],[171.5479,-42.7452,185.8614],[171.5593,-42.7528,194.4671],[171.5748,-42.7595,205.3623],[171.5849,-42.7595,209.9914],[171.5925,-42.7625,214.8495],[171.6033,-42.7599,220.7036],[171.6137,-42.7595,226.6255],[171.6188,-42.757,229.5027],[171.6188,-42.7543,230.627],[171.6209,-42.7522,233.5772],[171.6265,-42.7511,310.0818],[171.6368,-42.7529,275.7421],[171.6419,-42.7579,245.9803],[171.653,-42.7571,251.7468],[171.671,-42.7618,265.9651],[171.6819,-42.7587,274.8789],[171.6923,-42.7591,282.5466],[171.7014,-42.756,293.1588],[171.7134,-42.76,298.3703],[171.7224,-42.7609,306.3152],[171.7352,-42.759,322.0843],[171.7516,-42.762,342.9421],[171.7814,-42.7525,391.5833],[171.8018,-42.7493,423.6768],[171.8298,-42.7392,509.8052],[171.8413,-42.7378,550.6076],[171.8669,-42.7311,708.3277],[171.8687,-42.7326,755.6138],[171.8737,-42.7319,865.2152],[171.8789,-42.7289,926.7201],[171.8829,-42.7289,949.0725],[171.8855,-42.7182,1401.4147],[171.9006,-42.7112,1359.0577],[171.908,-42.7047,1414.1664],[171.9135,-42.6905,1427.5273],[171.9157,-42.6881,1424.7303],[171.9156,-42.6817,1459.4348],[171.9228,-42.6774,1375.5195],[171.9278,-42.6715,1399.3945],[171.928,-42.669,1481.7964],[171.9257,-42.6664,1576.3431],[171.9425,-42.6635,1564.1362],[171.9586,-42.6536,1537.807],[171.9723,-42.6535,1648.7721],[171.9754,-42.6454,1567.4286],[171.9744,-42.6391,1520.7571],[171.9897,-42.6372,1479.713],[171.9968,-42.6336,1411.5123],[172.0075,-42.6349,1407.9773],[172.0155,-42.6318,1402.812],[172.0285,-42.6368,1414.1833],[172.0408,-42.6309,1396.1405],[172.0473,-42.6324,1496.9329],[172.0508,-42.6298,1454.9845],[172.0756,-42.6227,1385.969],[172.0793,-42.6221,1392.338],[172.0856,-42.624,1399.6421],[172.0937,-42.6211,1413.5293],[172.0977,-42.6103,977.6172],[172.1027,-42.6061,1271.8373],[172.0985,-42.5934,1570.3146],[172.1031,-42.5879,1610.0262],[172.1071,-42.5859,1669.6798],[172.1084,-42.5806,1565.3884],[172.1243,-42.5635,1653.8596],[172.1283,-42.5616,1647.8147],[172.1329,-42.5553,1605.9067],[172.1404,-42.5544,1596.1683],[172.1441,-42.5523,1620.1067],[172.1499,-42.5549,1629.6744],[172.1558,-42.5531,1613.1194],[172.1783,-42.5355,1597.9613],[172.1828,-42.5265,1429.4049],[172.1805,-42.5201,1011.0787],[172.1809,-42.5134,1431.1417],[172.1869,-42.5039,1610.968],[172.1933,-42.4999,1626.923],[172.1958,-42.4963,1725.9802]]]]}}