{"type": "Feature","bbox": [175.4973,-40.5297,175.7906,-40.2681],"geometry": {"type": "MultiPolygon","coordinates": [[[[175.6253,-40.5101,720.919],[175.683,-40.4667,523.9672],[175.6892,-40.4655,441.5148],[175.7146,-40.4378,293.1017],[175.7056,-40.4327,442.0221],[175.712,-40.431,418.5053],[175.715,-40.4287,412.3392],[175.7151,-40.4267,412.0132],[175.7224,-40.4245,385.048],[175.7223,-40.4223,385.2288],[175.7243,-40.4212,376.1449],[175.7228,-40.4187,390.0814],[175.7297,-40.4125,385.4693],[175.7288,-40.4106,402.70119999999997],[175.7252,-40.41,406.9851],[175.7229,-40.4053,442.5613],[175.7249,-40.4048,463.0754],[175.7237,-40.4024,446.1632],[175.7286,-40.3996,480.1395],[175.7326,-40.3993,478.8942],[175.7333,-40.3917,472.6944],[175.7359,-40.3908,496.9908],[175.7371,-40.3921,495.0839],[175.7384,-40.3899,507.4167],[175.7401,-40.3903,490.5732],[175.7396,-40.3885,501.5421],[175.7466,-40.3867,480.5414],[175.7469,-40.3843,463.1835],[175.7485,-40.3846,494.0712],[175.7482,-40.3827,465.9811],[175.7512,-40.3819,511.6549],[175.751,-40.3784,501.7548],[175.7533,-40.3783,510.3389],[175.7525,-40.3767,455.9267],[175.7579,-40.3768,497.403],[175.7569,-40.3744,418.3427],[175.7665,-40.3724,430.2832],[175.7668,-40.37,441.1309],[175.7616,-40.3688,465.1524],[175.7603,-40.3658,476.0628],[175.7648,-40.3599,469.5563],[175.7706,-40.3591,444.1062],[175.7697,-40.3571,431.2947],[175.7736,-40.3554,409.8821],[175.7739,-40.3503,409.8531],[175.7792,-40.3454,400.9132],[175.776,-40.339,335.9384],[175.7815,-40.3391,355.3851],[175.7793,-40.3386,333.5236],[175.7795,-40.3359,341.1984],[175.784,-40.3325,389.9669],[175.7906,-40.3135,90.5106],[175.7813,-40.3116,132.7661],[175.7669,-40.3022,50.2516],[175.7581,-40.3003,59.0713],[175.7669,-40.2957,54.9083],[175.7689,-40.2851,59.6922],[175.7719,-40.2812,66.4429],[175.7633,-40.2799,64.5334],[175.7637,-40.2775,65.4081],[175.7613,-40.2772,70.2477],[175.7626,-40.2751,83.3138],[175.7577,-40.2737,87.9291],[175.7583,-40.2698,90.7147],[175.7543,-40.269,90.265],[175.7527,-40.2716,86.9688],[175.7489,-40.2712,105.3378],[175.7452,-40.2742,128.633],[175.7435,-40.2793,125.1096],[175.7189,-40.2905,111.2889],[175.678,-40.2879,112.9364],[175.6489,-40.2828,69.1402],[175.6415,-40.283,63.4291],[175.6449,-40.2811,65.469],[175.6392,-40.2763,57.3513],[175.6372,-40.2775,55.7888],[175.6263,-40.2689,57.9387],[175.6194,-40.2728,53.7841],[175.6138,-40.2681,56.3401],[175.5965,-40.28,49.4893],[175.6121,-40.2937,42.6746],[175.5318,-40.3481,15.5573],[175.5519,-40.3656,19.1074],[175.5399,-40.3709,15.2822],[175.5453,-40.378,18.4698],[175.539,-40.3873,18.8764],[175.5468,-40.3987,18.7055],[175.5486,-40.406,18.522],[175.5518,-40.4092,15.8611],[175.5418,-40.415,14.2212],[175.5314,-40.4125,12.2626],[175.5223,-40.4153,14.7017],[175.5133,-40.4203,7.375],[175.4973,-40.4339,11.0561],[175.518,-40.4552,12.0119],[175.5596,-40.4832,375.0087],[175.5505,-40.4894,445.1025],[175.5563,-40.5011,647.8723],[175.5619,-40.5023,636.8909],[175.564,-40.5081,516.6611],[175.5718,-40.512,393.9081],[175.5677,-40.5182,423.37],[175.5691,-40.5241,491.069],[175.5762,-40.5236,554.65],[175.581,-40.5259,612.6816],[175.5842,-40.5297,661.6758],[175.6093,-40.5026,528.1812],[175.6253,-40.5101,720.919]]]]}
,"properties": {"GID_2": "NZL.7.3_1","GID_0": "NZL","country": "NewZealand","GID_1": "NZL.7_1","province": "Manawatu-Wanganui","NL_NAME_1": "NA","county": "PalmerstonNorth","VARNAME_2": "NA","NL_NAME_2": "NA","TYPE_2": "City","ENGTYPE_2": "City","CC_2": "040","HASC_2": "NZ.MW.PN","name": "Palmerston_North.county","area_km2": 394.0806,"hist_schema_id": "Elevation0-9000","hist_area_km2": {"0": 4.5184,"25": 88.3217,"50": 83.7027,"75": 43.2663,"100": 32.2958,"125": 14.3573,"150": 7.1359,"175": 6.7163,"200": 6.0539,"225": 6.7644,"250": 7.2803,"275": 7.2485,"300": 7.878,"325": 8.4425,"350": 9.2965,"375": 10.9415,"400": 10.8271,"425": 9.5664,"450": 9.3237,"475": 7.7422,"500": 5.2419,"525": 3.1768,"550": 1.677,"575": 0.9351,"600": 0.7739,"625": 0.3063,"650": 0.1451,"675": 0.0967,"700": 0.0322,"725": 0.0161}}}