{"type":"Feature","properties":{"featurecla":"River","scalerank":9,"rivernum":2007,"dissolve":"2007River","name":"Grey","name_alt":null,"note":null,"min_zoom":7.1,"strokeweig":0.2,"name_en":"Grey","min_label":8.1},
"geometry":{"type": "LineString","coordinates": [[172.04333470662391,-42.448669972999888,350.71],[172.04256977540427,-42.448961626059535,353.4951],[172.03042335745408,-42.453232213771955,383.2634],[172.0214953534321,-42.457533747772146,328.3506],[172.01043205555391,-42.455027098462679,349.5617],[171.99580993458204,-42.455398453915933,325.9477],[171.98330763432247,-42.442308174188732,315.7683],[171.97665418245168,-42.428970324159359,293.0219],[171.96904139565999,-42.40613196378424,277.4937],[171.95856607724943,-42.389947055279919,274.1069],[171.94714689706188,-42.375680816617411,292.9756],[171.93382452017639,-42.356648849638148,253.3518],[171.92334920176586,-42.354730179796334,355.6831],[171.90526109656361,-42.350923786400486,311.8122],[171.869100359303,-42.349036062846444,235.0283],[171.8538747857196,-42.354730179796334,225.7631],[171.84244013238813,-42.365220971350759,212.709],[171.83007709042357,-42.366149359983893,180.0944],[171.7967634116379,-42.36141457795491,210.2804],[171.78057850313357,-42.350923786400486,157.9325],[171.75869947767936,-42.33381048926303,136.7108],[171.73870817577921,-42.324279032629512,127.5779],[171.70158810359769,-42.304287730729335,111.3951],[171.68065293992049,-42.290021492066828,101.8733],[171.65399271300564,-42.282408705275124,92.125],[171.62544476253674,-42.281449370354217,84.7249],[171.59688133892394,-42.288102822225021,79.6648],[171.57880870686557,-42.3090534590461,66.9587],[171.56833338845504,-42.322391309075471,64.0126],[171.54834208655487,-42.325238367550419,59.7587],[171.52264119456092,-42.335698212817071,52.0679],[171.51502840776922,-42.346189004371496,48.68],[171.49599644078995,-42.350923786400486,42.25],[171.46362662378129,-42.35853657319219,37.7505],[171.45316677851466,-42.370915088300656,36.5527],[171.44555399172296,-42.382334268488215,32.3716],[171.42936908321863,-42.388059331725877,36.2856],[171.40176499452676,-42.405172628863333,22.375],[171.39130514926009,-42.416591809050892,22.4547],[171.3821759943676,-42.431755490058762,20.3287],[171.35819262134495,-42.444969554937053,32.1051],[171.32820566849469,-42.451406382793451,240.9948],[171.29037383169444,-42.453541676649664,4.5],[171.25753982036923,-42.450694618174715,7.9704],[171.22540210051889,-42.450694618174715,28.1102]]}}