{"type":"Feature","properties":{"featurecla":"River","scalerank":10,"rivernum":2011,"dissolve":"2011River","name":"Inangahua","name_alt":null,"note":null,"min_zoom":7.2,"strokeweig":0.2,"name_en":"Inangahua","min_label":8.2},
"geometry":{"type": "LineString","coordinates": [[172.02082411230791,-42.287163130505846,684.0864],[171.99653717234466,-42.280985176037653,581.0064],[171.98047604899142,-42.275012542497819,383.1305],[171.96382694617051,-42.263129167993689,373.1291],[171.95786978577456,-42.244097201014419,320.219],[171.95431096268089,-42.223270349344432,316.238],[171.93883781879532,-42.204826361832815,270.9689],[171.93645495463693,-42.185794394853552,280.8348],[171.92635099167964,-42.167938386809588,238.0621],[171.91801096712533,-42.154848107082387,372.026],[171.893037312894,-42.142376753110604,218.2843],[171.88053501263443,-42.130462432318708,208.6627],[171.86746020605113,-42.121549901440609,203.194],[171.8490162185395,-42.11322535003017,179.9633],[171.84008821451752,-42.107871642245755,175.5274],[171.82879281948107,-42.088839675266492,163.4586],[171.81867338337989,-42.06145221058901,148.2561],[171.8305722310279,-42.040656305206788,142.5848],[171.84782478646031,-42.016858609910763,137.3589],[171.87637273692923,-42.002592371248255,151.6869],[171.88471276148354,-41.995443778773115,127.5252],[171.88232989732518,-41.97164608347709,98.1879],[171.88827158457724,-41.947260408713412,82.4957],[171.88530074095121,-41.9288164212018,77.3314],[171.893037312894,-41.914519236251522,100.6209],[171.90730355155648,-41.904430746438123,66.4917],[171.90552414000965,-41.891340466710915,67.4785],[171.91206927987326,-41.876455302292989,57.5751],[171.93289613154326,-41.869337656105621,59.5759],[171.94300009450052,-41.857423335313719,51.3355],[171.94218001787459,-41.846654027169357,42.0]]}}