{"type":"Feature","properties":{"featurecla":"River","scalerank":9,"rivernum":2007,"dissolve":"2007River","name":"Grey1","name_alt":null,"note":null,"min_zoom":7.1,"strokeweig":0.15,"name_en":"Grey","min_label":8.1},
"geometry":{"type": "LineString","coordinates": [[172.11179662114836,-42.408267257640453,408.2982],[172.09610685324839,-42.4207695579,412.4586],[172.08004572989515,-42.428629914993877,405.1788],[172.06505225347001,-42.440389504346918,386.5688],[172.04333470662391,-42.448669972999888,350.71]]}}