{"type":"Feature","properties":{"featurecla":"River","scalerank":10,"rivernum":2011,"dissolve":"2011River","name":"Inangahua1","name_alt":null,"note":null,"min_zoom":7.2,"strokeweig":0.15,"name_en":"Inangahua","min_label":8.2},
"geometry":{"type": "LineString","coordinates": [[172.09291938560796,-42.308929673895015,943.1809],[172.0911245009172,-42.300605122484569,771.1339],[172.08041708534839,-42.293456530009429,758.2664],[172.05542795797317,-42.292868550541776,514.3658],[172.02926287166267,-42.289309727448092,728.2656],[172.02082411230791,-42.287163130505846,684.0864]]}}