{"type":"Feature","properties":{"featurecla":"River","scalerank":6,"rivernum":2004,"dissolve":"2004River","name":"Buller1","name_alt":null,"note":null,"min_zoom":5.0,"strokeweig":0.2,"name_en":"Buller","min_label":6.0},
"geometry":{"type": "LineString","coordinates": [[171.94218001787459,-41.846654027169357,42.0],[171.93107030056476,-41.8404957159029,123.8499],[171.91680406190224,-41.840031521586326,49.28],[171.90538488171467,-41.835729987586134,38.6824],[171.89490956330414,-41.829076535715338,39.8979],[171.88158718641864,-41.831459399873715,37.7265],[171.86826480953317,-41.843837914982181,34.3785],[171.85446276518724,-41.853338425327927,55.0301],[171.83779818922247,-41.857144818723782,28.8226],[171.82353195055995,-41.852874231011363,30.0802],[171.81780688732229,-41.845725638536223,84.4193],[171.81211277037238,-41.844766303615316,74.894],[171.80069359018484,-41.844302109298745,32.0443],[171.785932210918,-41.849532031932078,80.4636],[171.77926328590331,-41.858104153644689,115.1997],[171.77070663733457,-41.858104153644689,96.1431],[171.75642492552819,-41.852874231011363,74.7879],[171.73787262600936,-41.848603643298944,44.4047],[171.71834551842576,-41.846189832852787,81.7836],[171.71026853731749,-41.841919245140367,54.6541],[171.70884500808,-41.837648657427948,41.7781],[171.70169641560489,-41.834801598953,116.9339],[171.67932224954632,-41.833842264032093,46.9687],[171.662193479265,-41.833842264032093,27.9959],[171.63841125711286,-41.825734336636053,17.924],[171.62317021038555,-41.818616690448678,10.6133],[171.61555742359383,-41.810044568736068,4.8097],[171.60319438162927,-41.80766170457769,10.3994],[171.60033185001043,-41.805278840419312,1.5],[171.59938798823342,-41.799089582865079,3.9818],[171.60271471416883,-41.789093931914991,5.1877],[171.60081151747087,-41.776251222489961,1.0],[171.59408069988066,-41.75898319391365,0.5]]}}