{"type":"Feature","properties":{"featurecla":"River","scalerank":10,"rivernum":2012,"dissolve":"2012River","name":"Karamea1","name_alt":null,"note":null,"min_zoom":7.2,"strokeweig":0.15,"name_en":"Karamea","min_label":8.2},
"geometry":{"type": "LineString","coordinates": [[172.40878814488821,-41.426032083783689,1163.9398],[172.39783315901724,-41.428414947942066,866.5466],[172.38547011705265,-41.429838477179544,836.916],[172.37166807270671,-41.425072748862782,905.8822],[172.36215208921709,-41.417955102675414,786.9445],[172.36309595099408,-41.407000116804426,741.4003],[172.3707087377858,-41.397004465854337,610.1409],[172.38308725289426,-41.395116742300296,507.8949],[172.39545029485885,-41.393198072458482,483.0768],[172.41076054333723,-41.388645232316229,483.0966]]}}