{"type":"Feature","properties":{"featurecla":"River","scalerank":10,"rivernum":2012,"dissolve":"2012River","name":"Karamea","name_alt":null,"note":null,"min_zoom":7.2,"strokeweig":0.2,"name_en":"Karamea","min_label":8.2},
"geometry":{"type": "LineString","coordinates": [[172.41076054333723,-41.388645232316229,483.0966],[172.41782446091742,-41.386544620587685,496.7975],[172.43162650526335,-41.378931833795974,469.5933],[172.43827995713414,-41.36274692529166,488.8185],[172.44162215621344,-41.346562016787338,439.7059],[172.44685207884675,-41.333224166757965,408.3048],[172.44494888214882,-41.3208456516495,437.1675],[172.43923929205505,-41.310880946987183,435.4592],[172.44019862697596,-41.302773019591143,368.7686],[172.45352100386145,-41.296119567720339,428.2811],[172.4673075750635,-41.291818033720148,335.27],[172.47017010668233,-41.283741052611873,314.7186],[172.4792218958554,-41.266596809186652,311.2692],[172.49016140858248,-41.258984022394941,285.8558],[172.49635066613672,-41.251866376207573,302.5629],[172.49955360692104,-41.235093488235606,324.9547],[172.48646332719383,-41.224974052134435,278.0226],[172.47100565645215,-41.213647710810186,278.8279],[172.45554798571044,-41.207118044090471,314.5856],[172.42757254156533,-41.206530064622818,259.7616],[172.40498175149236,-41.207118044090471,240.3524],[172.38772919605995,-41.204735179932094,201.8282],[172.37583034841194,-41.20532315939974,217.0726],[172.36096065713787,-41.198793492680025,188.5452],[172.33478009768348,-41.190468941269586,218.8289],[172.32288125003546,-41.19402776436327,149.3933],[172.30979097030826,-41.204735179932094,313.6539],[172.28422933660929,-41.216061521256336,128.594],[172.27528585944341,-41.228532875228119,258.1482],[172.27410990050811,-41.247564842207382,152.0794],[172.26815274011216,-41.258272257776206,96.3573],[172.25328304883811,-41.258891183531631,65.99],[172.22116080213164,-41.255301414150175,48.8083],[172.20390824669923,-41.247564842207382,19.9134],[172.19142141958355,-41.248183767962807,41.5489],[172.18309686817312,-41.258891183531631,13.8009],[172.15513689717187,-41.265420850251346,8.0271],[172.1372963622718,-41.26721573494207,62.5508],[172.12329316705535,-41.267834660697496,87.0159]]}}