{"type":"Feature","properties":{"ISO3166-1-Alpha-3":"NZL","country":"New Zealand","fill":"#00F","id":"3403","name":"Tasman District"},
"geometry":{"type": "Polygon","coordinates": [[[173.18498,-41.31021,0.0],[173.17237,-41.31194,0.0],[173.12599,-41.3117,7.1672],[173.10385,-41.30779,9.2945],[173.08644,-41.29941,40.2625],[173.07927,-41.2846,44.4171],[173.08318,-41.27711,15.0753],[173.10043,-41.27093,0.0],[173.10613,-41.26474,0.0],[173.10532,-41.25693,6.7786],[173.09295,-41.22991,0.0],[173.08351,-41.18922,0.0],[173.07569,-41.17645,0.0],[173.06495,-41.1889,26.2539],[173.05828,-41.1889,32.7257],[173.05543,-41.1775,50.7128],[173.04998,-41.17018,3.708],[173.03435,-41.15789,0.0],[173.03094,-41.1491,0.9177],[173.03777,-41.11321,0.0],[173.04721,-41.11696,0.0],[173.05502,-41.12322,0.0],[173.06121,-41.13112,0.0],[173.06495,-41.14056,0.0],[173.06935,-41.1242,0.0],[173.06153,-41.11061,0.0],[173.0503,-41.09743,0.0],[173.04461,-41.08221,0.0],[173.04274,-41.06683,0.0],[173.03094,-41.01702,0.0],[173.02125,-41.02174,0.0],[173.01368,-41.02313,53.1728],[173.0062,-41.02142,68.2993],[172.99684,-41.01702,1.1049],[173.02215,-41.0014,0.0],[173.04461,-40.98301,0.0],[173.056,-40.9699,0.0],[173.05828,-40.96307,33.1987],[173.05567,-40.95428,0.0],[173.05201,-40.93572,32.5428],[173.06202,-40.89153,0.0],[173.06495,-40.88665,0.0],[173.05421,-40.87176,61.0312],[173.04135,-40.86826,104.24],[173.02654,-40.86907,138.8858],[173.00978,-40.86679,0.0],[173.02198,-40.85654,94.9911],[173.0232,-40.84832,0.0],[173.01734,-40.83896,0.0],[173.0228,-40.81902,0.0],[173.02247,-40.80983,0.0],[173.01734,-40.7973,0.0],[173.00343,-40.782,0.0],[172.98911,-40.78086,3.2205],[172.97511,-40.78997,29.8332],[172.96209,-40.80535,163.6295],[172.95167,-40.79404,0.0],[172.94386,-40.79323,0.0],[172.92791,-40.80535,0.0],[172.92628,-40.80999,145.4648],[172.9284,-40.82301,107.4279],[172.92449,-40.82586,263.5439],[172.91147,-40.82676,49.9951],[172.9065,-40.82855,73.7156],[172.88233,-40.84319,64.0581],[172.86931,-40.84726,31.6611],[172.85646,-40.84368,1.0583],[172.77052,-40.79168,0.0],[172.73609,-40.76491,0.0],[172.72234,-40.7365,0.0],[172.70094,-40.74521,37.0119],[172.69451,-40.75018,48.3085],[172.68914,-40.73406,42.9181],[172.70118,-40.70436,0.0],[172.70135,-40.68743,0.0],[172.69654,-40.68288,0.0],[172.6797,-40.67783,0.0],[172.67408,-40.67441,1.0973],[172.66041,-40.64772,0.7668],[172.6775,-40.6491,1.3444],[172.69142,-40.64837,0.0],[172.69679,-40.64056,0.0],[172.68775,-40.61981,0.0],[172.70248,-40.61004,0.0],[172.71168,-40.59108,0.0],[172.72234,-40.55153,0.0],[172.73194,-40.53094,0.3978],[172.7422,-40.52093,6.2094],[172.75782,-40.51767,0.0],[172.97397,-40.53118,1.4382],[172.99684,-40.52418,0.0],[172.96412,-40.52158,0.0],[172.90447,-40.50848,0.0],[172.83961,-40.50213,0.0],[172.64145,-40.5097,22.4175],[172.59588,-40.52776,0.0],[172.55738,-40.56512,64.816],[172.57,-40.56911,12.921],[172.58424,-40.56732,13.6368],[172.59864,-40.56113,42.3152],[172.61134,-40.55153,15.8587],[172.61459,-40.55511,20.7966],[172.62615,-40.56512,0.0],[172.62525,-40.57431,0.127],[172.59441,-40.58473,0.414],[172.59889,-40.5993,45.0613],[172.59262,-40.6041,107.8753],[172.58416,-40.60931,28.8891],[172.57521,-40.61224,75.804],[172.55885,-40.60589,0.9428],[172.55152,-40.61248,48.6601],[172.54591,-40.62176,105.6475],[172.54086,-40.62664,103.4339],[172.5267,-40.62233,15.2747],[172.52801,-40.61126,0.0],[172.54428,-40.57822,0.0],[172.50709,-40.58945,0.0],[172.46355,-40.62176,1.2143],[172.36354,-40.71592,9.8493],[172.3117,-40.74635,30.5777],[172.30747,-40.75018,78.8713],[172.29558,-40.75302,26.3637],[172.26759,-40.76775,112.6814],[172.25408,-40.77711,144.9194],[172.24684,-40.77809,104.0361],[172.23347,-40.7776,41.7988],[172.23799,-40.78702,258.4727],[172.25164,-40.85399,717.949],[172.26187,-40.86872,806.2614],[172.2938,-40.89006,730.8348],[172.30352,-40.9021,783.3695],[172.31137,-40.91993,768.1806],[172.31995,-40.93197,800.0105],[172.33163,-40.94174,684.3217],[172.34476,-40.95006,707.5593],[172.35675,-40.96282,675.3887],[172.3584,-40.97512,1268.9226],[172.35344,-40.98711,1024.5386],[172.34238,-40.99977,744.3193],[172.33484,-41.00515,1136.7906],[172.32533,-41.01693,1038.0826],[172.31964,-41.0329,1065.2114],[172.32336,-41.0624,1296.6411],[172.33235,-41.07062,858.9052],[172.34455,-41.06897,1071.902],[172.36367,-41.04804,1460.0186],[172.37204,-41.04359,978.923],[172.38124,-41.04354,1051.8484],[172.39178,-41.04695,671.7628],[172.40181,-41.04871,625.1183],[172.43106,-41.04437,1042.4685],[172.45255,-41.04421,791.4714],[172.46485,-41.04762,985.4512],[172.47777,-41.05672,1403.1794],[172.48397,-41.06757,1318.9711],[172.48842,-41.07858,1261.233],[172.49421,-41.08731,1225.0054],[172.50206,-41.09542,968.9502],[172.51002,-41.10721,1180.5809],[172.51808,-41.11413,1321.8934],[172.52707,-41.11811,1452.7872],[172.53875,-41.12137,919.4017],[172.55188,-41.12746,1361.5803],[172.59477,-41.16178,1241.9048],[172.60748,-41.16875,1154.2019],[172.62154,-41.17356,1286.172],[172.67125,-41.18467,1190.7944],[172.68965,-41.19413,1203.1344],[172.69853,-41.2025,1161.6692],[172.70163,-41.20911,1493.1055],[172.69791,-41.21723,1501.3972],[172.65182,-41.24844,1312.4907],[172.58154,-41.26937,1342.5409],[172.57131,-41.27681,935.0956],[172.571,-41.28497,819.1136],[172.58547,-41.298,1300.4656],[172.58888,-41.30415,1054.4033],[172.58764,-41.31376,1304.7743],[172.58402,-41.32533,1370.6404],[172.58185,-41.34223,1254.0925],[172.58206,-41.35866,1440.5845],[172.57813,-41.37815,1441.5385],[172.56604,-41.39267,1011.3409],[172.5463,-41.40998,1148.1193],[172.52831,-41.41959,816.8601],[172.51043,-41.4245,1494.9294],[172.49297,-41.4245,873.2253],[172.45524,-41.41577,1352.2271],[172.44284,-41.41695,835.3749],[172.42982,-41.42037,914.1781],[172.41411,-41.42765,896.0319],[172.40925,-41.43303,1221.6023],[172.4107,-41.44021,1252.0193],[172.42124,-41.45256,1209.2285],[172.42155,-41.46248,1290.4949],[172.41772,-41.47401,1231.1039],[172.40791,-41.48708,1058.2942],[172.36047,-41.5124,941.9891],[172.35096,-41.52315,963.5347],[172.34507,-41.53705,1203.3536],[172.33308,-41.57746,1204.605],[172.32285,-41.60216,1041.9343],[172.31034,-41.62526,1018.4816],[172.29804,-41.63622,900.5727],[172.28161,-41.64304,1095.8451],[172.25753,-41.64971,888.9039],[172.24606,-41.66004,1062.7124],[172.24223,-41.67286,818.691],[172.2445,-41.68588,840.6226],[172.24326,-41.69931,907.3744],[172.23272,-41.7051,651.5082],[172.18239,-41.71094,746.0893],[172.16461,-41.71657,886.2787],[172.1489,-41.72396,1047.4828],[172.12854,-41.7373,1102.647],[172.11955,-41.74794,879.9498],[172.1148,-41.75802,780.8922],[172.1118,-41.77492,299.2506],[172.11232,-41.78148,258.0388],[172.11397,-41.7897,125.9024],[172.11852,-41.79874,298.7242],[172.12141,-41.80784,530.3513],[172.1241,-41.82499,786.688],[172.121,-41.84964,864.7592],[172.10953,-41.87563,920.1447],[172.09971,-41.89016,1119.3369],[172.07583,-41.90545,1033.5208],[172.06405,-41.95465,981.6086],[172.06663,-41.96555,1171.9543],[172.07211,-41.98007,1361.9893],[172.08131,-41.99899,1161.6272],[172.09092,-42.00751,1247.1667],[172.10229,-42.0133,1127.155],[172.11232,-42.01692,1171.686],[172.121,-42.02524,1391.575],[172.12358,-42.03749,1149.8381],[172.12327,-42.0519,1165.0354],[172.12513,-42.07077,925.7877],[172.13206,-42.08642,1381.228],[172.14167,-42.09908,1257.8651],[172.15304,-42.10544,1276.3943],[172.16627,-42.10684,1095.1146],[172.19562,-42.10384,414.6169],[172.21009,-42.10802,301.2509],[172.21763,-42.11717,328.9843],[172.22435,-42.12983,320.762],[172.23004,-42.1367,372.3086],[172.23551,-42.14068,382.7141],[172.24171,-42.14337,419.2627],[172.24978,-42.14828,542.2657],[172.25835,-42.15231,484.2164],[172.269,-42.15433,447.354],[172.29401,-42.15231,555.1342],[172.30765,-42.15371,764.5176],[172.32533,-42.16208,1095.7587],[172.3367,-42.17474,1009.6489],[172.34445,-42.19158,1522.2136],[172.35251,-42.23324,1009.3735],[172.36047,-42.25727,1627.2343],[172.38072,-42.29122,1732.2261],[172.3955,-42.30569,1315.2],[172.40956,-42.31251,1193.2437],[172.41969,-42.3106,1493.0461],[172.42734,-42.306,1536.7417],[172.4323,-42.2999,1423.3525],[172.43612,-42.29401,1828.8932],[172.44108,-42.28858,1701.8844],[172.44759,-42.28553,1722.5486],[172.45731,-42.28414,1572.1875],[172.46671,-42.28398,1889.7251],[172.48459,-42.286,1771.2927],[172.51384,-42.28062,1224.4259],[172.5311,-42.2721,1198.4722],[172.55002,-42.26031,1035.8313],[172.5958,-42.21897,1570.5382],[172.60955,-42.19748,1977.6973],[172.63652,-42.14089,1569.6902],[172.63962,-42.12663,1737.525],[172.64283,-42.11629,1463.1772],[172.65047,-42.11128,1434.219],[172.66112,-42.10901,1214.6099],[172.6728,-42.10932,1641.7798],[172.68406,-42.11087,1887.7332],[172.69099,-42.1136,1854.4004],[172.70629,-42.11598,1377.8928],[172.74091,-42.02958,1649.2039],[172.84178,-41.93377,1245.4053],[172.85108,-41.9146,1277.7035],[172.86214,-41.86111,1552.1742],[172.87268,-41.83109,1404.4565],[172.90813,-41.79233,937.1148],[172.92508,-41.77693,721.0345],[172.92932,-41.76376,936.2562],[172.93831,-41.74815,1156.3958],[172.99691,-41.70955,985.4481],[173.03929,-41.67074,1094.1941],[173.0675,-41.63456,1424.6554],[173.14667,-41.56609,798.1622],[173.17323,-41.5338,1031.8208],[173.21871,-41.52403,1286.5861],[173.24289,-41.52206,1413.9917],[173.26232,-41.51411,1085.3634],[173.27163,-41.49855,977.1509],[173.26728,-41.47623,1192.1411],[173.26946,-41.45003,1369.7399],[173.27452,-41.42838,879.2442],[173.27597,-41.41354,493.2656],[173.28527,-41.38864,709.7423],[173.24889,-41.37489,484.9359],[173.21034,-41.34745,112.4056],[173.18905,-41.32259,0.0],[173.18498,-41.31021,0.0]]]}}