{"type":"Feature","properties":{"GID_1":"NZL.16_1","GID_0":"NZL","country":"NewZealand","province":"Tasman","VARNAME_1":"NA","NL_NAME_1":"NA","TYPE_1":"Region","ENGTYPE_1":"Region","CC_1":"16","HASC_1":"NZ.TS","ISO_1":"NZ-TAS","name":"Tasman.province"},
"geometry":{"type": "MultiPolygon","coordinates": [[[[173.1473,-41.2875,1.7898],[173.14,-41.2847,4.0724],[173.1376,-41.2858,1.6754],[173.1499,-41.2917,5.6426],[173.155,-41.2985,1.104],[173.1616,-41.3012,1.999],[173.1647,-41.3008,0.2582],[173.1634,-41.2952,0.6909],[173.1594,-41.2913,3.7854],[173.1545,-41.2886,1.5323],[173.1473,-41.2875,1.7898]]],
[[[173.1524,-41.2852,0.0],[173.1485,-41.2846,0.38],[173.1591,-41.2875,2.1084],[173.167,-41.2948,0.4288],[173.1716,-41.2956,3.2551],[173.1745,-41.2991,1.3556],[173.1799,-41.2983,0.5579],[173.1786,-41.2876,0.6997],[173.1708,-41.2859,0.0],[173.1659,-41.2873,1.8861],[173.1524,-41.2852,0.0]]],
[[[173.1145,-41.2673,8.4953],[173.1075,-41.269,0.6771],[173.1133,-41.2691,16.679],[173.1157,-41.2766,0.6758],[173.1232,-41.2774,7.8903],[173.1343,-41.2845,3.4071],[173.1407,-41.2819,1.8471],[173.14,-41.2798,3.577],[173.1145,-41.2673,8.4953]]],
[[[173.1292,-41.2577,4.5658],[173.1109,-41.2522,11.8077],[173.1074,-41.2535,4.6287],[173.1048,-41.2567,6.7786],[173.1136,-41.2581,19.4169],[173.1068,-41.2578,16.4665],[173.1043,-41.2632,0.0],[173.1209,-41.2685,1.5116],[173.126,-41.2707,3.043],[173.1263,-41.2721,3.149],[173.1296,-41.2718,7.3824],[173.1315,-41.2734,12.1215],[173.131,-41.2747,3.1552],[173.1513,-41.2836,0.0],[173.1551,-41.2818,0.0],[173.16,-41.2829,25.4153],[173.1654,-41.2802,4.036],[173.1788,-41.2805,18.8031],[173.1849,-41.2862,3.7073],[173.1886,-41.2873,2.7899],[173.2006,-41.2841,0.0],[173.1845,-41.2743,0.0],[173.1292,-41.2577,4.5658]]],
[[[173.1101,-41.2665,1.917],[173.1087,-41.2663,1.917],[173.1078,-41.2668,0.3518],[173.1087,-41.2674,1.917],[173.1101,-41.2665,1.917]]],
[[[173.1006,-41.2642,0.0],[173.1009,-41.2627,0.0],[173.0991,-41.2632,0.0],[173.0992,-41.2638,0.0],[173.1006,-41.2642,0.0]]],
[[[173.1008,-41.2502,2.8111],[173.1006,-41.2502,2.8111],[173.1006,-41.2504,2.8111],[173.1008,-41.2503,2.8111],[173.1008,-41.2502,2.8111]]],
[[[173.0262,-41.1394,2.7286],[173.024,-41.1393,1.13],[173.0279,-41.1439,7.0072],[173.0244,-41.1407,3.3647],[173.0214,-41.1405,0.0],[173.0274,-41.1476,7.437],[173.0269,-41.1493,2.2006],[173.0304,-41.1505,1.5389],[173.0304,-41.154,0.8672],[173.0335,-41.1537,4.8951],[173.0329,-41.1547,0.3548],[173.0357,-41.1561,4.4021],[173.0341,-41.1568,0.0],[173.0351,-41.158,0.0],[173.0361,-41.1576,3.5166],[173.0364,-41.1541,5.1122],[173.0386,-41.1554,1.8386],[173.0379,-41.1573,0.7172],[173.0395,-41.1572,0.8763],[173.0399,-41.1556,0.3251],[173.0335,-41.1503,1.276],[173.0262,-41.1394,2.7286]]],
[[[173.0123,-41.0724,0.0],[173.0112,-41.0683,5.8161],[173.0059,-41.0636,0.0],[173.01,-41.0678,0.0],[173.0123,-41.0724,0.0]]],
[[[173.0034,-41.0608,0.5214],[173.0038,-41.0609,0.0],[173.0021,-41.0601,0.5214],[173.0025,-41.0605,0.5214],[173.0034,-41.0608,0.5214]]],
[[[173.0214,-41.043,11.6023],[173.0216,-41.0432,11.6023],[173.0218,-41.0432,11.6023],[173.0216,-41.0428,0.0],[173.0214,-41.043,11.6023]]],
[[[173.0236,-41.0366,3.1122],[173.0228,-41.0357,2.1113],[173.0219,-41.0365,0.0],[173.023,-41.0369,3.1122],[173.0236,-41.0366,3.1122]]],
[[[173.0231,-41.0258,0.0],[173.0237,-41.026,0.0],[173.0239,-41.0256,0.0],[173.0232,-41.0252,0.0],[173.0231,-41.0258,0.0]]],
[[[173.052,-40.9922,6.9701],[173.0502,-40.9919,11.3463],[173.0484,-40.994,2.5317],[173.0525,-40.9938,4.6559],[173.052,-40.9922,6.9701]]],
[[[173.0592,-40.9748,51.5107],[173.0573,-40.9753,51.5107],[173.0569,-40.9792,0.0],[173.0529,-40.9817,0.0],[173.0556,-40.9861,30.2996],[173.0588,-40.9859,35.0158],[173.0594,-40.9842,43.4774],[173.0623,-40.9847,0.0],[173.0615,-40.9806,26.7474],[173.0653,-40.9808,38.9511],[173.0687,-40.9764,0.7769],[173.0592,-40.9748,51.5107]]],
[[[173.071,-40.9723,0.0],[173.0708,-40.9723,0.0],[173.0707,-40.9725,0.0],[173.071,-40.9725,0.0],[173.071,-40.9723,0.0]]],
[[[173.0692,-40.9576,18.293],[173.069,-40.9576,18.293],[173.069,-40.9578,18.293],[173.0692,-40.9577,18.293],[173.0692,-40.9576,18.293]]],
[[[173.0656,-40.9283,0.0],[173.0658,-40.9286,0.0],[173.0662,-40.9281,0.0],[173.0661,-40.9279,0.0],[173.0656,-40.9283,0.0]]],
[[[173.0642,-40.9291,0.0],[173.0642,-40.9294,0.0],[173.0647,-40.9294,0.0],[173.0646,-40.9291,0.0],[173.0642,-40.9291,0.0]]],
[[[173.0655,-40.929,0.0],[173.0654,-40.9291,0.0],[173.0655,-40.9293,0.0],[173.0656,-40.9293,0.0],[173.0655,-40.929,0.0]]],
[[[172.7208,-42.1031,2034.3019],[172.7274,-42.0945,2003.7008],[172.7235,-42.0822,2031.0758],[172.726,-42.0782,2125.6978],[172.7255,-42.0741,2209.3513],[172.7316,-42.0696,1989.7694],[172.732,-42.064,1876.2202],[172.7353,-42.0579,1963.4971],[172.7315,-42.0535,1946.9556],[172.734,-42.0405,2032.6195],[172.733,-42.0345,1964.5818],[172.7391,-42.032,2003.2477],[172.7462,-42.0337,1950.3474],[172.7502,-42.0327,1958.8],[172.7571,-42.036,2079.0093],[172.7639,-42.0264,1820.9034],[172.7733,-42.0222,1976.3633],[172.7833,-42.0089,1960.6526],[172.7814,-42.0044,1903.1006],[172.7782,-42.0023,1914.9443],[172.7791,-41.998,1960.4465],[172.787,-41.9917,1920.8832],[172.7919,-41.9925,2027.2703],[172.803,-41.9852,1800.194],[172.8038,-41.9817,1827.8914],[172.8094,-41.975,1871.9399],[172.8087,-41.9712,1826.9695],[172.8116,-41.9649,1771.6213],[172.8081,-41.9581,1761.4528],[172.8222,-41.9508,1662.1476],[172.8372,-41.9471,1682.3553],[172.8472,-41.9426,1660.7756],[172.8528,-41.9275,1731.0569],[172.8611,-41.9225,1855.7729],[172.8618,-41.9161,1819.6377],[172.8647,-41.909,1787.1917],[172.86,-41.8976,1721.4008],[172.8532,-41.8947,1763.6266],[172.8519,-41.8919,1846.6594],[172.8447,-41.8909,1804.6033],[172.8448,-41.8844,1802.3589],[172.8476,-41.8742,1678.1647],[172.8592,-41.8668,1746.0344],[172.8644,-41.8688,1738.4161],[172.8677,-41.8665,1712.3757],[172.869,-41.8592,1690.6665],[172.8681,-41.8552,1753.8453],[172.8726,-41.8503,1731.0198],[172.8725,-41.844,1682.0078],[172.8909,-41.8183,1580.4049],[172.8968,-41.8162,1654.1016],[172.9078,-41.8087,1509.1733],[172.9173,-41.7983,1295.5858],[172.9263,-41.7939,1186.3621],[172.93,-41.7874,1100.1226],[172.9457,-41.7809,678.1649],[172.9415,-41.7723,662.9005],[172.9392,-41.7726,669.5322],[172.9445,-41.7694,618.3651],[172.9444,-41.7661,667.7341],[172.9358,-41.7701,691.0386],[172.9363,-41.7712,680.6984],[172.9331,-41.7692,714.3545],[172.933,-41.7619,876.2645],[172.9262,-41.7577,1140.7126],[172.926,-41.7484,1278.8461],[172.9306,-41.7438,1324.3132],[172.9424,-41.7488,1156.9989],[172.9498,-41.7502,1103.2355],[172.9579,-41.7495,1042.4187],[172.964,-41.7443,1108.9574],[173.0038,-41.7248,1082.6237],[173.0574,-41.6685,1590.1573],[173.0582,-41.6604,1610.5626],[173.054,-41.6519,1665.1445],[173.0553,-41.646,1697.6465],[173.0537,-41.6431,1675.1262],[173.0536,-41.6377,1727.089],[173.0581,-41.6318,1669.6404],[173.0587,-41.6257,1655.8997],[173.0672,-41.6236,1580.7197],[173.0756,-41.6253,1561.9233],[173.0893,-41.6242,1338.3995],[173.0988,-41.6177,1119.3274],[173.1035,-41.6103,1021.855],[173.1216,-41.608,827.1172],[173.1257,-41.6033,875.3525],[173.1291,-41.592,854.2209],[173.1322,-41.5896,869.303],[173.1396,-41.5901,1049.4559],[173.1515,-41.5856,1194.6825],[173.1545,-41.5791,1222.9987],[173.1535,-41.5732,1159.1177],[173.1552,-41.5682,1117.7898],[173.1594,-41.5649,1138.9452],[173.1656,-41.5497,1093.9354],[173.1697,-41.548,1087.9025],[173.1746,-41.5423,1156.4105],[173.1687,-41.5312,1280.9202],[173.1724,-41.5241,1377.9597],[173.1785,-41.5273,1329.0773],[173.1872,-41.5287,1349.2941],[173.1965,-41.526,1441.0891],[173.2036,-41.5203,1307.0555],[173.2161,-41.5182,1230.7106],[173.2301,-41.5206,1636.9814],[173.2339,-41.5196,1634.4565],[173.2378,-41.5228,1679.0093],[173.2493,-41.5245,1495.9321],[173.2553,-41.5212,1567.8575],[173.2642,-41.5219,1312.786],[173.2795,-41.5165,1335.3285],[173.2871,-41.5183,1431.7491],[173.2976,-41.5162,1471.4888],[173.3044,-41.5066,1388.6086],[173.2888,-41.4933,1451.2329],[173.2747,-41.4888,1501.0988],[173.2734,-41.4848,1488.2102],[173.2684,-41.4798,1271.4562],[173.2626,-41.4764,1200.6697],[173.2563,-41.469,1394.553],[173.2508,-41.4666,1503.0186],[173.2537,-41.4627,1426.1382],[173.2606,-41.4579,1282.1934],[173.2602,-41.4545,1362.6953],[173.2627,-41.4521,1382.9053],[173.2735,-41.4489,1404.1792],[173.2764,-41.4395,1181.4775],[173.2819,-41.4371,1220.1652],[173.2835,-41.4335,1246.6488],[173.2948,-41.4256,1257.1458],[173.2889,-41.4172,835.678],[173.2896,-41.4142,782.9987],[173.285,-41.4027,808.2852],[173.2974,-41.3931,901.5141],[173.2722,-41.3787,937.8427],[173.2639,-41.3819,786.4371],[173.2564,-41.3822,714.493],[173.248,-41.3705,398.9803],[173.2496,-41.3646,239.9888],[173.2476,-41.3646,158.1086],[173.2453,-41.3677,160.4833],[173.2395,-41.3683,156.6592],[173.2378,-41.3719,164.4328],[173.23,-41.3688,314.5737],[173.232,-41.3627,455.2458],[173.2242,-41.3604,495.9003],[173.2178,-41.3548,243.1744],[173.2191,-41.3489,165.7043],[173.1992,-41.3308,1.1331],[173.1941,-41.3315,3.157],[173.183,-41.3237,0.9747],[173.1762,-41.3212,0.5828],[173.1696,-41.3213,9.4332],[173.1688,-41.3193,1.0664],[173.1631,-41.3184,1.7298],[173.16,-41.3109,1.7691],[173.1584,-41.3106,1.7691],[173.1578,-41.3126,2.3194],[173.1559,-41.3117,2.1013],[173.1617,-41.3075,2.1255],[173.1562,-41.3049,2.3166],[173.1424,-41.2917,1.5333],[173.1376,-41.2919,1.2882],[173.1366,-41.2876,1.4965],[173.1345,-41.2887,1.6472],[173.1154,-41.2851,1.3846],[173.115,-41.2889,2.2203],[173.1125,-41.289,2.172],[173.111,-41.2863,1.9521],[173.1096,-41.2869,2.2581],[173.1126,-41.291,2.1883],[173.1118,-41.2919,3.4897],[173.1093,-41.2883,1.6334],[173.1073,-41.2904,5.9513],[173.1057,-41.2897,9.8444],[173.1031,-41.2912,2.7555],[173.102,-41.2884,5.4309],[173.0994,-41.2878,0.0],[173.0977,-41.2915,14.0244],[173.0942,-41.2924,9.2401],[173.0956,-41.2873,3.5736],[173.0914,-41.2863,4.5807],[173.0895,-41.2875,5.7413],[173.0853,-41.2852,10.8725],[173.0995,-41.2819,3.5806],[173.1043,-41.2772,7.5482],[173.0985,-41.2747,5.3527],[173.0967,-41.2782,8.4466],[173.094,-41.2781,5.5835],[173.0917,-41.2744,0.0],[173.0905,-41.2763,8.1278],[173.0869,-41.2752,5.2903],[173.0858,-41.2781,5.7756],[173.0837,-41.2746,8.6619],[173.078,-41.2775,7.4041],[173.0753,-41.2773,3.9515],[173.0752,-41.275,2.8919],[173.0782,-41.2713,0.517],[173.0868,-41.2673,0.8528],[173.0828,-41.2639,0.5731],[173.0711,-41.2636,6.7209],[173.0707,-41.2624,12.8835],[173.0789,-41.2583,2.4181],[173.0735,-41.256,8.0593],[173.0718,-41.2534,2.867],[173.0841,-41.2541,13.5479],[173.0849,-41.2561,11.3921],[173.0871,-41.2554,6.1001],[173.0872,-41.2579,4.0594],[173.0893,-41.2591,9.7808],[173.0908,-41.2571,16.2774],[173.0926,-41.257,18.1269],[173.0931,-41.259,5.5226],[173.0979,-41.257,6.6707],[173.0996,-41.2614,0.0],[173.1021,-41.2558,2.1143],[173.0981,-41.2488,4.8807],[173.1004,-41.2492,2.9597],[173.1041,-41.2534,0.5774],[173.108,-41.2513,0.7854],[173.1074,-41.2488,1.3001],[173.092,-41.2385,4.5703],[173.0848,-41.2304,1.111],[173.083,-41.2215,1.3551],[173.0849,-41.2117,1.256],[173.0714,-41.196,42.4906],[173.0658,-41.1839,0.0],[173.0536,-41.1735,10.808],[173.0475,-41.1663,0.0],[173.0369,-41.1588,2.4665],[173.0396,-41.1634,0.58],[173.0414,-41.1629,4.0221],[173.0448,-41.1657,3.1835],[173.0459,-41.1702,1.5645],[173.051,-41.1716,7.8279],[173.0479,-41.1735,11.8082],[173.0508,-41.1791,7.3891],[173.0572,-41.1822,1.4752],[173.0527,-41.1838,2.9168],[173.0527,-41.1883,2.7151],[173.0494,-41.187,1.9788],[173.0472,-41.1826,0.8784],[173.041,-41.1763,0.6254],[173.0273,-41.1637,4.2907],[173.018,-41.1577,4.9318],[173.0173,-41.1525,2.3028],[173.0088,-41.1421,0.942],[173.0099,-41.133,4.8253],[173.0128,-41.1324,1.2732],[173.0114,-41.1317,4.6135],[173.0128,-41.1289,1.6497],[173.0158,-41.1282,1.0952],[173.019,-41.1247,1.9259],[173.0182,-41.129,3.8191],[173.0212,-41.1298,2.7745],[173.0213,-41.1306,2.7745],[173.0191,-41.1321,1.0802],[173.0211,-41.1326,3.1155],[173.0215,-41.135,2.5012],[173.019,-41.1352,1.1752],[173.021,-41.1388,0.5555],[173.0245,-41.1379,0.1066],[173.0233,-41.1275,0.0],[173.0296,-41.1127,3.2555],[173.03,-41.1003,2.3389],[173.0314,-41.0993,0.2389],[173.0303,-41.0981,1.8108],[173.0304,-41.0998,2.3389],[173.0289,-41.0994,1.8108],[173.0288,-41.0964,0.4156],[173.0316,-41.0943,2.7306],[173.0348,-41.0983,0.0],[173.0362,-41.0961,0.0],[173.034,-41.0894,0.0],[173.0312,-41.0863,0.0],[173.0292,-41.086,0.2533],[173.0309,-41.0879,0.0],[173.0275,-41.0873,2.0],[173.0201,-41.0801,2.9105],[173.0132,-41.0772,0.1454],[173.0103,-41.0775,0.9664],[173.0098,-41.0729,0.8349],[173.0069,-41.0724,1.2172],[173.0068,-41.0695,0.0],[173.0033,-41.0649,2.6625],[173.0003,-41.0637,1.6564],[173.0008,-41.059,24.5879],[173.0042,-41.057,0.0],[173.0045,-41.0535,5.3567],[173.013,-41.0494,9.4359],[173.0188,-41.0507,3.5296],[173.0182,-41.0477,20.2361],[173.0226,-41.0472,0.0],[173.0237,-41.0444,0.0],[173.0198,-41.0432,21.2857],[173.0167,-41.0392,2.5987],[173.019,-41.0355,9.0155],[173.0233,-41.0343,1.8957],[173.021,-41.0315,21.3516],[173.0222,-41.028,49.9048],[173.0195,-41.0272,7.2109],[173.0172,-41.0209,18.2165],[173.0213,-41.0166,34.6318],[173.0106,-41.014,3.773],[173.0099,-41.0149,3.525],[173.0076,-41.0129,0.946],[173.0124,-40.9921,0.0],[173.0176,-40.9901,9.957],[173.0255,-40.9895,23.4713],[173.0278,-40.991,16.8049],[173.0307,-40.9886,19.27],[173.0357,-40.9893,47.8842],[173.0368,-40.9821,17.1733],[173.0403,-40.9807,15.0353],[173.0427,-40.9729,58.7524],[173.048,-40.9742,0.0],[173.0486,-40.9679,59.5802],[173.0513,-40.9679,2.9878],[173.0518,-40.9654,18.3153],[173.0549,-40.9654,25.0855],[173.0562,-40.9637,48.3345],[173.065,-40.9649,0.0],[173.0693,-40.9611,18.3636],[173.0671,-40.9573,26.6428],[173.0689,-40.9573,18.293],[173.069,-40.9559,8.4282],[173.0637,-40.9529,31.4527],[173.0662,-40.9519,0.0],[173.0672,-40.9485,5.585],[173.0596,-40.951,7.9777],[173.061,-40.9549,12.0469],[173.0597,-40.9568,16.3382],[173.0516,-40.9544,7.2318],[173.053,-40.95,48.5445],[173.0515,-40.9488,12.5061],[173.0497,-40.9497,43.5415],[173.0495,-40.9438,24.9953],[173.0515,-40.9448,0.0],[173.0521,-40.9428,32.1097],[173.0544,-40.9437,12.4974],[173.0572,-40.9417,59.1607],[173.0554,-40.9397,23.3168],[173.0567,-40.9378,16.2097],[173.0624,-40.9373,5.7898],[173.0574,-40.9342,0.0],[173.0568,-40.9307,93.8636],[173.0588,-40.9305,10.1154],[173.0569,-40.9284,43.9233],[173.0564,-40.9239,57.3436],[173.0592,-40.9206,9.7096],[173.0544,-40.9212,37.5894],[173.0544,-40.9198,37.5894],[173.0509,-40.9177,2.5046],[173.0525,-40.9143,18.0894],[173.06,-40.9148,0.0],[173.0585,-40.9101,15.6696],[173.0611,-40.9118,6.3935],[173.063,-40.9111,66.38],[173.0635,-40.9057,4.0824],[173.0537,-40.8985,17.1107],[173.05,-40.8942,20.1674],[173.0502,-40.8908,0.0],[173.0471,-40.8896,33.6517],[173.0461,-40.8875,14.0067],[173.0473,-40.8839,2.0138],[173.0526,-40.88,3.3129],[173.0535,-40.8809,24.0079],[173.0493,-40.883,0.0],[173.0544,-40.881,24.0079],[173.0587,-40.8841,5.9081],[173.0585,-40.8829,58.009],[173.0624,-40.8819,21.8118],[173.0622,-40.8781,25.5083],[173.0655,-40.8782,0.0],[173.0642,-40.8734,22.691],[173.0594,-40.8713,10.311],[173.0584,-40.8725,14.6802],[173.0583,-40.8718,14.6802],[173.0591,-40.871,42.2336],[173.0611,-40.8715,10.311],[173.0628,-40.8701,30.8036],[173.0607,-40.8677,25.4826],[173.0623,-40.8663,4.8299],[173.06,-40.8633,24.1835],[173.0606,-40.862,8.2368],[173.0564,-40.8595,63.1069],[173.0583,-40.8572,0.0],[173.054,-40.8573,16.1734],[173.0512,-40.8549,8.4445],[173.0466,-40.8557,47.8532],[173.0449,-40.8532,25.4787],[173.0467,-40.8519,21.9106],[173.0457,-40.8512,0.0],[173.0417,-40.8536,19.1434],[173.044,-40.8555,17.0981],[173.0416,-40.8577,8.9165],[173.0422,-40.8595,19.1819],[173.033,-40.8591,0.0],[173.0233,-40.8567,1.7329],[173.0219,-40.8529,31.3475],[173.0149,-40.8482,6.3195],[173.0139,-40.8466,44.7974],[173.0152,-40.8405,0.0],[173.0094,-40.8347,57.2158],[173.0102,-40.8315,1.9463],[173.0062,-40.8287,0.0],[173.0047,-40.8227,0.0],[173.0066,-40.8167,5.8597],[173.0129,-40.8174,6.2671],[173.0162,-40.8148,0.0],[173.0115,-40.8099,104.9932],[173.0126,-40.8075,0.0],[173.0116,-40.8047,48.7895],[173.0046,-40.8032,16.7605],[173.0022,-40.8006,34.3213],[173.0016,-40.7965,39.5022],[172.9944,-40.7917,18.1277],[172.9931,-40.7866,27.6585],[172.999,-40.7835,0.0],[172.998,-40.782,0.0],[172.9951,-40.7836,76.261],[172.9903,-40.7812,0.0],[172.9842,-40.7818,23.1408],[172.9819,-40.7843,5.3019],[172.9746,-40.7872,24.8408],[172.9632,-40.784,3.1746],[172.9562,-40.7891,7.4556],[172.9542,-40.7888,7.1635],[172.9535,-40.7898,2.6413],[172.9557,-40.7902,10.3394],[172.9556,-40.7942,22.1504],[172.9517,-40.7991,8.1139],[172.9548,-40.802,29.203],[172.953,-40.8045,19.0298],[172.9437,-40.8085,0.5216],[172.9484,-40.807,2.4928],[172.946,-40.8101,0.0],[172.9538,-40.805,9.0531],[172.9534,-40.8071,3.0115],[172.956,-40.8088,1.6365],[172.9559,-40.8125,2.3787],[172.9476,-40.8166,0.1219],[172.9509,-40.8175,2.8361],[172.9525,-40.8198,17.5432],[172.9476,-40.8238,0.4434],[172.9473,-40.8259,2.1559],[172.9458,-40.8252,2.3476],[172.9446,-40.8271,4.2433],[172.9397,-40.8281,1.9],[172.9376,-40.8265,13.3156],[172.9372,-40.8209,16.0064],[172.9409,-40.8126,0.0],[172.9336,-40.812,49.7134],[172.9305,-40.8084,25.2809],[172.923,-40.8045,63.4001],[172.9217,-40.8002,6.1122],[172.9152,-40.8022,0.0],[172.9169,-40.8088,21.9944],[172.9095,-40.8146,31.9627],[172.9092,-40.8174,12.7535],[172.9109,-40.8199,1.1707],[172.9098,-40.8213,10.3691],[172.9045,-40.8232,42.6071],[172.9031,-40.8208,0.0],[172.9006,-40.8222,17.8439],[172.8957,-40.8201,0.0],[172.8941,-40.8203,0.0],[172.8965,-40.8206,0.0],[172.8959,-40.8216,0.0],[172.8972,-40.8211,0.2735],[172.8989,-40.8239,40.5179],[172.8952,-40.8247,2.891],[172.8929,-40.8211,0.0],[172.8929,-40.8219,0.4059],[172.894,-40.8237,0.5162],[172.8959,-40.8254,2.891],[172.8959,-40.8271,7.552],[172.8923,-40.8281,10.011],[172.8926,-40.8305,2.6038],[172.8794,-40.8333,2.7359],[172.8584,-40.8316,2.309],[172.8401,-40.8331,2.3055],[172.8338,-40.8284,1.5139],[172.8181,-40.8208,3.5488],[172.813,-40.82,21.7084],[172.8123,-40.8184,0.1809],[172.8062,-40.8188,2.074],[172.8025,-40.8181,1.86],[172.8005,-40.8158,0.4994],[172.798,-40.8163,1.0195],[172.7932,-40.8127,0.0],[172.789,-40.806399999999996,15.1675],[172.7892,-40.804,17.8771],[172.7939,-40.801,0.0],[172.7934,-40.7999,25.4591],[172.7888,-40.8002,2.4518],[172.7814,-40.7963,0.0],[172.7733,-40.7956,0.6331],[172.7655,-40.7896,0.4065],[172.7629,-40.7897,5.9434],[172.7666,-40.7881,6.987],[172.7646,-40.7864,4.4104],[172.7612,-40.7874,3.5786],[172.7544,-40.7849,5.3746],[172.7412,-40.7744,0.3395],[172.7333,-40.7721,3.1993],[172.7304,-40.7696,27.1702],[172.7142,-40.7491,0.0],[172.7113,-40.7476,2.6239],[172.7011,-40.7313,11.7561],[172.6954,-40.7288,3.3966],[172.6905,-40.7176,2.1273],[172.6875,-40.7158,1.4386],[172.6853,-40.718,0.0],[172.6875,-40.718,2.047],[172.6875,-40.7205,0.7482],[172.6884,-40.7176,4.4229],[172.6905,-40.7181,3.3375],[172.6884,-40.7234,1.1042],[172.6905,-40.7238,8.9429],[172.6879,-40.7245,1.1042],[172.69,-40.7262,4.8145],[172.6918,-40.7256,3.5893],[172.6923,-40.7281,4.4968],[172.6847,-40.735,6.693],[172.6788,-40.7321,1.5],[172.6795,-40.7274,1.3041],[172.6761,-40.7255,6.1801],[172.6764,-40.7198,13.4931],[172.6788,-40.72,0.3447],[172.6813,-40.7162,22.1938],[172.684,-40.717,1.9205],[172.6845,-40.7149,11.9033],[172.6889,-40.7127,0.0],[172.687,-40.6793,0.0],[172.6808,-40.6746,3.4572],[172.6797,-40.6753,0.6353],[172.6804,-40.678,11.0495],[172.6746,-40.6803,6.4479],[172.6694,-40.6797,1.0523],[172.6706,-40.6759,0.8875],[172.6663,-40.6761,0.0],[172.6662,-40.6791,1.3295],[172.6693,-40.6796,1.0523],[172.6667,-40.6798,1.3771],[172.6647,-40.6778,2.0806],[172.6658,-40.6763,2.0806],[172.6641,-40.6758,0.4159],[172.6619,-40.6731,3.4802],[172.6611,-40.6715,3.665],[172.6614,-40.6706,2.0422],[172.6655,-40.6677,1.8005],[172.6656,-40.664,1.1983],[172.659,-40.6614,2.7615],[172.6582,-40.6593,0.4676],[172.6541,-40.659,1.0057],[172.6516,-40.6562,1.1223],[172.6488,-40.6572,2.6663],[172.6497,-40.6557,3.3555],[172.6508,-40.6552,1.1223],[172.6495,-40.6548,3.3555],[172.6544,-40.652,0.9292],[172.6623,-40.6427,9.8707],[172.6698,-40.6385,10.6011],[172.6664,-40.6419,2.7977],[172.6697,-40.641,2.3707],[172.6697,-40.6402,2.3707],[172.6738,-40.6415,2.5324],[172.6724,-40.6479,2.0555],[172.6695,-40.6501,0.0747],[172.6749,-40.6505,1.3394],[172.6742,-40.6447,2.8346],[172.6765,-40.6481,1.4562],[172.6759,-40.6445,2.2882],[172.6768,-40.6452,1.8876],[172.6776,-40.6437,2.5698],[172.6788,-40.6478,2.3619],[172.6773,-40.6524,0.7054],[172.6803,-40.653,2.8246],[172.6808,-40.6476,0.0],[172.6819,-40.6515,0.0],[172.6796,-40.662,0.0],[172.6821,-40.6605,1.809],[172.6821,-40.6515,0.0],[172.6798,-40.6365,1.5904],[172.6812,-40.6172,1.4088],[172.6903,-40.5936,1.9219],[172.6871,-40.5902,3.8648],[172.6873,-40.586,1.9996],[172.6856,-40.5839,4.263],[172.6944,-40.5757,4.7438],[172.7031,-40.5643,9.5551],[172.706,-40.5639,0.3565],[172.7055,-40.5618,0.3157],[172.7078,-40.5584,0.2871],[172.7183,-40.5489,2.9645],[172.7214,-40.5484,2.0734],[172.7233,-40.5462,4.7949],[172.7247,-40.5422,0.5967],[172.7231,-40.5374,21.7772],[172.7274,-40.5336,2.6235],[172.7287,-40.5292,6.2565],[172.7362,-40.5255,3.7031],[172.7362,-40.5223,0.3151],[172.738,-40.5255,5.0773],[172.7356,-40.5287,0.0],[172.7374,-40.5287,5.1598],[172.7389,-40.5275,5.4302],[172.7384,-40.5252,2.3487],[172.7425,-40.5212,1.9756],[172.7526,-40.5163,4.0204],[172.765,-40.5135,5.846],[172.7809,-40.5144,0.6431],[172.7971,-40.5131,2.4361],[172.8024,-40.5147,0.0],[172.8313,-40.515,3.4271],[172.8532,-40.5176,3.7792],[172.8929,-40.5195,4.0076],[172.9039,-40.5235,1.797],[172.9188,-40.5237,2.3841],[172.9407,-40.5274,1.7777],[172.9667,-40.5368,1.5288],[172.9606,-40.5339,2.047],[172.9775,-40.5373,2.7587],[172.9953,-40.5442,3.3524],[173.0116,-40.5542,1.3782],[173.0154,-40.5538,0.4482],[173.0116,-40.5533,1.3782],[173.0139,-40.5505,2.0944],[173.0162,-40.5508,0.0],[173.0102,-40.5455,3.0923],[172.98,-40.5302,0.0],[172.9426,-40.521,0.5639],[172.899,-40.5133,0.5089],[172.8465,-40.5095,0.6766],[172.81,-40.5037,1.7816],[172.7912,-40.504,1.3737],[172.7567,-40.5087,2.5713],[172.7352,-40.5092,5.1919],[172.7293,-40.5063,24.3008],[172.7195,-40.5043,45.1081],[172.7177,-40.5025,11.8044],[172.7156,-40.5035,83.7619],[172.7063,-40.5023,20.2925],[172.7036,-40.4999,19.7722],[172.6971,-40.5003,73.8433],[172.6956,-40.4987,20.2265],[172.6951,-40.5008,73.8433],[172.6935,-40.4987,30.1621],[172.688,-40.498,18.5821],[172.6877,-40.5004,47.7672],[172.685,-40.4985,48.2281],[172.6814,-40.4989,22.7894],[172.6823,-40.5019,6.4912],[172.6845,-40.5021,10.4192],[172.6814,-40.504,9.5262],[172.6726,-40.5045,3.1369],[172.6689,-40.5067,19.8513],[172.6673,-40.5067,20.4553],[172.6664,-40.5055,1.1244],[172.6659,-40.5066,16.9386],[172.66492424242423,-40.506387878787876,16.9386],[172.6649,-40.5064,16.9386],[172.66486129032256,-40.506374193548389,16.9386],[172.6636,-40.5061,0.0],[172.6638,-40.5074,11.5567],[172.6604,-40.5068,10.658],[172.6583,-40.5061,55.3978],[172.6573,-40.5034,29.0529],[172.6539,-40.5051,0.0],[172.6551,-40.508,17.7714],[172.6521,-40.5101,5.2502],[172.6504,-40.5098,11.5636],[172.6492,-40.5062,1.7492],[172.643,-40.5077,0.0],[172.6425,-40.5107,32.6467],[172.6398,-40.5101,22.4175],[172.6406,-40.5128,41.6117],[172.6374,-40.512,2.7241],[172.6333,-40.5173,37.3102],[172.6257,-40.5191,0.0],[172.6232,-40.5251,9.4249],[172.613,-40.5271,35.3422],[172.6134,-40.528,76.8239],[172.6115,-40.5278,7.4754],[172.6009,-40.5348,22.2163],[172.598,-40.5391,0.0],[172.5924,-40.5424,25.5381],[172.5924,-40.5451,35.2272],[172.595,-40.547,6.7129],[172.5878,-40.5451,8.8238],[172.5843,-40.5479,15.7785],[172.582,-40.5477,1.0307],[172.5809,-40.5495,2.6264],[172.5831,-40.5504,41.8267],[172.5739,-40.5538,39.3476],[172.5652,-40.5615,28.1233],[172.5602,-40.5614,13.5429],[172.5502,-40.5714,0.0],[172.5518,-40.5716,9.4848],[172.5527,-40.5747,2.8786],[172.5491,-40.5821,43.1855],[172.5504,-40.5867,0.0],[172.5538,-40.5885,0.0],[172.5637,-40.584,7.687],[172.5685,-40.5848,0.0],[172.5723,-40.5822,8.2809],[172.5695,-40.58,22.9759],[172.5695,-40.577,31.9407],[172.5731,-40.5737,16.8957],[172.5728,-40.5692,3.0793],[172.5764,-40.5659,16.9669],[172.5794,-40.5679,15.4275],[172.5806,-40.5672,12.8913],[172.5805,-40.5694,1.0161],[172.583,-40.5694,5.3724],[172.585,-40.5669,13.6368],[172.5848,-40.5718,7.2122],[172.589,-40.5699,3.0098],[172.5912,-40.572,4.2637],[172.5947,-40.5682,3.3644],[172.5997,-40.5707,5.0581],[172.6019,-40.5682,1.098],[172.599,-40.5672,12.8712],[172.6072,-40.5645,32.722],[172.6103,-40.5611,12.1319],[172.611,-40.5645,33.1016],[172.6093,-40.5638,8.2164],[172.6061,-40.5678,0.0],[172.6129,-40.5684,0.0],[172.6166,-40.5668,14.0918],[172.622,-40.5615,4.0522],[172.6214,-40.5599,2.4493],[172.619,-40.5606,5.3411],[172.6215,-40.5582,0.0],[172.6199,-40.5561,12.8004],[172.6226,-40.557,5.1613],[172.6247,-40.5538,8.6437],[172.6257,-40.5545,5.2548],[172.6245,-40.5574,1.1535],[172.6299,-40.5554,7.7052],[172.6309,-40.5574,4.4397],[172.6279,-40.5579,1.3196],[172.6302,-40.5615,13.6396],[172.6284,-40.559,5.9765],[172.6255,-40.5595,3.1199],[172.6294,-40.5648,28.6245],[172.6263,-40.5687,0.0],[172.6306,-40.5684,4.6998],[172.6307,-40.5713,0.8709],[172.6343,-40.5723,16.5875],[172.6337,-40.5742,5.2983],[172.6293,-40.5727,0.8709],[172.6301,-40.5739,3.3078],[172.6263,-40.5758,0.0179],[172.6271,-40.5785,1.2478],[172.6246,-40.5797,0.0],[172.6308,-40.5818,2.777],[172.6311,-40.5842,0.9014],[172.6235,-40.5861,0.0],[172.6186,-40.5892,0.0766],[172.6207,-40.5961,13.1062],[172.6233,-40.5964,53.6602],[172.6206,-40.5967,6.6944],[172.6249,-40.6039,47.7875],[172.621,-40.6,5.8719],[172.6159,-40.6007,33.8265],[172.6202,-40.5986,5.2786],[172.6165,-40.5898,17.2014],[172.6131,-40.5884,2.2319],[172.6018,-40.5895,1.2099],[172.595,-40.5877,0.615],[172.5763,-40.5911,1.9758],[172.5693,-40.5947,3.1329],[172.5677,-40.6013,2.4398],[172.5706,-40.6053,2.7627],[172.5781,-40.603,0.4959],[172.5813,-40.5993,17.8931],[172.5804,-40.6056,21.0849],[172.578,-40.6073,6.022],[172.5859,-40.6074,42.6611],[172.5825,-40.6092,7.9536],[172.5863,-40.6173,29.071],[172.5809,-40.6105,3.7114],[172.5796,-40.6132,53.0261],[172.5756,-40.6084,2.546],[172.5755,-40.6102,20.2287],[172.5727,-40.6112,13.8776],[172.5672,-40.6076,0.6231],[172.5663,-40.6104,20.8764],[172.5615,-40.6141,16.0697],[172.5609,-40.6195,8.4365],[172.5598,-40.6197,25.3801],[172.5581,-40.6161,1.1665],[172.5521,-40.619,17.6861],[172.5549,-40.615,36.2245],[172.5589,-40.6136,14.8707],[172.5639,-40.6072,14.5754],[172.563,-40.6058,2.8605],[172.559,-40.6074,12.2314],[172.5565,-40.6062,0.0],[172.5555,-40.6089,14.0618],[172.5507,-40.6119,34.0509],[172.547,-40.61,0.0],[172.5412,-40.6121,20.4083],[172.5377,-40.6162,0.0],[172.5384,-40.6175,0.0],[172.5461,-40.6153,9.4242],[172.5403,-40.6199,24.231],[172.5369,-40.6196,15.6099],[172.5351,-40.6172,0.0],[172.5338,-40.6254,26.0112],[172.5323,-40.6251,44.5942],[172.5334,-40.6178,0.3426],[172.5299,-40.6176,0.0],[172.5291,-40.62,3.8787],[172.5314,-40.6195,35.3456],[172.5294,-40.6226,0.0],[172.53,-40.6249,1.8661],[172.5258,-40.6316,44.8738],[172.527,-40.6208,2.6908],[172.5181,-40.6263,29.635],[172.5163,-40.6256,2.4905],[172.5155,-40.6276,3.3529],[172.5183,-40.6324,37.3374],[172.5175,-40.6374,6.3216],[172.5198,-40.639,13.9318],[172.5204,-40.6355,38.2998],[172.5216,-40.6356,38.2998],[172.5229,-40.6388,96.4541],[172.5225,-40.6407,76.8282],[172.5213,-40.6373,30.8975],[172.5203,-40.6397,57.9786],[172.5165,-40.6411,32.8957],[172.5159,-40.6362,15.7322],[172.5132,-40.637,28.8344],[172.5159,-40.6346,15.7322],[172.5138,-40.6278,1.2768],[172.5101,-40.6313,34.1753],[172.5088,-40.6269,7.3973],[172.5136,-40.6221,3.4256],[172.5106,-40.6242,4.2163],[172.5052,-40.624,5.8526],[172.5055,-40.6221,9.5124],[172.5081,-40.6194,45.3314],[172.5134,-40.6187,0.0],[172.5114,-40.6182,13.818],[172.5108,-40.616,35.4628],[172.5157,-40.6158,31.351],[172.519,-40.6145,22.2269],[172.5193,-40.6125,37.394],[172.5228,-40.6123,0.0],[172.522,-40.6093,71.6877],[172.5247,-40.61,3.0376],[172.5246,-40.6081,12.4044],[172.5293,-40.6081,6.6889],[172.5271,-40.6045,54.5862],[172.5346,-40.605,32.402],[172.536,-40.6067,0.0],[172.5439,-40.6055,1.9486],[172.5352,-40.6036,15.7321],[172.5331,-40.6012,33.4504],[172.536,-40.6005,24.4682],[172.536,-40.5988,37.7661],[172.5388,-40.5973,54.6712],[172.5398,-40.5983,-0.0529],[172.5436,-40.5964,6.8656],[172.5434,-40.5944,0.0],[172.5393,-40.5926,1.2593],[172.5365,-40.5844,19.7126],[172.5336,-40.5818,3.0318],[172.5265,-40.5888,44.1883],[172.516,-40.5955,14.4904],[172.5125,-40.5957,0.0],[172.5106,-40.5987,11.8004],[172.4876,-40.6073,15.8486],[172.4879,-40.6104,57.223],[172.482,-40.6165,9.6449],[172.4687,-40.6198,1.9686],[172.4606,-40.6254,16.8612],[172.4478,-40.6293,1.5141],[172.4425,-40.6325,6.095],[172.4341,-40.641,24.9472],[172.4285,-40.6431,28.3649],[172.4208,-40.6489,3.593],[172.4116,-40.6582,45.5587],[172.3964,-40.6672,0.0],[172.3947,-40.6718,7.4013],[172.3921,-40.6715,22.6963],[172.3893,-40.6739,0.0],[172.3872,-40.6797,20.4024],[172.3801,-40.6885,0.0],[172.3688,-40.698,25.5586],[172.3618,-40.7005,11.4529],[172.3467,-40.7109,15.9049],[172.3229,-40.7215,20.1391],[172.2925,-40.7472,5.2192],[172.2808,-40.7523,1.2256],[172.274,-40.7531,16.9666],[172.2611,-40.7644,4.7208],[172.2506,-40.766,0.0],[172.2399,-40.7723,0.0],[172.2208,-40.7731,19.1098],[172.2177,-40.7746,42.0666],[172.2182,-40.7777,78.5447],[172.2239,-40.7848,139.4085],[172.2348,-40.7922,326.2522],[172.2488,-40.8069,611.3444],[172.2456,-40.8147,693.965],[172.2463,-40.8185,712.3865],[172.2402,-40.8248,724.3134],[172.2426,-40.8263,719.5071],[172.2382,-40.8296,714.806],[172.2402,-40.8417,829.7075],[172.2381,-40.8453,825.8199],[172.2305,-40.8501,824.8228],[172.2321,-40.8534,831.8529],[172.229,-40.8561,813.0275],[172.2312,-40.8592,811.6],[172.2303,-40.8639,820.524],[172.2336,-40.869,833.0452],[172.2385,-40.8713,821.4946],[172.2471,-40.866,797.1075],[172.251,-40.869,817.5377],[172.2531,-40.8609,798.4888],[172.2625,-40.859,801.6823],[172.2634,-40.8659,783.7521],[172.2679,-40.8712,789.1461],[172.2847,-40.8739,805.1042],[172.2898,-40.8775,736.9271],[172.2899,-40.8859,719.3899],[172.2815,-40.8989,786.7318],[172.2884,-40.9038,785.6722],[172.2952,-40.9032,797.0661],[172.301,-40.9102,831.3593],[172.3004,-40.9153,843.5726],[172.294,-40.9194,880.9739],[172.2977,-40.9225,852.05],[172.3052,-40.9255,856.3704],[172.3166,-40.9245,794.7152],[172.3281,-40.9363,766.2162],[172.3507,-40.9319,835.4493],[172.3689,-40.9366,1344.6985],[172.3758,-40.9344,1371.6406],[172.3811,-40.9455,1295.4331],[172.3864,-40.9493,1412.2493],[172.3831,-40.9552,1357.8339],[172.3747,-40.962,1277.979],[172.3702,-40.9707,1234.5487],[172.3576,-40.9794,1312.5419],[172.3487,-40.9839,1297.261],[172.3351,-40.9844,1367.4314],[172.3297,-40.987,1323.8075],[172.3109,-41.0112,1228.9641],[172.3105,-41.014,1198.969],[172.314,-41.0183,1495.5679],[172.3237,-41.0282,1454.2639],[172.3337,-41.035,1366.0107],[172.3309,-41.0458,1437.174],[172.3235,-41.054,1400.9048],[172.3248,-41.0595,1229.8721],[172.3322,-41.0617,1171.5361],[172.3429,-41.0603,1236.4318],[172.3503,-41.0634,1473.7295],[172.3507,-41.054,1367.026],[172.3552,-41.0513,1399.8455],[172.3624,-41.0514,1473.1035],[172.3611,-41.0441,1329.7395],[172.3668,-41.0365,1267.7535],[172.3827,-41.0226,1506.9769],[172.4072,-41.0275,1380.8768],[172.4192,-41.0335,1440.8979],[172.4356,-41.0275,1380.2728],[172.4397,-41.0204,1444.2484],[172.4684,-41.0227,1498.839],[172.4776,-41.0252,1593.2451],[172.4915,-41.0226,1653.6373],[172.494,-41.0246,1628.9526],[172.4961,-41.041,1480.7646],[172.4923,-41.0481,1486.7144],[172.486,-41.055,1526.704],[172.4889,-41.0575,1507.9797],[172.4922,-41.0648,1547.1482],[172.5091,-41.0656,1592.8647],[172.5142,-41.0677,1508.2474],[172.5226,-41.0817,1599.7008],[172.5182,-41.0908,1458.0613],[172.5197,-41.0955,1637.2573],[172.5227,-41.0968,1606.3171],[172.5334,-41.0963,1453.5009],[172.5436,-41.1015,1474.8322],[172.5529,-41.1024,1555.7397],[172.5607,-41.1168,1503.3193],[172.5672,-41.1228,1439.7683],[172.5735,-41.1251,1481.7463],[172.5814,-41.137,1517.5863],[172.5852,-41.139,1453.3894],[172.5917,-41.1377,1591.4359],[172.5966,-41.148,1531.2906],[172.6185,-41.1603,1372.9916],[172.621,-41.1646,1284.6405],[172.6204,-41.1715,1297.4824],[172.6223,-41.1798,1233.5626],[172.6252,-41.1847,1256.1321],[172.6295,-41.1875,1233.1945],[172.6291,-41.195,1205.3872],[172.6371,-41.1957,1161.8448],[172.6566,-41.1925,1098.9958],[172.6644,-41.1946,989.2088],[172.6685,-41.1894,1185.2927],[172.6738,-41.1883,1292.9915],[172.6913,-41.1985,1246.4404],[172.6918,-41.2092,1428.094],[172.6902,-41.2119,1515.4789],[172.682,-41.2173,1738.9534],[172.6783,-41.2222,1565.6],[172.662,-41.2322,1615.3032],[172.6577,-41.2393,1692.3781],[172.6368,-41.2452,1421.0251],[172.6255,-41.243,1354.1931],[172.6105,-41.2492,1447.9753],[172.6052,-41.2534,1518.2786],[172.5802,-41.254,1421.2881],[172.5748,-41.2577,1401.1763],[172.5726,-41.2637,1550.8843],[172.5818,-41.2721,1446.6055],[172.5853,-41.2809,1457.0925],[172.5861,-41.2887,1496.0203],[172.5885,-41.2908,1490.4275],[172.5965,-41.2926,1418.7985],[172.6003,-41.3009,1399.7791],[172.5982,-41.3102,1588.3979],[172.5909,-41.3166,1488.1959],[172.5879,-41.3227,1555.0841],[172.5873,-41.328,1506.2946],[172.5894,-41.3353,1525.6084],[172.5816,-41.3436,1349.0695],[172.586,-41.3515,1261.0962],[172.5818,-41.3585,1451.9576],[172.5865,-41.3645,1491.4185],[172.5843,-41.3763,1530.9679],[172.5781,-41.3786,1441.5385],[172.5736,-41.377,1231.9265],[172.5599,-41.3828,1315.0542],[172.5524,-41.3983,1377.7684],[172.5436,-41.4006,1402.0203],[172.5365,-41.4005,1372.0153],[172.5339,-41.4018,1460.2932],[172.5321,-41.4055,1537.7048],[172.5225,-41.4067,1421.4678],[172.5124,-41.4128,1358.1027],[172.5086,-41.4124,1283.9255],[172.5043,-41.4086,1132.5769],[172.4979,-41.4072,1107.0597],[172.4847,-41.4081,1206.2949],[172.4651,-41.4055,1476.4949],[172.4631,-41.4043,1480.4692],[172.4627,-41.3962,1478.5754],[172.4612,-41.3944,1571.547],[172.4385,-41.4081,1223.9135],[172.4194,-41.4105,1358.8657],[172.4159,-41.4126,1393.2465],[172.4155,-41.4167,1236.1023],[172.4189,-41.4227,1058.2004],[172.4222,-41.4249,1030.3751],[172.4292,-41.4252,1338.824],[172.4311,-41.429,1372.3557],[172.4301,-41.4346,1328.6919],[172.4222,-41.4391,1440.0574],[172.4254,-41.4518,1413.3606],[172.4197,-41.4586,1352.7317],[172.4189,-41.4707,1346.1089],[172.4141,-41.4745,1331.7805],[172.4069,-41.4755,1206.51],[172.4033,-41.4787,1277.644],[172.3961,-41.4786,1336.8743],[172.3889,-41.4906,1199.0029],[172.3771,-41.4916,1192.7773],[172.372,-41.493899999999996,1385.1774],[172.3526,-41.508,1348.2716],[172.343,-41.5115,1532.4417],[172.3426,-41.5166,1328.4954],[172.3467,-41.5312,1280.3945],[172.3438,-41.5396,1255.3008],[172.3457,-41.5449,1276.6201],[172.3447,-41.5552,1329.751],[172.3268,-41.5603,1484.7517],[172.3275,-41.5659,1300.7877],[172.3318,-41.5721,1184.8624],[172.3345,-41.5836,1250.5801],[172.33,-41.596,1152.1053],[172.3304,-41.5996,1153.6348],[172.3273,-41.6038,1046.9062],[172.3205,-41.6104,1106.1017],[172.3038,-41.6161,1091.3145],[172.2931,-41.6239,1130.126],[172.2925,-41.626,1138.427],[172.2944,-41.6304,1156.6039],[172.291,-41.6348,1202.0255],[172.2804,-41.6365,1113.2826],[172.2764,-41.6315,1101.7368],[172.2644,-41.6273,1157.5997],[172.2577,-41.6319,1090.4988],[172.2469,-41.6349,1081.7802],[172.2374,-41.6402,1052.3453],[172.2378,-41.6426,1032.9395],[172.2413,-41.6439,1129.0645],[172.2412,-41.65,1105.3625],[172.2392,-41.6527,1104.8188],[172.2402,-41.6555,1161.6765],[172.2433,-41.6603,1073.5509],[172.2518,-41.6633,1014.8438],[172.2538,-41.6681,901.2748],[172.2507,-41.6725,798.5311],[172.2471,-41.6842,852.5765],[172.2597,-41.6944,859.9435],[172.2515,-41.7027,901.8438],[172.2476,-41.7028,966.1137],[172.2413,-41.7,916.4456],[172.2343,-41.6919,878.7753],[172.2257,-41.6936,960.1338],[172.2134,-41.689,1059.5323],[172.2125,-41.696,918.2175],[172.2095,-41.6999,1031.2928],[172.2033,-41.6956,1005.6576],[172.1878,-41.6926,949.5604],[172.1745,-41.703,1046.5927],[172.1611,-41.7027,1134.2308],[172.1553,-41.6997,1332.8774],[172.1515,-41.7042,1199.0938],[172.1504,-41.7108,1368.2979],[172.1441,-41.7117,1298.1014],[172.1393,-41.7158,1393.7957],[172.1296,-41.714,1286.6167],[172.1271,-41.716,1251.5792],[172.1249,-41.7225,1237.1036],[172.119,-41.7254,1327.5518],[172.1158,-41.7318,1336.8944],[172.12,-41.7351,1280.4459],[172.1241,-41.7353,1270.667],[172.1246,-41.7369,1235.3579],[172.124,-41.7423,1154.1339],[172.1185,-41.7485,881.342],[172.1179,-41.7562,825.8892],[172.1075,-41.7643,673.321],[172.1001,-41.7676,562.5017],[172.0973,-41.7743,574.3455],[172.0977,-41.7767,570.4105],[172.1006,-41.7782,559.4165],[172.1001,-41.7838,691.7866],[172.1041,-41.7864,436.1191],[172.1051,-41.7893,369.0346],[172.1163,-41.7892,120.4003],[172.1157,-41.8684,1199.7854],[172.1032,-41.868899999999996,1165.3932],[172.0938,-41.8744,1308.2792],[172.093,-41.8838,1291.7375],[172.0949,-41.887,1339.7668],[172.0929,-41.8919,1291.5948],[172.0858,-41.893,1334.9082],[172.0784,-41.8965,1220.8727],[172.0707,-41.8929,1303.6443],[172.0654,-41.8944,1317.0914],[172.0634,-41.8989,1361.3842],[172.0688,-41.9042,1315.208],[172.0687,-41.9103,1356.2059],[172.0724,-41.9129,1333.6602],[172.0774,-41.9205,1295.2906],[172.0726,-41.9269,1320.7009],[172.0683,-41.9295,1314.9025],[172.0656,-41.9365,1278.877],[172.0602,-41.9368,1280.677],[172.056,-41.9393,1305.1593],[172.0521,-41.9452,1339.694],[172.0506,-41.9523,1375.6311],[172.0536,-41.9592,1253.6501],[172.0608,-41.9602,1200.4135],[172.0701,-41.9647,1281.653],[172.0692,-41.9731,1275.5251],[172.0712,-41.9769,1289.7222],[172.0697,-41.9801,1382.3098],[172.0766,-41.9875,1350.2516],[172.071,-41.9985,1375.9882],[172.0765,-42.002,1304.7257],[172.081,-42.0077,1353.1736],[172.1044,-42.0129,1166.1287],[172.116,-42.0121,1366.2496],[172.12,-42.0146,1403.0039],[172.1204,-42.0167,1395.4678],[172.1175,-42.0204,1246.783],[172.1168,-42.0268,1417.4009],[172.1181,-42.0289,1554.7588],[172.1124,-42.0335,1408.9865],[172.1119,-42.0383,1462.4338],[172.1057,-42.0446,1409.2529],[172.1049,-42.0484,1463.7302],[172.1091,-42.0554,1492.217],[172.109,-42.0589,1462.6406],[172.113,-42.0615,1303.6047],[172.1196,-42.0727,1166.7406],[172.1165,-42.0756,1284.6219],[172.1214,-42.0751,1159.9457],[172.1325,-42.0806,1255.0941],[172.133,-42.0844,1284.0229],[172.1299,-42.0924,1371.8843],[172.1356,-42.1023,1568.589],[172.1352,-42.104,1392.5645],[172.1682,-42.1039,1083.895],[172.1703,-42.1013,1049.7217],[172.1743,-42.1002,974.4944],[172.1873,-42.1056,684.7261],[172.1942,-42.1017,448.2162],[172.2067,-42.0983,289.4288],[172.2059,-42.105,294.6416],[172.2138,-42.1074,317.5432],[172.215,-42.1091,309.1766],[172.213,-42.1109,297.5187],[172.2059,-42.1106,302.1098],[172.2056,-42.1145,306.6701],[172.2179,-42.1148,325.6374],[172.2166,-42.1239,307.4702],[172.221,-42.1316,311.1821],[172.2327,-42.1316,366.3885],[172.235,-42.1336,371.4529],[172.2477,-42.1324,646.7365],[172.2506,-42.1379,625.9513],[172.25,-42.1432,621.5447],[172.252,-42.1444,649.7276],[172.2515,-42.1503,681.7344],[172.261,-42.1483,543.114],[172.2741,-42.1481,469.5452],[172.3162,-42.1479,1006.1208],[172.3254,-42.1506,1333.7101],[172.332,-42.1506,1607.8441],[172.3334,-42.1492,1652.5525],[172.333,-42.1523,1557.9102],[172.3373,-42.1611,1569.8145],[172.3405,-42.1626,1515.1688],[172.3409,-42.1695,1336.1342],[172.3451,-42.1758,1312.8163],[172.3412,-42.1806,1394.6072],[172.3395,-42.1903,1488.6068],[172.3416,-42.1932,1522.6663],[172.3396,-42.1971,1547.1943],[172.3403,-42.1991,1490.3347],[172.3438,-42.2009,1494.7858],[172.3429,-42.2084,1462.387],[172.3441,-42.2143,1471.6454],[172.3494,-42.2223,1128.2921],[172.3468,-42.227,1296.4518],[172.3357,-42.2343,1576.3065],[172.3334,-42.2387,1584.8688],[172.3344,-42.245,1508.6338],[172.3407,-42.243899999999996,1364.0205],[172.3454,-42.2492,1538.9717],[172.3463,-42.254,1568.51],[172.3544,-42.2561,1630.8054],[172.3565,-42.2674,1714.6888],[172.3479,-42.2767,1713.6462],[172.3557,-42.281,1661.069],[172.3722,-42.2812,1599.0629],[172.4021,-42.2983,1658.3926],[172.4178,-42.3006,1514.2642],[172.4309,-42.3056,1524.8856],[172.4387,-42.3018,1575.8267],[172.4411,-42.2979,1741.5516],[172.4406,-42.2952,1830.0933],[172.4447,-42.2908,1808.5054],[172.4461,-42.2834,1736.4768],[172.4518,-42.2788,1765.2139],[172.4536,-42.2748,1908.9722],[172.4675,-42.2783,1871.4009],[172.4746,-42.2743,2002.728],[172.479,-42.277,1860.5995],[172.4784,-42.273,2001.2295],[172.4864,-42.2659,2069.7368],[172.5023,-42.2684,2114.6611],[172.5151,-42.2641,2178.0632],[172.5171,-42.2571,2173.0884],[172.5249,-42.2503,2068.3235],[172.5304,-42.2481,1963.6987],[172.534,-42.2414,1925.5824],[172.5453,-42.2385,1818.8329],[172.5594,-42.22,1853.6564],[172.5692,-42.215,1933.8585],[172.575,-42.2157,1990.2238],[172.578,-42.2144,1947.6006],[172.5835,-42.2168,2168.9736],[172.5888,-42.2154,2064.5054],[172.5968,-42.208,2086.5234],[172.6059,-42.2038,2009.0375],[172.6095,-42.1969,1977.6973],[172.6161,-42.1943,2025.4186],[172.6172,-42.1893,2030.7968],[172.6114,-42.1802,2035.6931],[172.6121,-42.174,2074.9768],[172.6097,-42.1658,2119.1514],[172.6121,-42.1611,2067.0596],[172.6118,-42.1581,2046.6047],[172.6197,-42.148,1948.0803],[172.6269,-42.1429,1833.9529],[172.6295,-42.1391,1915.5918],[172.6344,-42.1376,1826.2993],[172.6409,-42.1329,1920.3113],[172.6317,-42.1219,1916.6935],[172.6328,-42.1078,1946.0098],[172.6362,-42.102,2085.8403],[172.6598,-42.0977,1833.017],[172.669,-42.0943,1910.4998],[172.6713,-42.0913,2083.3176],[172.6784,-42.0878,2016.5275],[172.6814,-42.0885,2075.4985],[172.6846,-42.0924,1992.0433],[172.6868,-42.1042,1738.7227],[172.6911,-42.1066,1983.1394],[172.7017,-42.1013,1841.2192],[172.7177,-42.1016,1887.6447],[172.7208,-42.1031,2034.3019]]],
[[[172.66486129032256,-40.506374193548389,16.9386],[172.66492424242423,-40.506387878787876,16.9386],[172.6651,-40.5063,16.9386],[172.6649,-40.5061,1.2786],[172.6646,-40.5062,1.2786],[172.66486129032256,-40.506374193548389,16.9386]]],
[[[173.0646,-40.9267,0.0],[173.0652,-40.9269,0.0],[173.0655,-40.9259,0.0],[173.0647,-40.9259,0.0],[173.0646,-40.9267,0.0]]],
[[[173.0678,-40.9258,0.0],[173.0676,-40.9263,0.0],[173.0683,-40.9255,0.0],[173.068,-40.9254,0.0],[173.0678,-40.9258,0.0]]],
[[[173.0637,-40.8906,0.0],[173.0639,-40.8906,0.0],[173.064,-40.8906,0.0],[173.0638,-40.8904,0.0],[173.0637,-40.8906,0.0]]],
[[[173.0682,-40.8883,1.7606],[173.0685,-40.8885,1.7606],[173.0687,-40.8884,1.7606],[173.0684,-40.8882,1.7606],[173.0682,-40.8883,1.7606]]],
[[[173.0686,-40.8899,4.2035],[173.0681,-40.8888,1.7606],[173.0643,-40.8903,0.0],[173.0678,-40.8919,1.4973],[173.0686,-40.8899,4.2035]]],
[[[172.9121,-40.8042,3.126],[172.9111,-40.8037,0.0],[172.9103,-40.8051,2.6076],[172.9108,-40.8055,2.6076],[172.9121,-40.8042,3.126]]],
[[[172.9145,-40.8,2.825],[172.9136,-40.8001,2.825],[172.912,-40.8018,0.0],[172.9129,-40.8019,0.0],[172.9145,-40.8,2.825]]],
[[[172.6623,-40.6735,6.0637],[172.6674,-40.6742,2.4289],[172.6708,-40.6714,0.8653],[172.6694,-40.67,1.5127],[172.6628,-40.6701,1.0846],[172.6614,-40.6712,2.0422],[172.6623,-40.6735,6.0637]]],
[[[172.9372,-40.5274,1.6023],[172.9306,-40.5269,1.4699],[172.9462,-40.5307,0.405],[172.9443,-40.5293,1.0914],[172.9372,-40.5274,1.6023]]],
[[[172.8974,-40.5217,1.4652],[172.8988,-40.5219,1.6013],[172.8901,-40.5202,1.5231],[172.8909,-40.5204,2.1467],[172.8974,-40.5217,1.4652]]],
[[[172.6221,-40.5202,0.0],[172.6234,-40.5202,0.0],[172.6243,-40.5188,0.0],[172.6233,-40.5184,0.0],[172.6221,-40.5202,0.0]]],
[[[172.6311,-40.5132,0.0],[172.6316,-40.5134,0.0],[172.6318,-40.513,0.0],[172.6312,-40.5127,0.0],[172.6311,-40.5132,0.0]]],
[[[172.6674,-40.5058,1.1244],[172.6674,-40.506,1.1244],[172.6679,-40.5059,1.1244],[172.6675,-40.5057,1.1244],[172.6674,-40.5058,1.1244]]],
[[[172.6651,-40.5054,1.2786],[172.6649,-40.5055,1.2786],[172.6651,-40.5056,1.2786],[172.6653,-40.5054,1.2786],[172.6651,-40.5054,1.2786]]],
[[[172.6796,-40.5006,16.7472],[172.6808,-40.5003,27.0248],[172.6804,-40.4984,27.5562],[172.6783,-40.4997,0.0],[172.6796,-40.5006,16.7472]]],
[[[172.6694,-40.4999,0.0],[172.6703,-40.4995,0.0],[172.6698,-40.4987,0.0],[172.6693,-40.4994,0.0],[172.6694,-40.4999,0.0]]],
[[[172.672,-40.501,0.0],[172.6727,-40.5006,0.0],[172.6712,-40.4989,0.0],[172.6706,-40.4998,0.0],[172.672,-40.501,0.0]]],
[[[172.6758,-40.5003,0.0],[172.6759,-40.4996,0.0],[172.6747,-40.4991,0.0],[172.6751,-40.5001,0.0],[172.6758,-40.5003,0.0]]]]}}