{"type": "Feature","bbox": [175.2216,-40.4414,176.1269,-39.7981],"geometry": {"type": "MultiPolygon","coordinates": [[[[176.1172,-39.8868,1587.574],[176.1098,-39.8903,1667.4138],[176.1033,-39.8826,1649.2305],[176.0537,-39.8667,1517.3872],[176.017,-39.8389,554.2854],[176.0144,-39.8392,540.4066],[176.0132,-39.8378,567.0848],[176.0113,-39.8388,560.1882],[176.0055,-39.836,551.1194],[176.0036,-39.8369,561.4429],[176.0026,-39.835,507.0646],[175.9995,-39.835,498.6323],[175.9997,-39.8323,530.1477],[175.994,-39.8381,653.4485],[175.994,-39.8443,660.5476],[175.9856,-39.8466,602.2009],[175.9854,-39.8501,594.7554],[175.9771,-39.8462,593.1364],[175.9707,-39.8489,635.1263],[175.9661,-39.847,640.1129],[175.9643,-39.8478,631.3798],[175.9632,-39.8453,600.5447],[175.9611,-39.8461,606.3763],[175.96,-39.8448,614.9417],[175.9637,-39.8423,562.0508],[175.963,-39.8381,548.6667],[175.9529,-39.8368,564.8246],[175.9545,-39.8302,641.0371],[175.9293,-39.8268,542.8263],[175.9316,-39.8171,642.5381],[175.9294,-39.8155,642.5818],[175.9266,-39.8174,666.1486],[175.9228,-39.8141,667.696],[175.9194,-39.8184,637.5438],[175.9164,-39.8156,636.4644],[175.9169,-39.8135,622.6897],[175.9137,-39.8113,627.4493],[175.9121,-39.813,609.9866],[175.909,-39.8111,647.4156],[175.8976,-39.8143,632.5529],[175.8902,-39.8091,571.8972],[175.8788,-39.8062,547.2927],[175.8781,-39.8019,548.803],[175.8737,-39.8014,541.4415],[175.8701,-39.7988,532.0461],[175.8576,-39.7998,507.3957],[175.8558,-39.7984,538.9438],[175.8547,-39.8002,513.9772],[175.8531,-39.7985,549.1762],[175.851,-39.7995,553.1818],[175.8501,-39.7982,553.1818],[175.8462,-39.7981,545.3461],[175.8411,-39.8034,512.6237],[175.8409,-39.8006,535.571],[175.8377,-39.8019,479.9359],[175.8375,-39.7984,531.3208],[175.8242,-39.8103,308.5378],[175.8188,-39.8045,346.6637],[175.8158,-39.805,315.5107],[175.8109,-39.803,274.1215],[175.8067,-39.8054,260.6855],[175.8083,-39.8112,263.5895],[175.7987,-39.8087,258.1663],[175.7968,-39.8109,254.7327],[175.796,-39.8163,288.0749],[175.7932,-39.8164,285.7806],[175.7872,-39.8124,286.5775],[175.7852,-39.8156,251.6854],[175.7874,-39.822,251.7732],[175.7837,-39.8265,324.6057],[175.7944,-39.8343,292.8367],[175.7941,-39.837,312.0026],[175.7917,-39.8392,273.5945],[175.7807,-39.844,235.4861],[175.7735,-39.8399,239.5399],[175.7719,-39.8405,235.0005],[175.7707,-39.8443,235.4308],[175.768,-39.8447,228.6882],[175.7667,-39.8415,233.8868],[175.7644,-39.8409,244.6275],[175.7584,-39.8464,283.2227],[175.7522,-39.8462,237.6388],[175.748,-39.8501,225.173],[175.7427,-39.8502,217.5261],[175.7417,-39.8564,226.5603],[175.7445,-39.8576,218.651],[175.745,-39.8598,247.865],[175.7417,-39.8607,214.9041],[175.7361,-39.8576,238.226],[175.7327,-39.8582,216.599],[175.729,-39.8634,210.5601],[175.7329,-39.8685,219.8739],[175.7266,-39.8721,205.7578],[175.7173,-39.8725,204.1215],[175.7193,-39.878,200.7384],[175.7178,-39.8805,200.1903],[175.7108,-39.879,199.7235],[175.7055,-39.8733,196.6161],[175.7024,-39.8793,196.0424],[175.6992,-39.8787,202.985],[175.6947,-39.8745,197.5901],[175.6923,-39.8789,189.9977],[175.6903,-39.8792,189.2171],[175.6895,-39.8748,185.3958],[175.6868,-39.874,197.783],[175.685,-39.8766,188.3404],[175.6768,-39.879,183.4874],[175.676,-39.8809,196.0351],[175.6796,-39.8865,188.7112],[175.6743,-39.8924,181.1777],[175.6749,-39.9018,175.7574],[175.6705,-39.9038,178.0984],[175.6642,-39.9005,174.8174],[175.661,-39.9013,174.4872],[175.6593,-39.9114,174.9429],[175.6553,-39.9139,175.3693],[175.6478,-39.9155,165.5039],[175.6456,-39.9182,165.6041],[175.6453,-39.9238,165.3461],[175.6422,-39.9289,167.9913],[175.6492,-39.9299,163.0915],[175.6499,-39.9323,158.0949],[175.6459,-39.9342,160.724],[175.6375,-39.9338,195.2556],[175.6396,-39.9365,171.609],[175.6465,-39.94,168.6223],[175.6474,-39.942,157.48],[175.638,-39.9472,153.4781],[175.6369,-39.9538,151.7636],[175.6307,-39.9556,147.2585],[175.6354,-39.9585,148.4417],[175.6382,-39.9644,145.4163],[175.6364,-39.9661,144.0252],[175.6314,-39.9622,158.0257],[175.6275,-39.9639,142.2069],[175.6327,-39.9701,140.3436],[175.6325,-39.9739,142.4134],[175.6266,-39.979,136.0209],[175.6199,-39.976,189.1496],[175.6203,-39.9811,146.1446],[175.6184,-39.9839,141.6825],[175.6046,-39.9861,140.9193],[175.5997,-39.9903,129.506],[175.5958,-39.9984,126.5406],[175.5896,-40.0016,124.1741],[175.5803,-40.0023,124.2215],[175.5789,-40.007,120.5958],[175.5812,-40.0199,120.5676],[175.5803,-40.0214,142.7484],[175.5747,-40.0217,121.6322],[175.5704,-40.0192,124.2296],[175.5695,-40.0119,116.9455],[175.5652,-40.0075,115.2598],[175.551,-40.004,113.0287],[175.5487,-40.005,111.1675],[175.5436,-40.0157,109.1723],[175.5389,-40.0204,106.8561],[175.5116,-40.0269,100.8558],[175.5059,-40.0296,101.9793],[175.5044,-40.0319,101.167],[175.5049,-40.0393,95.8411],[175.5028,-40.0429,93.6435],[175.4973,-40.0468,96.14],[175.496,-40.0589,88.2804],[175.4922,-40.0673,88.9319],[175.4744,-40.0795,79.9896],[175.4558,-40.0808,77.1138],[175.4521,-40.0832,72.25],[175.4474,-40.0922,70.5435],[175.4418,-40.0951,74.171],[175.4421,-40.0996,66.342],[175.4392,-40.1075,69.4416],[175.4408,-40.1101,65.7129],[175.4477,-40.1139,63.1547],[175.4493,-40.1194,59.0],[175.4445,-40.124,62.3608],[175.437,-40.1276,59.1714],[175.4367,-40.1308,62.7029],[175.4393,-40.1342,64.5235],[175.4345,-40.1436,57.3006],[175.4351,-40.148,56.71],[175.4329,-40.1591,49.779],[175.4243,-40.1636,49.9392],[175.4181,-40.1704,44.1123],[175.4064,-40.1755,49.6601],[175.4083,-40.1765,46.2415],[175.4034,-40.1775,49.1335],[175.4011,-40.1841,45.9406],[175.3988,-40.1856,42.7655],[175.3939,-40.1857,42.9874],[175.3875,-40.1889,37.2307],[175.381,-40.1899,41.1081],[175.3642,-40.1881,37.3365],[175.3504,-40.1947,31.9137],[175.3468,-40.2023,28.4475],[175.3397,-40.2075,28.4225],[175.3183,-40.2566,16.5492],[175.3122,-40.2616,19.7993],[175.3094,-40.266,11.627],[175.301,-40.2701,10.1933],[175.2966,-40.2792,9.2377],[175.2844,-40.2836,8.827],[175.2821,-40.288,9.1065],[175.2739,-40.2906,7.4884],[175.2708,-40.295,5.7184],[175.2679,-40.2962,5.0975],[175.2591,-40.2946,3.593],[175.2442,-40.2815,1.2994],[175.24,-40.2823,2.0371],[175.2378,-40.2866,0.5446],[175.2316,-40.2919,0.0],[175.2272,-40.291,0.6163],[175.2246,-40.2862,1.2],[175.2216,-40.2863,0.0],[175.222,-40.291,1.7825],[175.2239,-40.2928,2.0243],[175.2292,-40.3287,6.3738],[175.2291,-40.368899999999996,2.0738],[175.2273,-40.3911,4.1597],[175.2797,-40.386,8.3216],[175.2785,-40.3963,10.2937],[175.3106,-40.4025,19.1588],[175.4264,-40.4375,7.8952],[175.4286,-40.4357,5.4745],[175.4445,-40.4381,7.3468],[175.4496,-40.4296,5.9337],[175.453,-40.4289,5.9728],[175.4561,-40.431399999999996,5.2465],[175.4483,-40.4382,9.994],[175.4513,-40.4404,7.5556],[175.4579,-40.4414,8.5297],[175.4601,-40.4393,6.3169],[175.4641,-40.428,6.2049],[175.4694,-40.4259,9.2253],[175.471,-40.427,11.8046],[175.4688,-40.4312,10.8296],[175.4701,-40.437,7.445],[175.4732,-40.4369,11.0641],[175.4792,-40.432,7.9986],[175.4844,-40.4304,8.1877],[175.4871,-40.4322,6.7722],[175.4834,-40.437,7.2925],[175.4869,-40.4375,9.4413],[175.4968,-40.4343,11.0561],[175.5133,-40.4203,7.375],[175.5223,-40.4153,14.7017],[175.5314,-40.4125,12.2626],[175.5418,-40.415,14.2212],[175.5518,-40.4092,15.8611],[175.5486,-40.406,18.522],[175.5468,-40.3987,18.7055],[175.539,-40.3873,18.8764],[175.5453,-40.378,18.4698],[175.5399,-40.3709,15.2822],[175.5519,-40.3656,19.1074],[175.5318,-40.3481,15.5573],[175.6121,-40.2937,42.6746],[175.5965,-40.28,49.4893],[175.6138,-40.2681,56.3401],[175.6194,-40.2728,53.7841],[175.6263,-40.2689,57.9387],[175.6372,-40.2775,55.7888],[175.6392,-40.2763,57.3513],[175.6449,-40.2811,65.469],[175.6415,-40.283,63.4291],[175.6489,-40.2828,69.1402],[175.678,-40.2879,112.9364],[175.7189,-40.2905,111.2889],[175.7435,-40.2793,125.1096],[175.7452,-40.2742,128.633],[175.7489,-40.2712,105.3378],[175.7527,-40.2716,86.9688],[175.7543,-40.269,90.265],[175.7583,-40.2698,90.7147],[175.7577,-40.2737,87.9291],[175.7626,-40.2751,83.3138],[175.7613,-40.2772,70.2477],[175.7637,-40.2775,65.4081],[175.7633,-40.2799,64.5334],[175.7719,-40.2812,66.4429],[175.7689,-40.2851,59.6922],[175.7669,-40.2957,54.9083],[175.7581,-40.3003,59.0713],[175.7667,-40.3021,50.2516],[175.7711,-40.3057,52.0822],[175.8051,-40.265,234.0723],[175.8079,-40.269,290.691],[175.8146,-40.2722,290.7122],[175.815,-40.2472,292.2548],[175.8275,-40.2472,481.1031],[175.8275,-40.262,582.0312],[175.8415,-40.2461,514.8146],[175.8596,-40.2544,876.7557],[175.8672,-40.2459,873.19],[175.8628,-40.244,816.8647],[175.8649,-40.2399,758.9404],[175.8726,-40.2334,888.854],[175.8699,-40.2273,942.2085],[175.874,-40.2214,997.5438],[175.8745,-40.2157,1010.9677],[175.8937,-40.2005,919.9751],[175.8984,-40.1921,939.7104],[175.8983,-40.1847,889.5098],[175.9186,-40.1735,1068.3478],[175.9274,-40.1753,1048.8156],[175.9384,-40.1556,957.6373],[175.9584,-40.1561,1016.5398],[175.9789,-40.1434,1016.2307],[175.9877,-40.1281,1132.6661],[176.0033,-40.1148,1093.2654],[176.017,-40.1056,1013.5535],[176.033,-40.08,947.7098],[176.0702,-40.0611,857.9391],[176.077,-40.0509,905.5855],[176.0811,-40.0478,883.1146],[176.0741,-40.036,1067.4995],[176.0775,-40.0272,1086.5791],[176.0766,-40.017,982.2769],[176.0777,-40.0129,1065.1781],[176.0901,-40.0048,1130.1804],[176.0924,-39.9976,1098.462],[176.1016,-39.9843,1097.2793],[176.1032,-39.9772,1136.537],[176.1121,-39.9705,1186.9558],[176.1161,-39.9696,1152.196],[176.1211,-39.9624,1204.1355],[176.1171,-39.9577,1162.5088],[176.1245,-39.9478,1208.9747],[176.1097,-39.9419,1422.2426],[176.1096,-39.9392,1477.0881],[176.1117,-39.938,1430.3173],[176.1154,-39.9294,1385.1807],[176.1136,-39.9247,1371.3639],[176.1068,-39.9172,1382.7356],[176.1261,-39.9048,1309.9368],[176.1269,-39.8916,1342.3115],[176.1231,-39.888,1493.766],[176.1172,-39.8868,1587.574]]]]}
,"properties": {"GID_2": "NZL.7.2_1","GID_0": "NZL","country": "NewZealand","GID_1": "NZL.7_1","province": "Manawatu-Wanganui","NL_NAME_1": "NA","county": "Manawatu","VARNAME_2": "NA","NL_NAME_2": "NA","TYPE_2": "District","ENGTYPE_2": "District","CC_2": "039","HASC_2": "NZ.MW.MN","name": "Manawatu.county","area_km2": 2562.853,"hist_schema_id": "Elevation0-9000","hist_area_km2": {"0": 118.587,"25": 333.496,"50": 112.189,"75": 95.562,"100": 108.382,"125": 113.211,"150": 94.009,"175": 86.09,"200": 84.213,"225": 78.744,"250": 80.388,"275": 74.028,"300": 75.887,"325": 76.403,"350": 78.126,"375": 79.546,"400": 79.75,"425": 81.051,"450": 82.844,"475": 82.921,"500": 68.896,"525": 53.586,"550": 42.895,"575": 33.433,"600": 26.427,"625": 22.928,"650": 20.975,"675": 19.835,"700": 16.082,"725": 14.6,"750": 12.144,"775": 11.087,"800": 10.324,"825": 10.712,"850": 10.876,"875": 10.649,"900": 9.578,"925": 10.374,"950": 9.904,"975": 8.98,"1000": 9.678,"1025": 9.468,"1050": 9.014,"1075": 7.976,"1100": 7.977,"1125": 7.798,"1150": 6.679,"1175": 6.534,"1200": 5.868,"1225": 5.316,"1250": 5.202,"1275": 5.267,"1300": 5.007,"1325": 5.04,"1350": 4.552,"1375": 3.968,"1400": 3.708,"1425": 3.22,"1450": 2.748,"1475": 2.407,"1500": 1.708,"1525": 1.188,"1550": 0.992,"1575": 0.683,"1600": 0.569,"1625": 0.39,"1650": 0.146,"1675": 0.033}}}