{"type":"Feature","properties":{"featurecla":"River","scalerank":10,"rivernum":2016,"dissolve":"2016River","name":"Moawhango1","name_alt":null,"note":null,"min_zoom":7.2,"strokeweig":0.15,"name_en":"Moawhango","min_label":8.2},
"geometry":{"type": "LineString","coordinates": [[175.85878861762484,-39.278885799356978,1355.363],[175.88258631292086,-39.290304979544537,1168.0797],[175.89686802472727,-39.301724159732096,1171.35],[175.8987557482813,-39.318868403157325,1255.8457],[175.89400549310841,-39.339788093690629,1067.8779],[175.87983697328795,-39.345317272157153,1102.2539]]}}