{"type":"Feature","properties":{"featurecla":"River","scalerank":10,"rivernum":2016,"dissolve":"2016River","name":"Moawhango","name_alt":null,"note":null,"min_zoom":7.2,"strokeweig":0.2,"name_en":"Moawhango","min_label":8.2},
"geometry":{"type": "LineString","coordinates": [[175.87983697328795,-39.345317272157153,1102.2539],[175.87687672282709,-39.346472491849205,1168.833],[175.85211969261016,-39.350247938957288,1032.124],[175.8340470605518,-39.359779395590806,925.8647],[175.81405575865162,-39.362626454065747,1009.8019],[175.79310512183054,-39.379770697490976,853.5216],[175.7693228996784,-39.38738348428268,846.5],[175.754097326095,-39.391189877678535,846.5],[175.75027545955524,-39.401649722945187,846.5],[175.75242622655534,-39.407715195348338,859.493],[175.75064681500851,-39.414152023204743,797.8357],[175.75242622655534,-39.422012380298618,821.9902],[175.75600052279293,-39.429130026485986,821.0403],[175.76741970298048,-39.431296266629964,801.7753],[175.78097417702423,-39.437702148198596,773.1484],[175.78668376711803,-39.448780919220674,798.8923],[175.79847430275885,-39.456269920861295,746.7529],[175.8109611298745,-39.460911864026968,694.3453],[175.81953325158713,-39.466977336430119,691.4559],[175.83095243177468,-39.475178102689476,720.0111],[175.84736943743729,-39.483750224402087,643.626],[175.86556585464672,-39.4891039321865,619.5168],[175.88733656809373,-39.491950990661451,539.3074],[175.90126239759076,-39.500523112374061,545.4789],[175.90007096551159,-39.517172215194947,543.9454],[175.89114296148961,-39.524320807670087,624.4858],[175.87390587920106,-39.549294461901418,537.419],[175.86914015088428,-39.558237939067283,485.3102],[175.86081559947385,-39.564767605787,490.986],[175.85902071478313,-39.578445864981852,481.3845],[175.86319846363222,-39.597477831961122,472.3877],[175.86794871880511,-39.600479621874925,470.3004],[175.88043554592076,-39.605802383371561,561.4413],[175.88223043061151,-39.610568111688323,501.1114],[175.88520127423755,-39.619511588854188,465.9288],[175.89055498202194,-39.6260412555739,449.0375],[175.89710012188556,-39.629012099199933,443.8868],[175.89829155396473,-39.637336650610379,484.3497],[175.90304180913762,-39.6468681072439,445.517],[175.91435267731796,-39.6599583869711,418.4245],[175.92029436457003,-39.6688709178492,379.5562],[175.92326520819606,-39.67778344872729,366.2434],[175.92981034805968,-39.686138946425508,387.5939],[175.93100178013884,-39.695639456771254,377.0891],[175.92386866080761,-39.702788049246394,383.4174],[175.92467326428965,-39.708389327332974,408.5012]]}}