{"type":"Feature","properties":{"featurecla":"River","scalerank":10,"rivernum":2023,"dissolve":"2023River","name":"Ongarue","name_alt":null,"note":null,"min_zoom":7.2,"strokeweig":0.2,"name_en":"Ongarue","min_label":8.2},
"geometry":{"type": "LineString","coordinates": [[175.57090747749547,-38.591204291884914,577.7248],[175.56800182458309,-38.591506855383869,602.3845],[175.55311666016516,-38.59506567847756,618.068],[175.53765898942345,-38.596860563168285,510.6828],[175.52337727761707,-38.589123991225492,494.0714],[175.50911103895456,-38.584358262908736,429.3189],[175.48828418728456,-38.58318230397343,451.7621],[175.46567792406773,-38.583770283441083,378.5018],[175.4442630929301,-38.584946242376382,327.8113],[175.41927396555488,-38.587329106534767,366.7284],[175.39430031132355,-38.599243427326662,256.0646],[175.37228202757436,-38.612333707053864,254.5362],[175.3651489082431,-38.61350966598917,241.7014],[175.34789635281069,-38.61350966598917,242.3195],[175.33838036932104,-38.607567978737109,228.0585],[175.32767295375223,-38.60636107351403,231.0492],[175.32052436127708,-38.608155958204762,264.6542],[175.31696553818341,-38.6153045506799,236.1754],[175.30803753416143,-38.619451353241232,234.5669],[175.302683826377,-38.6295707893424,255.0742],[175.3038752584562,-38.645043933227988,218.8782],[175.311611830399,-38.65098562048005,281.4735],[175.31815697026258,-38.654544443573734,196.8874],[175.31637755871574,-38.664663879674904,196.8764],[175.3074340815499,-38.671812472150044,193.9446],[175.30446323792387,-38.68846157497093,192.3954],[175.29138843134052,-38.700963875230485,208.4789],[175.28543127094457,-38.716406072828292,187.6886],[175.2675907360445,-38.72476157052651,208.4508],[175.26401643980694,-38.731879216713878,185.638],[175.25510390892885,-38.748528319534763,189.8644],[175.24498447282767,-38.76223752501739,174.8141],[175.23783588035252,-38.780062586773582,186.8945],[175.2283198968629,-38.791357981810052,178.7735],[175.22415762115767,-38.809213989854015,191.2891],[175.23070276102129,-38.83718943399915,181.714],[175.23665992141724,-38.856809380446066,182.0121],[175.24498447282767,-38.871075619108574,193.7469],[175.25092616007976,-38.882989939900469,210.6342],[175.2538815305619,-38.89279991312393,161.5007]]}}