{"type":"Feature","properties":{"featurecla":"River","scalerank":6,"rivernum":2048,"dissolve":"2048River","name":"Whanganui1","name_alt":null,"note":null,"min_zoom":5.0,"strokeweig":0.2,"name_en":"Whanganui","min_label":6.0},
"geometry":{"type": "LineString","coordinates": [[175.52827700768796,-39.010580010696522,486.343],[175.51871986130752,-39.008074835071518,463.6856],[175.512298506595,-38.998450539574684,423.3982],[175.512298506595,-38.986660003933871,435.5914],[175.50623303419184,-38.971682000652628,359.6674],[175.49766091247923,-38.965956937414965,357.9419],[175.47124825586656,-38.966699648321473,389.5589],[175.44590324618196,-38.964904763630742,417.0921],[175.43519583061314,-38.953825992608664,272.8658],[175.4191347072599,-38.945625226349307,271.5944],[175.41306923485675,-38.935258219945972,265.0575],[175.39987064312237,-38.929192747542821,283.9281],[175.37344251336577,-38.924210395211659,234.8547],[175.36381821786895,-38.931699396852288,229.9634],[175.35453433153759,-38.935629575399226,235.6516],[175.34989238837193,-38.934917810780483,248.624],[175.34811297682509,-38.931699396852288,217.9427],[175.34811297682509,-38.925633924449137,214.6899],[175.3445386805875,-38.920991981283464,225.1897],[175.34382691596878,-38.913502979642843,199.6498],[175.34667397444372,-38.900288914764552,194.0903],[175.34169162211256,-38.895646971598879,190.7007],[175.33205185347185,-38.889241090030247,183.7237],[175.31956502635617,-38.883887382245838,178.3205],[175.29706707514654,-38.885310911483309,174.5509],[175.2745845970808,-38.885310911483309,166.2579],[175.2538815305619,-38.89279991312393,161.5007]]}}