{"type":"Feature","properties":{"featurecla":"River","scalerank":9,"rivernum":2047,"dissolve":"2047River","name":"Whangaehu","name_alt":null,"note":null,"min_zoom":7.1,"strokeweig":0.2,"name_en":"Whangaehu","min_label":8.1},
"geometry":{"type": "LineString","coordinates": [[175.69748482463007,-39.302950624730819,1109.1958],[175.69907482643785,-39.303364312983973,1109.1958],[175.7085908099275,-39.30277633351632,1082.3235],[175.71632738187029,-39.305747177142351,1064.879],[175.71691536133793,-39.312895769617491,1055.5546],[175.71632738187029,-39.32836891350307,1056.5818],[175.71216510616506,-39.350371724108371,978.6067],[175.70681139838064,-39.367020826929256,947.4043],[175.70026625851705,-39.3872596991316,911.0043],[175.68301370308461,-39.402732843017183,878.9039],[175.67408569906263,-39.407467625046166,859.2058],[175.66873199127824,-39.412821332830582,851.6831],[175.66396626296148,-39.418763020082643,835.7859],[175.65564171155103,-39.424735653622477,801.6241],[175.6461412012053,-39.439001892284985,801.9374],[175.63721319718331,-39.444943579537046,766.8116],[175.62828519316133,-39.444355600069393,750.292],[175.60270808631844,-39.451504192544533,749.5906],[175.59438353490802,-39.4574458797966,719.1017],[175.57713097947558,-39.466977336430119,690.3923],[175.57355668323802,-39.474713908372905,690.3605],[175.56701154337441,-39.480655595624974,679.5235],[175.55868699196398,-39.486009303409382,664.2028],[175.549758987942,-39.483626439251005,659.4516],[175.53727216082632,-39.48183155456028,647.0989],[175.5265647452575,-39.480655595624974,651.0316],[175.51525387707716,-39.484802398186311,637.4191],[175.49325106647183,-39.494333854819828,617.8843],[175.47541053157175,-39.497304698445859,595.2349],[175.46587907493824,-39.499099583136584,592.9852],[175.45339224782259,-39.51215891657602,573.1515],[175.449817951585,-39.521102393741884,565.1862],[175.44922997211737,-39.528220039929252,543.7756],[175.44625912849133,-39.530014924619977,547.4989],[175.44268483225375,-39.53060290408763,557.7352],[175.43316884876413,-39.538339476030423,561.0619],[175.42603572943287,-39.542517224879532,576.2078],[175.42068202164847,-39.551429755757624,504.5313],[175.42246143319531,-39.560373232923489,475.9647],[175.4278151409797,-39.565108014952479,441.8077],[175.4290065730589,-39.575227451053649,412.7149],[175.4301980051381,-39.582964022996443,429.9226],[175.42662370890054,-39.584139981931749,464.5827],[175.41949058956928,-39.585934866622473,384.1474],[175.41234199709413,-39.591876553874535,376.0608],[175.4105625855473,-39.600201105284981,353.1736],[175.41116603815883,-39.609144582450845,315.776],[175.42246143319531,-39.622203915890282,288.4518],[175.4290065730589,-39.6317353725238,378.6063],[175.42722716151206,-39.643649693315695,304.9283],[175.42187345372764,-39.649591380567756,264.535],[175.42127000111611,-39.6579159319782,250.6198],[175.41710772541089,-39.675771940022166,220.7576],[175.41413688178486,-39.685860429835564,216.2255],[175.41353342917333,-39.698950709562766,226.6385],[175.41710772541089,-39.706099302037906,210.3713],[175.41888713695772,-39.7180136228298,158.7834],[175.41888713695772,-39.733455820427615,181.6258],[175.41413688178486,-39.744751215464092,140.2514],[175.39925171736692,-39.754870651565263,131.8025],[175.38201463507841,-39.767960931292464,102.5985],[175.37308663105642,-39.786404918804081,133.1759],[175.36415862703444,-39.7971123343729,88.1822],[175.36059980394074,-39.812585478258484,84.5716],[175.36118778340841,-39.823292893827308,82.3684],[175.3600118244731,-39.833381383640706,94.6014],[175.35048036783957,-39.839941996648193,76.6131],[175.33680210864472,-39.8441197454973,69.7403],[175.3272861251551,-39.8441197454973,72.4605],[175.32312384944987,-39.848266548058639,67.3458],[175.32193241737068,-39.852444296907741,71.0879],[175.31479929803942,-39.854239181598473,68.5242],[175.30170901831224,-39.85838598415981,49.8662],[175.29514840530473,-39.863739691944218,50.7409],[175.28981017066423,-39.87265222282231,48.7766],[175.28920671805267,-39.889920251398621,47.6799],[175.28504444234744,-39.901803625902751,42.769],[175.28326503080061,-39.91012817731319,42.8348],[175.27732334354855,-39.922630477572746,36.5416],[175.27552845885782,-39.933337893141569,39.2524],[175.27494047939015,-39.946428172868771,29.8978],[175.27076273054107,-39.953576765343911,32.5954],[175.26898331899423,-39.964284180912735,30.9576],[175.26243817913061,-39.972608732323174,27.7643],[175.25352564825252,-39.9714018271001,26.57],[175.24400966476287,-39.970813847632449,26.3487],[175.23449368127325,-39.974991596481551,19.6535],[175.22615365671891,-39.984492106827304,16.2985],[175.21425480907089,-39.993435583993168,20.246],[175.19879713832921,-40.000553230180536,16.9226],[175.18748627014884,-40.000553230180536,16.4959],[175.17202859940716,-40.002936094338914,15.1289],[175.16190916330598,-40.008289802123329,12.6726],[175.152981159284,-40.008289802123329,9.7442],[175.14049433216834,-40.008877781590982,9.4437],[175.12918346398797,-40.016026374066122,8.9078],[175.1256246408943,-40.023174966541255,8.05],[175.1256246408943,-40.030880592196276,7.9653],[175.12265379726827,-40.034470361577732,5.6454],[175.11907950103068,-40.034470361577732,9.3977],[175.11610865740465,-40.0314995179517,3.9482],[175.11075494962026,-40.029116653793324,2.3244],[175.10301837767747,-40.032675476887007,3.8693],[175.09682912012323,-40.038926627016778,0.9285]]}}