{"type":"Feature","properties":{"featurecla":"River","scalerank":6,"rivernum":2048,"dissolve":"2048River","name":"Whanganui","name_alt":null,"note":null,"min_zoom":5.0,"strokeweig":0.2,"name_en":"Whanganui","min_label":6.0},
"geometry":{"type": "LineString","coordinates": [[175.2538815305619,-38.89279991312393,161.5007],[175.24888370508683,-38.902455154908537,159.0593],[175.24388587961181,-38.912079450405365,166.1254],[175.24091503598578,-38.917897352506344,176.8843],[175.23949150674829,-38.9214871218878,158.9603],[175.2384083866763,-38.925417300434738,193.4513],[175.23913562443892,-38.931482772837889,187.1685],[175.23959981875549,-38.939559753946163,169.0136],[175.23817628951804,-38.947048755586785,175.2727],[175.22604534471174,-38.948843640277509,166.9351],[175.21663767322929,-38.946832131572386,163.2482],[175.21163984775424,-38.945377656047143,228.1677],[175.20557437535109,-38.943954126809665,206.6101],[175.19910660120692,-38.942963845600985,171.3159],[175.19392309800526,-38.943830341658582,148.8122],[175.17964138619885,-38.943830341658582,162.0122],[175.17035749986752,-38.945996581802561,160.0555],[175.15966555744257,-38.944913461730572,150.6183],[175.15607578806112,-38.94302573817653,136.8375],[175.15096965057887,-38.943242362190929,177.9849],[175.14883435672266,-38.944325482262919,170.9037],[175.14775123665066,-38.945377656047143,229.8575],[175.14561594279445,-38.947172540737867,204.6497],[175.1452600604851,-38.948596069975338,171.4647],[175.14454829586637,-38.950019599212816,138.5425],[175.14383653124762,-38.949679190047334,138.5425],[175.14132988193816,-38.952897603975529,239.0186],[175.13921006122584,-38.956054125328194,182.9866],[175.13616185188039,-38.95982957243627,135.5765],[175.1335623637076,-38.964750032191887,142.3533],[175.13145801613916,-38.969546706796422,165.0804],[175.13181389844851,-38.9774070638903,139.1748],[175.13074625152041,-38.983101180840187,118.3855],[175.12396901449853,-38.986319594768389,144.94],[175.1211064828797,-38.992756422624794,117.6449],[175.12003883595159,-38.998821895027938,195.8819],[175.11859983357024,-39.001668953502886,204.4498],[175.11456134301611,-39.002504503272711,123.17],[175.11169881139728,-39.003928032510181,181.9525],[175.10920763523168,-39.005011152582171,243.6131],[175.10778410599423,-39.0081986202226,238.3415],[175.10575712414521,-39.012005013618456,139.6964],[175.10385392744729,-39.015718568150994,149.8994],[175.10065098666297,-39.018906035791424,134.9267],[175.09624114065556,-39.020360511316674,121.3811],[175.09387374964109,-39.021660255403063,185.7406],[175.091722982641,-39.022836214338362,148.6508],[175.08850456871278,-39.023919334410358,133.1922],[175.082794978619,-39.026054628266564,216.3889],[175.07756505598567,-39.027725727806207,120.2922],[175.0697046988918,-39.030944141734409,124.8708],[175.06578999348875,-39.037350023303041,132.7589],[175.06221569725119,-39.049140558943854,108.6567],[175.05721787177615,-39.051616261965549,108.4062],[175.0508274633514,-39.053565878095128,119.2227],[175.04711390881886,-39.055670225663569,149.5351],[175.04674255336559,-39.05997175966376,181.7178],[175.04745431798432,-39.065665876613657,202.9435],[175.04651045620733,-39.0705553900815,132.0527],[175.04473104466047,-39.075197333247175,111.8616],[175.0464021442001,-39.080674826182673,177.1295],[175.04977528956718,-39.08305769034105,241.9701],[175.05704766719339,-39.088070988959977,225.413],[175.06201454638068,-39.096086077492714,122.673],[175.06503180943835,-39.100944644672786,172.5661],[175.06769319018667,-39.105277124960743,102.2667],[175.05488142704942,-39.111683006529375,161.5616],[175.03854178710623,-39.10701011707593,181.2879],[175.03307976731463,-39.108309861162319,334.0317],[175.02656557373879,-39.109857175550879,315.1131],[175.01872068978881,-39.117872264083609,217.2315],[175.01168040932086,-39.125051802846521,253.9119],[175.00317018018379,-39.133747709710221,240.6537],[174.99685713747849,-39.140184537566618,266.7681],[174.99230803317613,-39.144857427020064,189.6975],[174.9851284944132,-39.152191697221831,125.8778],[174.97980573291656,-39.157638243869556,93.3487],[174.97471506857821,-39.162806273927345,218.7765],[174.97033616885858,-39.167293485654163,295.0516],[174.958112385189,-39.179764839625939,273.538],[174.94861187484324,-39.189481973986084,160.9598],[174.94232977842569,-39.195887855554716,232.5288],[174.93607862829592,-39.206533378547995,187.7863],[174.93128195369138,-39.214703198519587,138.2315],[174.92831111006535,-39.219747443426286,172.7342],[174.92444282409394,-39.226339002721545,167.681],[174.92196712107227,-39.230578644146192,252.9477],[174.90449794162544,-39.236767901700425,215.1625],[174.89943822357486,-39.237510612606933,271.0857],[174.8909125212939,-39.238748464117776,77.9016],[174.88593016896274,-39.239645906463146,75.8839],[174.8835163585166,-39.242926212966886,202.303],[174.88399602597704,-39.243421353571222,202.303],[174.88636341699154,-39.245897056592916,116.9199],[174.88947351891255,-39.24936304082329,155.0428],[174.89018528353128,-39.251498334679496,179.1514],[174.88911763660317,-39.25651163329843,148.5609],[174.8876786342218,-39.262917514867056,187.6628],[174.8898294012219,-39.270066107342195,105.2643],[174.89625075593443,-39.2732845212704,88.1282],[174.90302799295631,-39.278978638220295,63.8297],[174.90779372127307,-39.281021093213191,235.6569],[174.91266776159702,-39.2821970521485,92.2272],[174.91969256892108,-39.282444622450662,177.4232],[174.92349896231693,-39.283403957371569,209.5183],[174.9273053557128,-39.285415466076692,67.8629],[174.93443847504403,-39.290057409242372,100.519],[174.94085982975656,-39.289686053789119,85.636],[174.95407389463486,-39.294327996954792,151.7978],[174.96013936703798,-39.2952873318757,199.5352],[174.96108322881503,-39.295782472480035,98.8086],[174.96204256373591,-39.297206001717512,69.2242],[174.96478131020368,-39.300764824811196,229.0814],[174.96835560644124,-39.307170706379821,61.8781],[174.97906302201005,-39.309336946523807,130.0432],[174.99654767460078,-39.310760475761278,64.3473],[175.00112772519088,-39.31156507924333,134.7457],[175.00344869677375,-39.316702163013339,154.8694],[175.003680793932,-39.320756126711366,87.9581],[174.999766088529,-39.331092186826936,118.3789],[174.99368514298192,-39.341087837777017,155.2973],[174.99512414536329,-39.348236430252157,98.8438],[175.00225726469455,-39.353930547202054,90.9257],[175.00583156093211,-39.361079139677194,62.7937],[175.012608797954,-39.373210084483489,71.1788],[175.01438820950085,-39.385341029289783,122.0973],[175.02116544652273,-39.394284506455655,164.7113],[175.02902580361661,-39.399978623405545,75.2576],[175.03818590479688,-39.405703686643214,204.9836],[175.03912976657389,-39.411397803593104,61.9209],[175.03580304063848,-39.4223527894641,144.576],[175.03009345054471,-39.426406753162119,141.2714],[175.02189268428535,-39.428542047018333,208.1122],[175.01796250573841,-39.433183990184006,159.7945],[175.02152132883208,-39.439249462587156,87.8487],[175.02545150737905,-39.445686290443554,84.2941],[175.03080521516344,-39.452803936630922,63.599],[175.03222874440092,-39.4606642937248,32.7761],[175.03544715832913,-39.473166593984352,39.6843],[175.03937733687604,-39.480655595624974,31.4652],[175.04579869158857,-39.483874009553176,51.5761],[175.04937298782613,-39.490991655740544,72.5225],[175.04793398544479,-39.500646897525144,55.5178],[175.04686633851668,-39.509559428403243,61.1378],[175.05186416399172,-39.521349964044056,96.2191],[175.0586414010136,-39.5308504743898,175.3092],[175.06114805032308,-39.542053030562961,74.409],[175.06769319018667,-39.551336916894314,57.4307],[175.07618794617986,-39.554957632563536,53.2503],[175.0804275876045,-39.559537683153671,47.1565],[175.0818356436981,-39.567026684794293,84.5666],[175.08471364846082,-39.57095686334123,62.9423],[175.09862400481396,-39.583087808147525,22.361],[175.11682042202341,-39.586306222075727,86.9325],[175.12930724913906,-39.592000339025624,110.5722],[175.1407419024705,-39.59413563288183,28.708],[175.14716325718302,-39.597354046810032,32.7432],[175.15715890813311,-39.607721053213375,32.4026],[175.16573102984572,-39.611991640925794,74.3862],[175.16786632370193,-39.619140233400934,51.4491],[175.17000161755814,-39.627712355113545,19.2035],[175.17250826686762,-39.636624885991644,37.8238],[175.17250826686762,-39.64590877232299,52.5302],[175.16751044139255,-39.650891124654152,51.2152],[175.15893831967995,-39.656956597057295,52.5256],[175.15751479044246,-39.665528718769906,23.8666],[175.15680302582373,-39.681249432957664,35.469],[175.15537949658628,-39.69195684852648,50.7428],[175.15001031565797,-39.697310556310896,67.3522],[175.13609995930483,-39.70086937940458,28.0247],[175.1268160729735,-39.704799557951517,17.7819],[175.12432489680791,-39.714083444282863,40.9017],[175.12825507535484,-39.724079095232952,20.4492],[175.13537272154221,-39.727266562873382,19.2479],[175.14145366708925,-39.729061447564114,13.1761],[175.14716325718302,-39.729309017866278,48.7803],[175.15096965057887,-39.730268352787185,183.2643],[175.15477604397472,-39.7335796055787,36.0677],[175.15822655506122,-39.738004924729978,99.3039],[175.15607578806112,-39.741563747823662,66.9152],[175.15607578806112,-39.747629220226806,12.8927],[175.15607578806112,-39.753694692629956,24.8465],[175.15966555744257,-39.759048400414372,16.4019],[175.16365762856506,-39.761647888587149,50.2053],[175.1638123600039,-39.764990087666433,64.4002],[175.16251261591754,-39.767960931292464,21.2864],[175.15822655506122,-39.767960931292464,27.3483],[175.15109343572996,-39.770807989767412,53.6725],[175.14858678642051,-39.775109523767604,95.9181],[175.14358896094546,-39.783681645480215,13.02],[175.14502796332681,-39.79222282090506,14.0741],[175.14620392226212,-39.804013356545873,22.2343],[175.1452600604851,-39.809738419783535,9.276],[175.14371274609653,-39.816979851121985,54.2848],[175.13919458808195,-39.81936271528037,145.8305],[175.13264944821836,-39.819238930129281,92.717],[175.13110213382978,-39.8168560659709,22.2538],[175.12717195528285,-39.814009007495955,49.6352],[175.12432489680791,-39.812956833711738,31.4146],[175.12003883595159,-39.806148650402079,6.6445],[175.11623244255574,-39.803054021624966,48.5518],[175.10755200883594,-39.803301591927131,28.3597],[175.0980205522024,-39.805436885783344,18.6815],[175.09374996449,-39.806334328128706,96.0495],[175.09195507979928,-39.811161949021006,129.4133],[175.09183129464819,-39.815432536733432,13.6448],[175.09111953002946,-39.818774735812717,105.9463],[175.08791658924514,-39.8223335589064,5.6572],[175.08434229300755,-39.825799543136768,28.7317],[175.07898858522316,-39.831493660086664,15.6586],[175.07898858522316,-39.83935401718054,13.362],[175.08112387907937,-39.851484961986834,6.3687],[175.09077912086397,-39.85934531908071,14.0609],[175.09933576943268,-39.860428439152706,0.5],[175.10575712414521,-39.862192377555658,11.1811],[175.10968730269215,-39.86649391155585,12.0901],[175.10968730269215,-39.875406442433949,3.3992],[175.10611300645456,-39.882524088621317,7.6687],[175.103621830289,-39.891467565787181,4.4296],[175.09647323781385,-39.896109508952854,3.521],[175.08576582224504,-39.896821273571589,7.3822],[175.07542976212946,-39.8957381534996,6.9336],[175.06721352272621,-39.902174981356005,0.0],[175.05650610715739,-39.909323573831145,1.4243],[175.05257592861045,-39.921794927802921,0.0],[175.05615022484804,-39.932873698825,8.2937],[175.05186416399172,-39.941074465084355,0.0],[175.03580304063848,-39.949275231343719,5.4047],[175.01760662342906,-39.951781880653179,0.9223],[175.00663616441418,-39.950946330883362,0.0],[175.00645048668753,-39.950791599444507,0.0]]}}