{"type":"Feature","properties":{"featurecla":"River","scalerank":6,"rivernum":2014,"dissolve":"2014River","name":"Manawatu1","name_alt":null,"note":null,"min_zoom":5.0,"strokeweig":0.15,"name_en":"Manawatu","min_label":6.0},
"geometry":{"type": "LineString","coordinates": [[176.12184753682362,-40.018316399361183,837.9554],[176.1373052075653,-40.029023814930007,532.7667],[176.15099893990407,-40.031406679088384,504.7704],[176.16407374648736,-40.038245808685815,456.7696],[176.18787144178339,-40.0418046317795,416.6979],[176.19892139849776,-40.043859018577756,394.2933]]}}