{"type":"Feature","properties":{"featurecla":"River","scalerank":6,"rivernum":2048,"dissolve":"2048River","name":"Whanganui2","name_alt":null,"note":null,"min_zoom":5.0,"strokeweig":0.15,"name_en":"Whanganui","min_label":6.0},
"geometry":{"type": "LineString","coordinates": [[175.59973724269241,-39.006651305834048,592.3947],[175.58725041557676,-39.008786599690254,619.0853],[175.57689888231729,-39.009529310596761,588.3527],[175.56761499598596,-39.009869719762243,543.3848],[175.55690758041715,-39.013428542855927,545.0139],[175.5462001648483,-39.015594782999912,512.7197],[175.53371333773265,-39.012005013618456,517.117],[175.52827700768796,-39.010580010696522,486.343]]}}