{"type":"Feature","properties":{"featurecla":"River","scalerank":9,"rivernum":2036,"dissolve":"2036River","name":"Turakina","name_alt":null,"note":null,"min_zoom":7.1,"strokeweig":0.2,"name_en":"Turakina","min_label":8.1},
"geometry":{"type": "LineString","coordinates": [[175.58013063642045,-39.591769959388948,447.707],[175.57945195105842,-39.595156860378282,465.7634],[175.57694530174896,-39.606235631400359,444.9883],[175.57087982934581,-39.616231282350441,442.7024],[175.5676614154176,-39.627990871703489,427.6429],[175.56623788618015,-39.6365629934161,424.1494],[175.56232318077707,-39.646187288912934,402.7854],[175.55732535530205,-39.657977824553747,369.5866],[175.55375105906447,-39.665838181647622,357.2183],[175.54768558666132,-39.67546247714445,346.1581],[175.53304799254556,-39.682951478785078,351.7365],[175.52234057697675,-39.69294712973516,306.2129],[175.51591922226422,-39.705449429994708,307.4135],[175.51341257295476,-39.720427433275958,276.9405],[175.51341257295476,-39.730794439679293,278.1725],[175.50556768900478,-39.740790090629382,260.5764],[175.50378827745794,-39.747907736816749,252.3285],[175.50450004207667,-39.752921035435676,227.0171],[175.50485592438602,-39.758274743220092,212.1425],[175.50450004207667,-39.765051980241971,225.6718],[175.49985809891098,-39.776130751264049,200.168],[175.49450439112658,-39.792532283782769,214.1922],[175.48737127179533,-39.803239699351593,173.0691],[175.48522050479522,-39.811100056445468,146.9246],[175.4809499170828,-39.811100056445468,152.882],[175.48129032624828,-39.815030234992406,118.8177],[175.48593226941398,-39.818960413539344,133.7842],[175.48737127179533,-39.829667829108168,173.6806],[175.49270950643586,-39.841087009295727,112.8681],[175.49592792036404,-39.852506189483286,119.5602],[175.49343674419848,-39.858571661886437,129.8369],[175.48879480103278,-39.862842249598856,104.4086],[175.48166168170155,-39.866772428145794,96.8473],[175.47522485384513,-39.866432018980312,106.0065],[175.46666820527642,-39.867143783599047,105.9619],[175.46058725972938,-39.864265778836327,105.6729],[175.45667255432633,-39.867143783599047,107.2572],[175.45167472885129,-39.866432018980312,93.7305],[175.4502511996138,-39.86463713428958,126.9037],[175.44560925644814,-39.86321360505211,98.5517],[175.43596948780743,-39.862130484980121,93.8111],[175.42632971916669,-39.86463713428958,97.4217],[175.42026424676357,-39.865348898908316,93.4216],[175.41455465666976,-39.865348898908316,90.5444],[175.41240388966969,-39.869279077455253,90.3114],[175.41313112743231,-39.875344549858404,103.7902],[175.40742153733851,-39.878191608333353,93.3029],[175.3988494156259,-39.878191608333353,85.3767],[175.39064864936654,-39.88212178688029,81.5807],[175.38421182151015,-39.888899023902177,91.800299999999993],[175.37850223141635,-39.891746082377125,75.1256],[175.37601105525079,-39.894624087139839,75.7365],[175.37172499439447,-39.897811554780269,84.2164],[175.36850658046629,-39.901401324161725,81.0469],[175.36244110806314,-39.901401324161725,83.7747],[175.35886681182558,-39.905671911874144,76.0664],[175.35351310404116,-39.908890325802346,65.647],[175.34566822009117,-39.912820504349284,77.6017],[175.33889098306929,-39.917462447514957,63.5932],[175.33817921845053,-39.923527919918108,70.6216],[175.33460492221297,-39.92993380148674,75.6675],[175.32996297904731,-39.93958904327134,56.6326],[175.32640415595361,-39.94992510338691,87.3641],[175.32460927126289,-39.954567046552583,51.379],[175.31854379885974,-39.954938402005837,51.1029],[175.31141067952848,-39.958868580552775,52.8289],[175.30498932481595,-39.960292109790252,51.6696],[175.30212679319715,-39.963510523718455,57.4552],[175.29462231841262,-39.9695759961216,41.2131],[175.29319878917516,-39.97455834845276,36.074],[175.29355467148451,-39.983842234784106,45.559],[175.28892820146274,-39.988484177949779,37.511],[175.28570978753453,-39.993837885734195,30.278],[175.27749354813128,-39.999903358137345,36.3678],[175.27000454649067,-40.004916656756272,29.8734],[175.26571848563435,-40.010982129159416,57.0812],[175.26000889554058,-40.018099775346784,27.4945],[175.25250442075605,-40.018471130800037,26.0634],[175.24465953680607,-40.018471130800037,22.4813],[175.23467935899987,-40.023824838584453,21.0171],[175.2203821740496,-40.029890310987604,16.8383],[175.21038652309952,-40.03094248477182,33.5333],[175.20432105069636,-40.035955783390747,50.8771],[175.19540851981827,-40.044527905103358,11.9508],[175.19005481203385,-40.054523556053446,14.0975],[175.1786356318463,-40.062352966859549,13.3434],[175.17113115706178,-40.063064731478292,8.9272],[175.16077962380234,-40.0627243223128,9.0012],[175.15151121061487,-40.062352966859549,6.4064],[175.14329497121162,-40.057741969981649,6.9339],[175.13902438349922,-40.060217673003343,4.2963],[175.134722849499,-40.058453734600384,3.9453],[175.1261662009303,-40.05808237914713,2.7787],[175.12415469222515,-40.060774706183224,3.262]]}}