{"type":"Feature","properties":{"featurecla":"River","scalerank":6,"rivernum":2031,"dissolve":"2031River","name":"Rangitikei","name_alt":null,"note":null,"min_zoom":5.0,"strokeweig":0.2,"name_en":"Rangitikei","min_label":6.0},
"geometry":{"type": "LineString","coordinates": [[175.92467326428965,-39.708389327332974,408.5012],[175.91918029821028,-39.709781910282672,356.2469],[175.91263515834666,-39.721108251606921,379.2997],[175.9090608621091,-39.737757354427806,359.2011],[175.90253119538937,-39.752023593090314,371.4572],[175.88289577579857,-39.755582416184,301.8857],[175.85970153311411,-39.757965280342376,300.8227],[175.84005064037939,-39.756789321407076,306.5982],[175.82875524534293,-39.765113872817516,335.1245],[175.81269412198969,-39.773438424227962,278.7395],[175.80853184628447,-39.784733819264432,327.6722],[175.8079438668168,-39.800794942617671,326.7509],[175.80020729487404,-39.813297242877219,365.1292],[175.79008785877286,-39.819238930129281,375.155],[175.78474962413233,-39.829358366230451,253.3673],[175.78057187528321,-39.839477802331622,305.6248],[175.77046791232593,-39.843624604892959,235.4308],[175.7466702170299,-39.850185217900446,219.7345],[175.73418338991425,-39.8596857282462,230.2245],[175.72228454226624,-39.871600049038094,204.8247],[175.69907482643785,-39.874570892664124,195.471],[175.68361715569617,-39.878748641513234,225.8293],[175.67646856322102,-39.884690328765295,223.2386],[175.67290974012735,-39.89836858796015,184.6676],[175.65923148093248,-39.9078690983059,174.5926],[175.64792061275213,-39.919195439630144,168.249],[175.64197892550007,-39.932285719357345,175.1831],[175.63899260873015,-39.951905665804269,149.2527],[175.63185948939889,-39.964407966063817,146.211],[175.61996064175088,-39.981645048352355,150.411],[175.59735437853405,-39.992352463921179,133.3993],[175.5836761193392,-40.001852974266924,126.194],[175.57891039102242,-40.014943253994126,123.3668],[175.56642356390677,-40.014943253994126,118.4511],[175.55868699196398,-40.006618702583687,116.3818],[175.54262586861074,-40.010208471965143,111.1369],[175.53371333773265,-40.022679825936919,108.1117],[175.50812075774587,-40.031623303102783,96.2086],[175.49504595116258,-40.046477521232944,93.6599],[175.49266308700419,-40.060774706183224,94.9178],[175.47838137519778,-40.0720701012197,94.6364],[175.4641151365353,-40.080982632097793,83.3339],[175.44922997211737,-40.0863363398822,75.7065],[175.43912600916008,-40.104192347926165,66.9777],[175.44387626433294,-40.114899763494989,73.5013],[175.43674314500169,-40.132755771538953,65.8768],[175.43555171292252,-40.1422562818847,60.8469],[175.43316884876413,-40.157729425770285,51.431399999999996],[175.41949058956928,-40.16425909249,50.8112],[175.40640030984207,-40.175585433814241,49.6601],[175.39807575843162,-40.18567392362764,42.7655],[175.3689243553512,-40.19282251610278,39.1905],[175.35277039313465,-40.204241696290339,32.874],[175.33756029269512,-40.214980058146935,24.4026],[175.3266362531119,-40.229896168852633,21.2288],[175.31889968116911,-40.257840666709996,21.186],[175.30223510520432,-40.2697549875019,14.927],[175.26596605593653,-40.2828452672291,4.2857],[175.23715506202157,-40.285908949718447,1.0433]]}}