{"type":"Feature","properties":{"featurecla":"River","scalerank":6,"rivernum":2014,"dissolve":"2014River","name":"Manawatu","name_alt":null,"note":null,"min_zoom":5.0,"strokeweig":0.2,"name_en":"Manawatu","min_label":6.0},
"geometry":{"type": "LineString","coordinates": [[176.19892139849776,-40.043859018577756,394.2933],[176.22149458344677,-40.048055781909277,360.4446],[176.24259995170672,-40.054306932039047,317.4893],[176.2556902314339,-40.064426368140218,322.171],[176.27085391244179,-40.073648361896026,289.2274],[176.27800250491691,-40.086707695335456,268.0886],[176.28335621270134,-40.097724573781996,271.8901],[176.28781247814038,-40.1081225264731,279.5265],[176.28840045760802,-40.111712295854559,272.0579],[176.28513562424817,-40.114373676602881,272.391],[176.28097334854294,-40.121522269078021,258.4295],[176.27085391244179,-40.124771629293988,243.2882],[176.25776363271459,-40.131641705179192,232.1889],[176.2476596697573,-40.142349120748015,243.0111],[176.23486337976391,-40.147702828532424,240.7893],[176.22595084888582,-40.149776229813092,218.1333],[176.22743627069883,-40.151261651626108,217.6443],[176.22386197446127,-40.157203338878169,230.2575],[176.21612540251849,-40.164939910820962,227.3779],[176.21225711654708,-40.168220217324709,213.1812],[176.2101837152664,-40.174161904576771,226.1308],[176.20928627292105,-40.182207939397273,225.0108],[176.2060214395612,-40.185178783023304,219.4625],[176.20691888190655,-40.191398986865309,217.0451],[176.20422655487047,-40.1940913139014,209.12],[176.2060214395612,-40.196752694649717,198.3599],[176.20780085110803,-40.199445021685811,209.0258],[176.20809484084185,-40.203622770534921,203.1844],[176.21078716787795,-40.205108192347936,193.3141],[176.21286056915864,-40.205696171815589,191.7675],[176.21553742305082,-40.207769573096257,189.4359],[176.21940570902223,-40.210740416722288,193.194],[176.22089113083524,-40.213432743758375,185.8157],[176.21999368848986,-40.21581560791676,186.8654],[176.21999368848986,-40.219374431010444,191.8867],[176.21344854862627,-40.222035811758758,214.8207],[176.2083888305757,-40.222345274636474,213.1436],[176.2083888305757,-40.225904097730158,196.6375],[176.20571197668349,-40.226213560607867,208.206],[176.20184369071208,-40.226523023485576,204.8304],[176.1997702894314,-40.2291844042339,197.387],[176.19679944580537,-40.2291844042339,174.8214],[176.19144573802097,-40.2280084452986,171.8853],[176.18787144178339,-40.228596424766245,176.357],[176.18339970320048,-40.23395013255066,183.4073],[176.17864944802761,-40.23395013255066,186.7417],[176.16883947480414,-40.234259595428369,166.8219],[176.16586863117811,-40.231876731269992,180.8649],[176.16200034520671,-40.230081846579267,179.2833],[176.15338180406243,-40.230669826046913,166.4043],[176.14474778977427,-40.234259595428369,160.0109],[176.13880610252221,-40.237508955644344,154.4357],[176.13404037420545,-40.238406397989706,165.2159],[176.12423040098201,-40.239891819802722,156.245],[176.11114012125481,-40.239582356925013,152.604],[176.10012324280825,-40.241686704493453,157.3854],[176.0968584094484,-40.245554990464846,154.9068],[176.09299012347702,-40.249701793026183,155.5812],[176.08734242595878,-40.254467521342939,155.3631],[176.08198871817436,-40.258335807314339,149.3232],[176.07247273468474,-40.260409208595007,144.5414],[176.05938245495753,-40.262792072753385,140.1818],[176.04807158677716,-40.263689515098747,138.9056],[176.04095394058982,-40.269940665228525,134.4234],[176.0367761917407,-40.277089257703665,134.3365],[176.0379676238199,-40.280338617919632,133.1655],[176.04510074315112,-40.282133502610364,130.6965],[176.04510074315112,-40.286899230927119,127.1656],[176.04123245717975,-40.288384652740135,126.0195],[176.0379676238199,-40.293119434769125,125.1577],[176.03708565461841,-40.298504088841305,119.9055],[176.03529076992768,-40.309490021000073,120.1857],[176.02487734409269,-40.317814572410512,117.6221],[176.01000765281864,-40.322580300727275,113.4412],[175.99752082570296,-40.330626335547777,108.8249],[175.98651942040033,-40.334185158641461,108.2485],[175.97609052142144,-40.344304594742631,105.4417],[175.96717799054335,-40.346965975490953,105.3202],[175.96420714691732,-40.3552905269014,105.5419],[175.95527914289534,-40.36869026950631,99.4854],[175.94220433631202,-40.374941419636087,99.8943],[175.93237888994466,-40.38354448763647,90.067],[175.9195825999513,-40.385339372327195,88.6793],[175.907993215181,-40.391899985334682,84.6141],[175.89228797413713,-40.38540126490274,82.2257],[175.88247800091366,-40.384813285435087,77.3347],[175.87116713273332,-40.38868157140648,76.2647],[175.86344603393439,-40.387474666183408,77.1227],[175.85242915548787,-40.381842441809056,78.9296],[175.84469258354508,-40.376179271146931,73.4735],[175.83755946421383,-40.375003312211625,71.2856],[175.82624859603345,-40.369618658139444,74.0091],[175.81940946643604,-40.36636929792347,67.5238],[175.81346777918395,-40.363676970887383,68.7683],[175.81049693555792,-40.356559324700015,70.1351],[175.81465921126318,-40.352969555318559,65.2409],[175.81999744590368,-40.349998711692528,69.0382],[175.82120435112677,-40.342571602627444,65.3508],[175.81882148696837,-40.337496411432973,112.1778],[175.81823350750074,-40.330069302367896,119.6582],[175.81643862281,-40.322642193302819,81.3769],[175.81018747268024,-40.317288485518404,161.2419],[175.80008350972292,-40.318185927863766,108.5659],[175.7905675262333,-40.315215084237735,184.5811],[175.77153555925403,-40.306859586539524,70.2987],[175.76557839885808,-40.302712783978187,50.2516],[175.75844527952682,-40.304507668668911,62.8605],[175.74891382289331,-40.309861376453327,49.0458],[175.73672098551148,-40.322054213835166,46.245],[175.71948390322294,-40.327407921619574,47.7525],[175.71323275309317,-40.325922499806559,45.237],[175.70639362349573,-40.327407921619574,44.0751],[175.70432022221507,-40.330688228123321,44.5529],[175.69686216686222,-40.336629915375383,41.0878],[175.68675820390493,-40.341674160282082,39.8777],[175.68111050638669,-40.346439888598844,35.728],[175.67368339732161,-40.35417646054163,39.4565],[175.66622534196875,-40.355661882354653,35.2437],[175.66356396122046,-40.355661882354653,29.0],[175.65553339954383,-40.35594039894459,35.5852],[175.64957623914788,-40.360706127261352,31.4084],[175.64273710955047,-40.368442699204138,33.3128],[175.62786741827642,-40.3732084275209,25.3151],[175.61477713854921,-40.3732084275209,24.3033],[175.60258430116738,-40.376179271146931,21.3307],[175.59783404599449,-40.382120958398993,22.2424],[175.58742062015949,-40.387474666183408,18.4715],[175.58355233418808,-40.391652415032517,20.9241],[175.57759517379216,-40.393447299723242,18.0802],[175.5665937684895,-40.396418143349273,20.1003],[175.55738724787759,-40.398770061219885,15.7568],[175.55320949902847,-40.402947810068987,20.0475],[175.54875323358942,-40.407404075508033,17.8454],[175.53863379748827,-40.411860340947086,16.5404],[175.52792638191943,-40.414243205105464,10.7217],[175.51246871117775,-40.421670314170541,12.4706],[175.50056986352973,-40.430025811868759,18.6419],[175.49461270313378,-40.434760593897749,14.9811],[175.48450874017649,-40.433584634962443,11.5623],[175.47677216823371,-40.430613791336413,10.0229],[175.46874160655707,-40.430304328458696,10.8296],[175.46041705514665,-40.435070056775459,7.4993],[175.45179851400238,-40.435967499120821,9.5],[175.43988419321047,-40.437143458056127,7.7454],[175.42800081870635,-40.437762383811553,9.1008],[175.419660794152,-40.444292050531267,8.1637],[175.41223368508693,-40.451131180128691,8.9729],[175.39974685797128,-40.463014554632821,7.0813],[175.39439315018686,-40.472546011266338,8.5086],[175.38902396925857,-40.4734434536117,6.2643],[175.37831655368973,-40.477002276705385,6.2429],[175.36850658046629,-40.480870562676785,6.3351],[175.36940402281164,-40.485326828115831,7.5892],[175.37327230878304,-40.485326828115831,6.1627],[175.37743458448827,-40.484150869180525,4.2682],[175.3815968601935,-40.484150869180525,7.1491],[175.38486169355335,-40.486812249928846,6.6683],[175.39201028602849,-40.492475420590971,5.0396],[175.39853995274819,-40.495446264217,6.5012],[175.40151079637423,-40.500521455411473,6.0156],[175.4012322797843,-40.509712502879509,5.5618],[175.40211424898575,-40.517170558232358,4.8963],[175.39736399381289,-40.5254951096428,4.8202],[175.39170082315076,-40.52698053145582,4.2372],[175.38247882939496,-40.532024776362519,5.6877],[175.37594916267525,-40.534717103398606,3.0871],[175.36880057020011,-40.539761348305305,4.6829],[175.36196144060267,-40.541834749585973,3.114],[175.35422486865988,-40.54214421246369,2.0864],[175.35154801476767,-40.539173368837652,2.1491],[175.34828318140782,-40.538863905959943,2.0406],[175.34054660946504,-40.538585389370006,2.6013],[175.33816374530664,-40.543351117686761,2.7754],[175.33341349013378,-40.543041654809052,2.6593],[175.32894175155084,-40.54214421246369,2.1769],[175.32241208483111,-40.543629634276705,2.3052],[175.31883778859356,-40.54124677011832,1.9931],[175.3128806281976,-40.539451885427596,1.4956],[175.30455607678715,-40.536202525211621,1.3562],[175.29592206249902,-40.532024776362519,1.3544],[175.28759751108856,-40.52311224548442,1.7715],[175.27481669423906,-40.5112288709803,0.3886],[175.26113843504422,-40.50881506053414,0.6439],[175.256976159339,-40.505256237440456,0.9978],[175.25727014907284,-40.501109434879126,0.4444],[175.25429930544681,-40.495755727094711,1.2791],[175.246562733504,-40.49278488346868,0.6331],[175.236149307669,-40.492475420590971,0.7808],[175.23554585505747,-40.488607134619571,1.1259],[175.237634729482,-40.485326828115831,0.4802],[175.23823818209357,-40.481458542144431,7.4624],[175.23792871921586,-40.479106624273825,1.1203],[175.23554585505747,-40.475516854892369,0.3129],[175.22811874599239,-40.471958031798685,0.0],[175.227221303647,-40.468987188172655,0.9332],[175.22097015351724,-40.465118902201262,4.8591]]}}