{"type":"Feature","properties":{"featurecla":"River","scalerank":9,"rivernum":2022,"dissolve":"2022River","name":"Ngaruroro2","name_alt":null,"note":null,"min_zoom":7.1,"strokeweig":0.15,"name_en":"Ngaruroro","min_label":8.1},
"geometry":{"type": "LineString","coordinates": [[176.1435563576951,-39.130157940328765,971.3594],[176.14564523211965,-39.13405717258793,969.3564],[176.15189638224942,-39.137028016213961,964.5166],[176.15919970616341,-39.137770727120468,959.4235],[176.1862777079632,-39.144640803005665,1111.7251],[176.19082619892453,-39.186339842896842,972.2703]]}}