{"type":"Feature","properties":{"featurecla":"River","scalerank":9,"rivernum":2047,"dissolve":"2047River","name":"Whangaehu1","name_alt":null,"note":null,"min_zoom":7.1,"strokeweig":0.15,"name_en":"Whangaehu","min_label":8.1},
"geometry":{"type": "LineString","coordinates": [[175.63006460470817,-39.281949481846326,1488.2986],[175.65325884739264,-39.290274033256765,1317.0476],[175.67290974012735,-39.297422625731905,1205.244],[175.685396567243,-39.299805489890289,1159.054],[175.69748482463007,-39.302950624730819,1109.1958]]}}