{"type":"Feature","properties":{"featurecla":"River","scalerank":9,"rivernum":2036,"dissolve":"2036River","name":"Turakina1","name_alt":null,"note":null,"min_zoom":7.1,"strokeweig":0.15,"name_en":"Turakina","min_label":8.1},
"geometry":{"type": "LineString","coordinates": [[175.61977496402426,-39.523763774490206,804.7672],[175.6051373699085,-39.523423365324724,774.0162],[175.59658072133976,-39.525930014634184,678.4316],[175.59515719210231,-39.53447119005903,651.9177],[175.58909171969913,-39.543414667224894,591.4378],[175.57802842182093,-39.5544624919592,504.6231],[175.57802842182093,-39.56767655683749,489.7943],[175.58267036498663,-39.57909573702505,471.5673],[175.58013063642045,-39.591769959388948,447.707]]}}