{"type":"Feature","properties":{"featurecla":"River","scalerank":6,"rivernum":2031,"dissolve":"2031River","name":"Rangitikei1","name_alt":null,"note":null,"min_zoom":5.0,"strokeweig":0.2,"name_en":"Rangitikei","min_label":6.0},
"geometry":{"type": "LineString","coordinates": [[176.00463345516164,-39.140482953450693,1048.5109],[175.99829448289725,-39.153584280171536,1238.2521],[175.98936647887527,-39.169057424057115,982.8751],[175.9899699314868,-39.186913432101079,1006.2966],[175.99769103028572,-39.205945399080342,997.0047],[175.99235279564519,-39.22021163774285,893.6642],[175.97986596852951,-39.236860740563735,920.9684],[175.97986596852951,-39.252333884449321,903.787],[175.9846162237024,-39.268982987270206,883.1807],[176.00186877913481,-39.285663036378864,856.2112],[176.0226956308048,-39.308841805919464,822.1747],[176.03219614115056,-39.321932085646672,900.0191],[176.03219614115056,-39.340376073158282,893.8363],[176.02922529752453,-39.356437196511514,757.4489],[176.02209217819328,-39.36893949677107,720.3391],[176.01435560625049,-39.387971463750333,697.6153],[176.00841391899843,-39.41356404373709,678.1302],[176.011988215236,-39.433183990184006,737.6263],[176.02447504235164,-39.44686224937886,638.8505],[176.04231557725171,-39.460540508573715,598.3575],[176.04350700933094,-39.468865059984161,629.8438],[176.037549848935,-39.483750224402087,564.744],[176.03102018221526,-39.500399327222972,553.419],[176.02863731805687,-39.51763640951151,585.4711],[176.03399102584129,-39.53369753286475,640.1129],[176.03934473362568,-39.552760446131785,591.2239],[176.04231557725171,-39.565231800103568,529.3774],[176.04946416972686,-39.583087808147525,583.7159],[176.0470813055685,-39.6074734829112,539.7441],[176.04411046194247,-39.63306606289796,645.884],[176.04350700933094,-39.646156342625162,496.5458],[176.04290355671938,-39.658627696596938,473.2448],[176.03399102584129,-39.669335112165761,456.1328],[176.011988215236,-39.6764837046409,483.1734],[175.99651507135042,-39.685984214986647,504.0982],[175.97627619914806,-39.695515671620164,416.587],[175.95427338854276,-39.705016181965917,460.6591],[175.94000714988027,-39.704428202498264,451.1152],[175.92467326428965,-39.708389327332974,408.5012]]}}