{"type":"Feature","properties":{"GID_1":"NZL.3_1","GID_0":"NZL","country":"NewZealand","province":"Canterbury","VARNAME_1":"NA","NL_NAME_1":"NA","TYPE_1":"Region","ENGTYPE_1":"Region","CC_1":"13","HASC_1":"NZ.CA","ISO_1":"NZ-CAN","name":"Canterbury.province"},
"geometry":{"type": "MultiPolygon","coordinates": [[[[172.6926,-43.6254,38.3863],[172.6915,-43.6227,0.0],[172.6852,-43.6254,10.7064],[172.683,-43.6273,13.6402],[172.6833,-43.6301,6.2777],[172.6892,-43.6333,2.9111],[172.6915,-43.6328,0.0],[172.6905,-43.631,24.6598],[172.6916,-43.6302,12.0358],[172.6968,-43.6317,0.0],[172.6999,-43.6304,5.0879],[172.7,-43.6277,0.0],[172.6926,-43.6254,38.3863]]],
[[[170.8683,-45.3971,0.9841],[170.8676,-45.3969,0.0],[170.8682,-45.3979,0.9841],[170.8687,-45.3975,0.9841],[170.8683,-45.3971,0.9841]]],
[[[173.0172,-43.8795,0.0],[173.0171,-43.8795,0.0],[173.017,-43.8796,17.3565],[173.0173,-43.8796,17.3565],[173.0172,-43.8795,0.0]]],
[[[171.5067,-44.1894,1.0168],[171.5197,-44.1805,6.6402],[171.5377,-44.1727,5.4661],[171.5775,-44.1507,3.163],[171.6401,-44.1199,1.2595],[171.7903,-44.06,0.0],[171.8083,-44.0511,7.9304],[171.8241,-44.0455,4.2837],[172.029,-43.9579,16.8175],[172.1317,-43.9217,1.9692],[172.1865,-43.9055,6.3373],[172.2169,-43.8992,0.8675],[172.2911,-43.8738,1.3721],[172.3166,-43.8671,2.1871],[172.3534,-43.8597,2.9089],[172.3527,-43.8611,2.9089],[172.4219,-43.8508,5.1612],[172.495,-43.8446,0.0],[172.5876,-43.8333,2.8328],[172.6929,-43.8272,6.1784],[172.7163,-43.8275,11.9807],[172.7228,-43.8301,8.4475],[172.7292,-43.827,19.1796],[172.7296,-43.8297,43.1992],[172.7274,-43.8318,8.5192],[172.7306,-43.8329,43.2621],[172.7324,-43.8356,4.7869],[172.7375,-43.8332,10.3762],[172.7385,-43.8313,3.8391],[172.7405,-43.832,97.6154],[172.7386,-43.8367,5.4227],[172.7433,-43.8371,11.493],[172.7429,-43.8394,18.6021],[172.7396,-43.8413,3.7066],[172.7413,-43.8462,27.322],[172.7451,-43.8483,50.0214],[172.7451,-43.8538,10.755],[172.7466,-43.8531,43.6819],[172.7493,-43.8547,0.0],[172.7524,-43.8535,5.2153],[172.7527,-43.8511,13.5508],[172.7564,-43.8477,31.4836],[172.7559,-43.8517,2.929],[172.7592,-43.8518,72.6076],[172.7645,-43.857,0.0],[172.7681,-43.8561,7.5252],[172.77,-43.8525,12.4328],[172.7716,-43.8568,44.0675],[172.7679,-43.8598,0.0],[172.7717,-43.86,2.9731],[172.7758,-43.8576,0.0],[172.7821,-43.8504,15.7142],[172.7854,-43.8505,0.421],[172.7816,-43.8606,44.3884],[172.7787,-43.8629,15.9234],[172.7785,-43.8658,35.2791],[172.7822,-43.8659,22.6298],[172.7821,-43.8681,1.7524],[172.79,-43.8653,58.8959],[172.7943,-43.867,0.2528],[172.7981,-43.8636,5.9643],[172.803,-43.8623,11.2811],[172.8005,-43.8719,9.5484],[172.8051,-43.8721,81.3778],[172.8066,-43.8737,0.8644],[172.8072,-43.8716,37.5605],[172.8113,-43.8714,0.0],[172.8175,-43.8684,22.9699],[172.8223,-43.8592,13.2802],[172.8217,-43.8608,2.6593],[172.8252,-43.8618,24.5384],[172.8242,-43.8691,7.4212],[172.8218,-43.8728,8.2968],[172.8123,-43.88,0.7082],[172.8163,-43.8782,24.437],[172.8217,-43.8789,11.5625],[172.8253,-43.8768,36.2028],[172.8241,-43.8795,0.0],[172.8252,-43.8805,17.4043],[172.8402,-43.8756,19.2396],[172.8293,-43.8834,60.1482],[172.8258,-43.8869,12.7871],[172.8266,-43.8885,2.2513],[172.832,-43.887,71.7463],[172.8366,-43.8898,5.9195],[172.8478,-43.8896,0.0],[172.8528,-43.8806,86.5448],[172.8571,-43.8765,2.9841],[172.8578,-43.8884,16.7808],[172.8623,-43.8895,91.5409],[172.8639,-43.892,0.0],[172.8658,-43.8889,48.6167],[172.8711,-43.8859,11.033],[172.8683,-43.8945,7.227],[172.8715,-43.8933,30.697],[172.8733,-43.8957,10.9325],[172.8811,-43.8953,17.4945],[172.8833,-43.898,4.7824],[172.8915,-43.8918,9.7638],[172.8988,-43.8923,55.5415],[172.9028,-43.8944,19.6738],[172.9041,-43.8903,34.3007],[172.9062,-43.8917,0.301],[172.9082,-43.8902,14.7311],[172.9203,-43.8966,33.2224],[172.9204,-43.8981,0.2182],[172.9228,-43.8963,32.514],[172.9304,-43.9017,2.0619],[172.9394,-43.8985,57.4986],[172.9435,-43.899,23.6073],[172.9455,-43.8968,32.6718],[172.949,-43.8971,50.7143],[172.9493,-43.8954,102.6352],[172.945,-43.8904,62.3579],[172.9423,-43.8825,0.0],[172.9336,-43.8781,49.6676],[172.927,-43.8778,39.0998],[172.9259,-43.8743,0.0],[172.9229,-43.8736,66.7998],[172.9223,-43.8706,8.904],[172.9186,-43.8706,17.5772],[172.9187,-43.8654,10.39],[172.9124,-43.8626,57.008],[172.914,-43.86,21.8214],[172.9091,-43.8574,6.5543],[172.9157,-43.8507,0.0],[172.9121,-43.8463,43.9845],[172.9103,-43.8398,34.0743],[172.9072,-43.8378,0.0],[172.9066,-43.831,66.7134],[172.9094,-43.8288,0.0],[172.9046,-43.8272,31.7162],[172.9032,-43.8226,3.1345],[172.9044,-43.8149,3.8456],[172.9082,-43.8126,28.712],[172.9118,-43.8132,0.0],[172.9155,-43.8103,7.2469],[172.9185,-43.8102,3.6327],[172.9198,-43.8082,0.0],[172.9188,-43.8066,12.102],[172.9218,-43.8021,2.5415],[172.9193,-43.8011,11.2301],[172.9168,-43.7961,45.5254],[172.9219,-43.7984,0.0],[172.9252,-43.7961,53.5826],[172.9242,-43.7901,20.2869],[172.9167,-43.7879,3.6256],[172.9217,-43.7845,0.0],[172.9148,-43.7808,0.0],[172.9102,-43.7817,18.2308],[172.9073,-43.7801,0.6761],[172.9138,-43.7733,4.3412],[172.9138,-43.77,15.6217],[172.9162,-43.7675,0.0],[172.9103,-43.7622,7.0105],[172.9126,-43.7616,0.5813],[172.9145,-43.7583,3.693],[172.9223,-43.7593,3.7991],[172.9223,-43.761,2.5798],[172.9267,-43.7635,1.5678],[172.9276,-43.7656,0.0],[172.9235,-43.7745,13.0503],[172.9278,-43.7766,0.0],[172.9289,-43.7735,13.4741],[172.9263,-43.752,0.4235],[172.9327,-43.7505,2.913],[172.9407,-43.7526,20.5143],[172.9436,-43.7557,4.4599],[172.9412,-43.7595,0.0],[172.9426,-43.7636,18.5382],[172.9473,-43.7628,50.2142],[172.9497,-43.7644,4.3194],[172.9508,-43.7628,32.7746],[172.9594,-43.7619,7.3951],[172.9629,-43.7649,12.7247],[172.9605,-43.7697,16.7306],[172.9487,-43.7744,0.0],[172.9533,-43.7737,8.7011],[172.9657,-43.7792,23.2418],[172.9672,-43.7813,1.2187],[172.9662,-43.7842,0.0],[172.9636,-43.7856,8.9163],[172.9468,-43.7841,0.0],[172.9425,-43.7877,34.8269],[172.9456,-43.7891,27.2059],[172.9434,-43.7933,5.3506],[172.9472,-43.7952,8.8612],[172.9484,-43.7979,29.2023],[172.9473,-43.7987,0.0],[172.949,-43.8002,5.2284],[172.9531,-43.7995,62.7426],[172.9582,-43.801,37.3677],[172.9596,-43.7987,27.4854],[172.9641,-43.7975,20.9448],[172.9675,-43.7995,13.3966],[172.9661,-43.7996,0.0],[172.9669,-43.8025,0.9234],[172.9646,-43.8071,0.0],[172.9583,-43.8119,5.3975],[172.9483,-43.8151,4.9427],[172.9487,-43.8177,5.2854],[172.9451,-43.8195,3.0358],[172.9433,-43.8284,20.5057],[172.9458,-43.8363,15.6659],[172.9423,-43.8386,39.684],[172.9408,-43.842,1.5204],[172.9406,-43.8522,27.1427],[172.9389,-43.8537,3.534],[172.9395,-43.8552,0.0],[172.9425,-43.8559,67.2434],[172.9423,-43.8606,55.6586],[172.945,-43.8641,53.8929],[172.9471,-43.8637,127.7902],[172.9487,-43.8679,53.398],[172.953,-43.8663,83.0146],[172.9552,-43.8693,27.2889],[172.9585,-43.8682,77.5937],[172.9598,-43.8704,0.0],[172.9683,-43.8741,12.6577],[172.9696,-43.8769,143.6785],[172.9686,-43.8869,0.0],[172.9757,-43.887,108.1394],[172.979,-43.8905,0.0],[172.9813,-43.8857,50.8559],[172.9832,-43.8894,0.0162],[172.9837,-43.8859,113.0939],[172.9886,-43.8866,3.0733],[172.9893,-43.8793,110.9671],[172.9932,-43.8716,62.5863],[172.9951,-43.8731,0.0],[172.9956,-43.8812,94.5164],[172.997,-43.8821,66.7014],[172.9958,-43.8871,30.5805],[173.0026,-43.8867,42.968],[173.0058,-43.8834,27.5076],[173.0116,-43.8833,14.3665],[173.0174,-43.8804,17.3565],[173.0056,-43.8735,38.8978],[173.0035,-43.8709,79.1092],[173.0042,-43.8684,0.0],[173.0076,-43.8684,2.3323],[173.0115,-43.8722,7.0186],[173.0218,-43.8759,34.8877],[173.024,-43.873,12.8421],[173.0269,-43.8742,52.6998],[173.0323,-43.8719,70.9795],[173.0374,-43.8727,16.2751],[173.0364,-43.8698,66.8596],[173.0385,-43.8698,18.1751],[173.0384,-43.8677,117.4419],[173.046,-43.8599,32.769],[173.04,-43.8569,22.0822],[173.0404,-43.8547,1.0398],[173.0509,-43.8568,8.2243],[173.0532,-43.854,90.4469],[173.0551,-43.8563,0.0],[173.0565,-43.8539,88.4014],[173.0584,-43.8539,0.0],[173.0533,-43.8482,1.9992],[173.0582,-43.8489,63.3106],[173.0608,-43.851,35.549],[173.0628,-43.8504,10.4937],[173.0607,-43.8483,53.0824],[173.0621,-43.846,3.7864],[173.0553,-43.8386,12.5901],[173.0573,-43.8376,49.669],[173.0667,-43.8421,31.6392],[173.0677,-43.8451,20.8775],[173.0737,-43.851,102.9212],[173.0767,-43.851,88.7316],[173.0785,-43.853,0.3036],[173.0793,-43.8495,112.3203],[173.0837,-43.8461,32.5731],[173.0849,-43.8415,7.287],[173.0834,-43.8369,4.4175],[173.0812,-43.8359,41.4058],[173.0837,-43.8359,21.9631],[173.0852,-43.8325,15.4756],[173.0875,-43.8359,25.7247],[173.0905,-43.8352,5.9753],[173.0889,-43.832,65.0471],[173.098,-43.8317,13.4826],[173.1026,-43.8333,0.0],[173.094,-43.8222,10.7643],[173.0991,-43.8208,73.4286],[173.1022,-43.8224,3.3538],[173.1027,-43.8193,27.3899],[173.1065,-43.8161,78.4655],[173.0966,-43.8111,0.0],[173.0961,-43.8076,3.4643],[173.1031,-43.8035,66.6173],[173.1089,-43.803,0.0],[173.1132,-43.7991,16.035],[173.1106,-43.796,77.0075],[173.11,-43.7904,136.6904],[173.1117,-43.7875,20.8986],[173.1069,-43.7838,75.5871],[173.1058,-43.7798,49.1407],[173.1085,-43.7746,3.4024],[173.112,-43.774,28.6597],[173.1273,-43.7765,0.1363],[173.1243,-43.773,141.5706],[173.1251,-43.7677,134.7011],[173.1285,-43.7664,0.0],[173.1302,-43.7638,27.753],[173.1287,-43.7605,79.548],[173.1296,-43.7566,20.0356],[173.1265,-43.7507,70.0729],[173.1294,-43.747,0.8131],[173.1253,-43.7415,90.7177],[173.124,-43.7381,109.4663],[173.125,-43.7368,69.4158],[173.1053,-43.7386,20.037],[173.1016,-43.7436,56.0294],[173.0982,-43.7454,8.96],[173.0925,-43.7394,15.5695],[173.0956,-43.7374,30.084],[173.0946,-43.7351,13.8258],[173.0965,-43.7345,0.0],[173.095,-43.7328,54.9516],[173.1038,-43.7298,2.0775],[173.106,-43.7311,16.4214],[173.1089,-43.7303,0.0],[173.1096,-43.7286,27.598],[173.1171,-43.7289,0.0],[173.1165,-43.7278,134.0715],[173.1183,-43.7271,2.9796],[173.117,-43.7235,1.6933],[173.1104,-43.7191,13.1333],[173.1077,-43.7188,8.0481],[173.1021,-43.7214,43.3487],[173.0988,-43.72,2.6471],[173.1072,-43.7136,20.7647],[173.1095,-43.7101,0.2253],[173.1094,-43.7087,1.148],[173.1053,-43.7082,17.8767],[173.1074,-43.7005,14.3547],[173.1025,-43.7018,67.7512],[173.101,-43.7009,2.6591],[173.103,-43.6978,1.9312],[173.1023,-43.6958,30.958],[173.0952,-43.6928,14.0295],[173.0923,-43.6899,5.2852],[173.0897,-43.6898,97.9299],[173.0868,-43.6829,0.0],[173.0833,-43.6919,36.7988],[173.0763,-43.6992,3.2404],[173.0755,-43.6969,15.4198],[173.0719,-43.6981,24.542],[173.0708,-43.6958,12.1779],[173.0638,-43.697,15.8195],[173.0564,-43.6917,10.7902],[173.0653,-43.6874,78.3524],[173.0642,-43.6868,78.3524],[173.065,-43.6809,46.0683],[173.0637,-43.6782,31.5393],[173.072,-43.6773,18.2458],[173.0731,-43.6753,53.7269],[173.0608,-43.6716,75.4802],[173.0539,-43.674,1.621],[173.0515,-43.6728,31.8888],[173.0543,-43.6682,13.105],[173.0495,-43.6662,3.7285],[173.05,-43.6653,3.7285],[173.0484,-43.6659,39.4735],[173.0499,-43.6641,0.0],[173.0437,-43.6638,6.2298],[173.0391,-43.6659,5.2485],[173.0373,-43.6621,5.9127],[173.0348,-43.6623,14.2221],[173.0347,-43.6601,3.5991],[173.0379,-43.6596,0.0],[173.0396,-43.6578,2.4811],[173.0386,-43.6574,67.0237],[173.0407,-43.6568,2.4811],[173.0401,-43.6552,36.166],[173.0473,-43.6537,0.0],[173.0472,-43.6514,0.5253],[173.0378,-43.6509,2.0452],[173.0296,-43.6557,21.5653],[173.0236,-43.6517,56.9414],[173.0201,-43.654,0.0],[173.003,-43.6737,5.3084],[172.9934,-43.6756,11.6581],[172.9915,-43.6734,1.669],[172.9993,-43.667,0.0],[173.0076,-43.654,16.7524],[173.0052,-43.6526,1.8299],[173.0012,-43.6572,22.7438],[172.99,-43.6597,30.0607],[172.9896,-43.6583,0.0],[172.9973,-43.6504,51.987],[172.9992,-43.6449,0.0],[172.9935,-43.6416,59.3759],[172.9872,-43.6399,17.7517],[172.9843,-43.6406,10.7965],[172.9825,-43.6346,11.4347],[172.9781,-43.6332,47.4156],[172.9708,-43.6383,5.3293],[172.9679,-43.6439,2.289],[172.9608,-43.6483,31.3809],[172.9594,-43.6461,50.6177],[172.9626,-43.6411,0.0],[172.9614,-43.6377,0.0],[172.9592,-43.6364,108.6298],[172.9604,-43.6341,0.0],[172.955,-43.6384,26.6422],[172.9536,-43.6382,14.932],[172.9529,-43.6356,2.3245],[172.9469,-43.6388,2.3965],[172.9458,-43.6373,28.2597],[172.9468,-43.6309,10.711],[172.9444,-43.6297,42.7953],[172.9428,-43.6327,25.5097],[172.9415,-43.6325,38.6566],[172.9339,-43.6261,8.4127],[172.935,-43.624,10.0938],[172.932,-43.6229,0.0],[172.9272,-43.6307,15.968],[172.9242,-43.6318,0.0],[172.9256,-43.6372,81.2729],[172.9214,-43.6378,0.0],[172.9163,-43.6431,0.0],[172.9143,-43.6485,0.0],[172.9146,-43.6568,3.5973],[172.9091,-43.6627,22.2272],[172.906,-43.6673,0.0],[172.9061,-43.6704,0.0],[172.9007,-43.6768,0.0],[172.9015,-43.681399999999996,17.5698],[172.8998,-43.684,3.0071],[172.9008,-43.6848,15.9825],[172.8949,-43.689,2.096],[172.891,-43.6858,0.0],[172.8914,-43.6756,0.0],[172.8866,-43.676,0.0],[172.8848,-43.6718,1.6488],[172.8907,-43.6686,0.0],[172.8959,-43.6626,12.9257],[172.8994,-43.6552,0.0],[172.897,-43.648,10.1599],[172.9075,-43.6331,0.0],[172.9075,-43.6278,24.0884],[172.9114,-43.624,0.3902],[172.9075,-43.6247,45.6629],[172.9036,-43.6325,7.1169],[172.9016,-43.6227,20.6076],[172.9037,-43.6203,6.5188],[172.9034,-43.6183,9.8221],[172.9005,-43.6171,12.8495],[172.8963,-43.6199,43.9916],[172.8965,-43.617,31.4772],[172.8929,-43.6136,2.797],[172.8868,-43.6171,15.151],[172.8827,-43.6246,67.2252],[172.8808,-43.6246,21.0077],[172.8794,-43.618899999999996,18.3444],[172.8725,-43.62,26.3481],[172.878,-43.6139,54.1927],[172.8794,-43.6091,22.781],[172.8735,-43.6086,18.3623],[172.8663,-43.6132,28.8769],[172.8656,-43.6074,11.2509],[172.8623,-43.607,6.9594],[172.8601,-43.6098,20.309],[172.8585,-43.6055,35.2571],[172.8605,-43.6026,0.1153],[172.8533,-43.6037,0.0],[172.8531,-43.6065,20.5029],[172.8494,-43.6083,23.552],[172.8506,-43.6097,36.0989],[172.8452,-43.6162,0.0],[172.8459,-43.6239,63.0884],[172.84,-43.629,11.6105],[172.8389,-43.6343,3.2999],[172.8342,-43.6363,0.0],[172.8343,-43.6404,0.0],[172.8386,-43.6453,11.5984],[172.8358,-43.6488,0.6851],[172.8363,-43.6516,5.5762],[172.8341,-43.6533,12.753],[172.8277,-43.6541,0.0],[172.8219,-43.6633,11.9177],[172.8187,-43.6608,0.0],[172.8158,-43.6623,1.8656],[172.8123,-43.6617,2.1906],[172.8109,-43.6586,0.0],[172.8189,-43.6536,9.6073],[172.8202,-43.6442,38.4261],[172.8234,-43.6411,4.7201],[172.8238,-43.6374,0.0],[172.8222,-43.638,18.2151],[172.821,-43.6366,0.0],[172.826,-43.6293,17.0174],[172.8249,-43.6265,5.0932],[172.827,-43.6222,10.6231],[172.8266,-43.6195,88.557],[172.8291,-43.6161,0.0],[172.8305,-43.6075,38.0535],[172.8289,-43.605,7.0666],[172.8254,-43.6041,16.9807],[172.8185,-43.6073,0.0],[172.8199,-43.6134,0.0],[172.8155,-43.6173,4.5197],[172.8141,-43.6168,26.4321],[172.8137,-43.6141,3.3116],[172.8044,-43.6116,42.8652],[172.7896,-43.6151,0.0],[172.7889,-43.6193,33.7929],[172.7819,-43.6227,3.2292],[172.7795,-43.6224,3.2003],[172.7795,-43.6194,0.0],[172.775,-43.6157,2.5377],[172.7679,-43.6193,24.0768],[172.7634,-43.6185,6.498],[172.7643,-43.6206,2.3463],[172.7615,-43.6229,3.3189],[172.7591,-43.6227,0.0],[172.7579,-43.6206,3.5669],[172.7547,-43.6212,1.0786],[172.7506,-43.6262,0.0],[172.7565,-43.628,0.0],[172.7549,-43.632,5.7152],[172.7561,-43.6339,2.6374],[172.7548,-43.6371,11.5799],[172.7497,-43.6386,2.6756],[172.7481,-43.6386,52.5017],[172.7447,-43.6339,2.191],[172.743,-43.6281,3.1557],[172.7435,-43.6221,6.4481],[172.7365,-43.6228,0.0],[172.7383,-43.6258,23.8348],[172.7343,-43.6271,57.6516],[172.7199,-43.6242,0.0],[172.7177,-43.626,0.0],[172.7175,-43.6283,0.0],[172.7208,-43.6333,28.1749],[172.7162,-43.6339,13.8306],[172.7138,-43.6319,0.0],[172.7115,-43.6336,0.0],[172.7105,-43.6356,3.6828],[172.7146,-43.6361,19.488],[172.7113,-43.6406,0.0],[172.712,-43.6433,14.5045],[172.7091,-43.6452,0.0],[172.7097,-43.6471,33.3848],[172.7064,-43.6483,16.4136],[172.7063,-43.6521,4.829],[172.7011,-43.6532,1.0381],[172.6993,-43.6561,4.2511],[172.6954,-43.6552,15.2586],[172.6925,-43.6565,13.9733],[172.688,-43.6535,8.9556],[172.6897,-43.6516,0.0],[172.6858,-43.6474,37.5085],[172.6881,-43.6462,15.4313],[172.6868,-43.6447,60.5991],[172.6883,-43.6439,14.6642],[172.6854,-43.643,43.4979],[172.6888,-43.6398,22.3755],[172.6853,-43.6364,33.8625],[172.6818,-43.6365,12.4469],[172.6813,-43.6399,0.0],[172.6839,-43.6405,17.9995],[172.6828,-43.6457,52.4943],[172.6804,-43.6465,10.4361],[172.6809,-43.6482,77.9495],[172.6778,-43.6539,0.0],[172.6728,-43.6598,9.0599],[172.6744,-43.6644,1.3029],[172.6718,-43.6643,0.0],[172.6704,-43.6664,2.6419],[172.6701,-43.6631,1.3543],[172.6674,-43.6624,1.2239],[172.669,-43.6619,0.3198],[172.6679,-43.6601,0.0],[172.6609,-43.6671,2.393],[172.6643,-43.6589,0.0],[172.6637,-43.6546,0.2928],[172.6577,-43.66,1.8357],[172.6607,-43.6538,0.3711],[172.659,-43.6536,1.0282],[172.6607,-43.6511,0.0],[172.6575,-43.6515,1.3009],[172.6609,-43.6479,5.0146],[172.6586,-43.6444,18.1695],[172.6662,-43.6408,12.039],[172.6641,-43.6379,39.9405],[172.6674,-43.6364,3.2633],[172.6683,-43.6309,0.0],[172.6615,-43.6339,0.0],[172.6575,-43.6399,33.5322],[172.6536,-43.6414,3.7053],[172.65,-43.6406,0.8242],[172.647,-43.6347,8.1547],[172.6525,-43.6319,8.5315],[172.651,-43.6281,38.8793],[172.6537,-43.6266,2.6728],[172.6513,-43.6217,31.0604],[172.654,-43.6199,0.0],[172.6596,-43.6204,6.3969],[172.666,-43.6146,7.2912],[172.6724,-43.6134,0.0],[172.6769,-43.6084,12.4666],[172.6832,-43.6072,15.3875],[172.6876,-43.6094,37.7499],[172.6908,-43.6056,16.6591],[172.6936,-43.6055,19.2125],[172.697,-43.6089,0.0],[172.6996,-43.6076,28.6717],[172.701,-43.6105,3.8183],[172.7032,-43.6097,9.8059],[172.7068,-43.6114,0.0],[172.7158,-43.6086,0.0],[172.7117,-43.6055,0.6729],[172.7163,-43.6039,4.2793],[172.7153,-43.6056,0.0],[172.7175,-43.6041,4.2793],[172.7194,-43.6046,0.0],[172.7184,-43.6059,0.0],[172.7204,-43.6048,0.4357],[172.719,-43.6065,0.0],[172.7206,-43.6051,0.4357],[172.7198,-43.6071,0.0],[172.7219,-43.6052,1.6754],[172.72238,-43.60532,1.6754],[172.7224,-43.6053,1.6754],[172.72238421052631,-43.605321052631581,1.6754],[172.7227,-43.6054,1.6754],[172.7239,-43.6072,27.1985],[172.7211,-43.6097,0.0],[172.7179,-43.6094,0.0],[172.7222,-43.6101,0.0],[172.7327,-43.6084,0.0],[172.7336,-43.6105,0.0],[172.7331,-43.6076,0.0],[172.7354,-43.6039,18.6192],[172.7413,-43.6043,0.0],[172.741,-43.6029,40.433],[172.7514,-43.5975,25.2399],[172.7573,-43.5995,44.8027],[172.766,-43.5966,5.8088],[172.7723,-43.5986,10.9754],[172.7798,-43.5979,21.9099],[172.781,-43.5957,75.6432],[172.7859,-43.5945,65.8369],[172.7914,-43.596,45.195],[172.7992,-43.5923,51.977],[172.8042,-43.5929,39.9535],[172.8081,-43.5873,118.7223],[172.8029,-43.5827,0.0],[172.7979,-43.5812,0.0],[172.7908,-43.585,37.8304],[172.7842,-43.5864,49.0699],[172.785,-43.5833,11.803],[172.7781,-43.5847,47.2646],[172.7761,-43.5808,8.1997],[172.7797,-43.5784,0.0],[172.7771,-43.5783,62.6445],[172.7778,-43.5709,0.0],[172.7758,-43.569,0.0],[172.7693,-43.573,37.9452],[172.7647,-43.571,0.9128],[172.7604,-43.5666,1.2266],[172.757,-43.5665,4.8235],[172.754,-43.5644,0.0],[172.7498,-43.5635,10.6873],[172.7474,-43.566,0.0],[172.7442,-43.5661,0.0],[172.739,-43.5597,2.8246],[172.738,-43.555,0.0],[172.7327,-43.5556,0.0],[172.728,-43.5605,14.9171],[172.7184,-43.5555,2.3545],[172.7079,-43.5584,0.0],[172.7028,-43.5545,1.477],[172.7032,-43.5511,1.7556],[172.7056,-43.5485,0.0],[172.7109,-43.5469,0.7128],[172.7152,-43.5479,2.0524],[172.7212,-43.5397,3.2881],[172.7229,-43.5309,4.1556],[172.7257,-43.5291,1.9093],[172.7214,-43.5256,5.3572],[172.7243,-43.5251,1.3208],[172.7265,-43.527,0.0],[172.7272,-43.5252,1.8842],[172.7321,-43.5283,0.0],[172.7303,-43.5306,0.0],[172.7341,-43.5373,0.0],[172.7417,-43.5397,1.4682],[172.742,-43.5439,0.0],[172.747,-43.5523,1.5784],[172.7481,-43.5601,2.3654],[172.7512,-43.5617,0.0],[172.7564,-43.5614,0.0],[172.7344,-43.5132,0.0],[172.7226,-43.4802,3.597],[172.714,-43.4355,0.0],[172.7113,-43.3914,0.0],[172.7044,-43.3919,0.0],[172.7084,-43.4034,0.3409],[172.7088,-43.4193,0.0],[172.7105,-43.4213,0.3375],[172.7099,-43.4237,0.7377],[172.707,-43.4246,0.8556],[172.7079,-43.4264,1.4649],[172.7066,-43.4287,1.4412],[172.701,-43.4186,1.5061],[172.7017,-43.4074,0.6688],[172.7053,-43.4054,2.0288],[172.7048,-43.3947,0.4291],[172.7019,-43.3907,0.0],[172.7112,-43.3904,0.0],[172.7087,-43.3588,8.2618],[172.7125,-43.3223,4.4853],[172.7254,-43.2772,0.0],[172.7398,-43.2415,2.3776],[172.7771,-43.1778,3.1742],[172.8072,-43.1417,2.9535],[172.8169,-43.1333,5.9209],[172.8365,-43.1334,25.0737],[172.84,-43.1312,46.5278],[172.8447,-43.1318,12.2737],[172.8534,-43.1252,19.147],[172.8544,-43.1228,59.3023],[172.8582,-43.1218,0.0],[172.8679,-43.112,30.5577],[172.888,-43.0981,22.8381],[172.8925,-43.0974,24.9405],[172.9007,-43.0992,30.1777],[172.9077,-43.0968,4.4062],[172.9127,-43.0971,10.2992],[172.9198,-43.0936,8.3404],[172.9287,-43.0921,8.7864],[172.9391,-43.0861,56.3405],[172.9591,-43.0839,8.1438],[172.9694,-43.0787,8.2999],[172.9943,-43.0723,20.9669],[173.0113,-43.0603,27.7031],[173.044,-43.0466,12.2525],[173.0568,-43.0454,8.4318],[173.0631,-43.0487,4.2747],[173.0806,-43.0507,13.3746],[173.085,-43.048,0.0],[173.0846,-43.0439,1.4361],[173.0981,-43.0283,46.232],[173.1397,-42.9896,0.0],[173.1453,-42.9858,47.7788],[173.1534,-42.9842,59.0797],[173.1677,-42.9778,49.9527],[173.179,-42.9784,0.0],[173.1963,-42.9744,25.9951],[173.2063,-42.9692,35.9509],[173.2209,-42.9644,40.6088],[173.2395,-42.9543,36.5369],[173.2442,-42.9511,57.0979],[173.2451,-42.948,5.5526],[173.2534,-42.9422,0.7737],[173.256,-42.9376,40.1754],[173.2915,-42.9027,52.5432],[173.3004,-42.8976,36.4388],[173.3036,-42.8913,1.7891],[173.3187,-42.8844,0.0],[173.3196,-42.8815,0.0],[173.3145,-42.8794,0.0],[173.3112,-42.8759,0.0],[173.3098,-42.874,60.6343],[173.3109,-42.8709,0.0],[173.3083,-42.8672,9.3596],[173.3087,-42.8627,4.3856],[173.3133,-42.8519,1.2528],[173.3207,-42.8417,0.0],[173.3275,-42.8363,3.1101],[173.3328,-42.8294,43.2345],[173.348,-42.8188,0.4109],[173.3543,-42.8096,31.1086],[173.3593,-42.8065,3.7601],[173.3613,-42.802,45.2094],[173.3684,-42.7988,5.2233],[173.3708,-42.7928,5.3544],[173.3698,-42.7914,68.4748],[173.3733,-42.7859,1.2539],[173.3715,-42.7818,34.7198],[173.3759,-42.7729,9.0119],[173.391,-42.7545,0.0],[173.397,-42.7413,0.0],[173.4634,-42.621,3.115],[173.4702,-42.6143,0.0],[173.4794,-42.5927,0.0],[173.4785,-42.5918,7.0795],[173.4856,-42.5821,3.2554],[173.4898,-42.5799,0.0],[173.4957,-42.5699,0.0],[173.5036,-42.5643,45.0848],[173.5093,-42.565,0.0],[173.5095,-42.5599,24.8126],[173.5172,-42.5557,11.684],[173.5176,-42.5541,0.0],[173.5137,-42.5545,0.0],[173.5017,-42.5483,84.2993],[173.5013,-42.5414,52.3907],[173.5037,-42.5357,33.8354],[173.5023,-42.5263,6.4162],[173.5046,-42.5242,0.0],[173.505,-42.5193,18.2126],[173.5077,-42.5163,7.7898],[173.5067,-42.5134,1.2492],[173.509,-42.5058,13.7489],[173.5193,-42.4982,2.5932],[173.5245,-42.4876,3.4264],[173.5303,-42.4841,15.7536],[173.5285,-42.4825,5.3864],[173.5287,-42.4787,5.1986],[173.533,-42.4766,0.0],[173.5387,-42.4666,54.6265],[173.5479,-42.4591,17.9044],[173.5568,-42.4585,1.6584],[173.5699,-42.4508,35.7591],[173.5766,-42.4504,4.1067],[173.5777,-42.4483,25.7753],[173.5832,-42.4477,0.0],[173.5865,-42.4423,1.3369],[173.5887,-42.4332,1.9986],[173.5909,-42.4312,5.7433],[173.5947,-42.4284,3.4071],[173.6127,-42.4222,6.2619],[173.6421,-42.4147,9.4073],[173.665,-42.4122,6.7412],[173.6716,-42.413,4.462],[173.6758,-42.4152,3.2982],[173.6807,-42.4201,0.7091],[173.6818,-42.4264,0.0],[173.6855,-42.4247,0.5315],[173.6875,-42.4263,0.0],[173.6914,-42.4256,13.4968],[173.6921,-42.4292,3.885],[173.6937,-42.43,27.9257],[173.6915,-42.4319,28.2163],[173.6915,-42.4346,0.0],[173.6967,-42.4305,43.4977],[173.7016,-42.4311,23.9746],[173.7035,-42.4331,0.256],[173.7035,-42.4299,3.345],[173.7123,-42.4275,15.1109],[173.7137,-42.425,2.1458],[173.7162,-42.4244,2.0273],[173.7162,-42.4225,0.0],[173.7063,-42.4192,0.0],[173.7055,-42.4181,0.0],[173.708,-42.416,-0.0199],[173.7027,-42.4145,1.1259],[173.7027,-42.413,1.1259],[173.6962,-42.4154,4.3057],[173.6914,-42.4141,0.6593],[173.6851,-42.4075,1.4795],[173.6825,-42.4008,3.7937],[173.6811,-42.3932,1.4531],[173.6821,-42.3811,7.6483],[173.6858,-42.3684,5.1982],[173.6869,-42.3669,1.6263],[173.6886,-42.3676,1.6263],[173.6934,-42.3596,0.0],[173.6916,-42.3591,5.1354],[173.6923,-42.3579,8.7921],[173.6979,-42.3511,8.7111],[173.7063,-42.3452,1.5036],[173.7237,-42.3346,6.056],[173.7404,-42.3276,4.0247],[173.7486,-42.3212,9.6297],[173.7522,-42.3143,2.6047],[173.7525,-42.3104,4.612],[173.7517,-42.3059,0.0],[173.7474,-42.3033,18.3192],[173.7472,-42.3011,11.1728],[173.753,-42.2921,1.1203],[173.7589,-42.2868,25.7429],[173.7697,-42.2794,44.9669],[173.7883,-42.2754,6.6922],[173.7926,-42.272,16.8852],[173.8078,-42.2653,1.2587],[173.8118,-42.259,2.141],[173.8095,-42.2556,55.9925],[173.8306,-42.2481,2.8283],[173.8305,-42.2449,40.8468],[173.8355,-42.2434,3.1825],[173.8425,-42.2361,55.6844],[173.8466,-42.2362,0.2374],[173.8504,-42.2279,19.9446],[173.8573,-42.2249,0.2006],[173.8577,-42.2192,2.6441],[173.8632,-42.2169,3.0156],[173.8682,-42.2183,0.3515],[173.8735,-42.2144,0.4155],[173.8721,-42.2113,0.0],[173.8762,-42.2081,0.0],[173.8762,-42.2033,19.7268],[173.8845,-42.1947,0.0],[173.8926,-42.1892,9.1652],[173.9288,-42.1726,0.626],[173.9398,-42.1622,2.546],[173.94,-42.1584,4.9206],[173.9262,-42.1406,0.376],[173.9243,-42.1305,1.8466],[173.9286,-42.1103,0.0],[173.9397,-42.0853,2.1484],[173.9371,-42.0846,5.0795],[173.9379,-42.0831,6.2374],[173.9434,-42.0766,4.2393],[173.9519,-42.0619,10.8203],[173.9666,-42.0447,11.7628],[173.9982,-42.0143,0.0],[174.0119,-42.0045,5.6127],[174.012,-42.0002,19.1931],[174.0214,-41.9885,2.6008],[174.0474,-41.9699,0.0],[174.0498,-41.9638,9.6861],[174.0602,-41.9544,18.0704],[174.0611,-41.9448,132.3759],[174.0574,-41.9393,204.5635],[174.0634,-41.9347,133.4838],[174.0546,-41.9337,120.1073],[174.0549,-41.9323,115.1305],[174.0494,-41.9291,131.71],[174.0461,-41.9295,186.1149],[174.0426,-41.9336,174.4704],[174.0389,-41.9349,203.6951],[174.0355,-41.9348,225.3912],[174.0292,-41.9312,326.4758],[174.0223,-41.9386,673.7164],[174.0195,-41.9396,707.155],[174.0035,-41.9321,795.6462],[173.9771,-41.9334,547.0536],[173.9793,-41.9256,845.7476],[173.9698,-41.9262,558.9777],[173.9653,-41.9229,543.6512],[173.9587,-41.9085,368.7013],[173.9543,-41.9133,528.1117],[173.9437,-41.9123,581.5471],[173.9305,-41.9208,628.6872],[173.9239,-41.9212,598.5366],[173.9239,-41.9198,598.5366],[173.9192,-41.9181,732.6828],[173.9176,-41.9154,909.0085],[173.9145,-41.9152,927.8475],[173.8765,-41.9267,964.2207],[173.8587,-41.9297,888.0324],[173.8512,-41.9331,652.4838],[173.8495,-41.9318,728.7568],[173.8339,-41.9304,480.396],[173.8173,-41.933,691.486],[173.8128,-41.9361,635.0782],[173.8075,-41.9446,671.4279],[173.7931,-41.9531,550.0927],[173.7894,-41.9582,441.6379],[173.7668,-41.9218,867.3323],[173.7539,-41.9145,1182.863],[173.7621,-41.9119,1208.1875],[173.7444,-41.9074,1392.9556],[173.7368,-41.9113,1537.907],[173.7343,-41.9149,1571.272],[173.7285,-41.9187,1758.2944],[173.7284,-41.9213,1805.8413],[173.7233,-41.927,1790.3706],[173.7237,-41.9316,1978.8777],[173.7171,-41.9355,1894.0502],[173.7142,-41.9406,1888.7606],[173.7155,-41.9475,1928.6937],[173.7134,-41.9504,1956.4956],[173.7188,-41.9566,1955.5966],[173.718,-41.9585,1941.7345],[173.7204,-41.9593,1927.3983],[173.7202,-41.9607,1954.3152],[173.7114,-41.9642,1849.4225],[173.7002,-41.972,1568.3333],[173.682,-41.9743,1795.5808],[173.6764,-41.9795,2371.3076],[173.6632,-41.9821,2590.947],[173.6601,-41.9866,2545.5166],[173.6608,-41.9907,2712.4277],[173.6634,-41.9931,2751.6074],[173.6628,-41.9959,2827.7642],[173.6582,-41.9971,2698.5901],[173.6571,-41.9993,2643.418],[173.6453,-42.0043,2534.0083],[173.6382,-42.0094,2743.2917],[173.6319,-42.0085,2701.1914],[173.6242,-42.0107,2377.2319],[173.6186,-42.0062,2223.6064],[173.6097,-42.0045,2512.3594],[173.607,-42.0077,2446.4136],[173.6038,-42.0176,2294.2788],[173.6006,-42.0202,2126.7112],[173.6008,-42.0229,2137.4429],[173.5964,-42.0252,2112.4067],[173.5945,-42.0293,2104.834],[173.5822,-42.0291,2163.729],[173.5713,-42.033,2343.4697],[173.5639,-42.0417,2218.8518],[173.5551,-42.0459,2142.7327],[173.553,-42.0535,2226.793],[173.5474,-42.0569,2230.2017],[173.5446,-42.0613,2214.5757],[173.5468,-42.0698,2198.3054],[173.5404,-42.0683,1932.0967],[173.5335,-42.07,1657.3823],[173.5176,-42.0694,2228.6387],[173.4991,-42.0787,2125.7502],[173.4945,-42.0856,2096.3186],[173.4909,-42.0881,2057.3867],[173.4865,-42.0976,2085.6301],[173.484,-42.0994,2119.8296],[173.4853,-42.104,2058.9324],[173.4882,-42.1068,2241.0654],[173.4865,-42.1105,2189.3413],[173.4765,-42.1165,2137.3335],[173.4697,-42.1157,2109.1255],[173.463,-42.1178,2105.1204],[173.4668,-42.1208,1849.3577],[173.467,-42.1251,1518.509],[173.4721,-42.1338,1194.627],[173.4713,-42.1383,1111.6089],[173.4733,-42.1423,1098.8315],[173.4738,-42.1506,770.6157],[173.4779,-42.153,730.455],[173.4761,-42.1557,693.6422],[173.478,-42.163,613.8794],[173.4828,-42.1661,582.1782],[173.4805,-42.1723,533.2393],[173.4814,-42.176,501.3211],[173.4848,-42.1786,467.574],[173.4843,-42.1813,443.0882],[173.4799,-42.1791,445.3792],[173.464,-42.1798,453.1266],[173.4659,-42.1914,452.5113],[173.4645,-42.1957,459.3312],[173.4569,-42.1987,458.4476],[173.4496,-42.1989,460.0627],[173.4434,-42.2021,463.2118],[173.4407,-42.2046,461.9169],[173.4396,-42.2122,464.3584],[173.437,-42.2142,465.6826],[173.4321,-42.2137,470.3628],[173.4222,-42.209,472.4588],[173.417,-42.2105,475.6346],[173.404,-42.2194,483.7816],[173.3975,-42.2211,513.9102],[173.3913,-42.2219,481.778],[173.3877,-42.2179,489.9651],[173.3839,-42.2171,491.8148],[173.3756,-42.2238,490.6802],[173.3682,-42.2246,513.8674],[173.3673,-42.2305,494.9578],[173.3691,-42.2333,538.3347],[173.3757,-42.233,498.8762],[173.3732,-42.2368,525.1329],[173.3681,-42.2356,538.4498],[173.3614,-42.2377,513.9009],[173.3571,-42.2367,511.4026],[173.356,-42.2417,524.7205],[173.3511,-42.2427,527.3293],[173.3443,-42.2396,541.0685],[173.3481,-42.2341,529.379],[173.3458,-42.2289,543.1771],[173.3416,-42.2279,522.8459],[173.3392,-42.2302,547.4819],[173.3399,-42.2333,524.9915],[173.3375,-42.2364,532.4745],[173.3378,-42.2411,532.5924],[173.3333,-42.2467,551.3084],[173.3248,-42.2471,520.6979],[173.3122,-42.2504,536.7914],[173.3053,-42.2486,542.6788],[173.3037,-42.2461,529.0822],[173.2964,-42.248,541.5425],[173.2958,-42.2498,531.3909],[173.302,-42.2563,547.8816],[173.2959,-42.2658,541.4996],[173.2698,-42.2843,548.9019],[173.2602,-42.2893,551.6993],[173.2551,-42.2957,554.3668],[173.2445,-42.3031,577.152],[173.2359,-42.3047,564.1953],[173.2166,-42.3151,569.6367],[173.2072,-42.3171,571.1881],[173.2057,-42.3226,577.2272],[173.2072,-42.3307,577.5245],[173.205,-42.334,584.8119],[173.1921,-42.3316,584.9431],[173.191,-42.3358,615.115],[173.1865,-42.3347,587.8964],[173.1833,-42.3367,589.3485],[173.1825,-42.3397,598.9883],[173.1842,-42.345,591.3723],[173.1806,-42.3464,595.6132],[173.2259,-42.3463,1513.0464],[173.2433,-42.3561,949.7302],[173.2355,-42.3546,1142.9863],[173.224,-42.3564,1372.6003],[173.2189,-42.3641,1408.0686],[173.2215,-42.3748,1539.991],[173.2204,-42.3804,1471.0488],[173.2091,-42.3831,1298.8704],[173.2049,-42.3887,1393.9409],[173.2058,-42.3914,1366.2073],[173.2033,-42.3976,1387.7533],[173.1901,-42.4104,1359.7021],[173.171,-42.4151,1211.6292],[173.1643,-42.4185,1397.5258],[173.16,-42.4254,1590.8416],[173.1606,-42.4306,1644.2905],[173.1523,-42.4496,1631.1956],[173.1433,-42.4513,1596.8568],[173.1358,-42.4502,1446.4019],[173.1256,-42.4512,1297.8461],[173.1194,-42.4503,1447.1384],[173.1117,-42.4459,1712.213],[173.1062,-42.4477,1661.9766],[173.1003,-42.4584,1529.6262],[173.0958,-42.4608,1450.8408],[173.0761,-42.4609,1319.2109],[173.0768,-42.4679,1290.9795],[173.0692,-42.4807,1138.0039],[173.0542,-42.4881,1044.351],[173.0358,-42.4835,1207.6083],[173.035,-42.4783,1193.6572],[173.0393,-42.4708,1053.9214],[173.0331,-42.4652,914.1442],[173.0333,-42.4581,882.8798],[173.0145,-42.4463,1154.2675],[173.0077,-42.4459,1478.3048],[172.9991,-42.4524,1652.2666],[172.9865,-42.4507,1604.0021],[172.9823,-42.452,1574.761],[172.9695,-42.4487,1675.5535],[172.9749,-42.4437,1633.3494],[172.9758,-42.4397,1588.1309],[172.9747,-42.4371,1547.0613],[172.9764,-42.4335,1543.8149],[172.9836,-42.433,1535.5442],[172.9865,-42.425,1418.8579],[172.9847,-42.4194,1100.3395],[172.9897,-42.4138,1056.0841],[172.9931,-42.4035,858.0649],[173.001,-42.3995,724.772],[173.0029,-42.3933,687.4196],[172.9881,-42.3916,690.5049],[172.9785,-42.3957,691.1245],[172.9745,-42.3953,694.5781],[172.9414,-42.3778,1293.7471],[172.9382,-42.373,1304.4122],[172.9411,-42.3678,1337.8204],[172.9409,-42.3595,1387.6156],[172.9438,-42.3512,1041.7855],[172.925,-42.3505,1449.7244],[172.9196,-42.3458,1251.5078],[172.9182,-42.3296,1286.2385],[172.922,-42.3258,1422.2117],[172.9173,-42.318,1420.4639],[172.915,-42.3093,1529.0878],[172.9073,-42.3083,1533.8655],[172.8993,-42.311,1662.3955],[172.8959,-42.3146,1666.2855],[172.8894,-42.3099,1679.4316],[172.8736,-42.3139,1691.6284],[172.8695,-42.3177,1643.0088],[172.8553,-42.3103,1691.6641],[172.8469,-42.3079,1757.1082],[172.8433,-42.2984,1652.041],[172.8423,-42.2895,1619.0656],[172.8447,-42.2844,1593.0979],[172.8509,-42.2822,1635.3717],[172.8527,-42.2756,1588.5215],[172.857,-42.2733,1613.8914],[172.8592,-42.2699,1683.4161],[172.8615,-42.2659,1743.3275],[172.8609,-42.2572,1945.0709],[172.8635,-42.2562,1953.2563],[172.8535,-42.2528,1782.2546],[172.8266,-42.2482,1918.6669],[172.8252,-42.2415,1732.8345],[172.8261,-42.2382,1764.42],[172.8242,-42.2347,1799.5765],[172.8254,-42.2295,1739.3091],[172.8223,-42.2236,1727.8806],[172.8227,-42.2087,1746.5353],[172.8251,-42.2025,1913.1912],[172.8298,-42.2013,1985.9058],[172.8314,-42.199,1986.9841],[172.8324,-42.1927,1838.9808],[172.8344,-42.1901,1857.3304],[172.8321,-42.1845,1783.6157],[172.821,-42.1827,1653.7537],[172.8149,-42.1852,1554.1575],[172.8104,-42.1893,1583.6592],[172.8069,-42.1895,1644.5488],[172.7958,-42.1796,1448.3713],[172.7948,-42.1714,1393.7002],[172.7991,-42.1647,1440.2375],[172.7938,-42.1617,1627.1835],[172.7857,-42.1625,1581.4329],[172.7814,-42.1675,1643.9727],[172.777,-42.1669,1636.6538],[172.7496,-42.1724,1803.4836],[172.7435,-42.1678,1766.0609],[172.7353,-42.1675,1924.5587],[172.7292,-42.1654,1943.1898],[172.7216,-42.1587,1973.6431],[172.7189,-42.1491,2047.0121],[172.7188,-42.1395,2089.3594],[172.726,-42.1348,2088.4277],[172.7226,-42.1275,1925.3722],[172.7249,-42.1223,1940.6378],[172.7186,-42.1149,1912.8544],[172.7215,-42.1037,2034.3019],[172.7202,-42.1027,1979.7361],[172.7017,-42.1013,1841.2192],[172.6911,-42.1066,1983.1394],[172.6868,-42.1042,1738.7227],[172.6846,-42.0924,1992.0433],[172.6814,-42.0885,2075.4985],[172.6784,-42.0878,2016.5275],[172.6713,-42.0913,2083.3176],[172.669,-42.0943,1910.4998],[172.6598,-42.0977,1833.017],[172.6369,-42.1015,2085.8403],[172.6328,-42.1078,1946.0098],[172.6317,-42.1219,1916.6935],[172.6409,-42.1329,1920.3113],[172.6344,-42.1376,1826.2993],[172.6295,-42.1391,1915.5918],[172.6269,-42.1429,1833.9529],[172.6197,-42.148,1948.0803],[172.6118,-42.1581,2046.6047],[172.6121,-42.1611,2067.0596],[172.6097,-42.1658,2119.1514],[172.6121,-42.174,2074.9768],[172.6114,-42.1802,2035.6931],[172.6172,-42.1893,2030.7968],[172.6162,-42.1942,2025.4186],[172.6095,-42.1969,1977.6973],[172.6059,-42.2038,2009.0375],[172.5968,-42.208,2086.5234],[172.5888,-42.2154,2064.5054],[172.5835,-42.2168,2168.9736],[172.578,-42.2144,1947.6006],[172.575,-42.2157,1990.2238],[172.5692,-42.215,1933.8585],[172.5594,-42.22,1853.6564],[172.5453,-42.2385,1818.8329],[172.534,-42.2414,1925.5824],[172.5304,-42.2481,1963.6987],[172.5249,-42.2503,2068.3235],[172.5171,-42.2571,2173.0884],[172.5151,-42.2641,2178.0632],[172.5023,-42.2684,2114.6611],[172.4868,-42.2658,2069.7368],[172.4785,-42.2729,1935.1128],[172.48,-42.2814,1849.719],[172.4789,-42.2829,1781.9092],[172.4798,-42.2857,1821.3375],[172.4776,-42.2881,1772.2346],[172.478,-42.2914,1784.7081],[172.4746,-42.2967,1562.4906],[172.4649,-42.3019,1197.3846],[172.4642,-42.3052,1012.526],[172.4617,-42.3075,1029.3346],[172.462,-42.3114,1140.3632],[172.4645,-42.3138,1253.9326],[172.4631,-42.3174,1451.6467],[172.4662,-42.3195,1560.9424],[172.461,-42.3236,1650.1128],[172.4542,-42.3229,1587.0874],[172.4487,-42.3286,1653.8135],[172.4431,-42.3447,1668.3176],[172.4495,-42.3555,1457.4115],[172.4436,-42.3667,1684.6012],[172.438,-42.3701,1718.6226],[172.4292,-42.3721,1698.1926],[172.4168,-42.3838,1422.4355],[172.3932,-42.3779,1061.3933],[172.3687,-42.385,1515.8123],[172.3562,-42.3906,1478.7103],[172.3472,-42.3918,1528.6868],[172.3451,-42.3936,1458.1897],[172.3446,-42.3972,1444.8848],[172.3372,-42.3997,1607.0895],[172.3337,-42.4083,1604.5701],[172.3287,-42.4106,1482.1312],[172.3248,-42.4164,1569.8566],[172.3175,-42.4198,1374.3489],[172.2998,-42.4217,1597.354],[172.3007,-42.4285,1624.4482],[172.296,-42.4339,1596.4465],[172.2933,-42.4404,1635.8342],[172.2788,-42.4499,1548.0636],[172.2728,-42.451,1468.0785],[172.2655,-42.4551,1632.006],[172.2617,-42.452,1572.144],[172.2572,-42.4535,1460.7534],[172.2548,-42.4513,1577.6024],[172.2411,-42.457,1593.8372],[172.2357,-42.4565,1653.0264],[172.2315,-42.4654,1482.8511],[172.2316,-42.473,1695.949],[172.2271,-42.4795,1587.9352],[172.2199,-42.4863,1493.9396],[172.2111,-42.4886,1581.0317],[172.2052,-42.493,1655.5922],[172.1954,-42.4965,1725.9802],[172.1933,-42.4999,1626.923],[172.1867,-42.5041,1505.5574],[172.1809,-42.5135,1431.1417],[172.1805,-42.5201,1011.0787],[172.1828,-42.5265,1429.4049],[172.1783,-42.5355,1597.9613],[172.1558,-42.5531,1613.1194],[172.1499,-42.5549,1629.6744],[172.1441,-42.5523,1620.1067],[172.1404,-42.5544,1596.1683],[172.1329,-42.5553,1605.9067],[172.1283,-42.5616,1647.8147],[172.1245,-42.5634,1653.8596],[172.1085,-42.5805,1565.3884],[172.1071,-42.5859,1669.6798],[172.1031,-42.5879,1610.0262],[172.0985,-42.5934,1570.3146],[172.1027,-42.6061,1271.8373],[172.0977,-42.6103,977.6172],[172.0937,-42.6211,1413.5293],[172.0856,-42.624,1399.6421],[172.0793,-42.6221,1392.338],[172.0756,-42.6227,1385.969],[172.0508,-42.6298,1454.9845],[172.0473,-42.6324,1496.9329],[172.0408,-42.6309,1396.1405],[172.0285,-42.6368,1414.1833],[172.0155,-42.6318,1402.812],[172.0075,-42.6349,1407.9773],[171.9968,-42.6336,1411.5123],[171.9897,-42.6372,1479.713],[171.9744,-42.6391,1520.7571],[171.9754,-42.6454,1567.4286],[171.9723,-42.6535,1648.7721],[171.9586,-42.6536,1537.807],[171.9425,-42.6635,1564.1362],[171.9259,-42.6662,1608.2196],[171.928,-42.669,1481.7964],[171.9278,-42.6715,1399.3945],[171.9228,-42.6774,1375.5195],[171.9156,-42.6817,1459.4348],[171.9157,-42.6881,1424.7303],[171.9135,-42.6905,1427.5273],[171.908,-42.7047,1414.1664],[171.9006,-42.7112,1359.0577],[171.8851,-42.7187,1401.4147],[171.8824,-42.7331,1177.1821],[171.8841,-42.7392,1422.9153],[171.883,-42.7468,1570.3331],[171.8844,-42.7496,1602.0332],[171.8798,-42.7515,1610.077],[171.8731,-42.748,1466.6462],[171.8636,-42.7506,1432.7107],[171.8577,-42.7546,1415.4368],[171.856,-42.7575,1392.8259],[171.848,-42.7615,1349.0477],[171.8463,-42.767,1458.2733],[171.8419,-42.7708,1482.9069],[171.8433,-42.7748,1633.057],[171.8327,-42.7751,1591.2109],[171.8296,-42.7771,1586.4099],[171.8271,-42.7813,1641.0964],[171.8125,-42.7838,1139.7882],[171.8145,-42.7874,1074.4492],[171.8126,-42.79,1019.3326],[171.8066,-42.7893,1277.2029],[171.8017,-42.7866,1443.6277],[171.7946,-42.788,1472.2983],[171.7891,-42.7828,1740.5214],[171.7832,-42.7843,1666.7406],[171.7764,-42.7903,1693.4467],[171.7691,-42.7891,1584.533],[171.7639,-42.7917,1642.2703],[171.7616,-42.8022,1640.9362],[171.7571,-42.8091,1621.6737],[171.7595,-42.8142,1510.5059],[171.7545,-42.8188,1652.2712],[171.7564,-42.8227,1662.7966],[171.7614,-42.8248,1570.2736],[171.7628,-42.8285,1602.9465],[171.7611,-42.8342,1479.5315],[171.7626,-42.8373,1498.6975],[171.7601,-42.8407,1241.6143],[171.7516,-42.8463,1078.7999],[171.737,-42.8471,1458.96],[171.733,-42.8533,1454.3716],[171.7374,-42.8587,1511.8601],[171.7368,-42.8609,1433.4036],[171.733,-42.8632,1486.3973],[171.7337,-42.8646,1401.4202],[171.7409,-42.8682,1624.3391],[171.7464,-42.8741,1679.9518],[171.7401,-42.8785,1667.6327],[171.7373,-42.8785,1650.7556],[171.7354,-42.8825,1657.4258],[171.7265,-42.8884,1723.7996],[171.7108,-42.8958,1067.4697],[171.7101,-42.9038,1636.53],[171.7036,-42.9035,1572.1461],[171.6992,-42.9069,1694.8225],[171.6943,-42.9083,1780.0117],[171.6869,-42.9061,1665.3817],[171.6903,-42.8999,1826.9185],[171.6804,-42.8991,1505.3612],[171.6794,-42.8941,1260.615],[171.6721,-42.8914,1379.8647],[171.6651,-42.8863,1779.1161],[171.6603,-42.8909,1762.64],[171.6544,-42.8935,1810.002],[171.653,-42.897,1828.8862],[171.6444,-42.8981,1675.1331],[171.6341,-42.9026,1434.3654],[171.6192,-42.9015,1228.9404],[171.6142,-42.9036,1457.8384],[171.6106,-42.9002,1613.0194],[171.6056,-42.8987,1574.8054],[171.5916,-42.9014,1808.5719],[171.591,-42.8961,1895.7017],[171.5869,-42.8957,1791.7472],[171.5739,-42.8996,1526.3805],[171.5701,-42.9033,1318.9943],[171.5603,-42.9073,925.1663],[171.5397,-42.9046,1624.1533],[171.5266,-42.9067,1777.7366],[171.5172,-42.9142,2164.7061],[171.5117,-42.911,2131.5459],[171.5077,-42.902,1865.6991],[171.5011,-42.8979,1791.7848],[171.4953,-42.898,1791.4874],[171.491,-42.8959,1921.5244],[171.4837,-42.9056,1962.3258],[171.4688,-42.9142,1902.0717],[171.4655,-42.9152,1841.8792],[171.4629,-42.9124,1601.6689],[171.4542,-42.9092,1315.1536],[171.4492,-42.9092,1319.4164],[171.4423,-42.9137,1555.5889],[171.4344,-42.9214,1669.4218],[171.4354,-42.9271,1707.6173],[171.4409,-42.9303,1741.1943],[171.4375,-42.9357,1794.0609],[171.4258,-42.9354,1484.9287],[171.4211,-42.9392,1316.927],[171.4181,-42.9462,1561.8105],[171.4114,-42.9509,1810.5652],[171.4048,-42.9532,1891.1812],[171.4015,-42.9525,1982.2354],[171.3978,-42.955,2051.4153],[171.396,-42.9593,2140.5596],[171.3924,-42.9562,1935.9237],[171.3947,-42.9503,1723.0077],[171.3948,-42.9444,2006.4922],[171.3932,-42.9426,2051.2888],[171.3902,-42.9413,2086.9033],[171.3818,-42.946,2043.813],[171.3722,-42.9389,1626.9801],[171.3622,-42.9372,1817.772],[171.3528,-42.9457,1497.6348],[171.3457,-42.9496,1365.0543],[171.34,-42.9487,1382.3203],[171.3402,-42.9451,1401.2562],[171.3361,-42.9433,1479.8195],[171.3142,-42.9482,1882.1228],[171.3077,-42.9526,1775.2727],[171.3031,-42.9581,1896.1025],[171.305,-42.9602,1806.1614],[171.3095,-42.9614,1922.1143],[171.3084,-42.9662,1811.64],[171.2984,-42.9661,1614.7295],[171.2903,-42.971,1653.4712],[171.2824,-42.973,1941.1725],[171.2736,-42.98,1970.3718],[171.2609,-42.9851,1920.1259],[171.2561,-42.9898,1770.4011],[171.2569,-42.9919,1751.4125],[171.2539,-42.9975,1594.0942],[171.2418,-42.9988,1919.0498],[171.2377,-43.0025,1966.9622],[171.2404,-43.008,1775.1089],[171.2393,-43.013,1660.5486],[171.2435,-43.0162,1738.9897],[171.2367,-43.0242,1828.0299],[171.2368,-43.0264,1855.532],[171.2408,-43.0287,1846.9175],[171.2407,-43.031,1847.2644],[171.2338,-43.0393,1963.5542],[171.227,-43.0402,1930.231],[171.2227,-43.0433,1910.9452],[171.222,-43.0583,1988.6797999999999],[171.2196,-43.0647,2011.7396],[171.2114,-43.0657,1846.6707],[171.204,-43.0727,1885.9105],[171.1982,-43.0743,2064.4375],[171.195,-43.0726,2049.8457],[171.1909,-43.0667,1957.0314],[171.1842,-43.0644,1946.0171],[171.1783,-43.068,2010.7888],[171.1757,-43.0743,2058.6672],[171.1585,-43.0771,2036.7542],[171.1459,-43.0888,1973.8486],[171.1407,-43.0826,1900.8353],[171.1299,-43.0812,1938.3376],[171.1172,-43.0857,1878.4253],[171.1135,-43.0957,1453.5094],[171.1154,-43.0996,1530.1868],[171.1082,-43.1104,1915.353],[171.1054,-43.1121,2022.7795],[171.1002,-43.109,1852.2761],[171.1,-43.1068,1854.6249],[171.0967,-43.1058,1927.1115],[171.0952,-43.1008,2050.3159],[171.0797,-43.102,1947.1351],[171.0766,-43.1119,1491.9968],[171.0676,-43.1125,1772.1094],[171.0633,-43.1153,1852.1935],[171.0629,-43.1185,1738.585],[171.069,-43.1256,2011.7498],[171.0676,-43.1283,1908.1577],[171.0567,-43.1317,1879.6826],[171.0415,-43.1397,2043.8442],[171.0374,-43.1459,1981.3403],[171.0379,-43.1514,2033.7843],[171.0444,-43.1583,2065.3528],[171.0471,-43.1592,2156.8892],[171.0473,-43.1636,2206.5034],[171.02,-43.1745,2012.9574],[171.0169,-43.1836,2144.9829],[171.0134,-43.186,2089.1133],[171.0137,-43.1916,1914.1809],[171.0042,-43.1953,1880.1881],[170.9933,-43.2112,1889.3809],[170.9917,-43.2176,2002.5143],[170.9877,-43.2179,1967.9852],[170.9798,-43.2226,1670.5869],[170.9713,-43.2222,1249.3057],[170.9646,-43.2251,1410.131],[170.9485,-43.2273,2427.6924],[170.9443,-43.2214,2077.1086],[170.9479,-43.2118,2063.7363],[170.9482,-43.206,2229.3054],[170.9372,-43.2041,2141.2227],[170.9287,-43.2065,2242.5679],[170.9214,-43.2132,2367.3411],[170.913,-43.216,2467.575],[170.9122,-43.2217,2535.5591],[170.9068,-43.2287,2362.2905],[170.8968,-43.233,2197.7676],[170.8936,-43.2353,2167.0376],[170.8921,-43.239,2025.5881],[170.8872,-43.2416,1956.2059],[170.8731,-43.2458,1980.9204],[170.8758,-43.2525,1831.9314],[170.8678,-43.2589,2167.7151],[170.8652,-43.2648,2226.1104],[170.8689,-43.2673,2140.5952],[170.8707,-43.2725,2272.8923],[170.8643,-43.2764,2199.6309],[170.8605,-43.2813,2300.292],[170.8312,-43.2831,2173.8113],[170.8228,-43.2895,2203.0359],[170.824,-43.2942,2190.1426],[170.8199,-43.2997,2376.5732],[170.8119,-43.3011,2206.2283],[170.8057,-43.3045,2271.2012],[170.7991,-43.3003,2159.2537],[170.7928,-43.2991,2138.395],[170.7883,-43.3031,1884.0581],[170.7825,-43.3042,2041.4438],[170.7816,-43.3065,1835.8481],[170.7769,-43.3074,1864.8372],[170.7688,-43.3129,1932.9465],[170.7645,-43.3132,1925.9764],[170.7618,-43.3178,1974.2867],[170.7598,-43.3183,1969.6561],[170.7519,-43.3187,2196.9878],[170.7313,-43.3152,2418.4434],[170.7246,-43.3184,2355.6521],[170.7168,-43.3165,2463.9863],[170.7053,-43.3188,2330.8726],[170.7103,-43.3266,2103.6663],[170.7168,-43.3328,2197.8987],[170.7147,-43.3386,2000.4652],[170.7161,-43.3432,2012.0259],[170.7124,-43.345,2045.9901],[170.6774,-43.3476,2138.1294],[170.6707,-43.3507,2238.2461],[170.6683,-43.3563,1955.5142],[170.6467,-43.3693,2209.3887],[170.646,-43.374,2111.6191],[170.6576,-43.3774,2014.049],[170.6566,-43.3869,2275.5703],[170.6517,-43.3887,2030.9694],[170.6482,-43.3923,2048.1042],[170.64,-43.3931,1940.3558],[170.6329,-43.3968,1985.7686],[170.635,-43.4014,2021.2101],[170.6156,-43.418,2049.748],[170.6136,-43.4241,2029.0525],[170.6171,-43.4298,2312.0869],[170.6151,-43.4319,2390.9382],[170.6116,-43.4326,2295.895],[170.6031,-43.4305,2207.25],[170.6006,-43.4323,2187.2607],[170.5913,-43.434,2129.7385],[170.5808,-43.4302,1982.688],[170.5804,-43.4261,1918.2102],[170.5838,-43.4227,2025.2996],[170.5802,-43.4185,2257.7549],[170.5725,-43.419,2197.1362],[170.5653,-43.4229,2174.5234],[170.5567,-43.4242,1778.2041],[170.5528,-43.4219,1757.9205],[170.546,-43.4218,1763.118],[170.5439,-43.4183,1927.4712],[170.5352,-43.4145,2274.9961],[170.5335,-43.4103,2407.97],[170.5297,-43.41,2430.0544],[170.5217,-43.4183,2365.6138],[170.5183,-43.419,2377.4114],[170.5177,-43.4244,2304.6533],[170.5113,-43.4284,2408.4404],[170.4967,-43.4266,2310.6282],[170.4755,-43.433,2435.0474],[170.4725,-43.4367,2420.7891],[170.4709,-43.4421,2190.2778],[170.4607,-43.4514,2244.3203],[170.4592,-43.4613,2475.6965],[170.4517,-43.4614,2440.2588],[170.4338,-43.4658,2366.4321],[170.4267,-43.4741,2130.4741],[170.4183,-43.4777,2154.9697],[170.411,-43.4877,2539.75],[170.395,-43.4982,2484.7815],[170.3677,-43.5043,2298.9272],[170.3632,-43.5073,2552.7375],[170.356,-43.5061,2525.2344],[170.3463,-43.5002,2732.4136],[170.3348,-43.498,2523.8899],[170.334,-43.4919,2539.8872],[170.3297,-43.4851,2814.5903],[170.3323,-43.4835,2830.6196],[170.3281,-43.4818,3033.2798],[170.3219,-43.4914,2684.5176],[170.3169,-43.4922,2724.0039],[170.2992,-43.5017,2538.7483],[170.2869,-43.5047,2651.614],[170.2762,-43.5102,2891.2007],[170.2721,-43.51,2959.4983],[170.2671,-43.5127,2893.6819],[170.2574,-43.5108,2618.1062],[170.2512,-43.5131,2524.1885],[170.2383,-43.5139,2484.0564],[170.2286,-43.5192,2614.8137],[170.2261,-43.5226,2583.5793],[170.2209,-43.5248,2626.6951],[170.218,-43.5313,2625.6982],[170.2142,-43.5313,2807.8962],[170.2133,-43.5344,2768.2417],[170.2029,-43.5412,2832.0701],[170.2031,-43.5492,2892.3401],[170.1985,-43.5532,2883.114],[170.1895,-43.5562,2797.8994],[170.1827,-43.5613,2736.6406],[170.1695,-43.5599,3116.0667],[170.1658,-43.5629,3035.9141],[170.1607,-43.5631,3321.0049],[170.1574,-43.5655,3384.1963],[170.1577,-43.5718,3216.7839],[170.1466,-43.5738,3046.5273],[170.1398,-43.5895,3301.8071],[170.1237,-43.5874,2860.8306],[170.115,-43.589,2596.0742],[170.0981,-43.5955,2828.6116],[170.093,-43.5997,2944.1948],[170.0921,-43.6023,2925.3643],[170.0923,-43.6069,2510.1765],[170.0956,-43.6084,2310.0864],[170.0977,-43.6119,2172.1057],[170.0977,-43.6154,2187.8772],[170.0941,-43.6193,2278.4128],[170.0929,-43.6254,2460.1064],[170.0986,-43.6302,2252.0481],[170.1012,-43.6387,2149.2759],[170.0995,-43.6452,2131.3389],[170.094,-43.6493,2274.9878],[170.0952,-43.6555,2059.5969],[170.0914,-43.6604,2208.3843],[170.0737,-43.6721,2378.0142],[170.0591,-43.679,2564.8975],[170.0416,-43.6825,3020.8389],[170.0285,-43.6908,2512.9319],[170.0281,-43.6942,2470.0344],[170.0302,-43.6973,2455.8733],[170.0229,-43.7061,2505.3193],[170.0282,-43.7127,2364.3535],[170.0305,-43.7232,2214.2395],[170.0189,-43.7307,2467.4514],[170.013,-43.7323,2443.3616],[170.0062,-43.7408,2448.302],[169.9988,-43.741,2474.2107],[169.9788,-43.7471,2594.5498],[169.9766,-43.7521,2250.78],[169.9847,-43.7594,2247.4485],[169.9798,-43.7649,2138.4829],[169.9739,-43.7684,2292.2756],[169.9704,-43.7732,2302.8833],[169.9752,-43.781,2156.1475],[169.9727,-43.7873,2224.2737],[169.9655,-43.7918,2484.9158],[169.9583,-43.7889,2348.8301],[169.9433,-43.7892,2534.5464],[169.9333,-43.8005,2173.2048],[169.9281,-43.8008,2130.1782],[169.913,-43.8088,2043.3928],[169.9,-43.813,2320.8716],[169.8982,-43.8197,2240.032],[169.893,-43.8231,2376.4019],[169.8961,-43.8293,2068.5012],[169.8944,-43.8337,2177.6614],[169.8878,-43.8363,2413.9922],[169.8792,-43.8333,2170.9978],[169.8675,-43.8321,2204.2751],[169.8584,-43.837,2219.3994],[169.8533,-43.8431,2210.1611],[169.8454,-43.8473,2324.4126],[169.838,-43.8542,2291.1436],[169.8404,-43.8618,2295.3721],[169.8379,-43.8666,2444.1504],[169.8268,-43.8717,2161.292],[169.8138,-43.8728,2124.6541],[169.809,-43.8747,1906.9935],[169.7984,-43.8833,2212.4087],[169.7934,-43.8924,2247.3777],[169.7862,-43.8947,2108.8306],[169.7821,-43.8941,2109.0737],[169.7709,-43.8993,2161.2729],[169.7693,-43.905,1897.7719],[169.7651,-43.9084,2029.1381],[169.7611,-43.9202,2089.8953],[169.7581,-43.9221,2175.3799],[169.76,-43.9261,2005.0507],[169.7583,-43.9337,2137.9441],[169.7457,-43.931399999999996,2182.312],[169.7429,-43.9364,1849.5906],[169.7429,-43.9406,1920.069],[169.7365,-43.9438,2043.5022],[169.7342,-43.947,1977.689],[169.7276,-43.9484,2061.1704],[169.7251,-43.955,1748.2765],[169.72,-43.9599,1592.3866],[169.6993,-43.9635,2154.9326],[169.702,-43.9692,2014.8308],[169.7022,-43.9739,1919.0974],[169.6994,-43.977,2011.2349],[169.6991,-43.9797,2033.342],[169.7037,-43.9835,2017.4635],[169.7059,-43.9901,2001.6649],[169.7103,-43.9935,1980.6323],[169.7115,-43.9972,1923.3595],[169.7061,-44.0033,1916.6501],[169.7065,-44.0106,2217.0801],[169.7094,-44.0144,2028.5125],[169.7076,-44.0171,1971.8093],[169.7196,-44.0346,2011.0973],[169.7194,-44.0367,2010.0227],[169.699,-44.0428,2214.6924],[169.6942,-44.0411,2151.3718],[169.686,-44.0419,2168.4407],[169.6848,-44.0451,1925.9364],[169.6809,-44.0483,2150.8875],[169.6829,-44.0545,1951.6409],[169.6797,-44.0615,2297.252],[169.6821,-44.0683,2255.5457],[169.6786,-44.0705,2434.5723],[169.665,-44.0677,2256.9331],[169.6576,-44.0776,2074.678],[169.6624,-44.0847,2072.6306],[169.6612,-44.0915,2156.9641],[169.6544,-44.0927,2199.874],[169.6484,-44.098,1865.5699],[169.6391,-44.102,2061.7546],[169.6405,-44.1057,1999.8109],[169.6363,-44.1141,2044.6742],[169.6387,-44.1199,2059.7246],[169.6351,-44.1218,2108.634],[169.625,-44.1225,2122.8599],[169.6209,-44.1279,1915.0283],[169.6183,-44.1358,2287.1753],[169.6204,-44.14,2218.7317],[169.5989,-44.1503,2199.8274],[169.6058,-44.1585,2216.6155],[169.6039,-44.1603,2384.1125],[169.5984,-44.1601,2323.3997],[169.5963,-44.1624,2172.3789],[169.586,-44.1666,2100.0393],[169.5813,-44.1726,2093.6731],[169.5712,-44.1771,1922.7804],[169.571,-44.1823,1993.3483],[169.5664,-44.1851,1996.2041],[169.5659,-44.1883,1911.2976],[169.5619,-44.1938,2006.9358],[169.5608,-44.2054,2071.3591],[169.5489,-44.2047,1821.47],[169.5432,-44.2078,1847.5819],[169.5445,-44.2117,1985.2252],[169.5435,-44.2164,2098.6958],[169.5471,-44.2207,2218.2737],[169.5485,-44.2276,2171.9954],[169.5705,-44.2367,1841.6316],[169.5735,-44.2398,1738.1261],[169.5733,-44.2433,1670.2039],[169.5768,-44.2495,1541.8322],[169.5806,-44.2523,1485.7367],[169.5794,-44.2643,1465.5808],[169.573,-44.2792,1493.7539],[169.5748,-44.2842,1571.1772],[169.5711,-44.2962,1604.0234],[169.5748,-44.3001,1642.7126],[169.5723,-44.3056,1621.5723],[169.573,-44.3121,1805.96],[169.5684,-44.3193,1700.1223],[169.5712,-44.3332,1713.9371],[169.5787,-44.3376,1732.7816],[169.5788,-44.3401,1710.9351],[169.5772,-44.3456,1780.712],[169.5679,-44.3541,1708.8293],[169.5708,-44.3583,1782.5212],[169.5659,-44.3722,1697.5667],[169.5567,-44.381,1716.1155],[169.5594,-44.39,1728.5687],[169.5664,-44.3968,1645.5579],[169.5656,-44.4023,1629.4565],[169.5631,-44.4056,1591.3273],[169.5521,-44.4129,1640.614],[169.5459,-44.4227,1848.6252],[169.5489,-44.4289,1724.8857],[169.5545,-44.4325,1695.2236],[169.5562,-44.4376,1795.3136],[169.5478,-44.4428,1668.4668],[169.5425,-44.4486,1882.5431],[169.5535,-44.4552,1721.1726],[169.5544,-44.4572,1723.3896],[169.5623,-44.4602,1541.365],[169.5698,-44.4597,1449.3715],[169.5739,-44.4623,1341.6719],[169.5921,-44.4591,1343.1467],[169.6004,-44.4629,1359.0444],[169.6024,-44.4618,1415.2385],[169.6033,-44.4636,1374.5453],[169.615,-44.4606,1538.8499],[169.6337,-44.4624,1571.5394],[169.6419,-44.4664,1485.1097],[169.641,-44.4719,1232.55],[169.6441,-44.479,1366.5498],[169.6475,-44.4812,1539.123],[169.6436,-44.4867,1368.0515],[169.6412,-44.4951,1477.7208],[169.6349,-44.4989,1440.8857],[169.6343,-44.5018,1483.2152],[169.6373,-44.5063,1391.6274],[169.6377,-44.5116,1468.1754],[169.6432,-44.5154,1432.4333],[169.6456,-44.5192,1482.861],[169.6501,-44.521,1516.7263],[169.647,-44.5261,1489.6763],[169.6477,-44.5311,1497.0078],[169.6523,-44.5352,1460.6163],[169.6634,-44.5372,1490.7841],[169.653,-44.5459,1295.2422],[169.6521,-44.5486,1252.3977],[169.6455,-44.5551,1258.5446],[169.6452,-44.561,1328.1887],[169.6407,-44.5648,1246.0411],[169.6434,-44.5693,1129.356],[169.6408,-44.5747,1044.9691],[169.6427,-44.576,1055.3907],[169.6445,-44.5843,933.8235],[169.641,-44.596,1252.8372],[169.6578,-44.5936,1133.6548],[169.6818,-44.5979,1512.9064],[169.6885,-44.6011,1718.8091],[169.6886,-44.6029,1750.4705],[169.6853,-44.6061,1794.1304],[169.6969,-44.6014,1781.8092],[169.7085,-44.601,1712.9524],[169.7133,-44.598,1734.7322],[169.7187,-44.5794,1699.9926],[169.7186,-44.5735,1707.6293],[169.7306,-44.5651,1743.2168],[169.7366,-44.5705,1692.8391],[169.7463,-44.5861,1753.587],[169.7486,-44.5943,1781.7773],[169.7478,-44.6001,1704.8866],[169.7554,-44.6075,1755.4738],[169.7572,-44.6121,1781.0721],[169.7537,-44.6183,1811.8745],[169.7533,-44.631,1809.4429],[169.7549,-44.6389,1808.092],[169.8056,-44.6613,1338.4958],[169.822,-44.6636,1260.8767],[169.8171,-44.6655,1250.3088],[169.8362,-44.6689,1633.8119],[169.8416,-44.6654,1733.9659],[169.8913,-44.6443,1428.328],[169.9442,-44.654,1799.2866],[169.9634,-44.7088,1843.5397],[169.9702,-44.7441,1867.0317],[169.9811,-44.7545,1844.0947],[169.9822,-44.7671,1844.9064],[169.9841,-44.7725,1801.5167],[169.9937,-44.7865,1690.3711],[169.995,-44.7988,1666.7021],[169.9989,-44.8087,1694.515],[169.9966,-44.8204,1602.4318],[169.9978,-44.8247,1590.033],[170.0055,-44.8368,1605.468],[170.0126,-44.8435,1611.5427],[170.0185,-44.8556,1604.0197],[170.0267,-44.859,1614.1176],[170.0309,-44.8701,1550.2788],[170.0382,-44.8725,1537.181],[170.0431,-44.8768,1552.4231],[170.0503,-44.8774,1600.0742],[170.0638,-44.8836,1636.1012],[170.0695,-44.8998,1530.3447],[170.0819,-44.9121,1556.604],[170.0744,-44.916,1403.0928],[170.0687,-44.9232,1570.5271],[170.0848,-44.9274,1635.6956],[170.0914,-44.9342,1647.5364],[170.0913,-44.9375,1545.5784],[170.0941,-44.94,1477.2025],[170.1037,-44.9426,1428.7644],[170.1113,-44.9469,1481.1875],[170.1205,-44.9474,1512.4969],[170.1271,-44.9411,1546.7347],[170.1309,-44.9407,1553.3112],[170.1405,-44.9428,1477.6592],[170.1475,-44.9409,1544.1165],[170.1503,-44.9433,1496.5354],[170.1584,-44.9436,1501.9553],[170.1645,-44.946,1444.3042],[170.1757,-44.9418,1455.7413],[170.1793,-44.943,1428.0034],[170.1895,-44.94,1343.7729],[170.2001,-44.939,1379.3489],[170.2105,-44.9346,1347.0195],[170.2204,-44.9334,1308.4886],[170.2252,-44.9347,1307.0491],[170.2421,-44.9307,1207.7025],[170.2469,-44.9223,1222.2001],[170.252,-44.9188,1201.0447],[170.2596,-44.9216,1214.7156],[170.2652,-44.9199,1209.7266],[170.2726,-44.9216,1252.9161],[170.2818,-44.9166,1316.0562],[170.2907,-44.9141,1409.5474],[170.3017,-44.9195,1500.6444],[170.3047,-44.9105,1445.9879],[170.3194,-44.903,1544.8884],[170.3401,-44.9039,1468.0017],[170.3514,-44.9093,1441.4065],[170.354,-44.9281,1088.4071],[170.3506,-44.9317,1132.0593],[170.3491,-44.9431,1144.0168],[170.357,-44.939,1007.3088],[170.3656,-44.9401,1271.3323],[170.3666,-44.9444,1184.8218],[170.3721,-44.948,968.3668],[170.3734,-44.9524,918.2966],[170.3689,-44.9602,1039.0079],[170.3698,-44.9723,1280.1274],[170.3541,-44.9827,1332.7585],[170.3473,-44.9896,1342.447],[170.3519,-45.0078,1231.7615],[170.3494,-45.0217,1522.8204],[170.3533,-45.024,1487.2777],[170.3558,-45.0292,1299.9623],[170.3629,-45.0368,1305.0708],[170.3633,-45.0435,1309.6974],[170.3683,-45.0548,1515.082],[170.3805,-45.0608,1545.1095],[170.3792,-45.067,1526.8632],[170.3862,-45.0733,1526.5669],[170.3855,-45.0779,1545.666],[170.3978,-45.0809,1596.52],[170.3986,-45.0865,1400.9998],[170.3972,-45.0931,1389.9244],[170.4084,-45.1023,1346.7388],[170.4053,-45.1133,1316.7087],[170.3997,-45.1153,1353.0275],[170.4039,-45.1226,1354.4412],[170.4092,-45.1247,1226.2955],[170.4126,-45.124,1243.0079],[170.424,-45.1284,1244.5303],[170.4352,-45.1282,1382.4471],[170.4395,-45.1337,1495.9713],[170.4313,-45.1403,1171.5569],[170.4351,-45.1456,889.8725],[170.4289,-45.1505,815.7233],[170.428,-45.1539,774.5261],[170.4161,-45.1623,703.7163],[170.412,-45.1756,613.968],[170.4075,-45.1783,599.3694],[170.4007,-45.1785,583.53],[170.3916,-45.1773,586.2107],[170.3825,-45.1738,601.0103],[170.3772,-45.1768,627.6115],[170.3766,-45.181399999999996,653.2864],[170.3743,-45.1844,661.7668],[170.3642,-45.187,680.3461],[170.3814,-45.2016,663.3245],[170.3836,-45.2072,658.2229],[170.3831,-45.2125,652.4122],[170.3686,-45.223,721.6103],[170.3543,-45.2291,763.1819],[170.353,-45.2319,824.4833],[170.3545,-45.2363,811.1479],[170.347,-45.2363,815.7259],[170.3499,-45.2414,742.8158],[170.343,-45.2429,651.6343],[170.3396,-45.2392,638.4152],[170.3346,-45.2391,575.5264],[170.3284,-45.2367,526.9796],[170.3192,-45.2423,490.6414],[170.3137,-45.2425,463.0068],[170.3136,-45.2684,534.2307],[170.3941,-45.2686,745.3055],[170.411,-45.2803,711.2556],[170.4151,-45.2879,673.1639],[170.4234,-45.2954,703.8653],[170.4209,-45.3079,712.3099],[170.409,-45.3197,696.4444],[170.3949,-45.3279,702.8041],[170.3811,-45.3265,668.0114],[170.3755,-45.3309,666.6111],[170.3755,-45.3269,720.0844],[170.3251,-45.3241,541.1451],[170.3249,-45.3625,602.6507],[170.3034,-45.3563,480.3914],[170.2887,-45.3496,374.4468],[170.2843,-45.3496,380.0822],[170.2849,-45.4442,485.1848],[170.2657,-45.4441,661.342],[170.2608,-45.4488,681.449],[170.2596,-45.4529,674.0997],[170.2616,-45.4561,661.5337],[170.2572,-45.4621,668.0252],[170.2515,-45.4637,655.5057],[170.2268,-45.482,549.0757],[170.2092,-45.4819,438.8096],[170.2094,-45.5067,277.8361],[170.2639,-45.5067,531.9551],[170.2672,-45.5046,533.1034],[170.2737,-45.5056,544.8726],[170.2854,-45.4974,548.9296],[170.2853,-45.4946,534.3621],[170.3044,-45.4996,334.783],[170.3081,-45.4997,366.7086],[170.31,-45.4979,352.7607],[170.3593,-45.5212,508.2957],[170.3508,-45.5282,489.3742],[170.3417,-45.5458,500.413],[170.367,-45.5492,661.6785],[170.3713,-45.5542,603.0328],[170.3775,-45.5545,655.3575],[170.3877,-45.5541,689.6536],[170.4193,-45.5187,726.035],[170.4313,-45.5232,666.7369],[170.4558,-45.5286,639.9462],[170.4672,-45.5289,587.4745],[170.4764,-45.533,513.4197],[170.4816,-45.5092,519.4759],[170.5529,-45.5094,176.6292],[170.5558,-45.5104,169.7251],[170.5563,-45.5132,161.5961],[170.5554,-45.5143,161.5961],[170.5514,-45.5123,170.3081],[170.5558,-45.5155,193.0092],[170.5537,-45.5179,191.6695],[170.5546,-45.524,213.329],[170.5624,-45.5383,352.8713],[170.5603,-45.542,383.6051],[170.5628,-45.546,397.7855],[170.5632,-45.5511,411.9898],[170.5618,-45.5539,427.9094],[170.5729,-45.5546,376.1149],[170.5753,-45.557,375.9636],[170.5756,-45.5607,398.3422],[170.5801,-45.5635,422.1028],[170.5798,-45.5675,394.4288],[170.5842,-45.5706,338.3351],[170.5905,-45.5724,293.0662],[170.5977,-45.5694,262.7994],[170.6035,-45.5714,254.7971],[170.6048,-45.574,263.3064],[170.6131,-45.5758,229.7891],[170.6302,-45.5709,204.2342],[170.6272,-45.5692,172.571],[170.6281,-45.5671,178.5961],[170.6368,-45.5598,116.9899],[170.7156,-45.5595,13.6148],[170.7087,-45.5511,19.3511],[170.7152,-45.5488,3.5684],[170.7161,-45.5504,0.7119],[170.7225,-45.5528,0.1507],[170.7236,-45.5514,0.1507],[170.7214,-45.5508,1.7133],[170.7271,-45.5489,4.7199],[170.7257,-45.5539,2.7572],[170.7287,-45.5561,7.8742],[170.7283,-45.5577,6.8834],[170.726,-45.5569,0.2356],[170.7282,-45.5613,0.6101],[170.7268,-45.5693,0.0],[170.7311,-45.5627,12.0156],[170.7445,-45.5519,0.0],[170.7455,-45.5466,8.718],[170.7469,-45.5465,0.0],[170.7497,-45.5408,15.0613],[170.7514,-45.5403,0.0],[170.7545,-45.5338,8.4768],[170.7605,-45.5303,20.0871],[170.7661,-45.5319,9.064],[170.767,-45.5299,0.0],[170.7652,-45.5271,25.4169],[170.7783,-45.518,0.0],[170.7834,-45.509,1.6173],[170.7845,-45.5097,0.0],[170.7899,-45.5047,0.0],[170.7934,-45.5038,20.0379],[170.8115,-45.4878,31.8407],[170.8184,-45.4785,0.0],[170.82,-45.4793,16.339],[170.8275,-45.4773,4.1202],[170.8281,-45.4745,44.9114],[170.8313,-45.4734,0.6386],[170.8261,-45.4651,24.2969],[170.8108,-45.4586,14.0978],[170.8089,-45.4517,7.4123],[170.8118,-45.4397,31.2785],[170.8185,-45.4238,1.5699],[170.8255,-45.4128,3.2154],[170.8464,-45.3951,1.7795],[170.8563,-45.3909,2.8729],[170.8648,-45.3912,34.2548],[170.8688,-45.396,2.7988],[170.8674,-45.3866,20.2595],[170.8682,-45.3802,0.72],[170.8646,-45.3805,13.5218],[170.863,-45.377,57.0222],[170.865,-45.3748,0.0],[170.8644,-45.3731,0.0],[170.8677,-45.3714,6.995],[170.8645,-45.37,2.2132],[170.8654,-45.3671,0.2106],[170.8622,-45.364,15.0127],[170.8631,-45.3575,10.1246],[170.858,-45.3557,3.0793],[170.8546,-45.3578,0.0],[170.8557,-45.3585,33.6613],[170.8548,-45.3596,12.9191],[170.8493,-45.3596,14.0826],[170.8476,-45.3615,20.5201],[170.8359,-45.3593,2.0123],[170.828,-45.3504,6.1457],[170.8244,-45.3386,6.9307],[170.8246,-45.327,0.0],[170.8312,-45.3061,0.0],[170.8361,-45.2967,4.7709],[170.8472,-45.2819,9.6793],[170.8553,-45.2762,36.61],[170.8608,-45.2698,11.6366],[170.8584,-45.264,3.219],[170.8634,-45.2573,10.8682],[170.8619,-45.255,5.8906],[170.8626,-45.2501,1.76],[170.8613,-45.2466,5.308],[170.8643,-45.2382,0.0],[170.8758,-45.2243,7.9059],[170.8832,-45.2208,1.9451],[170.8851,-45.2174,3.5713],[170.8887,-45.2161,3.0311],[170.8879,-45.2139,5.2702],[170.8855,-45.2135,4.8882],[170.8845,-45.2104,0.0],[170.887,-45.2038,6.6977],[170.8943,-45.195,8.543],[170.9013,-45.1945,1.4996],[170.9026,-45.192,7.812],[170.9006,-45.1887,0.0],[170.904,-45.1844,0.3342],[170.9077,-45.1833,0.0],[170.9044,-45.1744,18.5659],[170.906,-45.1716,10.232],[170.9103,-45.1669,2.4408],[170.9148,-45.165,2.9315],[170.9191,-45.1572,3.4984],[170.9471,-45.135,0.0],[170.9631,-45.1266,0.0],[170.9758,-45.1259,23.8834],[170.9826,-45.1215,0.0],[170.9811,-45.1201,0.0],[170.9828,-45.1129,26.9059],[170.9808,-45.11,12.8197],[170.9807,-45.1057,0.0],[170.9799,-45.1097,12.8197],[170.9767,-45.1093,2.8213],[170.9779,-45.1081,0.0],[170.9729,-45.1085,7.5508],[170.9722,-45.1054,2.6057],[170.978,-45.106,0.0],[170.9725,-45.1047,2.6057],[170.9726,-45.1018,3.8453],[170.9805,-45.0915,0.0],[171.0603,-45.0385,0.0],[171.1022,-45.0013,0.0],[171.1165,-44.984,8.7193],[171.1187,-44.9804,16.2189],[171.1175,-44.9801,16.2189],[171.1227,-44.9754,3.4672],[171.1382,-44.9522,0.0],[171.1524,-44.9235,1.0191],[171.159,-44.9076,3.7192],[171.1679,-44.8763,6.0999],[171.1725,-44.8491,0.0],[171.1742,-44.8269,2.4106],[171.1717,-44.7726,0.5358],[171.1728,-44.7717,0.0],[171.1699,-44.7276,1.9269],[171.1644,-44.6703,0.0],[171.1603,-44.6435,1.2616],[171.1603,-44.6281,0.0],[171.1592,-44.6278,3.6461],[171.1629,-44.6028,0.0],[171.1714,-44.5718,0.0],[171.1817,-44.5542,0.6307],[171.1883,-44.5386,12.1806],[171.1973,-44.5245,0.0],[171.1959,-44.5247,11.2591],[171.2021,-44.5178,4.3297],[171.2046,-44.5131,4.2736],[171.2036,-44.5125,4.13],[171.2057,-44.5124,0.0],[171.2112,-44.5033,3.8415],[171.2372,-44.4714,0.9959],[171.2545,-44.4527,3.8377],[171.2582,-44.4457,11.5054],[171.2616,-44.4433,0.0],[171.2596,-44.4402,0.0],[171.2608,-44.4322,4.1396],[171.2568,-44.4294,0.0],[171.2564,-44.4268,5.1482],[171.267,-44.4127,0.0],[171.2618,-44.4097,3.9693],[171.2607,-44.4045,4.6319],[171.2627,-44.3955,6.589],[171.2683,-44.3862,0.0],[171.2668,-44.3859,0.0],[171.2675,-44.3875,0.8965],[171.2658,-44.3903,4.1021],[171.2606,-44.392,3.2296],[171.2601,-44.3894,0.0],[171.2597,-44.3919,3.2296],[171.2563,-44.3942,2.0038],[171.2547,-44.3931,2.0038],[171.2569,-44.3916,0.0],[171.2539,-44.3925,3.5079],[171.2562,-44.3908,2.7005],[171.2534,-44.3918,3.5079],[171.2576,-44.3868,3.0566],[171.26,-44.388,0.0],[171.2577,-44.3867,3.0566],[171.2588,-44.3848,0.0],[171.2618,-44.3862,0.0],[171.2572,-44.3838,0.453],[171.2543,-44.3886,1.3567],[171.25,-44.3875,1.2392],[171.2464,-44.3861,15.171],[171.2472,-44.3839,0.0],[171.2451,-44.3812,2.8793],[171.2514,-44.3772,1.7382],[171.2516,-44.3741,2.3572],[171.2613,-44.3626,0.0],[171.2853,-44.338,0.0],[171.3281,-44.2997,0.0],[171.3517,-44.281,0.4301],[171.4233,-44.2324,3.0876],[171.4557,-44.2141,7.1867],[171.5067,-44.1894,1.0168]]],
[[[172.72238421052631,-43.605321052631581,1.6754],[172.72238,-43.60532,1.6754],[172.722,-43.6057,1.6754],[172.7221,-43.6057,1.6754],[172.72238421052631,-43.605321052631581,1.6754]]],
[[[172.7551,-43.6199,0.4406],[172.754,-43.6198,1.0786],[172.7538,-43.621,1.0786],[172.7545,-43.621,1.0786],[172.7551,-43.6199,0.4406]]]]}}