{"type": "Feature","id": "3400","bbox": [169.5442,-45.0604,174.08169,-41.91491],"geometry": {"type": "Polygon","coordinates": [[[174.00233,-41.93284,795.6462],[173.97329,-41.92778,587.2478],[173.96027,-41.92344,572.5167],[173.94735,-41.91723,804.6153],[173.93143,-41.91491,718.9089],[173.91396,-41.91615,927.8475],[173.83035,-41.92964,543.6649],[173.8103,-41.93615,740.0997],[173.7979,-41.94493,654.0392],[173.78539,-41.95077,772.1835],[173.77609,-41.94529,692.8613],[173.76648,-41.93274,816.6643],[173.75139,-41.9208,1039.2019],[173.7331,-41.91589,1623.048],[173.721,-41.9271,1730.8026],[173.70395,-41.95889,1416.4823],[173.68834,-41.96969,1788.8981],[173.66788,-41.97987,2514.7969],[173.65072,-41.99103,2214.9023],[173.62695,-42.00219,2230.8799],[173.60752,-42.00617,2404.7905],[173.58799,-42.01904,1596.0535],[173.56225,-42.0301,1925.1189],[173.49849,-42.07211,1748.7434],[173.47079,-42.12895,1374.7802],[173.46862,-42.15727,756.0263],[173.45838,-42.17262,638.5134],[173.45167,-42.18792,692.6097],[173.43792,-42.19985,585.7791],[173.34501,-42.2274,531.1229],[173.31224,-42.24068,690.7066],[173.2586,-42.28062,870.0499],[173.22594,-42.30026,993.632],[173.20083,-42.31907,711.7205],[173.18884,-42.33338,598.0811],[173.2154,-42.34723,1153.562],[173.21437,-42.35979,1323.4492],[173.19494,-42.39121,982.8508],[173.17075,-42.41131,1193.1104],[173.15246,-42.43147,1305.4155],[173.13458,-42.44046,1155.2383],[173.11536,-42.44309,1531.7256],[173.07763,-42.46051,1319.2109],[173.0644,-42.47126,1338.8903],[173.0457,-42.4711,935.0836],[173.02017,-42.45209,874.7166],[173.00518,-42.44707,1531.6637],[172.98844,-42.44325,1304.5038],[172.97738,-42.43627,1416.0179],[172.978,-42.42408,1267.1194],[172.98317,-42.40883,944.5472],[172.98472,-42.39447,690.59],[172.94606,-42.37101,1122.0129],[172.93924,-42.36289,1280.0778],[172.93118,-42.35008,1523.4624],[172.91795,-42.3369,1064.9054],[172.9072,-42.31581,1246.0549],[172.88798,-42.30889,1589.7745],[172.86969,-42.3046,1330.4788],[172.85398,-42.29881,1520.0623],[172.84561,-42.28848,1492.2373],[172.84757,-42.27365,1397.1135],[172.85212,-42.26109,1508.6763],[172.84995,-42.24667,1523.5247],[172.83723,-42.23473,1409.4287],[172.82721,-42.20998,1650.7819],[172.82411,-42.19391,1621.9838],[172.81791,-42.18058,1510.1512],[172.80561,-42.17753,1213.0883],[172.78556,-42.16342,1548.0006],[172.77026,-42.16311,1481.5117],[172.75166,-42.16017,1376.6293],[172.73378,-42.15262,1540.5997],[172.71714,-42.12037,1633.8912],[172.70629,-42.11598,1377.8928],[172.69099,-42.1136,1854.4004],[172.68406,-42.11087,1887.7332],[172.6728,-42.10932,1641.7798],[172.66112,-42.10901,1214.6099],[172.65047,-42.11128,1434.219],[172.64283,-42.11629,1463.1772],[172.63962,-42.12663,1737.525],[172.63652,-42.14089,1569.6902],[172.60955,-42.19748,1977.6973],[172.5958,-42.21897,1570.5382],[172.55002,-42.26031,1035.8313],[172.5311,-42.2721,1198.4722],[172.51384,-42.28062,1224.4259],[172.48459,-42.286,1771.2927],[172.47912,-42.30538,968.9534],[172.47509,-42.31519,1542.3773],[172.46919,-42.32656,1234.498],[172.45596,-42.34636,1364.225],[172.45276,-42.35752,1357.4778],[172.44697,-42.36914,1496.3384],[172.43457,-42.37948,1407.0569],[172.40894,-42.38749,1165.3857],[172.39023,-42.39064,1129.77],[172.36088,-42.40046,1366.5686],[172.31003,-42.43395,1372.1903],[172.24874,-42.46966,998.9805],[172.23376,-42.4818,1354.8904],[172.22383,-42.49679,1019.5579],[172.21484,-42.50624,1377.6362],[172.19335,-42.522,911.9327],[172.18291,-42.53637,1429.0425],[172.17236,-42.54702,1443.6528],[172.1272,-42.57353,1059.1301],[172.10064,-42.61373,1077.0675],[172.0716,-42.63249,1006.9225],[172.04545,-42.64267,1213.0488],[172.02726,-42.64753,797.6588],[171.99811,-42.64908,974.0128],[171.98292,-42.65243,1270.0562],[171.95388,-42.66773,1284.111],[171.93383,-42.68106,1583.951],[171.91057,-42.70649,1331.1185],[171.88711,-42.72762,946.2335],[171.88236,-42.73925,1422.9153],[171.87895,-42.7578,1260.4092],[171.81735,-42.78519,1227.9418],[171.76515,-42.79728,1447.8003],[171.75988,-42.80178,1709.7832],[171.75575,-42.81243,1492.0989],[171.74831,-42.83847,991.0458],[171.73632,-42.86586,1393.8909],[171.7326,-42.87924,1489.7083],[171.72712,-42.89077,1676.5211],[171.71658,-42.90038,1152.4872],[171.70139,-42.90725,1590.9502],[171.65126,-42.90601,1940.8564],[171.61447,-42.91221,1208.2184],[171.57261,-42.91454,1418.983],[171.5355,-42.92291,1531.6887],[171.52837,-42.92368,1616.7314],[171.52248,-42.92322,1676.5997],[171.51556,-42.91971,1643.3611],[171.50574,-42.91785,2073.646],[171.49303,-42.91826,1403.6871],[171.45592,-42.92885,1129.2244],[171.43515,-42.94058,1728.9672],[171.41965,-42.94751,1503.2051],[171.40146,-42.9503,1922.5583],[171.36869,-42.95237,1749.8698],[171.32776,-42.96456,1194.6991],[171.30451,-42.97691,1780.3568],[171.26193,-43.00756,1368.6664],[171.2488,-43.02616,1605.151],[171.24198,-43.0412,1651.8491],[171.23774,-43.05277,1277.5032],[171.22596,-43.06331,1628.5342],[171.20726,-43.07205,1748.4609],[171.1284,-43.09024,1641.1931],[171.10659,-43.08879,1379.5017],[171.06804,-43.10672,1394.1036],[171.00572,-43.18579,1848.0118],[170.96851,-43.20455,1348.1869],[170.86815,-43.24211,1773.856],[170.69297,-43.34402,1972.9976],[170.59582,-43.4235,1448.8503],[170.56946,-43.42324,2020.8716],[170.55262,-43.41869,1530.5742],[170.51841,-43.42247,2256.2561],[170.47056,-43.43652,2318.1938],[170.33609,-43.49285,2471.5542],[170.23564,-43.51889,2326.332],[170.20463,-43.53248,2486.1672],[170.1266,-43.58323,2609.7603],[170.10035,-43.60566,2185.3652],[170.08526,-43.62731,2217.3267],[170.07099,-43.65258,1365.7021],[170.04536,-43.67976,2607.155],[170.01859,-43.70235,2316.5728],[169.99999,-43.72948,2075.9136],[169.97694,-43.7472,2594.5498],[169.94986,-43.78286,1721.8866],[169.79401,-43.87598,1856.8959],[169.76021,-43.90492,1968.983],[169.72528,-43.92972,1616.4634],[169.67195,-43.97551,1346.1462],[169.6797,-44.03085,2054.7961],[169.66792,-44.05561,1965.0425],[169.64291,-44.08625,1850.1016],[169.62554,-44.11317,1575.7061],[169.60405,-44.13286,1814.1399],[169.57996,-44.16046,1861.3298],[169.56736,-44.18009,1876.9312],[169.547,-44.20324,1822.5115],[169.54431,-44.22526,1928.0668],[169.5442,-44.40649,1184.5203],[169.5471,-44.43078,1711.3043],[169.55258,-44.44602,1558.2776],[169.58379,-44.45532,1019.1771],[169.61221,-44.47351,1188.5922],[169.62771,-44.49951,1233.4252],[169.64363,-44.56586,1142.6466],[169.66306,-44.58482,1080.9739],[169.6858,-44.59428,1464.7864],[169.71381,-44.59102,1712.4003],[169.74109,-44.61779,1355.5851],[169.79732,-44.66068,1390.8896],[169.87101,-44.65371,1455.9597],[169.90325,-44.66472,1406.5359],[169.93364,-44.69216,1262.7646],[169.95731,-44.72771,1487.4664],[169.98893,-44.8,1465.2909],[170.02366,-44.85959,1514.1188],[170.05363,-44.89395,1439.0811],[170.07533,-44.91312,1311.5704],[170.10655,-44.92496,1383.9417],[170.17745,-44.92889,1283.6838],[170.26561,-44.91509,1184.6588],[170.30374,-44.91653,1464.7717],[170.32235,-44.92578,1141.5907],[170.33516,-44.94542,693.0464],[170.33165,-44.96738,733.8373],[170.33764,-44.99513,1289.9821],[170.34757,-45.02082,1504.5503],[170.36999,-45.0466,1422.0381],[170.39004,-45.0604,1336.7251],[170.48761,-45.02066,741.9847],[170.64357,-44.91886,308.8212],[170.67902,-44.9061,285.5025],[170.7184,-44.89855,271.5174],[170.75767,-44.89793,206.7899],[170.84202,-44.88171,87.2385],[171.01972,-44.91657,37.5148],[171.12506,-44.94699,5.9801],[171.17254,-44.95333,0.0],[171.18075,-44.94012,0.0],[171.19264,-44.92571,0.0],[171.20314,-44.90553,0.0],[171.21144,-44.84629,0.0],[171.21241,-44.81357,0.0],[171.20248,-44.78932,0.0],[171.17384,-44.78582,0.0],[171.1836,-44.77361,0.0],[171.19711,-44.76824,0.0],[171.20899,-44.76067,0.0],[171.21412,-44.74188,0.0],[171.21266,-44.7247,0.0],[171.20118,-44.67653,0.0],[171.20118,-44.60125,0.0],[171.19597,-44.56683,0.0],[171.17384,-44.54697,37.4186],[171.20281,-44.53444,0.0],[171.21111,-44.53265,0.0],[171.2225,-44.5285,0.0],[171.22584,-44.51881,0.0],[171.22625,-44.5075,0.0],[171.22836,-44.49847,0.0],[171.25733,-44.47357,0.0],[171.27068,-44.45875,0.0],[171.27613,-44.44012,0.0],[171.27613,-44.38299,0.0],[171.28004,-44.37151,0.0],[171.33424,-44.29949,0.0],[171.33766,-44.28973,0.0],[171.346,-44.27863,1.5613],[171.35808,-44.27207,1.5548],[171.37241,-44.26507,1.5286],[171.39234,-44.2706,0.0],[171.41668,-44.26035,0.0],[171.47779,-44.21299,0.0],[171.49,-44.20599,0.0],[171.51588,-44.19899,0.0],[171.52256,-44.19059,0.0],[171.53255,-44.18298,0.0],[171.55064,-44.16727,0.0],[171.56739,-44.16326,0.0],[171.57838,-44.16009,0.0],[171.60499,-44.14593,0.0],[171.63315,-44.13983,0.0],[171.64438,-44.13242,0.0],[171.65504,-44.12322,0.0],[171.66725,-44.11492,0.0],[171.68263,-44.11053,0.0],[171.71974,-44.10459,0.0],[171.79396,-44.06707,0.0],[171.80667,-44.06115,0.0],[171.82189,-44.05972,0.0],[171.83823,-44.06211,0.0],[171.86834,-44.05853,0.0],[172.06121,-43.95664,0.0],[172.16521,-43.92108,0.0],[172.18588,-43.90781,0.0],[172.23199,-43.89625,0.0],[172.24984,-43.88126,6.1917],[172.27052,-43.8764,3.8477],[172.2824,-43.87811,0.0],[172.36557,-43.86842,0.0],[172.37631,-43.86443,0.0],[172.38844,-43.85247,0.0],[172.39112,-43.84743,0.0],[172.38917,-43.84157,0.0],[172.38657,-43.82684,0.0],[172.38697,-43.80234,0.0],[172.39112,-43.77288,0.0],[172.40065,-43.74798,0.0],[172.41733,-43.73748,0.0],[172.44549,-43.73309,1.085],[172.47145,-43.72503,0.0],[172.49708,-43.72186,1.7005],[172.52394,-43.73138,2.3486],[172.53199,-43.73838,2.7722],[172.5442,-43.75237,2.3126],[172.55112,-43.75799,1.4539],[172.56837,-43.76312,1.1129],[172.60011,-43.7597,0.0],[172.61248,-43.76181,0.0],[172.64015,-43.77508,0.0],[172.64772,-43.78265,0.0],[172.63307,-43.7859,0.0],[172.61769,-43.78737,0.0],[172.46705,-43.82513,0.0],[172.4402,-43.8283,0.0],[172.42791,-43.8327,0.0],[172.41798,-43.8401,0.0],[172.41407,-43.85076,7.8481],[172.42262,-43.85459,0.0],[172.46315,-43.84987,0.0],[172.55112,-43.82684,7.0511],[172.60906,-43.82269,6.8513],[172.63689,-43.81194,3.1338],[172.71852,-43.8034,143.6098],[172.74586,-43.79372,191.1583],[172.76344,-43.79274,1.5],[172.74415,-43.81146,231.7581],[172.74513,-43.82488,175.5698],[172.78395,-43.85418,7.2208],[172.80519,-43.87461,0.0],[172.81723,-43.88144,0.0],[172.8401,-43.87623,19.2396],[172.86305,-43.89625,0.0],[172.87672,-43.90203,0.0],[172.94215,-43.90203,0.0],[172.96559,-43.90545,0.0],[172.96892,-43.90325,0.0],[172.93735,-43.86712,0.0],[172.92677,-43.84026,0.0],[172.92791,-43.81292,0.0],[172.94215,-43.7859,6.7206],[172.92937,-43.77711,0.0],[172.92652,-43.76556,0.4466],[172.93312,-43.75555,0.0],[172.94858,-43.75115,28.7668],[172.96168,-43.75612,162.1626],[172.96241,-43.76824,23.715],[172.96046,-43.78297,0.0],[172.96583,-43.79616,33.3036],[172.97731,-43.80901,99.3698],[172.97869,-43.81666,253.7322],[172.97584,-43.82513,256.8701],[172.97576,-43.84059,667.8254],[172.97975,-43.85377,436.7126],[172.99252,-43.87623,17.5958],[172.99684,-43.88893,0.0],[173.00514,-43.88226,206.4785],[173.01401,-43.87884,10.9249],[173.0228,-43.88055,0.0],[173.03094,-43.88893,0.0],[173.0315,-43.88226,0.0],[173.03777,-43.86102,236.8571],[173.05592,-43.86419,0.0],[173.08058,-43.84059,134.0557],[173.09295,-43.85418,0.0],[173.10548,-43.82936,0.0],[173.11354,-43.8012,0.0],[173.11647,-43.77215,131.1956],[173.1128,-43.74489,208.0237],[173.11012,-43.74,138.3089],[173.10182,-43.72975,15.3892],[173.09929,-43.72381,81.2559],[173.1006,-43.71901,0.0],[173.10426,-43.71201,142.8489],[173.10711,-43.70379,44.9775],[173.10613,-43.69598,4.1357],[173.09474,-43.68401,0.0],[173.08074,-43.67588,0.0],[173.0691,-43.6657,0.0],[173.06495,-43.64813,0.0],[173.05291,-43.65325,0.0],[173.02467,-43.67604,234.744],[173.02068,-43.66237,167.8773],[173.00929,-43.6539,0.0],[172.9944,-43.64935,129.079],[172.9795,-43.64813,142.121],[172.96648,-43.65276,236.3659],[172.95802,-43.66334,243.0539],[172.95086,-43.67523,487.8733],[172.94215,-43.68288,434.7422],[172.9284,-43.68572,504.8574],[172.92482,-43.67962,444.1639],[172.92791,-43.65195,326.3297],[172.92612,-43.63502,83.3671],[172.92026,-43.62664,0.0],[172.89381,-43.61452,2.797],[172.88494,-43.63983,271.7696],[172.88014,-43.66546,191.3735],[172.87574,-43.66888,224.8223],[172.86647,-43.66082,471.9493],[172.85711,-43.64658,315.192],[172.85279,-43.63144,354.918],[172.83676,-43.62933,0.0],[172.80095,-43.629,378.8716],[172.76368,-43.63592,153.2596],[172.74293,-43.65553,180.0072],[172.72088,-43.65049,209.2061],[172.69313,-43.64707,0.0],[172.68141,-43.63934,27.3562],[172.70818,-43.62151,0.0],[172.73797,-43.61419,0.0],[172.80397,-43.61102,0.0],[172.83229,-43.60166,0.0],[172.77117,-43.58929,60.0347],[172.75603,-43.58115,5.8778],[172.74773,-43.56715,27.4312],[172.75261,-43.56064,0.0],[172.76441,-43.56227,0.0],[172.77711,-43.57366,45.5461],[172.77898,-43.55779,0.0],[172.75034,-43.49863,0.0],[172.73219,-43.43621,0.0],[172.72966,-43.41485,0.0],[172.73618,-43.40114,0.0],[172.74293,-43.39495,0.0],[172.7448,-43.34189,0.0],[172.74871,-43.31666,0.0],[172.75603,-43.29258,0.0],[172.74869,-43.27969,0.0],[172.74545,-43.26539,0.0],[172.7505,-43.25726,0.0],[172.7741,-43.23024,0.0],[172.79689,-43.18865,0.0],[172.81121,-43.16904,0.0],[172.88795,-43.12786,0.0],[172.91505,-43.1028,0.0],[172.94825,-43.09149,0.0],[173.08326,-43.06699,0.0],[173.13152,-43.03924,0.0],[173.14015,-43.0324,0.0],[173.14438,-43.0237,0.0],[173.14796,-43.01247,0.0],[173.15366,-43.00254,0.0],[173.19508,-42.98675,0.0],[173.2234,-42.98358,0.0],[173.23439,-42.98073,0.0],[173.27801,-42.96071,0.0],[173.28728,-42.95387,0.0],[173.29103,-42.94687,0.0],[173.29347,-42.93288,0.0],[173.30006,-42.92783,0.0],[173.30885,-42.92441,0.0],[173.31837,-42.9157,0.0],[173.32545,-42.9035,0.0],[173.32618,-42.89772,0.0],[173.32488,-42.89227,0.0],[173.32521,-42.88095,0.0],[173.32057,-42.86159,0.0],[173.32252,-42.85133,0.0],[173.35377,-42.83945,0.0],[173.37289,-42.82155,0.0],[173.38795,-42.80023,0.0],[173.39894,-42.76539,0.0],[173.47657,-42.64137,0.0],[173.4712,-42.63909,0.0],[173.46713,-42.63681,0.0],[173.46241,-42.63494,0.0],[173.45541,-42.63454,10.057],[173.45541,-42.62713,8.3074],[173.49952,-42.61012,0.0],[173.5232,-42.57334,0.0],[173.53875,-42.52947,0.0],[173.5586,-42.49114,0.0],[173.61109,-42.44345,0.0],[173.62371,-42.43597,0.0],[173.63413,-42.43279,0.0],[173.65553,-42.41863,0.0],[173.66847,-42.41546,0.0],[173.68377,-42.41741,39.6583],[173.69508,-42.42295,46.785],[173.71559,-42.44345,0.0],[173.72316,-42.4367,0.0],[173.72975,-42.42913,0.0],[173.72291,-42.41969,0.0896],[173.70582,-42.40407,0.0],[173.70191,-42.39495,0.0],[173.70362,-42.37859,0.0],[173.71111,-42.37038,0.0],[173.72169,-42.36484,0.0],[173.73292,-42.35711,0.0],[173.73707,-42.35133,0.0],[173.74708,-42.33359,0.0],[173.76124,-42.33416,0.0],[173.76808,-42.33318,0.0],[173.77394,-42.32977,0.0],[173.80494,-42.29192,0.0],[173.82635,-42.27679,0.0],[173.87135,-42.25506,0.0],[173.89088,-42.24082,0.0],[173.91017,-42.21453,0.0],[173.92921,-42.19557,0.0],[173.93116,-42.19085,0.0],[173.9387,-42.17804,0.0],[173.94465,-42.16793,0.0],[173.95411,-42.15879,0.0],[173.95639,-42.1408,0.0],[173.95574,-42.11045,0.0],[173.96144,-42.0901,0.0],[173.97511,-42.06715,0.0],[174.00408,-42.03118,0.0],[174.08169,-41.96911,0.0],[174.05184,-41.9425,93.0765],[174.04698,-41.93656,165.78],[174.03582,-41.93274,286.1149],[174.02155,-41.93145,395.1434],[174.00233,-41.93284,795.6462]]]}
,"properties": {"ISO3166-1-Alpha-3": "NZL","country": "New Zealand","fill": "#F0F","name": "Canterbury","area_km2": 45772.83,"hist_schema_id": "Elevation0-9000","hist_area_km2": {"0": 1775.42,"25": 1451.99,"50": 1249.9,"75": 1181.87,"100": 1103.39,"125": 1077.08,"150": 1135.97,"175": 1179.47,"200": 1117.97,"225": 1011.67,"250": 864.32,"275": 828.6,"300": 801.69,"325": 738.82,"350": 746.95,"375": 695.34,"400": 728.74,"425": 724.13,"450": 740.51,"475": 766.66,"500": 791.15,"525": 1057.33,"550": 836.79,"575": 826.52,"600": 790.78,"625": 752.96,"650": 721.84,"675": 726.85,"700": 819.6,"725": 723.49,"750": 686.58,"775": 656.99,"800": 607.9,"825": 582.77,"850": 566.19,"875": 542.9,"900": 523.57,"925": 499.48,"950": 493.27,"975": 478.48,"1000": 478.73,"1025": 456.11,"1050": 448.34,"1075": 435.47,"1100": 441.43,"1125": 427.0,"1150": 421.74,"1175": 412.24,"1200": 402.44,"1225": 394.11,"1250": 386.44,"1275": 376.07,"1300": 372.5,"1325": 358.05,"1350": 353.42,"1375": 343.94,"1400": 326.35,"1425": 320.7,"1450": 306.62,"1475": 297.7,"1500": 286.33,"1525": 278.54,"1550": 261.82,"1575": 252.24,"1600": 239.04,"1625": 228.17,"1650": 217.93,"1675": 205.98,"1700": 197.59,"1725": 188.2,"1750": 177.93,"1775": 168.05,"1800": 155.89,"1825": 146.19,"1850": 138.33,"1875": 129.08,"1900": 116.57,"1925": 109.69,"1950": 97.84,"1975": 91.05,"2000": 82.74,"2025": 74.09,"2050": 67.63,"2075": 58.95,"2100": 52.52,"2125": 49.22,"2150": 42.7,"2175": 38.05,"2200": 31.79,"2225": 27.84,"2250": 26.38,"2275": 22.34,"2300": 19.24,"2325": 16.61,"2350": 13.9,"2375": 12.21,"2400": 10.16,"2425": 9.04,"2450": 7.33,"2475": 6.3,"2500": 5.62,"2525": 4.88,"2550": 4.33,"2575": 3.85,"2600": 3.11,"2625": 3.3,"2650": 2.77,"2675": 2.19,"2700": 2.14,"2725": 2.08,"2750": 2.05,"2775": 1.48,"2800": 1.29,"2825": 1.61,"2850": 1.14,"2875": 1.09,"2900": 0.98,"2925": 0.98,"2950": 0.81,"2975": 0.41,"3000": 0.61,"3025": 0.45,"3050": 0.43,"3100": 0.35,"3125": 0.54,"3150": 0.37}}}