{"type":"Feature","properties":{"featurecla":"Range/mtn","name":"SOUTHERN ALPS","namealt":null,"region":"Oceania","subregion":"New Zealand","min_label":5.2,"max_label":8.0,"scalerank":3},
"geometry":{"type": "MultiPolygon","coordinates": [[[[171.05336457703365,-42.846715337208835,25.5737],[171.05738365977129,-42.851739190630838,28.2241],[171.1047469410214,-42.879815362505951,51.6564],[171.10132897227118,-42.869439385943394,111.1926],[171.09534752695879,-42.863457940630894,133.6302],[171.07752526133379,-42.853081964068338,32.763],[171.06531823008379,-42.843682550005951,26.1195],[171.06410365035762,-42.8423896102975,25.6764],[171.05336457703365,-42.846715337208835,25.5737]]],
[[[170.9948932567535,-42.870267738430769,27.2707],[171.01417076914618,-42.900079034380894,44.1269],[171.0192977222714,-42.924493096880894,53.3595],[171.02222740977129,-42.976006768755838,191.4392],[171.04175865977118,-42.954888604693394,104.6728],[171.03907311289629,-42.919244073443394,51.0082],[171.02381432383379,-42.882134698443394,32.0185],[171.01070251233156,-42.863899728804668,26.9721],[170.9948932567535,-42.870267738430769,27.2707]]],
[[[170.69438326721152,-42.980520071044168,83.0841],[170.70167076914629,-42.989556573443338,20.1366],[170.72608483164629,-43.033013604693394,40.4559],[170.7485457691464,-43.057915948443394,57.4953],[170.74524987070868,-43.031426690630951,205.6308],[170.72046959727129,-42.996026300005838,59.4773],[170.71464773687691,-42.971040815813623,41.8373],[170.7115584644587,-42.972100518755909,41.6972],[170.69438326721152,-42.980520071044168,83.0841]]],
[[[170.53386009890255,-43.059211057214554,15.6427],[170.60694420664618,-43.090264581255838,37.1775],[170.62501061289618,-43.105645440630951,51.427],[170.5985213550839,-43.072686456255894,117.7072],[170.56006920664629,-43.051080010943451,212.5453],[170.55423411828303,-43.0492233919187,210.5784],[170.53386009890255,-43.059211057214554,15.6427]]],
[[[170.3673510549462,-43.148885773815834,19.7706],[170.37757408945902,-43.154717706255838,179.4276],[170.39014733164629,-43.170953057818451,25.7763],[170.3984481128964,-43.188287042193338,31.6435],[170.40137780039629,-43.209283135943338,40.1295],[170.3997908863339,-43.250176690630894,66.166],[170.40650475352118,-43.270806573443451,80.9593],[170.41273033945879,-43.270806573443451,74.0931],[170.41480553477129,-43.262627862505951,72.4131],[170.42640221445902,-43.242852471880838,57.4559],[170.42798912852129,-43.235162042193451,68.8962],[170.4289656910214,-43.216607354693394,48.5429],[170.4323836597714,-43.200127862505838,37.0006],[170.42579186289629,-43.185113214068394,70.8092],[170.40650475352118,-43.160943292193451,90.0752],[170.38011778556515,-43.141609062216318,122.048],[170.3673510549462,-43.148885773815834,19.7706]]],
[[[170.22158538894641,-43.23196849438591,9.6339],[170.22706139414629,-43.234429620318394,18.7702],[170.23853600352152,-43.236748956255838,54.9726],[170.26271385261134,-43.208526316622624,67.7231],[170.22158538894641,-43.23196849438591,9.6339]]],
[[[170.08683948289683,-43.31890405411832,33.1887],[170.11109459727129,-43.339165948443338,59.5679],[170.13611901133402,-43.354302667193394,83.9265],[170.14332115977129,-43.347588800005781,77.4979],[170.13709557383379,-43.328912042193451,107.2273],[170.12183678477129,-43.308404229693451,144.2343],[170.11252690788396,-43.301481500725856,110.3588],[170.08683948289683,-43.31890405411832,33.1887]]],
[[[169.85998597985019,-43.4727679494319,49.0823],[169.89136803477129,-43.476861260943394,58.6338],[169.9176131519589,-43.477471612505951,77.8375],[169.9367781910214,-43.475030206255894,81.6844],[169.9807235035214,-43.462579034380838,123.5775],[169.9703475269589,-43.457940362505951,112.1089],[169.95850670664629,-43.458184503130838,101.9525],[169.93299401133402,-43.462579034380838,79.6411],[169.90186608164629,-43.463189385943451,56.3593],[169.87871721898659,-43.460063444635352,42.4003],[169.85998597985019,-43.4727679494319,49.0823]]],
[[[169.80245824574078,-43.511786263629347,298.7327],[169.8046981128964,-43.511529229693451,259.6462],[169.81849205820879,-43.524468682818338,20.3762],[169.83668053477129,-43.558770440630894,209.4032],[169.85291588633368,-43.571099542193338,635.6163],[169.85853112070879,-43.566338800005838,841.5369],[169.85718834727118,-43.534600518755781,79.9321],[169.84888756602129,-43.519097589068394,33.8055],[169.82935631602129,-43.506890557818394,19.3615],[169.81701840918564,-43.501910800240267,24.9454],[169.80245824574078,-43.511786263629347,298.7327]]],
[[[169.71099317703158,-43.573822650847092,212.1259],[169.71753990977118,-43.572442315630838,161.6336],[169.7335311207089,-43.564629815630951,166.9852],[169.7474665799933,-43.549084483793663,14.5514],[169.71099317703158,-43.573822650847092,212.1259]]],
[[[169.48130506068262,-43.67807326996035,308.2525],[169.48414147227129,-43.693902276568394,217.502],[169.49317467539629,-43.710625909380838,26.3224],[169.5151473316464,-43.715874932818451,104.1339],[169.52198326914618,-43.715874932818451,296.7946],[169.50672448008368,-43.699395440630781,84.9436],[169.4934188160214,-43.680962823443338,355.7943],[169.49123704597363,-43.673705098590929,197.2544],[169.48130506068262,-43.67807326996035,308.2525]]],
[[[168.70296528157459,-44.004277627057377,15.7306],[168.7465926441464,-44.009087823443394,506.3822],[168.80347740977129,-43.996026300005894,18.455],[168.85792076914618,-43.971612237505894,10.8602],[168.91822350352129,-43.927788995318451,5.5231],[168.96461022227152,-43.904717706255951,8.7781],[168.98389733164652,-43.890801690630781,25.4607],[169.00147545664618,-43.881158135943451,9.8472],[169.0651961597714,-43.856377862505951,23.0249],[169.08326256602152,-43.853081964068394,10.5312],[169.10962975352129,-43.908501885943338,229.5566],[169.12220299570868,-43.916070245318281,607.9932],[169.1367293628964,-43.920464776568451,578.7349],[169.14869225352152,-43.921929620318394,569.1326],[169.17566979258368,-43.929497979693451,444.6899],[169.23072350352129,-43.957330010943338,42.0],[169.2544051441464,-43.956109307818451,193.9935],[169.2360945972714,-43.943902276568451,105.8484],[169.18323815195868,-43.919122003130781,397.1316],[169.16260826914652,-43.914483331255894,402.7526],[169.1433211597714,-43.907159112505894,1041.2377],[169.12745201914629,-43.889825128130951,450.4753],[169.10425865977129,-43.853081964068394,15.8336],[169.08887780039618,-43.834038995318451,12.4646],[169.08692467539618,-43.827080987505951,23.6534],[169.08833425893303,-43.823932917607024,26.4084],[168.95667565195876,-43.867608331255923,0.0],[168.86732018320876,-43.954278253130909,8.3433],[168.7458602222712,-43.998467706255937,16.5455],[168.70296528157459,-44.004277627057377,15.7306]]],
[[[168.23554000457463,-44.191452572074,116.4161],[168.26758873789618,-44.175835870318451,306.2797],[168.30689537852118,-44.147637628130951,296.2766],[168.3398543628964,-44.117120050005951,300.7655],[168.34144127695879,-44.111016534380951,214.3545],[168.34205162852152,-44.100518487505951,107.28],[168.3449813160214,-44.088067315630894,26.1309],[168.35328209727129,-44.076226495318394,3.6009],[168.36353600352118,-44.068169854693451,2.4392],[168.37476647227118,-44.061211846880951,2.2888],[168.3864852222714,-44.055840753131008,2.312],[168.39795983164652,-44.052300714068394,7.2958],[168.39490931072703,-44.051102295135877,2.5457],[168.3900252613337,-44.052056573443423,3.7358],[168.29883873789626,-44.079522393755923,0.0],[168.2148543628962,-44.12029387813088,0.0],[168.17993871349168,-44.1496505064317,0.0],[168.14661705820876,-44.177666925005937,0.0],[167.9780379566462,-44.362603448443451,0.0],[167.5138045582087,-44.739434503130894,56.267],[167.33104355061411,-44.864476503644426,524.1537],[167.38563073008368,-44.841119073443451,719.9401],[167.4185897144589,-44.839654229693394,440.3882],[167.4321395191464,-44.870660089068508,495.2202],[167.43531334727152,-44.875176690630951,694.6582],[167.44239342539629,-44.880913995318451,897.0326],[167.44947350352129,-44.888238214068451,689.5453],[167.4526473316464,-44.897881768755781,670.6321],[167.45008385508368,-44.907525323443451,961.3001],[167.44019615977118,-44.926568292193451,254.4772],[167.43897545664618,-44.936089776568338,107.1677],[167.44703209727118,-44.949517510943394,954.4262],[167.45923912852118,-44.959893487505894,761.8094],[167.46631920664618,-44.971978448443281,58.5],[167.45948326914629,-44.990777276568451,523.0302],[167.4965926441464,-44.993584893755894,1206.7404],[167.51392662852118,-44.991387628130894,807.1456],[167.51099694102129,-44.980523370318508,961.6613],[167.5067244800839,-44.975030206255781,815.9551],[167.50342858164629,-44.967950128130838,413.6463],[167.50123131602118,-44.960137628130951,319.9172],[167.50049889414629,-44.952813409380781,628.8735],[167.49769127695902,-44.946954034381008,839.097],[167.47693932383379,-44.932427667193394,386.7296],[167.47413170664618,-44.922295831255781,524.4656],[167.47632897227152,-44.907891534380781,931.5374],[167.47681725352118,-44.892022393756008,311.8155],[167.46973717539618,-44.877496026568394,535.1927],[167.46253502695879,-44.866997979693451,211.7997],[167.44800865977118,-44.834649346880781,504.343],[167.44520104258379,-44.822564385943394,780.9711],[167.45740807383379,-44.788262628131008,488.7412],[167.4870711597714,-44.765923760943394,0.0],[167.52320397227129,-44.762505792193394,423.3417],[167.55506432383379,-44.784600518755951,889.7214],[167.5620223316464,-44.798028253130781,495.461],[167.55933678477129,-44.804864190630838,509.8589],[167.5511580738339,-44.812066339068451,220.6962],[167.5420028003964,-44.826226495318338,601.7708],[167.5372420582089,-44.844659112505951,601.5787],[167.53980553477129,-44.859307550005894,1141.9489],[167.55005944102118,-44.871148370318338,707.9178],[167.56800377695879,-44.880913995318451,237.0321],[167.5698348316464,-44.858208917193281,517.8192],[167.57850182383379,-44.843438409380951,1095.9926],[167.58887780039629,-44.830254815630951,875.0527],[167.59669030039629,-44.812554620318394,755.8729],[167.59461510508368,-44.792168878130894,951.5739],[167.56836998789618,-44.771294854693338,657.1564],[167.56177819102152,-44.753960870318451,940.8421],[167.55103600352129,-44.740777276568338,74.3632],[167.54871666758368,-44.733330987506008,0.0],[167.5677596363339,-44.726250909380894,0.0],[167.57801354258368,-44.719048760943451,170.8578],[167.58863365977129,-44.715020440631008,423.9389],[167.59974205820879,-44.720391534380951,713.1384],[167.61841881602152,-44.739556573443451,341.1888],[167.63477623789629,-44.751397393755781,704.7439],[167.65345299570879,-44.758721612505951,841.9147],[167.67920983164629,-44.764214776568394,456.3976],[167.6623641285214,-44.757378839068338,1198.218],[167.62464440195879,-44.723809503130838,657.5027],[167.59888756602118,-44.706963800005951,239.7845],[167.59461510508368,-44.696465753130781,127.1346],[167.60279381602129,-44.682183526568394,159.7292],[167.61878502695902,-44.672784112505838,437.5202],[167.67164147227152,-44.661797784380894,561.4888],[167.67884362070879,-44.655816339068451,224.5342],[167.6867781910214,-44.641656182818394,651.4333],[167.69227135508368,-44.635064385943451,622.1863],[167.69874108164629,-44.632134698443394,717.1293],[167.71583092539629,-44.628472589068451,441.5],[167.72291100352129,-44.624200128130894,575.6354],[167.75184166758368,-44.601983331255894,4.2165],[167.78126061289629,-44.593072198443451,478.743],[167.8105574878964,-44.597955010943451,0.0],[167.85486901133379,-44.626885675005894,1081.8824],[167.8885604175839,-44.641167901568451,0.0],[167.90162194102129,-44.651543878130781,0.0],[167.93250573008379,-44.695977471880951,1571.9681],[167.93958580820879,-44.684258721880781,200.1079],[167.94166100352129,-44.669366143755951,952.2382],[167.93921959727152,-44.653985284381008,406.4579],[167.93250573008379,-44.641289971880894,477.438],[167.92701256602152,-44.637383721880894,1102.2858],[167.90442955820868,-44.627618096880951,29.6344],[167.87781823008402,-44.607110284380951,794.7093],[167.87183678477129,-44.603570245318451,271.85],[167.8668319019589,-44.602837823443394,525.0501],[167.86194908945879,-44.600762628130894,1029.9092],[167.8567000660214,-44.593560479693281,1327.8403],[167.8549910816464,-44.586114190630951,1471.0813],[167.8567000660214,-44.559380792193508,548.0522],[167.85035240977152,-44.530328057818451,396.4762],[167.84424889414652,-44.515679620318394,190.5625],[167.8363143238339,-44.504082940630838,128.356],[167.85987389414652,-44.479668878130838,262.5187],[167.94263756602129,-44.411675714068451,38.6404],[167.97169030039618,-44.392998956255951,297.6926],[168.0080672535214,-44.374932550005894,19.9136],[168.03309166758379,-44.352105401568451,216.4329],[168.02808678477129,-44.319146417193394,0.0],[168.1179305347714,-44.319146417193394,36.624],[168.12732994883368,-44.315484307818451,35.36],[168.13941490977118,-44.298150323443394,25.5832],[168.13965905039629,-44.282769464068451,600.091],[168.12769615977129,-44.270806573443338,416.9198],[168.10303795664629,-44.263970635943281,284.0671],[168.10303795664629,-44.257134698443394,204.9444],[168.15003502695868,-44.245660089068281,415.8573],[168.16883385508379,-44.236993096880951,412.6502],[168.20521080820868,-44.206231378130894,336.4833],[168.23554000457463,-44.191452572074,116.4161]]],
[[[167.16840970931887,-44.989747409898541,897.8191],[167.18897545664618,-44.984063409380838,1040.7761],[167.2146102222714,-44.989678643756008,552.7145],[167.2412215503964,-44.999322198443338,880.9382],[167.2677108082089,-45.004327081255951,1028.7197],[167.28858483164629,-45.012261651568394,962.1274],[167.31324303477152,-45.027276300005951,618.2216],[167.33558190195879,-45.035943292193338,57.8243],[167.34961998789629,-45.024956964068394,184.1905],[167.33082115977118,-45.021050714068394,253.9969],[167.21045983164629,-44.971368096881008,477.4288],[167.19897071664579,-44.962990617192986,9.6028],[167.18970787852126,-44.970269464068437,637.4715],[167.16840970931887,-44.989747409898541,897.8191]]],
[[[167.27681459612629,-44.90181998338555,130.3862],[167.28638756602118,-44.898247979693451,651.1273],[167.3053084644589,-44.895318292193451,665.537],[167.32911217539618,-44.894463800005951,906.803],[167.32349694102129,-44.889947198443451,892.0778],[167.31397545664629,-44.878838800005894,494.0444],[167.31226611934468,-44.877323705579514,570.2991],[167.2791854175837,-44.899956964068423,389.805],[167.27681459612629,-44.90181998338555,130.3862]]],
[[[166.88995201397026,-45.281468192725569,0.0],[166.89087975352118,-45.281792901568338,0.0],[166.89881432383368,-45.298882745318451,0.0],[166.91749108164629,-45.311578057818451,477.8886],[166.9591170582089,-45.325860284380838,185.9352],[166.95008385508402,-45.330743096880951,266.9289],[166.94190514414629,-45.336846612505951,827.0687],[166.93555748789629,-45.344414971880894,789.2347],[166.93189537852129,-45.353814385943451,529.3647],[166.9638778003964,-45.351250909380951,919.0445],[166.99195397227118,-45.341851495318394,524.6104],[167.01893151133402,-45.340020440630951,0.0],[167.04737389414629,-45.360650323443394,142.0082],[167.05457604258379,-45.370049737505951,740.2778],[167.05860436289652,-45.378838800005894,722.7206],[167.05689537852152,-45.388726495318451,901.6724],[167.04737389414629,-45.401665948443508,549.1653],[167.02173912852129,-45.415948175005894,48.9731],[167.0109969410214,-45.425347589068451,11.5232],[167.02003014414629,-45.429620050005838,687.5401],[167.0540877613339,-45.428033135943451,980.0115],[167.06605065195902,-45.422906182818394,1125.637],[167.07899010508379,-45.412163995318338,721.9511],[167.08582604258379,-45.399346612505894,386.6132],[167.08985436289629,-45.386285089068394,0.0],[167.09693444102152,-45.381036065630894,0.0],[167.1242781910214,-45.398370050005781,484.7026],[167.13660729258402,-45.404473565630781,692.2972],[167.14673912852152,-45.412530206255894,161.586],[167.15345299570879,-45.436089776568394,905.1437],[167.17151940195902,-45.469903253130951,56.5172],[167.1757918628964,-45.467461846880894,582.942],[167.17823326914618,-45.463677667193451,834.1843],[167.18592369883368,-45.467583917193451,869.2723],[167.19898522227152,-45.472588800005894,743.1566],[167.20557701914618,-45.477349542193451,938.2053],[167.19996178477129,-45.444756768755894,1173.095],[167.14820397227129,-45.397027276568451,708.9134],[167.04737389414629,-45.325860284380838,886.0985],[167.06177819102118,-45.312066339068451,1052.8881],[167.07874596445868,-45.305230401568394,1042.0084],[167.18043053477129,-45.283501885943394,626.0424],[167.19874108164629,-45.284966729693451,1102.7332],[167.20899498789618,-45.292901300005951,632.1393],[167.22645104258402,-45.316949151568394,562.7154],[167.24036705820902,-45.325860284380838,438.2389],[167.25904381602129,-45.330376885943451,588.8797],[167.2795516285214,-45.330865167193451,584.7],[167.29761803477129,-45.325494073443451,812.3212],[167.30860436289629,-45.312310479693338,555.4122],[167.29249108164618,-45.308648370318394,970.3782],[167.25745690195868,-45.309991143755894,429.0728],[167.24354088633368,-45.302666925005894,424.7553],[167.2337752613339,-45.292168878130894,617.0156],[167.2310897144589,-45.287530206255951,721.5923],[167.2329207691464,-45.268487237505951,1285.3284],[167.2385360035214,-45.257622979693451,1256.5935],[167.24708092539629,-45.253106378130951,936.84],[167.24708092539629,-45.252862237505894,1107.8354],[167.24708092539629,-45.252251885943451,1107.8354],[167.24708092539629,-45.252007745318394,1107.8354],[167.20960533945879,-45.252373956255951,627.6033],[167.17151940195902,-45.265069268755894,388.0706],[167.14612877695879,-45.269707940630951,14.8321],[167.06470787852152,-45.275689385943338,592.6179],[167.04737389414629,-45.268487237505951,862.8148],[167.04529869883368,-45.255425714068451,788.5062],[167.03626549570879,-45.235406182818394,747.8986],[167.03003990977118,-45.215386651568394,666.5609],[167.01172936289618,-45.204400323443451,575.6012],[167.00757897227118,-45.193047784380951,404.6152],[167.00477135508379,-45.148492120318451,467.1225],[167.00841630650552,-45.140028419559371,395.1644],[166.88995201397026,-45.281468192725569,0.0]]],
[[[167.10676868577011,-45.046120354736416,469.8792],[167.11841881602118,-45.038018487505894,237.6078],[167.1405135425839,-45.041924737505894,446.6645],[167.17823326914618,-45.086968682818338,764.0503],[167.18043053477129,-45.101372979693451,0.0],[167.1788436207089,-45.114678643755894,719.7495],[167.18043053477129,-45.126031182818394,769.7137],[167.19190514414629,-45.134820245318394,973.2353],[167.19727623789652,-45.121026300005951,828.7431],[167.19434655039629,-45.100884698443338,0.0],[167.19874108164629,-45.093194268755781,127.6993],[167.21387780039652,-45.088311456255951,520.2987],[167.27454674570879,-45.093194268755781,495.4829],[167.25941002695879,-45.080621026568451,909.1104],[167.20276940195879,-45.065728448443281,656.9182],[167.18165123789629,-45.055962823443338,385.2323],[167.16468346445879,-45.039483331255951,953.7224],[167.15296471445879,-45.022759698443394,366.0203],[167.1513778003964,-45.006402276568451,84.0067],[167.15552972776447,-45.001526618741536,203.8373],[167.10676868577011,-45.046120354736416,469.8792]]],
[[[167.01760105278893,-45.129062343595777,663.4313],[167.03431237070868,-45.121026300005951,607.5859],[167.06397545664629,-45.121514581255781,0.0],[167.0876570972714,-45.133721612505781,597.4354],[167.12671959727129,-45.172539971880781,96.0755],[167.13819420664629,-45.179009698443451,181.9927],[167.15516198008368,-45.183648370318394,478.6422],[167.17066490977118,-45.183648370318394,1013.5442],[167.17823326914618,-45.176324151568338,892.3901],[167.17286217539652,-45.169976495318451,574.6288],[167.13672936289618,-45.148370050006008,660.0901],[167.10035240977129,-45.114922784380951,851.7139],[167.0794783863339,-45.101983331255951,491.3783],[167.05482018320879,-45.100640557818451,395.6832],[167.08332679235346,-45.067558813872708,410.238],[167.0225936207087,-45.123101495318409,800.4525],[167.01760105278893,-45.129062343595777,663.4313]]],
[[[166.7692937597179,-45.788578698277561,539.5469],[166.81885826914652,-45.775445245318451,732.4932],[166.84632408945902,-45.772149346880894,0.0],[166.8758651050839,-45.775811456255951,856.0626],[166.88953698008368,-45.775201104693394,568.3076],[166.90088951914629,-45.768731378130894,1049.7102],[166.90931237070879,-45.761163018755951,574.6968],[166.91895592539629,-45.754571221880951,684.9586],[166.93873131602118,-45.744195245318394,555.3957],[166.98707115977152,-45.729058526568394,371.8421],[167.0083113941464,-45.717461846880951,563.2026],[167.02076256602118,-45.696465753130951,320.788],[166.97803795664618,-45.708306573443451,311.834],[166.96265709727152,-45.710137628130951,447.0783],[166.89087975352118,-45.703912042193451,507.2925],[166.7973738941464,-45.723199151568451,0.0],[166.77418053477129,-45.717583917193394,153.9549],[166.79273522227152,-45.688287042193281,777.9519],[166.80469811289629,-45.677666925005838,772.6283],[166.82203209727129,-45.669122003130951,711.2715],[166.87525475352129,-45.658013604693508,973.3242],[166.89087975352118,-45.648736260943394,678.5486],[166.79444420664652,-45.658868096880894,0.0],[166.77759850352129,-45.655450128130838,0.0],[166.76978600352129,-45.631524346880951,655.5988],[166.77064049570868,-45.609429620318451,274.4695],[166.78187096445879,-45.592950128130894,309.4595],[166.80494225352152,-45.586602471880951,535.5894],[166.83179772227129,-45.582330010943281,797.8712],[166.88209069102118,-45.563409112506008,10.916],[166.91138756602129,-45.559869073443394,0.0],[166.96424401133379,-45.573052667193338,1074.3427],[166.9918319019589,-45.574273370318394,925.4514],[167.0131942066464,-45.559869073443394,707.6309],[166.97950280039629,-45.560479425005951,0.0],[166.96448815195868,-45.556451104693338,19.115],[166.95240319102118,-45.545586846880838,278.1507],[167.01697838633379,-45.531304620318451,1008.6613],[167.04615319102129,-45.515679620318451,946.1158],[167.05482018320879,-45.490411065630951,493.4629],[166.92176354258368,-45.540093682818451,616.5617],[166.83948815195868,-45.551690362505838,0.0],[166.78443444102118,-45.573540948443451,5.0098],[166.77320397227129,-45.574517510943451,0.0],[166.76172710689647,-45.576786947599459,0.0],[166.74366295664626,-45.718316339068423,138.7625],[166.7692937597179,-45.788578698277561,539.5469]]],
[[[166.87870588439537,-45.986622978901394,336.5771],[166.88209069102118,-45.986016534380951,323.6823],[166.9277449878964,-45.959771417193338,1038.4308],[166.95240319102118,-45.949029229693451,600.7679],[166.95240319102118,-45.942925714068451,920.7773],[166.93055260508368,-45.945000909380951,517.6282],[166.8697615894589,-45.970757745318451,13.6206],[166.86396634121479,-45.972267431835746,0.0],[166.87870588439537,-45.986622978901394,336.5771]]],
[[[166.82573262049854,-45.3956747537149,0.0],[166.86085045664618,-45.406060479693338,215.2051],[166.90919030039618,-45.428521417193451,8.7627],[166.95240319102118,-45.435723565630838,984.7727],[166.94105065195879,-45.412163995318338,0.0],[166.9255477222714,-45.387505792193451,498.0715],[166.90980065195879,-45.378472589068394,609.1434],[166.89771569102118,-45.401665948443508,486.7871],[166.87940514414618,-45.390923760943451,738.149],[166.83985436289629,-45.376641534380951,752.4604],[166.8362702781412,-45.374800394951947,714.3567],[166.82573262049854,-45.3956747537149,0.0]]]]}}