{"type":"Feature","properties":{"GID_2":"NZL.2.6_1","GID_0":"NZL","country":"NewZealand","GID_1":"NZL.2_1","province":"BayofPlenty","NL_NAME_1":"NA","county":"WesternBayofPlenty","VARNAME_2":"NA","NL_NAME_2":"NA","TYPE_2":"District","ENGTYPE_2":"District","CC_2":"022","HASC_2":"NZ.BP.WB","name":"Western_Bayof_Plenty.county"},
"geometry":{"type": "MultiPolygon","coordinates": [[[[176.4779,-37.7752,1.5283],[176.478,-37.7756,1.5283],[176.4786,-37.7753,1.5283],[176.4783,-37.7748,1.5283],[176.4779,-37.7752,1.5283]]],
[[[176.4443,-37.7596,0.0],[176.4447,-37.7597,0.0],[176.4449,-37.7593,0.0],[176.4445,-37.7593,0.0],[176.4443,-37.7596,0.0]]],
[[[176.5998,-38.0108,346.0399],[176.603,-38.0113,372.8796],[176.6025,-37.8298,2.3096],[176.567,-37.8114,7.202],[176.515,-37.7812,0.0],[176.4961,-37.7691,0.0],[176.4791,-37.7555,0.0],[176.4815,-37.7591,1.0037],[176.4923,-37.769,1.3599],[176.4941,-37.7733,1.0202],[176.497,-37.7732,1.0714],[176.4939,-37.7738,1.0202],[176.4961,-37.7778,0.5431],[176.4947,-37.779,0.6484],[176.4958,-37.7778,0.5431],[176.4944,-37.7788,0.6484],[176.492,-37.7762,0.0],[176.4898,-37.7769,0.7123],[176.4913,-37.779,1.4333],[176.4903,-37.7787,1.4333],[176.4857,-37.777,0.856],[176.4849,-37.7756,1.1925],[176.4863,-37.7739,0.0],[176.4846,-37.7736,0.3331],[176.4807,-37.7747,1.0565],[176.4791,-37.7774,2.0605],[176.4736,-37.7723,0.1834],[176.4737,-37.7734,0.8456],[176.4689,-37.7745,2.3056],[176.4693,-37.7687,0.0],[176.4734,-37.7612,14.5023],[176.4766,-37.7618,0.4483],[176.4776,-37.7594,0.574],[176.4795,-37.7622,0.0],[176.4799,-37.7606,0.0],[176.4774,-37.7536,0.0],[176.4681,-37.7408,0.4816],[176.4626,-37.751,1.9075],[176.4566,-37.754,0.0],[176.4543,-37.7573,1.4846],[176.4518,-37.7568,0.0],[176.4469,-37.7589,0.4247],[176.4465,-37.7614,2.1123],[176.4438,-37.7609,0.0],[176.4416,-37.7626,0.0],[176.4394,-37.7606,0.0],[176.4313,-37.7626,0.2854],[176.4282,-37.7608,0.0],[176.4265,-37.7571,0.0],[176.4216,-37.7548,0.6568],[176.4178,-37.7493,1.363],[176.4413,-37.7548,0.0],[176.4541,-37.7548,1.2771],[176.4385,-37.7535,0.0],[176.4158,-37.7476,0.0],[176.4126,-37.7514,0.9558],[176.4058,-37.7506,0.781],[176.4025,-37.7525,1.0905],[176.3759,-37.7456,2.3003],[176.3667,-37.747,1.5827],[176.3603,-37.7445,2.6994],[176.3556,-37.7404,2.0652],[176.3536,-37.741,1.4599],[176.3539,-37.7377,6.0077],[176.346,-37.7339,4.8012],[176.3286,-37.7271,4.9286],[176.3134,-37.7233,3.005],[176.3073,-37.7197,4.3781],[176.3074,-37.7144,6.2527],[176.2928,-37.7143,5.9731],[176.2928,-37.7193,4.147],[176.288,-37.7193,5.2068],[176.2844,-37.717,13.3079],[176.2844,-37.7226,20.0401],[176.286,-37.7241,12.8051],[176.2795,-37.7248,16.3777],[176.2673,-37.7199,22.4635],[176.2655,-37.7169,14.2393],[176.2527,-37.7188,34.243],[176.25,-37.7208,45.9434],[176.239,-37.7181,16.7601],[176.2372,-37.7163,21.0665],[176.2234,-37.7195,13.57],[176.2172,-37.719,23.7144],[176.2146,-37.7241,42.4906],[176.2096,-37.7261,33.4389],[176.2126,-37.7322,56.9037],[176.2081,-37.7332,85.7958],[176.2061,-37.7387,58.6909],[176.2026,-37.7401,108.6971],[176.2048,-37.744,114.9509],[176.1991,-37.745,82.3202],[176.1945,-37.7434,128.3052],[176.1911,-37.7479,99.8268],[176.1923,-37.7492,120.9161],[176.1839,-37.7503,109.4546],[176.1815,-37.7487,91.56],[176.1747,-37.7509,47.5523],[176.1768,-37.7531,69.7797],[176.1761,-37.7544,73.1634],[176.1701,-37.7582,117.5691],[176.1698,-37.7567,119.511],[176.1588,-37.7601,66.3335],[176.1579,-37.7565,57.3037],[176.1543,-37.7529,60.5385],[176.15,-37.7534,29.2754],[176.1454,-37.7507,8.8407],[176.1432,-37.754,42.9518],[176.1438,-37.7565,54.0772],[176.1414,-37.7573,57.5023],[176.1189,-37.7544,45.246],[176.1147,-37.7616,37.5142],[176.1162,-37.7706,67.82],[176.1099,-37.7705,74.2668],[176.1099,-37.7672,61.0045],[176.1076,-37.7672,56.5407],[176.1066,-37.7655,49.3659],[176.1041,-37.766,66.821],[176.1017,-37.7699,82.4873],[176.0967,-37.7689,15.2744],[176.0946,-37.7634,9.8244],[176.0807,-37.7613,7.4195],[176.0759,-37.759,13.869],[176.0741,-37.7566,5.7039],[176.0766,-37.7544,11.5689],[176.0889,-37.7521,62.3959],[176.0927,-37.747,45.1002],[176.0926,-37.7433,34.8221],[176.0827,-37.7396,9.426],[176.084,-37.7363,2.7681],[176.0943,-37.7285,2.0102],[176.1026,-37.7104,0.89],[176.0992,-37.7006,17.4533],[176.0938,-37.698,1.3287],[176.0913,-37.6931,1.0809],[176.0943,-37.6867,0.0],[176.0934,-37.6856,0.6496],[176.0962,-37.6824,0.9456],[176.0946,-37.6824,0.9456],[176.1009,-37.6794,0.0],[176.1021,-37.6773,0.0],[176.0987,-37.6741,0.0],[176.0948,-37.6745,0.0],[176.0956,-37.6701,0.5564],[176.0927,-37.6656,0.2967],[176.093,-37.6632,0.0],[176.0856,-37.664,0.8266],[176.0736,-37.6578,0.0],[176.0638,-37.657,5.1531],[176.0601,-37.659,0.8486],[176.0631,-37.6585,1.7303],[176.0654,-37.6602,1.9163],[176.0649,-37.665,6.0023],[176.0688,-37.6695,3.0468],[176.0663,-37.6708,5.6829],[176.0589,-37.6621,3.2238],[176.0549,-37.6612,9.2841],[176.0533,-37.6624,9.9843],[176.0554,-37.6603,0.0],[176.0489,-37.6596,0.6446],[176.0503,-37.6651,2.7525],[176.0537,-37.6698,1.4648],[176.0563,-37.6706,9.8558],[176.0534,-37.6724,6.6331],[176.0499,-37.6721,4.9192],[176.0534,-37.6746,12.6726],[176.0535,-37.6796,14.5285],[176.0515,-37.6798,10.8262],[176.0515,-37.6816,11.0967],[176.0488,-37.6789,4.1445],[176.0459,-37.6796,5.74],[176.0442,-37.6828,1.681],[176.0411,-37.6805,2.1236],[176.0355,-37.6839,3.9221],[176.0333,-37.6834,7.2131],[176.0384,-37.6808,0.9324],[176.0363,-37.6804,1.9009],[176.0367,-37.6791,23.0303],[176.046,-37.676,5.6487],[176.0465,-37.6725,16.969],[176.0503,-37.6692,1.5807],[176.0488,-37.6684,7.3999],[176.0445,-37.671,2.257],[176.0408,-37.6686,8.1643],[176.0448,-37.6651,10.9802],[176.044,-37.6616,5.8887],[176.0493,-37.657,0.0],[176.0493,-37.6548,0.0],[176.0467,-37.6527,0.0],[176.0428,-37.6532,0.0],[176.0447,-37.6541,1.6334],[176.0439,-37.656,2.6869],[176.0412,-37.6561,2.1958],[176.0398,-37.661,5.1853],[176.0366,-37.6614,2.0129],[176.0354,-37.6632,9.0542],[176.0335,-37.661,0.0],[176.0305,-37.6636,1.6522],[176.0314,-37.6646,19.7643],[176.0257,-37.6654,4.0603],[176.0242,-37.6682,5.7635],[176.0231,-37.6674,1.9789],[176.025,-37.6644,10.4474],[176.0314,-37.6616,2.9869],[176.0301,-37.6595,8.0321],[176.0323,-37.6577,12.4068],[176.0374,-37.656,7.7862],[176.038,-37.6516,7.9838],[176.0361,-37.6516,8.8644],[176.0359,-37.6496,12.4085],[176.0421,-37.6453,2.3516],[176.0426,-37.6408,15.4948],[176.0479,-37.6345,2.5898],[176.0538,-37.6329,0.0],[176.0525,-37.6329,2.3212],[176.0524,-37.6303,2.902],[176.0536,-37.6263,7.689],[176.0468,-37.6284,1.3962],[176.0368,-37.6382,6.0838],[176.0216,-37.6391,2.4583],[176.0196,-37.6461,1.0309],[176.0148,-37.6448,12.9985],[176.0087,-37.6518,3.1337],[176.0094,-37.6482,8.2207],[176.0119,-37.646,10.7051],[176.0125,-37.6416,1.1945],[176.0148,-37.6413,0.9966],[176.0164,-37.6391,1.0065],[176.0162,-37.6338,2.1933],[176.0112,-37.6355,4.5868],[176.0156,-37.633,2.1933],[176.0163,-37.6246,0.0],[176.0153,-37.6244,0.0],[176.0116,-37.6269,8.8788],[176.007,-37.6269,5.1978],[175.998,-37.6337,1.8778],[175.999,-37.6351,0.608],[175.9976,-37.645,4.7592],[175.9885,-37.6447,8.9852],[175.9866,-37.6464,8.2043],[175.991,-37.6411,4.4685],[175.9902,-37.6369,0.9188],[175.9917,-37.6326,0.0],[175.987,-37.6271,3.5607],[175.9824,-37.6305,4.7378],[175.981,-37.6274,5.7622],[175.9754,-37.6239,2.192],[175.9733,-37.6249,12.5253],[175.972,-37.627,2.3352],[175.974,-37.6282,4.5571],[175.973,-37.631,1.1975],[175.9742,-37.6322,2.569],[175.9703,-37.6369,14.3127],[175.9692,-37.6369,14.3127],[175.968,-37.6305,3.4153],[175.9606,-37.6319,3.1761],[175.9599,-37.634,1.2641],[175.9585,-37.6323,20.1483],[175.9651,-37.6285,1.1112],[175.9666,-37.6246,12.3033],[175.9693,-37.6242,1.2619],[175.9732,-37.6176,4.1491],[175.9789,-37.6175,1.6587],[175.9818,-37.6113,0.8707],[175.9814,-37.6082,1.7487],[175.9789,-37.6068,3.5542],[175.9745,-37.6074,0.7076],[175.9672,-37.6059,0.5467],[175.9663,-37.6078,0.9141],[175.9622,-37.6097,3.122],[175.9576,-37.6066,0.7476],[175.9575,-37.6113,0.9873],[175.9565,-37.6073,1.5485],[175.9596,-37.6039,0.6276],[175.9578,-37.6013,1.0357],[175.9588,-37.5985,0.8676],[175.9617,-37.5971,0.7719],[175.9695,-37.5975,0.8289],[175.978,-37.5893,1.0759],[175.9789,-37.5863,0.6914],[175.9739,-37.5802,1.2613],[175.9744,-37.5782,1.3717],[175.9722,-37.5737,0.5423],[175.9688,-37.5765,0.0],[175.966,-37.5835,2.7721],[175.9583,-37.5864,1.736],[175.9522,-37.5945,1.0311],[175.948,-37.5944,4.1764],[175.9451,-37.5962,3.2724],[175.9451,-37.5953,3.2724],[175.9477,-37.5932,4.1764],[175.9492,-37.5931,1.7258],[175.9482,-37.5914,5.663],[175.9505,-37.5921,1.2595],[175.9453,-37.5828,1.1762],[175.94,-37.5806,1.0806],[175.941,-37.58,1.2013],[175.9382,-37.58,1.0806],[175.9466,-37.5733,0.2828],[175.943,-37.5688,0.0],[175.9413,-37.5694,0.0],[175.9416,-37.5722,0.7138],[175.9309,-37.5796,2.5481],[175.9296,-37.583,6.9482],[175.925,-37.5824,1.2066],[175.9231,-37.5792,1.3005],[175.9251,-37.577,0.7442],[175.9225,-37.5757,1.8957],[175.9271,-37.5727,5.9205],[175.9268,-37.5703,1.749],[175.9287,-37.5692,1.6428],[175.9299,-37.5698,1.3511],[175.929,-37.5705,1.4835],[175.9314,-37.5702,1.3511],[175.9374,-37.5637,5.325],[175.9342,-37.561,0.1761],[175.9302,-37.5626,3.7541],[175.9322,-37.5609,1.2245],[175.9283,-37.5592,4.6224],[175.9369,-37.5588,3.4045],[175.9457,-37.555,2.3914],[175.9507,-37.558,0.0],[175.9533,-37.554,0.0],[175.9512,-37.5469,0.0],[175.9465,-37.5426,0.0],[175.94,-37.5405,1.0872],[175.9388,-37.5409,1.0872],[175.9399,-37.5445,2.0742],[175.9356,-37.5427,1.1362],[175.9313,-37.5436,3.483],[175.9323,-37.542,1.4363],[175.9354,-37.5403,2.8881],[175.9348,-37.5368,0.9221],[175.9237,-37.5389,3.5537],[175.9226,-37.5415,1.3994],[175.9198,-37.5419,0.8348],[175.9182,-37.5407,1.6774],[175.919,-37.5343,3.1474],[175.9171,-37.5346,6.5648],[175.9178,-37.5336,3.1474],[175.938,-37.53,5.4168],[175.9452,-37.53,7.3139],[175.9467,-37.5315,0.0],[175.9495,-37.5265,12.3373],[175.9596,-37.5198,0.0],[175.9677,-37.5167,8.5906],[175.9753,-37.5167,0.0],[175.975,-37.5156,29.7032],[175.9781,-37.5146,0.0],[175.9758,-37.5071,10.3609],[175.9723,-37.5056,1.7099],[175.9686,-37.5008,9.5037],[175.9675,-37.4957,2.6801],[175.9612,-37.495,4.4841],[175.9502,-37.4846,1.3548],[175.9482,-37.4853,0.0],[175.9503,-37.4851,1.3548],[175.9498,-37.487,0.0],[175.9538,-37.489,3.2591],[175.9535,-37.4938,1.3497],[175.9551,-37.4972,2.3892],[175.951,-37.4983,3.1288],[175.9476,-37.4967,3.7974],[175.9418,-37.5011,9.8358],[175.9425,-37.4999,8.2257],[175.9402,-37.4976,0.0],[175.9367,-37.5,6.6522],[175.9317,-37.5003,6.7505],[175.9315,-37.498,7.1085],[175.9297,-37.4973,2.8313],[175.9314,-37.4944,1.03],[175.9286,-37.494,3.9356],[175.9307,-37.4934,1.03],[175.9321,-37.4898,1.0605],[175.9374,-37.4916,1.1876],[175.9411,-37.4894,14.3063],[175.9427,-37.4864,2.4778],[175.9449,-37.4864,0.0],[175.9469,-37.4832,3.6283],[175.9465,-37.4788,4.1715],[175.9419,-37.4825,11.5117],[175.9417,-37.4813,11.5117],[175.9386,-37.4818,7.3384],[175.9363,-37.4836,11.5415],[175.9362,-37.4808,0.4323],[175.9389,-37.4802,0.2195],[175.9382,-37.4773,0.2232],[175.936,-37.4774,2.6086],[175.9383,-37.4654,3.9687],[175.9408,-37.4642,3.3182],[175.945,-37.4579,5.5697],[175.9569,-37.4488,4.6097],[175.9624,-37.4478,9.8107],[175.9691,-37.4502,0.0],[175.9676,-37.4457,1.0696],[175.9592,-37.4387,5.0716],[175.96,-37.4366,2.9177],[175.9583,-37.4349,10.9424],[175.955,-37.4388,11.1158],[175.9518,-37.4403,0.8415],[175.9486,-37.4397,2.1956],[175.9557,-37.434,0.9684],[175.9595,-37.4343,2.898],[175.9604,-37.4369,2.9177],[175.9673,-37.4416,1.0799],[175.9738,-37.451,1.869],[175.9729,-37.456,0.0],[175.9766,-37.4608,0.0],[175.9774,-37.4632,28.695],[175.9763,-37.4646,0.0],[175.9786,-37.4691,11.6952],[175.9835,-37.4665,3.1311],[175.9857,-37.4667,28.6021],[175.9859,-37.469,8.9791],[175.9912,-37.465,54.5345],[175.9772,-37.4512,0.0],[175.9527,-37.4192,0.0],[175.9409,-37.4011,2.0925],[175.9385,-37.3941,42.4337],[175.9418,-37.3933,19.4812],[175.9407,-37.3908,34.6984],[175.9433,-37.3883,0.0],[175.94,-37.3865,40.6116],[175.937,-37.3815,10.9694],[175.9407,-37.3735,23.3238],[175.9289,-37.3761,178.7644],[175.9228,-37.3742,281.632],[175.9229,-37.376,262.1975],[175.9217,-37.3752,262.1975],[175.9166,-37.3793,239.0818],[175.9184,-37.3799,225.2344],[175.9169,-37.3815,277.1689],[175.9184,-37.3827,246.0911],[175.9214,-37.3813,228.2065],[175.926,-37.3833,156.6776],[175.9259,-37.3865,198.567],[175.921,-37.3869,253.269],[175.922,-37.392,244.1529],[175.9198,-37.3921,234.418],[175.9168,-37.3986,188.7509],[175.9172,-37.4028,187.6004],[175.9245,-37.4044,140.7805],[175.9052,-37.4041,122.735],[175.9039,-37.4057,116.4029],[175.9042,-37.4101,155.9908],[175.9064,-37.41,154.6259],[175.9067,-37.4162,127.0838],[175.9057,-37.4163,125.1588],[175.9089,-37.4197,138.2239],[175.9083,-37.4226,173.7071],[175.9136,-37.425,203.9467],[175.9101,-37.4303,210.6197],[175.8908,-37.4437,106.1421],[175.8824,-37.44,179.7879],[175.8775,-37.4432,129.3732],[175.8788,-37.4461,137.9164],[175.8775,-37.4511,127.6305],[175.8754,-37.4495,124.6779],[175.8609,-37.4611,163.291],[175.872,-37.4735,198.9226],[175.8806,-37.4695,131.925],[175.8961,-37.4867,155.2291],[175.8993,-37.4956,136.66],[175.8707,-37.4956,148.5477],[175.8707,-37.5005,134.7797],[175.8656,-37.5004,196.1206],[175.8576,-37.4973,345.6135],[175.8437,-37.487,382.5406],[175.8328,-37.4716,298.1856],[175.8135,-37.4849,518.6398],[175.8167,-37.4887,483.5338],[175.8179,-37.4929,474.4504],[175.8169,-37.4955,479.8039],[175.8085,-37.5011,500.7001],[175.806,-37.5107,570.4309],[175.8091,-37.5137,568.9805],[175.8233,-37.5158,589.6404],[175.8246,-37.5201,557.8992],[175.8237,-37.5268,718.6422],[175.829,-37.5318,577.1237],[175.831,-37.5368,600.0076],[175.8266,-37.5457,633.629],[175.8129,-37.5552,663.7358],[175.8117,-37.5643,787.4271],[175.8217,-37.5716,736.5317],[175.823,-37.5826,647.1131],[175.8345,-37.5983,517.3342],[175.8369,-37.6066,451.1736],[175.8389,-37.6075,511.5215],[175.8415,-37.6133,601.6669],[175.8398,-37.6183,598.0917],[175.8408,-37.6206,578.3728],[175.8367,-37.6228,539.7688],[175.8358,-37.6267,644.4369],[175.8336,-37.6275,695.3596],[175.8371,-37.6322,617.5615],[175.8375,-37.6354,529.8456],[175.8415,-37.6388,518.1154],[175.8408,-37.6419,568.4228],[175.8432,-37.6432,512.0676],[175.8451,-37.6469,489.3423],[175.8445,-37.6486,487.513],[175.8481,-37.6519,510.9021],[175.8521,-37.662,785.6152],[175.8563,-37.6628,801.5032],[175.8652,-37.6681,819.6627],[175.8648,-37.6722,819.4907],[175.8709,-37.6775,806.834],[175.8725,-37.6872,760.0731],[175.8795,-37.6993,647.4583],[175.8897,-37.7011,490.3081],[175.8899,-37.7092,522.6252],[175.8921,-37.7112,532.2125],[175.8968,-37.7118,509.8231],[175.898,-37.7142,490.1337],[175.8957,-37.7167,503.6457],[175.9002,-37.7184,513.0096],[175.8981,-37.7194,510.4145],[175.8978,-37.7213,509.9882],[175.8996,-37.7222,511.3889],[175.8952,-37.7242,484.6845],[175.9277,-37.776,544.4175],[175.9059,-37.8286,727.9532],[175.935,-37.8426,522.6218],[175.9281,-37.8472,546.8506],[175.9279,-37.8521,560.5627],[175.9319,-37.8616,549.3895],[175.9399,-37.868,499.9478],[175.9365,-37.8701,514.6167],[175.9379,-37.8737,567.2107],[175.9362,-37.8814,627.88],[175.9396,-37.8826,615.1753],[175.943,-37.8791,611.0831],[175.9478,-37.8788,592.0181],[175.9609,-37.8894,479.6003],[175.9677,-37.8833,432.6346],[175.9718,-37.8828,389.7244],[175.9542,-37.9019,491.4176],[175.958,-37.9058,503.028],[175.9772,-37.9137,422.088],[175.9469,-37.9227,528.9187],[175.9424,-37.9266,531.8682],[175.9409,-37.9299,558.5187],[175.9478,-37.9523,542.4343],[175.9529,-37.9623,539.4326],[175.9601,-37.9678,505.1183],[175.9659,-37.9657,506.9825],[175.9718,-37.9712,520.9934],[175.9726,-37.9749,532.2429],[175.9701,-37.9835,613.1882],[175.9715,-37.9864,635.9507],[176.0132,-37.9935,570.5463],[176.0229,-37.9989,573.8287],[176.0328,-38.0083,571.6085],[176.0545,-38.0194,564.7075],[176.0622,-38.0268,572.6089],[176.0983,-37.9619,543.8293],[176.1169,-37.9692,513.8394],[176.118,-37.9669,499.8091],[176.1303,-37.9611,461.6145],[176.1433,-37.9607,434.1758],[176.1452,-37.9586,436.4601],[176.1516,-37.9593,431.042],[176.1544,-37.9617,428.157],[176.1594,-37.9613,416.2153],[176.1606,-37.9597,412.4254],[176.1706,-37.9609,402.6532],[176.176,-37.9582,407.9302],[176.1855,-37.9602,400.0176],[176.191,-37.9546,393.8716],[176.1953,-37.9605,377.3127],[176.2043,-37.9596,423.2007],[176.2213,-37.9542,351.0889],[176.2242,-37.9543,358.7011],[176.2308,-37.9583,315.9787],[176.2388,-37.9595,312.3656],[176.2537,-37.9555,272.0829],[176.2686,-37.9453,256.5235],[176.2862,-37.937,239.4189],[176.351,-37.9372,158.2188],[176.3516,-37.9402,144.9543],[176.3709,-37.9476,240.7469],[176.371,-37.9492,236.1205],[176.3843,-37.9492,183.2013],[176.3841,-37.9549,227.1247],[176.4403,-37.9578,237.7436],[176.4693,-37.9669,193.5079],[176.4717,-37.9646,183.4047],[176.4724,-37.9588,153.0215],[176.5,-37.9588,172.7674],[176.4981,-37.9625,198.1829],[176.5015,-37.978,268.2591],[176.5042,-37.9804,273.9949],[176.505,-37.9838,277.6914],[176.5035,-37.9881,287.2505],[176.509,-37.9931,335.195],[176.5087,-37.9945,335.195],[176.5136,-37.9954,330.3572],[176.5249,-37.9906,331.7298],[176.5283,-37.9918,328.2694],[176.5309,-37.9905,339.3316],[176.5362,-37.9921,338.1292],[176.5419,-37.999,364.9325],[176.5533,-38.0023,370.4406],[176.5543,-38.0043,380.1444],[176.5526,-38.0067,382.8215],[176.5539,-38.0073,383.7548],[176.5531,-38.0092,379.9405],[176.5987,-38.0088,357.3688],[176.5998,-38.0108,346.0399]]],
[[[176.085,-37.6348,0.0],[176.0684,-37.6374,2.5364],[176.0647,-37.6395,3.844],[176.0621,-37.6452,3.9542],[176.0644,-37.6484,1.8231],[176.0658,-37.6481,0.0],[176.0766,-37.6385,2.608],[176.085,-37.6348,0.0]]],
[[[176.0437,-37.6546,2.6869],[176.0437,-37.6545,1.6334],[176.0436,-37.6545,1.6334],[176.0437,-37.6546,2.6869]]],
[[[176.0425,-37.6429,3.494],[176.0426,-37.6432,8.5447],[176.0432,-37.6419,0.0],[176.0425,-37.6427,3.494],[176.0425,-37.6429,3.494]]],
[[[176.0433,-37.6415,0.0],[176.0432,-37.6416,0.0],[176.0432,-37.6417,0.0],[176.0434,-37.6414,0.0],[176.0433,-37.6415,0.0]]],
[[[175.9986,-37.624,0.0],[175.996,-37.6171,0.0],[175.9927,-37.6186,0.0],[175.9917,-37.6235,0.8959],[175.9902,-37.6244,0.3185],[175.9933,-37.6291,0.0],[175.9967,-37.6297,0.0],[175.9984,-37.6278,0.0],[175.9986,-37.624,0.0]]],
[[[176.1045,-37.6241,0.0],[176.1043,-37.6242,0.0],[176.1042,-37.6244,0.0],[176.1044,-37.6244,0.0],[176.1045,-37.6241,0.0]]],
[[[176.1041,-37.6248,0.0],[176.1036,-37.6294,3.0321],[176.1021,-37.6285,0.0],[176.1068,-37.6392,0.0],[176.1163,-37.6398,0.0],[176.1267,-37.6365,0.0],[176.1238,-37.635,1.9915],[176.1225,-37.6269,1.2192],[176.1201,-37.627,9.608],[176.1164,-37.6218,6.1871],[176.1088,-37.6192,17.6688],[176.0992,-37.612,0.804],[176.0963,-37.6117,15.4637],[176.0934,-37.6076,2.0939],[176.091,-37.6073,8.2163],[176.0904,-37.6092,22.0552],[176.0944,-37.6136,0.7246],[176.1053,-37.6198,1.9975],[176.1065,-37.6242,0.7029],[176.1046,-37.6267,1.1744],[176.1041,-37.6248,0.0]]],
[[[175.9474,-37.5642,7.185],[175.9475,-37.5631,7.185],[175.9462,-37.5631,0.0],[175.9462,-37.5633,0.0],[175.9474,-37.5642,7.185]]],
[[[176.0257,-37.5021,7.7615],[176.0133,-37.4856,0.0],[176.0071,-37.48,2.0892],[175.9946,-37.4743,0.0],[175.9868,-37.4726,0.0],[175.983,-37.4753,0.0],[175.9847,-37.4989,0.0],[175.9945,-37.5041,4.9917],[176.0102,-37.5214,1.0428],[176.0195,-37.5367,0.2596],[176.0231,-37.5401,3.161],[176.0298,-37.5456,1.5255],[176.0353,-37.5465,5.6215],[176.0421,-37.5516,5.5106],[176.054,-37.5658,3.4757],[176.0599,-37.5693,7.3774],[176.0654,-37.5686,1.5135],[176.0692,-37.5704,0.8038],[176.067,-37.5744,1.0408],[176.0729,-37.581,0.6871],[176.0659,-37.5835,3.9513],[176.0644,-37.5832,2.2401],[176.0669,-37.5808,1.4561],[176.057,-37.5727,0.0],[176.0493,-37.5729,0.6089],[176.0382,-37.568,3.9762],[176.0301,-37.5708,4.3915],[176.0283,-37.5869,0.0],[176.0337,-37.5964,4.8067],[176.034,-37.6007,5.2783],[176.0387,-37.5994,11.8959],[176.0446,-37.6051,0.0],[176.0497,-37.6034,11.4982],[176.0644,-37.6074,22.6679],[176.0736,-37.622,0.0],[176.0783,-37.6218,0.5372],[176.0853,-37.625,0.0],[176.0882,-37.6228,0.0],[176.0957,-37.6218,0.0],[176.0931,-37.6207,0.3331],[176.092,-37.6146,0.0],[176.0867,-37.6143,0.0],[176.087,-37.6109,1.0002],[176.0769,-37.6024,4.3928],[176.082,-37.6028,8.4003],[176.081,-37.5982,4.3704],[176.0852,-37.6008,2.1383],[176.081,-37.5939,8.7275],[176.0842,-37.5938,2.1419],[176.0905,-37.598,1.3176],[176.0976,-37.5996,0.4435],[176.103,-37.6031,6.7842],[176.1053,-37.6113,0.0],[176.1114,-37.6112,12.2415],[176.1255,-37.617,21.4667],[176.1279,-37.6281,4.9341],[176.1306,-37.629,5.8571],[176.1334,-37.6267,5.7137],[176.1335,-37.6316,0.0],[176.1394,-37.6351,0.0],[176.1459,-37.6422,1.9215],[176.1511,-37.6442,8.2215],[176.1582,-37.6395,8.0693],[176.1594,-37.6372,15.7038],[176.1579,-37.6342,10.5193],[176.1472,-37.6213,1.328],[176.1186,-37.601,4.9392],[176.087,-37.5724,5.429],[176.0556,-37.5391,0.0],[176.0257,-37.5021,7.7615]]]]}}