{"type":"Feature","properties":{"GID_2":"NZL.18.7_1","GID_0":"NZL","country":"NewZealand","GID_1":"NZL.18_1","province":"Wellington","NL_NAME_1":"NA","county":"UpperHutt","VARNAME_2":"NA","NL_NAME_2":"NA","TYPE_2":"City","ENGTYPE_2":"City","CC_2":"045","HASC_2":"NZ.WG.UH","name":"Upper_Hutt.county"},
"geometry":{"type": "MultiPolygon","coordinates": [[[[174.9596,-41.0108,297.1883],[174.9612,-41.0188,380.682],[174.9668,-41.0241,489.9265],[174.9757,-41.0379,360.7331],[174.968,-41.0603,395.3815],[174.9719,-41.0617,377.4454],[174.9743,-41.0601,341.1746],[174.9743,-41.0754,348.2787],[174.9833,-41.076,277.2769],[174.9862,-41.074,226.6651],[174.9939,-41.0734,234.7885],[174.9951,-41.0845,413.1143],[174.9845,-41.0905,433.7041],[174.9882,-41.0966,139.1611],[174.99,-41.0964,129.1797],[174.9955,-41.103,274.0],[174.9907,-41.1058,228.8881],[174.9927,-41.1078,234.1475],[174.9882,-41.1127,354.8486],[174.9904,-41.1143,390.5545],[174.9888,-41.1181,371.8356],[174.9901,-41.1223,407.8708],[174.9872,-41.1228,351.5062],[174.9862,-41.1257,359.2436],[174.9837,-41.1265,301.4226],[174.9853,-41.1272,301.4226],[174.9846,-41.1287,266.8281],[174.9817,-41.1304,248.9974],[174.9821,-41.1322,238.4574],[174.9778,-41.1361,167.4985],[174.9794,-41.14,149.2538],[174.9849,-41.1432,185.8507],[174.999,-41.1444,36.1403],[174.9918,-41.1488,31.8794],[175.0051,-41.1636,268.5902],[174.999,-41.1667,261.3796],[175.0085,-41.1773,348.3751],[175.0182,-41.1784,290.7382],[175.0159,-41.1891,308.6288],[175.0043,-41.1884,418.9727],[175.0009,-41.198,424.0403],[174.9986,-41.2001,424.9993],[174.9932,-41.2006,333.1953],[174.9911,-41.2038,418.0153],[174.9924,-41.2075,481.7054],[174.9982,-41.2118,418.4514],[174.9994,-41.2146,502.4831],[175.0065,-41.2152,487.6279],[175.0154,-41.2131,542.2721],[175.02,-41.2177,540.6744],[175.0287,-41.217,490.7971],[175.0312,-41.2187,487.3434],[175.0369,-41.2186,601.3809],[175.0394,-41.2216,606.2438],[175.0421,-41.2222,600.222],[175.0481,-41.2168,556.6343],[175.0538,-41.2156,533.7302],[175.0651,-41.2189,530.8736],[175.0765,-41.2124,652.922],[175.0819,-41.2179,552.3381],[175.0798,-41.2205,575.8881],[175.0812,-41.2215,645.3964],[175.0815,-41.2261,612.0157],[175.0838,-41.222,714.4999],[175.0956,-41.2123,537.3872],[175.1042,-41.2113,652.6212],[175.1102,-41.2134,616.5264],[175.1151,-41.211,645.7686],[175.1242,-41.2107,598.2675],[175.1274,-41.2153,754.28],[175.129,-41.2155,754.28],[175.1375,-41.2112,696.0089],[175.1429,-41.2057,695.2286],[175.1516,-41.203,602.4798],[175.1582,-41.1827,508.6508],[175.1623,-41.1778,435.9906],[175.1656,-41.179,564.2373],[175.1682,-41.171,460.2968],[175.1775,-41.166,602.567],[175.1875,-41.151,595.6885],[175.1902,-41.1493,593.7903],[175.1991,-41.1494,507.2255],[175.2022,-41.1511,560.8148],[175.2057,-41.1497,599.2748],[175.2072,-41.1395,499.9885],[175.2214,-41.1266,664.4725],[175.2215,-41.123,602.0009],[175.225,-41.1182,665.4063],[175.2302,-41.1191,663.4084],[175.2328,-41.1174,661.96],[175.2297,-41.1032,613.7898],[175.2456,-41.0906,680.652],[175.2499,-41.0889,740.0323],[175.2419,-41.0714,487.0013],[175.2418,-41.0664,509.0168],[175.2441,-41.0623,474.4095],[175.2559,-41.0519,587.3358],[175.2588,-41.0397,780.1205],[175.2616,-41.0366,750.2828],[175.2615,-41.033,855.4974],[175.2648,-41.0265,997.4221],[175.2753,-41.0225,972.687],[175.2795,-41.0167,897.8754],[175.2931,-41.0059,914.3545],[175.2953,-41.0013,929.9747],[175.3063,-40.9895,1077.6342],[175.3047,-40.9871,1089.1782],[175.297,-40.9838,1167.9503],[175.2798,-40.9868,1151.7012],[175.2716,-40.9858,1321.0664],[175.2638,-40.9769,1287.0061],[175.2633,-40.9723,1343.2549],[175.2611,-40.9709,1324.2207],[175.2461,-40.9719,881.6171],[175.2389,-40.9694,1009.4479],[175.2339,-40.9728,1065.7053],[175.2284,-40.9734,944.1857],[175.2245,-40.9723,929.8177],[175.2164,-40.966,839.169],[175.2076,-40.9684,795.8506],[175.2028,-40.9789,881.3086],[175.1978,-40.9798,747.7214],[175.1935,-40.9735,884.7378],[175.187,-40.9696,762.9689],[175.182,-40.9728,716.4056],[175.1786,-40.9729,677.2743],[175.1737,-40.971,679.3166],[175.1693,-40.9651,667.9352],[175.1643,-40.9656,775.1185],[175.1647,-40.9677,704.5334],[175.1625,-40.967,697.083],[175.1572,-40.9688,688.2247],[175.1536,-40.9666,682.3143],[175.1473,-40.9672,652.6057],[175.1448,-40.9645,680.7928],[175.1345,-40.9646,748.7357],[175.1292,-40.9493,650.0169],[175.1116,-40.9528,421.5383],[175.1144,-40.9568,432.9953],[175.0917,-40.9613,444.6915],[175.0988,-40.9821,404.55],[175.075,-40.9821,472.2615],[175.0744,-40.9833,497.5178],[175.0676,-40.9738,556.2332],[175.0617,-40.9703,582.4008],[175.063,-40.9664,451.2539],[175.0591,-40.9623,596.5215],[175.0506,-40.9682,697.9504],[175.0394,-40.9841,530.1758],[175.0258,-40.9961,472.5758],[175.016,-40.999,424.4613],[175.0016,-40.9991,390.866],[174.9965,-41.0076,272.2626],[174.9797,-41.0133,619.3165],[174.9596,-41.0108,297.1883]]]]}}