{"type":"Feature","properties":{"GID_2":"NZL.7.5_1","GID_0":"NZL","country":"NewZealand","GID_1":"NZL.7_1","province":"Manawatu-Wanganui","NL_NAME_1":"NA","county":"Ruapehu","VARNAME_2":"NA","NL_NAME_2":"NA","TYPE_2":"District","ENGTYPE_2":"District","CC_2":"036","HASC_2":"NZ.MW.RP","name":"Ruapehu.county"},
"geometry":{"type": "MultiPolygon","coordinates": [[[[175.8286,-39.289,1298.7344],[175.8126,-39.3003,1338.0338],[175.7909,-39.2998,1353.0686],[175.7836,-39.2943,1224.5304],[175.7801,-39.2934,1245.2881],[175.7696,-39.295,1362.9353],[175.7653,-39.2914,1299.7545],[175.7518,-39.2879,1131.3531],[175.741,-39.2926,1067.26],[175.7411,-39.2975,1071.1021],[175.7048,-39.2883,1100.9912],[175.6692,-39.2969,1226.5054],[175.5579,-39.276,2672.1177],[175.6347,-39.1584,2247.022],[175.6372,-39.1291,1938.0176],[175.6428,-39.1043,1328.2976],[175.6478,-39.1001,1283.7014],[175.6456,-39.1001,1267.0533],[175.6421,-39.0967,1211.0405],[175.6399,-39.0974,1196.1963],[175.6374,-39.0901,1122.2102],[175.6354,-39.0887,1085.5515],[175.6324,-39.0889,1080.8044],[175.626,-39.0858,995.0902],[175.622,-39.087,967.572],[175.6187,-39.0826,895.0212],[175.6172,-39.0749,839.955],[175.6246,-39.0599,753.5129],[175.6184,-39.0579,768.427],[175.615,-39.0551,770.4338],[175.6136,-39.0506,686.4171],[175.6318,-39.0456,678.5035],[175.6312,-39.0489,683.2664],[175.6358,-39.0453,665.1],[175.648,-39.0279,618.8751],[175.6481,-39.0144,634.427],[175.682,-38.9797,1055.2148],[175.6412,-38.9803,659.4835],[175.6269,-38.974,654.5616],[175.6063,-38.9818,701.8622],[175.5626,-38.9868,684.3481],[175.5656,-38.9773,645.5553],[175.565,-38.9725,637.9468],[175.5694,-38.9701,636.9464],[175.5675,-38.9687,638.4172],[175.5608,-38.9727,651.5505],[175.5539,-38.9557,690.5664],[175.5649,-38.9385,725.4652],[175.566,-38.9299,718.0115],[175.5761,-38.9185,772.4428],[175.58,-38.9107,723.4707],[175.5613,-38.8924,770.0563],[175.5607,-38.8842,787.8628],[175.5552,-38.8772,782.1133],[175.5492,-38.8728,847.205],[175.5447,-38.8645,891.5054],[175.5464,-38.8599,940.5121],[175.5604,-38.8434,945.7864],[175.5615,-38.8386,1017.4864],[175.5698,-38.833,1012.033],[175.577,-38.8309,1051.4775],[175.5772,-38.8232,991.7026],[175.5734,-38.8144,877.381],[175.5637,-38.8037,792.2896],[175.5555,-38.7902,965.4274],[175.5534,-38.7893,994.3004],[175.5417,-38.7951,965.6504],[175.5375,-38.7791,860.6003],[175.5352,-38.7764,854.0455],[175.5306,-38.7749,826.1001],[175.5278,-38.7701,818.0602],[175.5269,-38.7634,795.3753],[175.5197,-38.7586,890.8766],[175.5184,-38.7519,897.247],[175.5197,-38.75,940.6001],[175.5237,-38.7498,913.1122],[175.5239,-38.7457,921.876],[175.5294,-38.7436,924.6771],[175.5345,-38.7347,906.7814],[175.5581,-38.709,821.3206],[175.565,-38.6954,851.937],[175.5731,-38.6904,874.0599],[175.5796,-38.6818,888.1569],[175.5807,-38.6776,892.0784],[175.5758,-38.6745,906.0861],[175.5754,-38.6724,905.612],[175.5787,-38.6655,896.0042],[175.5767,-38.663,898.4028],[175.5786,-38.6599,891.5798],[175.5778,-38.6559,914.8378],[175.5793,-38.6527,929.0425],[175.5759,-38.6499,945.3212],[175.5923,-38.6374,1022.147],[175.6003,-38.6341,1055.2637],[175.6147,-38.6181,967.1139],[175.6217,-38.6067,928.8335],[175.6286,-38.6006,911.1147],[175.6289,-38.5954,931.1901],[175.6326,-38.5915,909.0473],[175.6327,-38.5795,877.6256],[175.6349,-38.5699,872.5926],[175.6337,-38.5661,878.2585],[175.6368,-38.5645,906.0695],[175.6355,-38.5578,984.8344],[175.6369,-38.5525,1069.656],[175.6281,-38.5519,1131.9297],[175.6285,-38.5577,1009.1755],[175.6311,-38.5623,934.9266],[175.6267,-38.5697,816.6872],[175.6171,-38.5723,752.001],[175.6157,-38.5756,726.9269],[175.6105,-38.5788,709.7247],[175.6055,-38.5851,686.1884],[175.5943,-38.5877,655.3477],[175.5916,-38.5859,645.7144],[175.5866,-38.59,650.4877],[175.5774,-38.5916,629.903],[175.5699,-38.5899,577.7248],[175.5695,-38.5938,568.4395],[175.5679,-38.5943,568.4395],[175.5597,-38.5953,550.0212],[175.55,-38.5934,541.0665],[175.5453,-38.5975,525.7969],[175.5416,-38.598,532.983],[175.5364,-38.5971,521.4069],[175.5332,-38.5939,500.2528],[175.5286,-38.5935,492.3143],[175.5257,-38.591,467.3186],[175.5268,-38.5891,472.2077],[175.5208,-38.583,458.4312],[175.5143,-38.5828,451.1404],[175.5005,-38.5591,732.7127],[175.4724,-38.5635,510.5362],[175.4511,-38.5629,498.6081],[175.4461,-38.5645,475.0661],[175.422,-38.5563,336.5571],[175.4207,-38.5508,378.3366],[175.401,-38.5511,576.5195],[175.4011,-38.56,461.0377],[175.3923,-38.5602,532.6655],[175.3896,-38.5582,495.7594],[175.382,-38.5577,532.4789],[175.3778,-38.5727,393.3585],[175.3355,-38.5815,467.2283],[175.3318,-38.5703,441.6183],[175.3354,-38.5695,469.8538],[175.3361,-38.5672,482.7899],[175.3322,-38.5634,458.831],[175.3347,-38.5593,490.7666],[175.3299,-38.556399999999996,495.1342],[175.3292,-38.5543,504.3345],[175.3264,-38.5543,461.512],[175.3247,-38.5514,469.8659],[175.3178,-38.556,433.4989],[175.303,-38.5715,484.339],[175.3009,-38.5887,470.5756],[175.3064,-38.5954,358.8639],[175.3002,-38.6006,451.0326],[175.2851,-38.588,414.2433],[175.2653,-38.6137,400.7087],[175.2622,-38.6122,440.1328],[175.2563,-38.6132,489.1557],[175.2544,-38.6166,458.7671],[175.2518,-38.6142,511.8954],[175.2485,-38.6154,501.6331],[175.2404,-38.624,525.5598],[175.2364,-38.6253,522.802],[175.2343,-38.6322,584.3694],[175.2309,-38.632,563.0786],[175.2132,-38.6394,473.9377],[175.2022,-38.6374,419.3338],[175.1966,-38.6335,541.7671],[175.1949,-38.6293,473.5935],[175.1844,-38.631,438.6768],[175.1733,-38.6274,450.0203],[175.167,-38.6271,371.6851],[175.159,-38.6296,312.2258],[175.1429,-38.6302,281.6848],[175.141,-38.6318,277.337],[175.1374,-38.6308,333.6686],[175.1357,-38.6263,385.0296],[175.1195,-38.6264,462.0811],[175.1165,-38.6219,398.226],[175.1092,-38.6245,520.6931],[175.1079,-38.6277,438.7782],[175.0997,-38.6314,343.4513],[175.0984,-38.6338,306.5827],[175.0925,-38.635,251.9997],[175.0931,-38.638,268.6557],[175.0885,-38.6378,235.366],[175.0875,-38.6358,229.8161],[175.0744,-38.6297,165.2846],[175.0695,-38.6301,158.4001],[175.07,-38.6377,298.7062],[175.0574,-38.6405,367.8742],[175.058,-38.6443,382.8442],[175.0539,-38.6456,408.3329],[175.0511,-38.6494,403.6144],[175.0392,-38.6516,423.341],[175.0398,-38.655,417.1154],[175.0325,-38.6569,402.7661],[175.0293,-38.656,384.0587],[175.0265,-38.6592,427.5031],[175.0247,-38.6578,378.6059],[175.0222,-38.6595,363.9895],[175.0181,-38.659,364.8585],[175.017,-38.6604,430.759],[175.0026,-38.6634,408.1395],[175.0005,-38.6663,421.4029],[174.9943,-38.6648,322.0094],[174.9865,-38.6655,259.03],[174.9811,-38.6619,231.5524],[174.979,-38.6663,257.17],[174.9756,-38.6653,300.828],[174.9716,-38.6673,321.8649],[174.9674,-38.6676,375.985],[174.9609,-38.6636,455.9239],[174.9582,-38.6642,443.136],[174.9544,-38.6675,432.619],[174.9558,-38.673,465.6782],[174.9541,-38.6744,435.4444],[174.9596,-38.6783,429.2092],[174.9579,-38.6874,411.1188],[174.9616,-38.6902,425.6096],[174.9611,-38.6927,412.779],[174.9643,-38.6968,432.166],[174.9629,-38.6992,438.26],[174.9571,-38.6993,418.0355],[174.9533,-38.7014,426.0377],[174.9532,-38.7044,433.7419],[174.951,-38.7061,443.1725],[174.9541,-38.7151,407.5858],[174.9425,-38.72,408.5928],[174.9415,-38.7211,453.3377],[174.9439,-38.7228,451.9257],[174.9348,-38.7306,429.5729],[174.9333,-38.7388,435.4392],[174.938,-38.7414,442.1241],[174.9379,-38.7502,473.8275],[174.9324,-38.7524,499.4258],[174.9327,-38.7544,487.4494],[174.931,-38.7556,470.1416],[174.9275,-38.7563,461.075],[174.9202,-38.7534,440.3007],[174.9148,-38.7548,437.7552],[174.896,-38.7547,506.6375],[174.8892,-38.7611,463.8018],[174.8839,-38.7631,473.1841],[174.8739,-38.7658,465.2915],[174.8672,-38.7653,481.8966],[174.8663,-38.7694,469.5065],[174.8629,-38.773,488.0329],[174.862,-38.779,489.9883],[174.8588,-38.782,497.3531],[174.8513,-38.7832,449.5656],[174.8493,-38.7811,419.7795],[174.8505,-38.7796,426.0877],[174.8485,-38.7786,425.0327],[174.8371,-38.783,403.6297],[174.832,-38.7835,404.9158],[174.8315,-38.7819,416.001],[174.8263,-38.7857,418.0935],[174.82,-38.787,403.1678],[174.8208,-38.7883,401.4764],[174.819,-38.7904,402.5297],[174.8222,-38.7921,402.1898],[174.8207,-38.7935,399.4285],[174.8218,-38.7939,403.6906],[174.8206,-38.795,401.3333],[174.8169,-38.7941,406.1833],[174.8184,-38.7965,401.3666],[174.8145,-38.8006,418.0579],[174.8159,-38.8034,400.2086],[174.8078,-38.82,395.7809],[174.7866,-38.821,440.4203],[174.788,-38.8247,406.6158],[174.7966,-38.829,413.8081],[174.7993,-38.8289,434.2124],[174.7973,-38.8316,439.1829],[174.7997,-38.8327,427.9383],[174.7983,-38.8376,426.6971],[174.7997,-38.8392,420.3651],[174.7984,-38.843,415.7936],[174.7996,-38.8452,450.1029],[174.797,-38.8494,468.7923],[174.7995,-38.8512,418.137],[174.7998,-38.8541,439.6913],[174.7967,-38.859,465.7152],[174.7995,-38.8617,471.6699],[174.7988,-38.8653,447.4045],[174.8066,-38.8695,402.8743],[174.8035,-38.871,433.2322],[174.8076,-38.8759,454.4126],[174.8059,-38.8775,435.0876],[174.8076,-38.8819,457.0615],[174.8125,-38.8827,444.867],[174.8118,-38.8841,466.9981],[174.8174,-38.8874,416.4432],[174.8207,-38.8867,469.3295],[174.8202,-38.8902,461.2254],[174.8217,-38.8913,455.3909],[174.8196,-38.8944,450.4069],[174.8246,-38.8956,461.0904],[174.8237,-38.898,473.9255],[174.8269,-38.9,455.3439],[174.8252,-38.9047,525.351],[174.8276,-38.9099,452.9777],[174.8282,-38.9079,497.2255],[174.8319,-38.9069,477.6539],[174.8319,-38.9044,447.1304],[174.8349,-38.9023,425.6175],[174.8349,-38.9002,421.9022],[174.845,-38.8968,407.6411],[174.8466,-38.8944,407.5104],[174.8499,-38.8955,410.7241],[174.8466,-38.8984,408.7099],[174.8513,-38.898,404.4104],[174.8522,-38.891,406.9367],[174.8566,-38.8887,397.9255],[174.8553,-38.8919,399.4423],[174.8567,-38.8954,394.1616],[174.8625,-38.8944,372.7051],[174.8631,-38.89,301.5995],[174.8714,-38.8906,294.7271],[174.8709,-38.8932,311.9336],[174.8746,-38.8987,315.1349],[174.8669,-38.9015,292.2923],[174.8669,-38.9039,283.517],[174.8691,-38.9046,321.0415],[174.8739,-38.9021,288.2202],[174.8791,-38.9041,281.5988],[174.8781,-38.9081,334.6657],[174.8842,-38.9126,270.455],[174.8811,-38.9159,276.5336],[174.8804,-38.9201,358.6373],[174.8743,-38.9204,276.8211],[174.8812,-38.9231,267.6317],[174.884,-38.9277,244.8767],[174.8808,-38.9285,241.1701],[174.8739,-38.9257,249.9397],[174.8713,-38.9284,268.9605],[174.8724,-38.9322,253.1705],[174.8781,-38.9332,242.8227],[174.8744,-38.939,233.0958],[174.8759,-38.9451,218.6214],[174.8824,-38.9464,213.6267],[174.8845,-38.9492,203.4241],[174.8841,-38.9527,212.3449],[174.8863,-38.9546,221.2393],[174.8802,-38.9558,275.1577],[174.8801,-38.9582,265.7918],[174.8772,-38.9601,273.5565],[174.8772,-38.9642,272.6317],[174.8798,-38.9669,333.3826],[174.8837,-38.9657,191.791],[174.8855,-38.969,203.5635],[174.8811,-38.972,190.6375],[174.8791,-38.9794,352.1242],[174.8756,-38.9831,268.3129],[174.8762,-38.9862,328.0121],[174.8689,-38.9891,483.8481],[174.8751,-38.9909,358.1733],[174.8777,-38.9886,357.2523],[174.8823,-38.9931,315.718],[174.885,-38.9916,356.9786],[174.8904,-38.9926,375.3043],[174.8932,-38.9905,394.0263],[174.8957,-38.9914,358.9473],[174.9066,-38.9885,384.9077],[174.911,-38.9892,398.388],[174.9109,-38.992,413.0482],[174.9164,-38.9993,350.7271],[174.9136,-39.0075,356.5802],[174.9146,-39.0108,343.6126],[174.924,-39.0102,243.5736],[174.9266,-39.0041,210.4659],[174.9405,-38.9954,221.8839],[174.952,-38.9988,161.2763],[174.9603,-38.9949,156.8225],[174.9609,-38.9978,181.5021],[174.9564,-38.9977,175.9259],[174.9549,-38.9994,155.035],[174.9599,-39.0016,153.8885],[174.9609,-39.0036,182.2751],[174.9585,-39.0104,175.832],[174.9604,-39.0233,172.1393],[174.9651,-39.0235,159.0505],[174.9625,-39.028,184.7405],[174.9654,-39.0283,155.177],[174.9657,-39.0313,179.8711],[174.9682,-39.0321,164.272],[174.9682,-39.0336,177.4141],[174.9734,-39.0355,163.0079],[174.9733,-39.0386,166.92],[174.9765,-39.042,168.7272],[174.9738,-39.0435,164.6942],[174.976,-39.0476,155.9331],[174.9707,-39.05,157.4313],[174.9706,-39.0521,162.1315],[174.9653,-39.0521,163.1531],[174.9667,-39.0549,191.1404],[174.9634,-39.0521,159.2371],[174.9615,-39.053,175.3236],[174.9594,-39.0584,155.9634],[174.9633,-39.0599,179.4597],[174.9599,-39.0622,154.1429],[174.9633,-39.0663,169.3632],[174.9761,-39.0628,259.0587],[174.9805,-39.0653,327.0275],[174.9837,-39.0652,337.9746],[174.9851,-39.069,391.126],[174.9973,-39.0726,444.3797],[175.0014,-39.0707,451.5417],[175.0031,-39.0678,452.5169],[175.0108,-39.0694,422.5034],[175.012,-39.0658,455.8284],[175.0473,-39.0704,145.0776],[175.0426,-39.0763,114.1847],[175.043,-39.0834,100.4483],[175.0595,-39.0949,108.183],[175.0666,-39.1012,116.5383],[175.0695,-39.1059,102.2667],[175.0692,-39.108,93.224],[175.0656,-39.1103,105.7044],[175.0579,-39.1122,95.471],[175.0471,-39.1067,111.3446],[175.028,-39.1017,101.7253],[175.0233,-39.1033,96.4212],[175.0195,-39.1091,108.5401],[175.0103,-39.1165,135.1146],[175.0059,-39.1156,97.9975],[175.001,-39.1106,105.0129],[174.998,-39.1106,121.5437],[174.9966,-39.113,107.0975],[175.0046,-39.1235,114.6416],[175.0033,-39.1272,129.9961],[175.0002,-39.1288,105.6125],[174.9961,-39.128,105.8801],[174.994,-39.1255,122.108],[174.9926,-39.1138,87.2108],[174.9828,-39.1123,125.3084],[174.9818,-39.117,88.5761],[174.9915,-39.1254,105.1983],[174.989,-39.1325,93.3202],[174.994,-39.1377,134.7194],[174.9898,-39.1402,99.2037],[174.98,-39.1387,94.8911],[174.9779,-39.1396,94.6231],[174.9844,-39.1491,95.9107],[174.9837,-39.1552,89.3888],[174.9634,-39.1626,93.3478],[174.9533,-39.1621,82.1779],[174.9499,-39.1633,152.2601],[174.9502,-39.1659,196.9599],[174.9577,-39.1687,103.8062],[174.9588,-39.171,84.919],[174.9457,-39.1741,117.7958],[174.941,-39.1777,138.9063],[174.9416,-39.1805,151.8365],[174.9496,-39.1811,102.4743],[174.9504,-39.1836,133.0651],[174.9419,-39.1932,134.689],[174.9344,-39.1989,82.9442],[174.9229,-39.2197,79.9506],[174.9149,-39.2252,113.7272],[174.9146,-39.2336,69.177],[174.9102,-39.234,71.6674],[174.8964,-39.2266,71.0436],[174.8931,-39.2287,73.7063],[174.8947,-39.233,79.6575],[174.8905,-39.2406,77.09],[174.8875,-39.2411,86.3487],[174.8805,-39.238,79.227],[174.8776,-39.2388,87.9997],[174.8774,-39.244,72.105],[174.8791,-39.2461,82.9173],[174.89,-39.2467,77.5381],[174.8935,-39.249,80.1231],[174.8924,-39.2538,64.6704],[174.885,-39.259,60.0],[174.8837,-39.2637,71.0253],[174.8906,-39.2718,79.0804],[174.9026,-39.2766,94.7573],[174.9054,-39.2831,69.2804],[174.9052,-39.2879,75.4568],[174.9077,-39.2892,80.059],[174.9102,-39.2881,91.6716],[174.9153,-39.2799,94.0036],[174.9247,-39.2763,113.1663],[174.9279,-39.2787,105.1092],[174.9271,-39.2881,75.9726],[174.929,-39.2924,77.3386],[174.9405,-39.2903,85.636],[174.953,-39.2954,81.3487],[174.9608,-39.2917,133.91],[174.9641,-39.2827,86.9069],[174.9689,-39.2816,70.5773],[174.9703,-39.2844,65.8557],[174.9619,-39.2984,67.3059],[174.9615,-39.3027,79.4328],[174.964,-39.3056,66.6405],[174.9715,-39.3088,62.2266],[174.9888,-39.3113,72.4094],[175.001,-39.3107,66.4075],[175.0077,-39.3131,95.4243],[175.0074,-39.3173,56.0718],[175.0031,-39.3247,51.5617],[174.9921,-39.337,46.8618],[174.9932,-39.3409,56.7819],[174.9923,-39.3455,61.2933],[174.9969,-39.3517,101.1134],[175.0045,-39.3547,64.9862],[175.0054,-39.3625,66.4576],[175.0142,-39.3739,90.4034],[175.0128,-39.3771,64.7837],[175.0134,-39.3852,60.275],[175.02,-39.395,134.6743],[175.031,-39.4019,74.6518],[175.0444,-39.4044,64.1037],[175.0397,-39.4088,64.8566],[175.0396,-39.4204,65.8314],[175.0372,-39.4249,62.3189],[175.0204,-39.4271,80.6297],[175.0148,-39.4347,43.9892],[175.0163,-39.4367,66.2211],[175.0223,-39.4368,64.1282],[175.0258,-39.4394,38.6985],[175.0272,-39.4463,40.3798],[175.0331,-39.4556,53.1112],[175.0325,-39.4644,42.5793],[175.0377,-39.4708,33.478],[175.0352,-39.4762,30.2636],[175.0358,-39.4794,26.25],[175.0384,-39.4806,32.0532],[175.0439,-39.4801,35.2453],[175.0478,-39.4838,44.3484],[175.0512,-39.4967,64.1931],[175.0448,-39.5036,110.0642],[175.0476,-39.5122,41.2214],[175.054,-39.5225,29.2493],[175.0578,-39.5254,69.4219],[175.0685,-39.5144,428.411],[175.0729,-39.5142,313.3039],[175.0733,-39.512,343.0787],[175.0781,-39.5088,418.5662],[175.0793,-39.5056,468.115],[175.078,-39.503,492.079],[175.0811,-39.4974,436.7689],[175.0813,-39.4924,414.1934],[175.0872,-39.486,530.3135],[175.0954,-39.484,586.5767],[175.0992,-39.4849,560.8798],[175.1021,-39.4821,573.4957],[175.1044,-39.4843,570.5016],[175.1064,-39.4833,566.2767],[175.1102,-39.485,578.1047],[175.1176,-39.4818,517.6354],[175.1184,-39.4869,482.8781],[175.121,-39.4895,457.1537],[175.1212,-39.4943,436.1053],[175.1241,-39.498,381.3123],[175.1339,-39.4968,491.9448],[175.1377,-39.5213,225.8181],[175.1402,-39.5195,233.3868],[175.1446,-39.5201,231.5879],[175.1535,-39.5281,306.0827],[175.165,-39.5325,379.7336],[175.1637,-39.5343,437.1798],[175.1508,-39.5351,403.6174],[175.1375,-39.5438,369.1896],[175.1557,-39.5378,546.7118],[175.177,-39.5383,597.768],[175.1929,-39.5355,570.6978],[175.1973,-39.5367,501.9032],[175.2,-39.5348,443.8257],[175.2203,-39.5399,350.2214],[175.2234,-39.5387,287.6175],[175.2265,-39.5407,323.5016],[175.2272,-39.5423,340.4299],[175.2243,-39.5435,318.769],[175.2275,-39.5501,289.9475],[175.2263,-39.5517,295.6829],[175.2277,-39.553,332.7911],[175.2258,-39.5545,401.4322],[175.2151,-39.5577,387.1663],[175.2034,-39.5544,469.6199],[175.2035,-39.5909,363.0197],[175.2055,-39.5925,434.5925],[175.2086,-39.5914,449.4228],[175.207,-39.5866,472.6238],[175.217,-39.5853,573.662],[175.2156,-39.582,592.1469],[175.2288,-39.5858,603.6089],[175.234,-39.6014,571.9258],[175.2427,-39.6066,476.693],[175.2499,-39.6191,635.129],[175.2587,-39.6178,614.8951],[175.2833,-39.6194,512.0626],[175.3133,-39.6263,178.1002],[175.3117,-39.6231,187.0658],[175.3081,-39.625,207.0847],[175.3054,-39.623,217.0197],[175.3082,-39.6161,242.6533],[175.313,-39.6128,324.4957],[175.3367,-39.6058,417.4144],[175.3421,-39.6028,541.1083],[175.3464,-39.6065,555.5151],[175.3595,-39.5923,390.3121],[175.3616,-39.5866,443.2295],[175.3602,-39.5791,474.6195],[175.3647,-39.5734,577.7896],[175.3755,-39.5745,634.1733],[175.3815,-39.5781,648.3213],[175.3871,-39.5848,532.9815],[175.3902,-39.5853,489.4672],[175.3929,-39.588,474.0828],[175.4043,-39.5893,407.1738],[175.4054,-39.5916,394.5881],[175.4031,-39.5922,400.3616],[175.4032,-39.5939,394.1997],[175.4063,-39.5931,350.2281],[175.4078,-39.5943,347.9558],[175.4108,-39.5927,350.6469],[175.411,-39.5908,354.3835],[175.4086,-39.5915,357.7249],[175.4093,-39.5894,355.8656],[175.4137,-39.5893,366.6056],[175.4116,-39.5874,361.2598],[175.4167,-39.5845,398.3938],[175.4218,-39.5872,377.6732],[175.4279,-39.5855,403.612],[175.4301,-39.5871,387.3777],[175.4337,-39.5863,390.9198],[175.4292,-39.5812,426.1158],[175.4306,-39.5791,409.5437],[175.4273,-39.5761,437.0679],[175.4302,-39.5759,417.1089],[175.4332,-39.5733,433.0957],[175.4296,-39.5706,454.2334],[175.4307,-39.5689,436.5148],[175.4275,-39.5661,469.2535],[175.4299,-39.564,464.9859],[175.4259,-39.5625,466.1572],[175.424,-39.5597,462.8533],[175.4173,-39.5582,490.2499],[175.4199,-39.5568,499.2479],[175.418,-39.5511,493.1022],[175.4205,-39.5507,490.5731],[175.4213,-39.548,499.6511],[175.4181,-39.547,509.6665],[175.4215,-39.5449,516.7228],[175.4669,-39.5449,562.4044],[175.4808,-39.5473,586.9412],[175.4884,-39.5447,613.4082],[175.4931,-39.5453,626.4421],[175.4943,-39.5433,652.7296],[175.5918,-39.5432,582.6663],[175.5894,-39.5428,606.7438],[175.5896,-39.541,606.172],[175.5942,-39.5376,623.1206],[175.5972,-39.5312,667.5769],[175.596,-39.5224,699.1007],[175.6435,-39.5254,842.6848],[175.6575,-39.5487,805.3699],[175.6629,-39.5492,811.0529],[175.6783,-39.5422,786.8827],[175.6799,-39.5458,763.3176],[175.6839,-39.544,763.022],[175.6859,-39.5465,771.3909],[175.6862,-39.5505,772.9134],[175.6945,-39.5537,749.4636],[175.6988,-39.5572,758.8381],[175.6996,-39.5594,762.1838],[175.6974,-39.5647,742.7832],[175.6993,-39.568,761.0245],[175.7132,-39.5738,734.8734],[175.7163,-39.5712,768.4831],[175.7224,-39.572,784.2593],[175.729,-39.5666,763.6875],[175.7351,-39.5643,789.6487],[175.7453,-39.5627,813.0669],[175.7512,-39.5568,898.5789],[175.7523,-39.5475,896.1833],[175.7554,-39.5426,921.3925],[175.7659,-39.541,963.6675],[175.7669,-39.5429,1003.6976],[175.7713,-39.544,1014.9642],[175.7833,-39.5401,987.4744],[175.7896,-39.5335,1052.0588],[175.7881,-39.5287,1089.3153],[175.7895,-39.5263,1098.0319],[175.8215,-39.5265,850.5281],[175.8226,-39.5286,845.5043],[175.8346,-39.5285,823.0571],[175.8481,-39.5244,819.0374],[175.8451,-39.5102,987.0156],[175.866,-39.5206,846.5488],[175.9013,-39.5012,545.4789],[175.9021,-39.495,518.3181],[175.8988,-39.4963,538.9171],[175.8965,-39.4936,527.9288],[175.8919,-39.4943,558.0956],[175.8918,-39.4585,935.5015],[175.8937,-39.4585,943.9024],[175.8935,-39.4124,1306.178],[175.9765,-39.4108,1131.4974],[175.9765,-39.415,1034.561],[176.0082,-39.4149,657.6631],[176.0077,-39.4107,698.6211],[176.0125,-39.4054,773.029],[176.0131,-39.3993,669.8571],[176.0171,-39.4008,700.1965],[176.0203,-39.3953,719.8073],[176.0145,-39.3934,685.6787],[176.0146,-39.3882,697.6153],[176.0179,-39.3871,683.1805],[176.013,-39.3828,703.6907],[176.0145,-39.3811,737.1865],[176.014,-39.3792,690.5964],[176.0186,-39.3797,715.2075],[176.0221,-39.3761,708.1205],[176.022,-39.3731,707.5925],[176.0196,-39.3701,708.3117],[176.023,-39.3695,701.4952],[176.0243,-39.3677,707.6302],[176.0206,-39.3662,723.1799],[176.0212,-39.3592,713.6268],[176.024,-39.3582,715.2041],[176.028,-39.3601,719.8553],[176.0294,-39.3557,736.1539],[175.9762,-39.356,958.708],[175.9757,-39.2869,1130.9578],[176.0041,-39.2868,818.3316],[176.0045,-39.2823,804.0481],[175.9954,-39.282,803.3051],[175.9943,-39.2799,813.8785],[175.9917,-39.2793,806.4875],[175.9929,-39.2769,811.114],[175.9837,-39.2737,832.3618],[175.9824,-39.2698,836.9934],[175.9792,-39.2695,871.5886],[175.9751,-39.2739,881.4066],[175.9707,-39.2728,868.7986],[175.9707,-39.2704,855.7004],[175.969,-39.2708,855.7004],[175.969,-39.269,912.9325],[175.9662,-39.2686,900.9911],[175.9648,-39.2608,900.3106],[175.9608,-39.2588,906.415],[175.9535,-39.2586,916.144],[175.9485,-39.2628,939.875],[175.9418,-39.262,958.8047],[175.9376,-39.2584,983.1224],[175.9257,-39.277,1390.0168],[175.9097,-39.2765,1449.6802],[175.9058,-39.2827,1452.3218],[175.8999,-39.2876,1415.0265],[175.8859,-39.2956,1161.4951],[175.884,-39.2939,1164.3591],[175.8689,-39.2906,1327.1825],[175.8459,-39.292,1242.4972],[175.8398,-39.2886,1266.3408],[175.8286,-39.289,1298.7344]]]]}}