{"type":"Feature","properties":{"GID_2":"NZL.10.1_1","GID_0":"NZL","country":"NewZealand","GID_1":"NZL.10_1","province":"NorthernIslands","NL_NAME_1":"NA","county":"KermadecIslands","VARNAME_2":"NA","NL_NAME_2":"NA","TYPE_2":"Territory","ENGTYPE_2":"Territory","CC_2":"NZ.01.01","HASC_2":"NA","name":"Kermadec_Islands.county"},
"geometry":{"type": "MultiPolygon","coordinates": [[[[181.1736,-31.3542,1.0],[181.1733,-31.3561,1.0],[181.1764,-31.3544,1.0],[181.1753,-31.3528,1.0],[181.1736,-31.3542,1.0]]],
[[[181.445,-30.5389,1.0],[181.442,-30.5375,1.0],[181.4389,-30.5405,1.0],[181.4422,-30.5452,1.0],[181.4451,-30.5455,1.0],[181.4467,-30.5439,1.0],[181.445,-30.5389,1.0]]],
[[[181.4317,-30.5342,1.0],[181.43,-30.5344,1.0],[181.4297,-30.5372,1.0],[181.4342,-30.5394,1.0],[181.4345,-30.5364,1.0],[181.4317,-30.5342,1.0]]],
[[[181.5861,-30.2343,1.0],[181.5853,-30.2328,1.0],[181.5831,-30.2336,1.0],[181.5842,-30.2375,1.0],[181.5853,-30.2367,1.0],[181.5861,-30.2343,1.0]]],
[[[181.5764,-30.2253,1.0],[181.5653,-30.2258,1.0],[181.5592,-30.2301,1.0],[181.5603,-30.2344,1.0],[181.5686,-30.2431,1.0],[181.5749,-30.2403,1.0],[181.5748,-30.2387,1.0],[181.5833,-30.2322,1.0],[181.5764,-30.2253,1.0]]],
[[[182.0531,-29.2405,1.0],[182.0463,-29.2381,1.0],[182.025,-29.2397,1.0],[182.0178,-29.2428,1.0],[182.0196,-29.2459,1.0],[182.0224,-29.2448,1.0],[182.027,-29.2466,1.0],[182.0276,-29.2497,1.0],[182.0314,-29.2481,1.0],[182.0345,-29.2519,1.0],[182.0428,-29.2522,1.0],[182.0556,-29.2652,1.0],[182.0578,-29.2705,1.0],[182.0511,-29.2772,1.0],[182.0473,-29.2881,1.0],[182.0408,-29.293,1.0],[182.041,-29.2967,1.0],[182.0497,-29.2969,1.0],[182.0516,-29.2948,1.0],[182.0595,-29.2963,1.0],[182.065,-29.2954,1.0],[182.0692,-29.2975,1.0],[182.0714,-29.2967,1.0],[182.0755,-29.2997,1.0],[182.0781,-29.2958,1.0],[182.0775,-29.2928,1.0],[182.08,-29.2908,1.0],[182.0792,-29.2858,1.0],[182.0853,-29.2794,1.0],[182.0923,-29.2773,1.0],[182.0973,-29.2777,1.0],[182.0995,-29.2757,1.0],[182.1017,-29.2775,1.0],[182.1042,-29.2763,1.0],[182.1061,-29.2778,1.0],[182.1045,-29.2817,1.0],[182.1085,-29.2836,1.0],[182.1108,-29.2797,1.0],[182.1136,-29.2797,1.0],[182.1148,-29.2775,1.0],[182.1133,-29.2753,1.0],[182.1145,-29.2717,1.0],[182.1128,-29.2694,1.0],[182.1133,-29.2675,1.0],[182.1042,-29.2578,1.0],[182.102,-29.2519,1.0],[182.0826,-29.2483,1.0],[182.0705,-29.2419,1.0],[182.0578,-29.2422,1.0],[182.0531,-29.2405,1.0]]],
[[[182.0968,-29.2818,1.0],[182.0974,-29.2807,1.0],[182.0952,-29.2831,1.0],[182.096,-29.2831,1.0],[182.0968,-29.2818,1.0]]],
[[[182.1458,-29.2547,1.0],[182.1474,-29.2544,1.0],[182.1469,-29.2514,1.0],[182.1439,-29.2494,1.0],[182.1439,-29.2508,1.0],[182.1458,-29.2547,1.0]]],
[[[182.1442,-29.2458,1.0],[182.1437,-29.2444,1.0],[182.1413,-29.2445,1.0],[182.1431,-29.2467,1.0],[182.1442,-29.2458,1.0]]],
[[[182.1258,-29.2422,1.0],[182.1229,-29.2406,1.0],[182.1188,-29.2491,1.0],[182.1217,-29.2486,1.0],[182.1269,-29.2439,1.0],[182.1258,-29.2422,1.0]]],
[[[182.1239,-29.2337,1.0],[182.1247,-29.2342,1.0],[182.1263,-29.2318,1.0],[182.124,-29.2328,1.0],[182.1239,-29.2337,1.0]]]]}}