{"type":"Feature","properties":{"ISO3166-1-Alpha-3":"NZL","country":"New Zealand","fill":"#F0F","id":"5471","name":"Kermadec Islands"},
"geometry":{"type": "Polygon","coordinates": [[[182.09046,-29.27858,1.0],[182.09156,-29.27939,1.0],[182.10414,-29.29217,1.0],[182.11036,-29.28004,1.0],[182.122,-29.27239,1.0],[182.13673,-29.27117,1.0],[182.15187,-29.27858,1.0],[182.13457,-29.25115,1.0],[182.12538,-29.24236,1.0],[182.11061,-29.23382,1.0],[182.09514,-29.22812,1.0],[182.07753,-29.22389,1.0],[182.05921,-29.22194,1.0],[182.042,-29.22275,1.0],[182.04717,-29.23309,1.0],[182.05413,-29.24033,1.0],[182.07244,-29.25465,1.0],[182.07435,-29.26458,1.0],[182.07252,-29.27711,1.0],[182.07512,-29.28436,1.0],[182.09046,-29.27858,1.0]]]}}