{"type": "Feature","bbox": [165.8682,-52.6208,179.0658,-47.7469],"geometry": {"type": "MultiPolygon","coordinates": [[[[169.0636,-52.5799,0.0],[169.0631,-52.5815,0.0],[169.0669,-52.5815,0.0],[169.0654,-52.5796,0.0],[169.0636,-52.5799,0.0]]],
[[[169.0166,-52.5768,0.0],[169.0181,-52.5792,0.0],[169.0204,-52.5762,0.0],[169.0184,-52.5757,0.0],[169.0166,-52.5768,0.0]]],
[[[169.0457,-52.5704,0.0],[169.0479,-52.5726,0.0],[169.0515,-52.5718,0.0],[169.0489,-52.5692,0.0],[169.0457,-52.5704,0.0]]],
[[[168.9829,-52.5556,0.0],[168.9828,-52.5567,0.0],[168.9859,-52.5561,0.0226],[168.9848,-52.5549,0.0],[168.9829,-52.5556,0.0]]],
[[[169.022,-52.5521,0.0],[169.0239,-52.5515,0.0],[169.0211,-52.5505,1.5654],[169.0188,-52.5516,0.0],[169.0204,-52.5522,0.0],[169.022,-52.5521,0.0]]],
[[[168.9886,-52.5513,0.0],[168.9892,-52.5531,0.0],[168.9928,-52.5532,0.0],[168.9948,-52.5525,0.0],[168.9954,-52.5501,0.0],[168.9924,-52.5493,0.0],[168.9886,-52.5513,0.0]]],
[[[169.0145,-52.5386,0.0],[169.0137,-52.5399,0.0],[169.0172,-52.5397,0.0],[169.0158,-52.5385,0.0],[169.0145,-52.5386,0.0]]],
[[[169.0705,-52.5225,0.0],[169.0636,-52.5205,0.0],[169.0625,-52.5209,0.0],[169.064,-52.5214,0.0],[169.0635,-52.5224,0.0],[169.0608,-52.5232,0.0],[169.0641,-52.5258,0.0],[169.0686,-52.5248,0.0],[169.0705,-52.5225,0.0]]],
[[[165.9261,-50.8444,7.3059],[165.92,-50.8378,0.4698],[165.9205,-50.8359,0.0],[165.9162,-50.8367,0.0],[165.9156,-50.8414,17.6439],[165.9111,-50.8444,0.0],[165.9127,-50.8478,0.0],[165.9178,-50.8492,14.4373],[165.9188,-50.8517,151.8682],[165.9067,-50.851,0.0],[165.9025,-50.8546,3.3283],[165.8968,-50.8549,0.0],[165.8986,-50.8572,0.0],[165.9127,-50.8622,0.0],[165.9121,-50.8657,0.0],[165.9134,-50.8668,0.0],[165.9106,-50.8725,0.0],[165.9144,-50.8739,0.0],[165.9173,-50.8727,2.1058],[165.9153,-50.8871,0.0],[165.9405,-50.8914,0.0],[165.948,-50.8805,0.0],[165.9518,-50.8814,0.0],[165.9563,-50.8876,16.6918],[165.955,-50.8921,43.3874],[165.9498,-50.8951,0.0],[165.9496,-50.8993,0.0],[165.9564,-50.901,8.1675],[165.9564,-50.9042,2.552],[165.9698,-50.9036,0.0],[165.9779,-50.907,0.0],[165.986,-50.905,0.0],[165.9969,-50.9085,0.0],[166.0012,-50.9064,0.0],[166.0023,-50.9147,0.0],[166.0256,-50.9158,0.0],[166.0256,-50.9076,319.5795],[166.027,-50.9076,375.5628],[166.0303,-50.9085,316.5888],[166.03,-50.91,0.0],[166.0355,-50.9098,316.499],[166.0444,-50.9133,93.2517],[166.0456,-50.9164,0.0],[166.0444,-50.9169,0.0],[166.0472,-50.9186,0.0],[166.0517,-50.9172,0.0],[166.0583,-50.9192,0.0],[166.0694,-50.925,135.2024],[166.0696,-50.9266,31.4771],[166.0719,-50.927,93.3326],[166.0701,-50.9285,0.2211],[166.0717,-50.9297,0.0],[166.0811,-50.9278,41.8148],[166.1027,-50.9274,0.4638],[166.1091,-50.9237,20.606],[166.1165,-50.9243,0.0],[166.1157,-50.9229,47.0846],[166.1183,-50.9219,0.0],[166.1178,-50.9203,28.7441],[166.125,-50.9192,0.0],[166.1228,-50.9142,0.0],[166.1144,-50.9092,5.1342],[166.0994,-50.9044,45.1982],[166.0928,-50.8981,5.5266],[166.0844,-50.8931,8.133],[166.085,-50.8917,0.0],[166.0945,-50.8958,27.7483],[166.1011,-50.9011,27.188],[166.1211,-50.9094,4.1026],[166.1241,-50.9094,-0.2609],[166.1221,-50.9072,67.9371],[166.1379,-50.9161,0.0],[166.1806,-50.9013,0.0],[166.1714,-50.8951,69.0624],[166.172,-50.8936,130.5512],[166.1794,-50.8922,11.3116],[166.1789,-50.8897,17.214],[166.1678,-50.8836,5.2825],[166.1689,-50.8831,5.2825],[166.1811,-50.8847,0.0],[166.1867,-50.8872,0.0],[166.1906,-50.8844,34.3585],[166.2017,-50.8858,6.6697],[166.2083,-50.8822,0.0],[166.2017,-50.8772,8.1598],[166.1917,-50.8728,0.0],[166.1601,-50.8651,17.4349],[166.1511,-50.8614,23.3775],[166.1361,-50.8611,7.8109],[166.1161,-50.8583,56.4809],[166.1128,-50.8567,12.2358],[166.0972,-50.8556,12.8257],[166.0928,-50.8536,0.0],[166.09,-50.8542,0.0],[166.0872,-50.8517,35.7923],[166.0761,-50.8483,9.7972],[166.065,-50.8528,0.0],[166.0639,-50.8542,0.0],[166.065,-50.8561,0.0],[166.0628,-50.8583,3.3073],[166.0639,-50.8594,3.3073],[166.0567,-50.8653,2.2646],[166.055,-50.8647,2.2646],[166.055,-50.8628,0.0],[166.045,-50.8592,0.0],[166.0261,-50.8653,5.5013],[166.0183,-50.8636,2.6959],[166.0089,-50.8644,2.4022],[166.0056,-50.8625,0.0],[166.0,-50.8622,0.0],[165.9883,-50.8664,6.6707],[165.9695,-50.8625,16.4754],[165.9511,-50.8553,21.1623],[165.9439,-50.85,0.0],[165.93,-50.8478,0.0],[165.9261,-50.8444,7.3059]]],
[[[166.1844,-50.5133,0.4957],[166.1759,-50.5117,31.658],[166.1733,-50.5089,0.0],[166.1711,-50.515,0.0],[166.1739,-50.5186,32.5511],[166.1639,-50.5226,7.7361],[166.1582,-50.5209,9.6479],[166.1564,-50.5194,31.0775],[166.1568,-50.5173,7.5123],[166.1538,-50.5171,7.5123],[166.1489,-50.5117,4.6768],[166.1411,-50.5186,0.0],[166.1367,-50.5278,3.991],[166.1261,-50.5347,9.7418],[166.1245,-50.5331,43.6215],[166.1361,-50.5169,7.5759],[166.1356,-50.5153,9.4787],[166.1383,-50.5131,0.0],[166.1335,-50.5097,14.1259],[166.1294,-50.5091,2.2626],[166.1272,-50.5133,28.2787],[166.1184,-50.5127,0.0],[166.1211,-50.5183,0.0],[166.1156,-50.5239,4.2321],[166.1022,-50.5267,14.1736],[166.0872,-50.5228,0.0],[166.0811,-50.5267,0.0],[166.0765,-50.526,0.0],[166.0717,-50.5281,46.3706],[166.0656,-50.5253,0.0],[166.0589,-50.5275,0.0],[166.0561,-50.5306,0.0],[166.0517,-50.5306,0.0],[166.05,-50.5325,0.0],[166.0533,-50.5344,2.8434],[166.06,-50.5339,1.0182],[166.0347,-50.5424,0.0],[166.0391,-50.5464,0.0],[166.0679,-50.5361,34.6281],[166.0678,-50.5411,0.0],[166.0767,-50.5464,0.0],[166.0839,-50.5475,24.757],[166.0917,-50.5522,0.0],[166.0889,-50.5586,0.0],[166.0938,-50.5602,4.4866],[166.0607,-50.5624,0.0],[166.063,-50.5714,0.0],[166.0967,-50.5681,0.0],[166.0967,-50.5769,0.0],[166.0994,-50.5794,0.0],[166.0994,-50.5842,0.0],[166.0961,-50.5864,0.0],[166.0978,-50.5875,0.0],[166.0956,-50.5892,0.0],[166.0983,-50.5914,0.0],[166.095,-50.5947,0.0],[166.0961,-50.5975,35.7925],[166.0922,-50.5997,0.0],[166.0922,-50.6011,0.0],[166.0861,-50.6036,0.0],[166.0856,-50.6081,0.0],[166.0894,-50.6119,1.1743],[166.085,-50.6133,0.0],[166.0861,-50.6153,0.0],[166.0806,-50.6178,0.0],[166.0789,-50.6228,0.0],[166.0722,-50.6253,0.0],[166.0733,-50.6322,0.0],[166.0722,-50.6386,0.0],[166.0733,-50.64,19.6273],[166.0706,-50.6408,0.0],[166.0683,-50.645,0.0],[166.07,-50.6483,0.0],[166.0728,-50.6494,0.0],[166.0717,-50.6547,0.0],[166.0728,-50.6564,0.0],[166.0783,-50.6592,0.0],[166.0767,-50.6631,0.0],[166.0856,-50.6669,0.0],[166.0813,-50.6704,0.0],[166.0828,-50.6731,0.0],[166.0788,-50.6749,39.8514],[166.0701,-50.675,9.5057],[166.0733,-50.6794,12.0957],[166.0711,-50.6833,0.0],[166.0717,-50.6861,33.261],[166.0659,-50.6872,0.0],[166.0606,-50.6919,6.5827],[166.0483,-50.6969,0.0],[166.0461,-50.6989,0.0],[166.0467,-50.7011,65.6745],[166.0367,-50.7064,0.0],[166.0361,-50.7097,0.0],[166.03,-50.7117,0.0],[166.0278,-50.7158,0.0],[166.0233,-50.7158,0.0],[166.02,-50.7178,0.0],[166.005,-50.7183,0.0],[166.0044,-50.7214,0.0],[165.9887,-50.7278,0.0],[165.9744,-50.7252,0.0],[165.9758,-50.7282,0.0],[165.9699,-50.738,40.9718],[165.9653,-50.7392,0.0],[165.9624,-50.7313,0.0],[165.9585,-50.7323,0.0],[165.9604,-50.7401,20.7492],[165.9572,-50.7392,0.0],[165.9559,-50.7401,0.0],[165.9568,-50.7421,33.1407],[165.9548,-50.7436,19.0966],[165.9478,-50.7443,0.0],[165.9438,-50.7477,0.0],[165.9436,-50.7499,0.0],[165.9341,-50.7449,0.0],[165.9301,-50.7486,0.0],[165.9371,-50.7552,0.0],[165.9333,-50.7584,101.7129],[165.9178,-50.7586,0.0],[165.9016,-50.7635,6.1748],[165.8977,-50.7624,0.4409],[165.8967,-50.7658,88.1411],[165.8927,-50.7678,0.0],[165.8853,-50.7663,0.0],[165.8776,-50.7696,0.0],[165.8777,-50.7711,0.0],[165.886,-50.7746,0.0],[165.8867,-50.7777,0.0],[165.8895,-50.7798,0.0],[165.8856,-50.7847,0.0],[165.886,-50.7876,28.4963],[165.8809,-50.7896,0.0],[165.8803,-50.795,25.0039],[165.8682,-50.7997,0.0],[165.8748,-50.8031,0.0],[165.8743,-50.8048,4.7603],[165.8704,-50.8049,0.0],[165.8753,-50.8067,0.0],[165.8771,-50.8095,0.0],[165.8749,-50.8139,0.0],[165.8761,-50.8164,0.0],[165.8835,-50.8193,0.0],[165.8828,-50.8216,3.4978],[165.8778,-50.8249,0.0],[165.8819,-50.8257,5.6209],[165.8817,-50.8283,0.0],[165.8873,-50.8302,0.0],[165.8881,-50.835,27.8191],[165.882,-50.841,0.0],[165.8933,-50.8389,4.3756],[165.9017,-50.8342,35.2191],[165.9044,-50.8356,0.0],[165.9089,-50.835,0.0],[165.9156,-50.8311,0.8647],[165.9183,-50.8247,0.0],[165.9161,-50.82,13.4636],[165.9167,-50.8161,34.0629],[165.9194,-50.8126,6.5199],[165.9233,-50.8269,0.0],[165.9267,-50.8294,1.9445],[165.9339,-50.8281,6.9896],[165.9298,-50.8308,3.3816],[165.9311,-50.8328,3.2012],[165.9294,-50.8342,4.214],[165.9317,-50.8361,36.4695],[165.93,-50.8381,0.0],[165.9367,-50.8411,8.142],[165.9478,-50.8406,3.596],[165.95,-50.8419,10.5804],[165.9506,-50.8456,2.6286],[165.955,-50.8483,0.0],[165.9567,-50.8475,0.0],[165.9556,-50.8453,2.9897],[165.96,-50.8442,21.7999],[165.9639,-50.8489,0.0],[165.9706,-50.8508,13.196],[165.9744,-50.8531,1.0033],[165.9733,-50.8547,0.0],[165.9778,-50.8558,7.4481],[165.9811,-50.855,2.7419],[165.9822,-50.8525,9.7515],[166.01,-50.8536,0.0],[166.0161,-50.8522,2.1856],[166.0122,-50.8467,2.0573],[166.0133,-50.8453,3.3841],[166.0161,-50.8436,4.8059],[166.0155,-50.8461,0.0],[166.0206,-50.8475,5.0465],[166.0222,-50.8461,0.0],[166.0194,-50.8444,11.8237],[166.0244,-50.845,0.0],[166.0261,-50.8436,0.0],[166.0206,-50.8422,2.1278],[166.0206,-50.8403,3.6766],[166.0172,-50.8383,33.7829],[166.0178,-50.8364,2.7937],[166.0117,-50.8353,14.3887],[166.0072,-50.8325,20.1167],[166.0017,-50.8239,0.0],[165.994,-50.8198,44.9268],[165.9931,-50.8179,5.4274],[165.9975,-50.8168,7.5922],[166.01,-50.8219,0.0],[166.0133,-50.8211,14.6627],[166.0167,-50.8186,18.8135],[166.0161,-50.8153,5.7077],[166.0117,-50.8097,0.0],[166.0139,-50.8078,0.0],[166.0022,-50.8022,0.0],[166.0011,-50.7967,0.0],[165.9983,-50.7955,7.0799],[165.9972,-50.7925,0.0],[165.9898,-50.7903,3.7291],[165.9818,-50.7857,1.9683],[165.9843,-50.7839,10.6299],[165.9942,-50.7824,15.3757],[165.9951,-50.78,0.0],[165.9928,-50.7758,0.0],[165.9882,-50.7734,1.6798],[165.9924,-50.7721,6.1677],[165.9973,-50.7757,9.015],[165.999,-50.7796,0.0],[166.0067,-50.7872,0.0],[166.0111,-50.7986,0.0],[166.0233,-50.8031,2.2343],[166.0278,-50.8072,8.5147],[166.0322,-50.8069,0.0],[166.0383,-50.8028,7.1096],[166.04,-50.7956,25.0791],[166.0328,-50.79,9.1994],[166.0344,-50.7875,0.0],[166.0322,-50.7864,4.6657],[166.0322,-50.7844,0.0],[166.0211,-50.7764,21.0806],[166.01,-50.7753,0.0],[166.01,-50.7731,0.0],[166.0067,-50.7703,14.7697],[166.0089,-50.7636,17.0214],[166.0117,-50.7608,0.0],[166.01,-50.7597,0.0],[166.0117,-50.7553,0.0],[166.0094,-50.75,21.8085],[166.0145,-50.7497,0.0],[166.0189,-50.7453,5.0233],[166.0206,-50.7461,6.8042],[166.02,-50.7533,0.0],[166.0311,-50.7606,3.3364],[166.0361,-50.7614,0.0],[166.0561,-50.7583,0.0],[166.0594,-50.76,10.2481],[166.0611,-50.7633,8.7525],[166.0578,-50.7667,0.0],[166.06,-50.7717,11.2957],[166.0578,-50.7744,0.0],[166.0589,-50.7767,33.1722],[166.0567,-50.7789,0.0],[166.0617,-50.7869,18.2749],[166.0578,-50.79,10.6265],[166.0578,-50.7925,7.3307],[166.0644,-50.7969,0.0],[166.0594,-50.8,4.568],[166.0683,-50.8042,24.0578],[166.0672,-50.8056,3.9271],[166.0694,-50.8078,17.9804],[166.0656,-50.8108,23.8483],[166.0594,-50.8097,26.9841],[166.0594,-50.8114,65.3438],[166.0461,-50.8208,3.4065],[166.0367,-50.8239,13.5881],[166.0444,-50.8294,12.4999],[166.0533,-50.8322,4.7444],[166.0578,-50.83,0.0],[166.0611,-50.8233,5.2007],[166.0656,-50.8253,0.0],[166.0739,-50.8253,5.2143],[166.0739,-50.8217,0.0],[166.0717,-50.8203,0.0],[166.0728,-50.8172,0.0],[166.0711,-50.8164,36.142],[166.0733,-50.815,0.0],[166.07,-50.8133,8.5146],[166.0717,-50.8125,0.0],[166.0717,-50.8083,0.0],[166.0778,-50.8072,9.7287],[166.0928,-50.8144,8.5042],[166.0917,-50.8228,0.0],[166.0961,-50.8256,10.3794],[166.1044,-50.8244,19.1171],[166.1111,-50.8258,7.6501],[166.1095,-50.8333,0.0],[166.1167,-50.835,1.6665],[166.1228,-50.8403,3.0171],[166.1289,-50.8411,38.4155],[166.1411,-50.8472,3.7765],[166.1747,-50.8573,41.7326],[166.1711,-50.8609,0.0],[166.1901,-50.8654,0.0],[166.1941,-50.8607,6.1525],[166.2006,-50.8628,5.4278],[166.2067,-50.8606,0.0],[166.2233,-50.8617,0.0],[166.2272,-50.8575,50.2288],[166.2422,-50.8494,0.0],[166.2383,-50.8467,2.4614],[166.2311,-50.8456,1.1808],[166.23,-50.8431,0.0],[166.24,-50.8408,0.0],[166.2367,-50.8369,4.8582],[166.2428,-50.8364,0.0],[166.2444,-50.8344,0.0],[166.2461,-50.8306,3.045],[166.2383,-50.8256,15.8829],[166.2417,-50.8233,7.0305],[166.2372,-50.8233,56.1683],[166.2333,-50.8208,0.0],[166.2206,-50.8186,0.0],[166.2161,-50.8164,11.3742],[166.2121,-50.8179,4.2891],[166.2113,-50.8157,0.0],[166.2076,-50.8169,0.9186],[166.2083,-50.8189,10.634],[166.2049,-50.8189,17.1308],[166.2014,-50.8164,23.5807],[166.225,-50.8111,7.2528],[166.2317,-50.8072,0.0],[166.2228,-50.8028,0.0],[166.2172,-50.8033,41.3568],[166.2128,-50.8017,13.6804],[166.2044,-50.8033,30.3206],[166.1978,-50.8019,0.0],[166.1883,-50.8053,2.7124],[166.1778,-50.806399999999996,58.5208],[166.1739,-50.8061,0.0],[166.1717,-50.8039,14.1046],[166.1756,-50.8019,0.0],[166.1781,-50.8038,0.0],[166.1899,-50.8025,0.0],[166.1894,-50.8,0.0],[166.2011,-50.7997,0.0],[166.2115,-50.7973,12.2237],[166.2172,-50.7986,0.0],[166.2267,-50.7922,4.1641],[166.2256,-50.7906,0.0],[166.2211,-50.79,5.5435],[166.2139,-50.7911,11.3664],[166.2033,-50.79,3.3862],[166.1956,-50.7925,0.0],[166.1917,-50.7917,7.0461],[166.2144,-50.785,5.9355],[166.216,-50.7822,17.8066],[166.2151,-50.7812,20.3058],[166.2084,-50.7799,54.9299],[166.2081,-50.7785,0.0],[166.2137,-50.7778,29.9302],[166.2211,-50.7742,3.1997],[166.2209,-50.7722,0.0],[166.2161,-50.7689,18.2643],[166.2178,-50.7647,0.0],[166.2056,-50.7561,18.8698],[166.2054,-50.7538,6.2363],[166.1987,-50.7523,5.3463],[166.1922,-50.7536,9.6753],[166.1772,-50.7603,61.1109],[166.1717,-50.7606,0.0],[166.1567,-50.7706,9.481],[166.1439,-50.7731,5.9843],[166.1344,-50.7778,0.0],[166.1328,-50.7772,0.0],[166.1389,-50.7725,10.1331],[166.1572,-50.7656,36.8906],[166.1628,-50.7606,0.0],[166.1711,-50.7564,0.0],[166.1889,-50.75,0.0],[166.1878,-50.7475,9.341],[166.1933,-50.7436,0.0],[166.1933,-50.7411,0.0],[166.1828,-50.7392,0.0],[166.1811,-50.7381,3.3013],[166.1822,-50.7369,1.6956],[166.175,-50.7342,0.0],[166.1722,-50.7314,7.9338],[166.1689,-50.7311,0.0],[166.1483,-50.7372,5.991],[166.1439,-50.7358,0.0],[166.13,-50.7392,0.0],[166.1215,-50.7396,56.4379],[166.1181,-50.7378,0.0],[166.1074,-50.7388,0.0],[166.1144,-50.7364,0.0],[166.1228,-50.7372,0.0],[166.1439,-50.7347,0.0],[166.1461,-50.7336,0.0],[166.1383,-50.7297,1.8384],[166.1444,-50.7286,1.3475],[166.16,-50.7294,15.0002],[166.1689,-50.725,3.8465],[166.1615,-50.7186,19.8018],[166.145,-50.7131,17.8037],[166.1306,-50.7131,9.8548],[166.1161,-50.7175,0.0],[166.08,-50.7192,0.0],[166.08,-50.7167,0.0],[166.0822,-50.7158,13.7118],[166.115,-50.7131,0.0],[166.1378,-50.7086,6.4207],[166.1683,-50.7125,17.9177],[166.1783,-50.7172,0.0],[166.1867,-50.7189,3.5272],[166.2006,-50.7161,6.9286],[166.2011,-50.7128,4.5957],[166.2061,-50.71,0.0],[166.1944,-50.7092,14.5688],[166.2067,-50.7075,0.0],[166.2028,-50.7058,20.8892],[166.205,-50.7022,0.0],[166.2044,-50.7006,17.2126],[166.2083,-50.6986,0.0],[166.2028,-50.6944,0.0],[166.195,-50.6964,46.783],[166.1911,-50.6939,0.0],[166.1878,-50.6944,0.0],[166.1778,-50.6917,2.1106],[166.17,-50.695,56.1099],[166.1611,-50.6944,0.0],[166.1417,-50.6978,0.0],[166.1311,-50.7058,21.0971],[166.1283,-50.705,1.0153],[166.1283,-50.7033,2.5189],[166.1333,-50.6992,10.4784],[166.1433,-50.6933,2.9563],[166.1628,-50.6878,0.0],[166.1511,-50.6828,6.4642],[166.1667,-50.6811,22.5666],[166.1833,-50.6828,12.1723],[166.1883,-50.681399999999996,0.0],[166.1872,-50.6797,0.0],[166.1911,-50.6778,5.8201],[166.1917,-50.6758,33.1929],[166.1728,-50.6683,0.0],[166.1733,-50.6672,0.0],[166.1717,-50.6661,31.9171],[166.1733,-50.665,0.0],[166.17,-50.6611,0.0],[166.1711,-50.66,0.0],[166.17,-50.6581,0.0],[166.1667,-50.6572,0.0],[166.1633,-50.6533,3.5223],[166.1672,-50.6519,5.4411],[166.1833,-50.6594,19.6684],[166.1928,-50.6597,0.0],[166.2006,-50.6628,8.9772],[166.2111,-50.6581,0.0],[166.2111,-50.6561,0.0],[166.205,-50.6547,28.2313],[166.2022,-50.6519,8.1827],[166.1922,-50.6511,22.0195],[166.1872,-50.6486,13.6948],[166.1889,-50.6467,0.0],[166.2011,-50.6461,17.3544],[166.2033,-50.6444,0.0],[166.2028,-50.6428,19.6597],[166.1956,-50.6389,16.7283],[166.1717,-50.6319,7.6421],[166.1744,-50.6308,33.4167],[166.1956,-50.6364,0.0],[166.2039,-50.6372,0.0],[166.2044,-50.6361,0.7684],[166.19,-50.6278,0.0],[166.1813,-50.618899999999996,0.0],[166.1678,-50.6147,0.0],[166.1661,-50.61,0.0],[166.1733,-50.6061,0.0],[166.1639,-50.6011,5.0776],[166.1672,-50.6008,17.1441],[166.1744,-50.6044,35.9084],[166.18,-50.6106,0.0],[166.19,-50.6153,22.0323],[166.2056,-50.6269,0.0],[166.215,-50.6306,0.0],[166.2267,-50.6219,9.9007],[166.2339,-50.6203,0.0],[166.2322,-50.6186,0.0],[166.2328,-50.6142,1.1641],[166.2389,-50.6119,0.851],[166.2439,-50.6075,0.0],[166.2378,-50.6039,5.2226],[166.2272,-50.6058,31.3179],[166.2178,-50.6036,0.0],[166.2111,-50.6039,10.9491],[166.2111,-50.6017,1.9452],[166.2178,-50.5983,0.0],[166.2122,-50.5967,7.0397],[166.2117,-50.595,0.0],[166.22,-50.5928,2.7545],[166.225,-50.5881,0.0],[166.2213,-50.5862,0.0],[166.2163,-50.5867,29.3727],[166.2109,-50.584,3.9866],[166.2109,-50.5824,1.4588],[166.2378,-50.5792,3.8346],[166.245,-50.5803,0.8224],[166.2533,-50.5839,1.368],[166.2645,-50.5831,0.0],[166.2683,-50.5844,3.6341],[166.2744,-50.5831,0.0],[166.2828,-50.5856,0.1259],[166.2861,-50.5836,0.5124],[166.2867,-50.5817,0.7978],[166.28,-50.5806,0.5532],[166.2767,-50.5783,0.0],[166.2805,-50.5767,0.0],[166.2794,-50.575,0.0],[166.2822,-50.5731,0.0],[166.2822,-50.5708,0.0],[166.2783,-50.5689,28.0647],[166.2822,-50.5653,0.0],[166.2817,-50.5628,0.0],[166.2733,-50.5636,7.5516],[166.2722,-50.5606,19.2547],[166.2767,-50.5592,7.1962],[166.2761,-50.5567,3.0344],[166.2622,-50.5567,8.1308],[166.2606,-50.5558,1.1194],[166.26,-50.5525,3.4695],[166.2783,-50.5494,2.2023],[166.2906,-50.5394,0.0],[166.2883,-50.5381,1.6023],[166.2828,-50.5411,1.568],[166.2728,-50.5389,16.9904],[166.2756,-50.5367,0.0],[166.2706,-50.5342,5.4147],[166.27,-50.5303,0.0],[166.2722,-50.5278,1.5985],[166.2789,-50.5256,2.4582],[166.2772,-50.5239,0.4552],[166.27,-50.5258,1.6023],[166.2672,-50.5294,0.0],[166.2533,-50.5367,1.536],[166.25,-50.5408,0.0],[166.2422,-50.5433,12.6081],[166.24,-50.5475,10.1951],[166.2345,-50.5522,24.1596],[166.2228,-50.5569,14.32],[166.1978,-50.5575,3.5612],[166.1844,-50.5619,16.3815],[166.1789,-50.5586,3.0056],[166.1706,-50.5608,0.7856],[166.1717,-50.5592,13.9376],[166.1978,-50.5517,0.0],[166.2089,-50.5519,0.0],[166.2128,-50.5489,1.6823],[166.2172,-50.5486,4.2929],[166.2161,-50.5461,1.6088],[166.2111,-50.5444,5.2913],[166.2167,-50.5411,0.0],[166.2122,-50.5378,2.8362],[166.2217,-50.5314,0.0],[166.2211,-50.53,13.0019],[166.2244,-50.5264,0.0],[166.2217,-50.5244,0.0],[166.225,-50.5211,9.7427],[166.2306,-50.5219,0.0],[166.2313,-50.5194,2.3674],[166.2372,-50.5194,0.0],[166.2189,-50.5133,0.2105],[166.2061,-50.5192,0.0],[166.2028,-50.5258,0.0],[166.2006,-50.5267,5.8068],[166.1917,-50.525,53.8024],[166.1911,-50.5239,33.3671],[166.195,-50.5219,0.0],[166.1917,-50.5175,0.4714],[166.1856,-50.5164,21.2859],[166.1872,-50.5142,0.0],[166.1844,-50.5133,0.4957]]],
[[[166.0228,-50.605,0.9537],[166.0206,-50.6061,0.1854],[166.0228,-50.6069,0.0],[166.0305,-50.6045,0.0],[166.03,-50.604,1.7965],[166.0228,-50.605,0.9537]]],
[[[166.3228,-50.5758,0.0],[166.3189,-50.575,0.0],[166.3178,-50.5764,0.0],[166.3233,-50.5792,-0.0122],[166.325,-50.5772,0.0],[166.3228,-50.5758,0.0]]],
[[[166.3583,-50.5664,0.0],[166.3589,-50.5672,0.0],[166.3628,-50.5669,0.0],[166.3617,-50.5653,0.0],[166.3583,-50.5664,0.0]]],
[[[166.3056,-50.5253,4.4527],[166.3,-50.5247,14.7017],[166.2978,-50.5264,1.3714],[166.2994,-50.5292,0.0],[166.2928,-50.5306,0.0],[166.2961,-50.5322,0.1383],[166.3017,-50.5314,0.0],[166.3089,-50.5333,0.0],[166.31,-50.5328,0.0],[166.3094,-50.5283,0.8168],[166.3133,-50.5256,0.0],[166.3056,-50.5253,4.4527]]],
[[[166.2561,-50.5069,1.1262],[166.2517,-50.5061,0.0],[166.245,-50.5119,2.0454],[166.2361,-50.5142,0.0],[166.2372,-50.5172,0.0],[166.2544,-50.5189,0.0],[166.255,-50.5172,0.0],[166.2528,-50.5161,0.0],[166.2528,-50.5144,0.8461],[166.2583,-50.5119,0.0],[166.2567,-50.5106,0.0],[166.2578,-50.5078,0.0],[166.2561,-50.5069,1.1262]]],
[[[166.3078,-50.4869,1.9374],[166.3033,-50.4844,0.0],[166.2989,-50.4889,0.0],[166.2817,-50.4875,0.0],[166.2728,-50.49,0.0],[166.2645,-50.493899999999996,0.0],[166.2633,-50.4956,0.0],[166.2655,-50.4972,10.1029],[166.2639,-50.5,0.0],[166.2655,-50.5014,1.571],[166.2655,-50.5042,0.0],[166.2594,-50.5067,1.3606],[166.2672,-50.5097,0.0],[166.2817,-50.5003,0.0],[166.2922,-50.505,0.0],[166.3078,-50.5075,0.0],[166.3222,-50.5058,0.5611],[166.3206,-50.5044,0.9227],[166.3244,-50.4994,0.0],[166.3206,-50.4972,2.1146],[166.3228,-50.493899999999996,0.0],[166.3206,-50.4908,0.0],[166.3139,-50.4867,0.0],[166.3106,-50.4881,5.3572],[166.3078,-50.4869,1.9374]]],
[[[169.1225,-52.5031,0.0],[169.1212,-52.5034,0.0],[169.1227,-52.5047,0.0],[169.1256,-52.5037,0.0],[169.1249,-52.5025,0.0],[169.1225,-52.5031,0.0]]],
[[[166.6245,-48.04,3.1627],[166.6164,-48.0397,17.0226],[166.6131,-48.0422,2.5486],[166.6233,-48.0461,24.1338],[166.63,-48.0442,0.0],[166.6267,-48.0431,37.6171],[166.6245,-48.04,3.1627]]],
[[[166.6053,-48.0128,0.5781],[166.6069,-48.0119,0.0],[166.6036,-48.01,2.7782],[166.6025,-48.0111,2.7782],[166.6053,-48.0128,0.5781]]],
[[[166.5036,-48.0606,0.0],[166.5064,-48.0589,0.0],[166.5069,-48.0561,0.0],[166.5031,-48.0592,0.0],[166.5011,-48.0583,0.1971],[166.4992,-48.0614,2.6582],[166.4953,-48.0622,4.696],[166.4947,-48.0639,0.0],[166.4989,-48.0631,0.0],[166.5036,-48.0606,0.0]]],
[[[166.5172,-48.0528,0.0],[166.5142,-48.0522,0.0],[166.51,-48.0569,0.9811],[166.5175,-48.0542,2.667],[166.5172,-48.0528,0.0]]],
[[[166.6069,-48.0153,0.0],[166.6053,-48.0136,9.9604],[166.6003,-48.0136,3.0607],[166.5964,-48.0167,19.3534],[166.5964,-48.0181,0.0],[166.5992,-48.0186,0.0],[166.5906,-48.0286,22.997],[166.589,-48.0286,2.1308],[166.5877,-48.0262,0.0],[166.5733,-48.0284,0.0],[166.5728,-48.0331,13.7192],[166.5642,-48.0308,0.0],[166.563,-48.0331,0.0],[166.5731,-48.035,0.0],[166.5736,-48.0367,21.3474],[166.5708,-48.0389,0.0],[166.5744,-48.04,0.0],[166.5775,-48.0389,0.0],[166.5772,-48.0369,0.0],[166.5895,-48.0353,0.0],[166.5896,-48.0333,10.5885],[166.5933,-48.0306,13.0037],[166.6003,-48.0292,55.4734],[166.6069,-48.0342,14.3583],[166.6075,-48.0356,0.0],[166.6044,-48.0375,0.0],[166.6083,-48.0369,8.3912],[166.6131,-48.0397,0.0],[166.615,-48.0383,0.0],[166.6134,-48.0364,6.0055],[166.615,-48.035,0.0],[166.614,-48.0324,10.0657],[166.6167,-48.0294,0.0],[166.6133,-48.0264,8.3908],[166.6125,-48.0203,0.0],[166.6076,-48.0194,11.1415],[166.6069,-48.0153,0.0]]],
[[[169.1306,-52.6164,3.049],[169.1268,-52.614,0.0],[169.1253,-52.6161,2.7361],[169.1201,-52.6173,0.0],[169.1261,-52.6208,0.0],[169.1317,-52.6175,0.0],[169.1306,-52.6164,3.049]]],
[[[169.1331,-52.6137,0.0],[169.1313,-52.6152,0.0],[169.1358,-52.6153,0.0],[169.1364,-52.6132,0.0],[169.1341,-52.6123,0.0],[169.1331,-52.6137,0.0]]],
[[[169.2117,-52.4672,11.8001],[169.2024,-52.4692,0.0],[169.1966,-52.4659,0.0],[169.193,-52.4658,0.0],[169.1914,-52.4668,0.0],[169.1923,-52.4712,0.0],[169.1894,-52.4733,0.0],[169.1915,-52.4748,0.0],[169.1891,-52.4766,36.6947],[169.1738,-52.4735,6.2584],[169.1706,-52.4783,34.6136],[169.1612,-52.4797,18.4579],[169.1574,-52.477,0.0],[169.1427,-52.4745,0.0],[169.1379,-52.4751,13.3067],[169.1348,-52.4777,0.0],[169.1354,-52.4795,0.0],[169.148,-52.4801,3.7494],[169.1563,-52.483,0.0],[169.1579,-52.4861,19.1435],[169.1539,-52.4864,0.0],[169.1554,-52.4882,19.4241],[169.1513,-52.4896,0.0],[169.1503,-52.493,0.0],[169.1519,-52.4942,40.9835],[169.1515,-52.4968,0.0],[169.1457,-52.5015,0.0],[169.1405,-52.5022,0.0],[169.1422,-52.5037,0.0],[169.1376,-52.5062,0.0],[169.1372,-52.5089,0.0],[169.1347,-52.5095,0.0],[169.1308,-52.514,0.0],[169.1351,-52.5173,0.0],[169.1322,-52.5197,12.7414],[169.1315,-52.5239,30.1307],[169.1287,-52.5257,0.0],[169.131,-52.5259,9.1006],[169.1289,-52.5276,0.0],[169.1294,-52.5286,71.7422],[169.1253,-52.53,0.0],[169.125,-52.5317,0.0],[169.1211,-52.5303,0.0],[169.12,-52.5356,0.0],[169.1148,-52.5358,0.0],[169.1173,-52.5374,31.216],[169.1114,-52.5368,0.0],[169.1143,-52.5387,0.0],[169.1142,-52.5403,2.3279],[169.1107,-52.5414,0.0],[169.1117,-52.5433,0.0],[169.11,-52.5442,0.0],[169.1047,-52.5441,0.0],[169.1064,-52.5454,3.0286],[169.1007,-52.5497,53.9159],[169.0911,-52.5478,0.0],[169.09,-52.5483,0.0],[169.0917,-52.5497,6.532],[169.0906,-52.55,6.532],[169.0783,-52.545,2.0894],[169.0813,-52.5403,24.2063],[169.0835,-52.5403,0.0],[169.0817,-52.5367,0.0],[169.0755,-52.5396,37.4644],[169.0698,-52.539,2.7123],[169.0546,-52.5413,39.3711],[169.0494,-52.5378,0.0],[169.0468,-52.532,0.0],[169.0423,-52.5316,0.0],[169.0404,-52.5316,0.0],[169.0414,-52.5339,0.0],[169.04,-52.5344,0.0],[169.0347,-52.5325,0.0],[169.0383,-52.5354,2.4928],[169.0255,-52.5352,0.7167],[169.0283,-52.5375,6.5854],[169.0156,-52.5444,0.0],[169.0183,-52.5472,5.3688],[169.0271,-52.5505,36.4929],[169.0289,-52.5538,0.0],[169.0316,-52.555,0.0],[169.0331,-52.5588,0.0],[169.0399,-52.5642,39.1297],[169.0357,-52.5663,0.0],[169.0389,-52.5688,0.0],[169.0445,-52.5644,52.2311],[169.0532,-52.5654,0.0],[169.0573,-52.562,4.4911],[169.0586,-52.5638,0.0],[169.0638,-52.5616,5.4211],[169.0788,-52.5634,3.7415],[169.0844,-52.5655,44.0403],[169.0851,-52.5702,0.0],[169.0813,-52.5741,0.0],[169.0842,-52.576,0.0653],[169.0841,-52.5735,6.8067],[169.0933,-52.5736,0.0],[169.0944,-52.5754,0.0],[169.0912,-52.5769,0.0],[169.0908,-52.5788,0.0],[169.0967,-52.5814,0.0],[169.1033,-52.5806,-0.0857],[169.1087,-52.5855,37.0778],[169.1044,-52.5896,0.0],[169.1111,-52.5872,6.9072],[169.1207,-52.5875,0.0],[169.1181,-52.5884,0.0],[169.1283,-52.5908,0.0],[169.1292,-52.5935,108.3306],[169.1251,-52.5997,7.7868],[169.1297,-52.6019,18.6296],[169.1273,-52.6046,0.0],[169.1309,-52.6056,8.4394],[169.1328,-52.6086,0.0273],[169.1398,-52.6091,0.0],[169.133,-52.6024,2.136],[169.1342,-52.6006,37.2012],[169.1427,-52.5993,4.4908],[169.1471,-52.5956,13.1742],[169.1475,-52.6012,0.0],[169.1534,-52.6037,0.0],[169.1529,-52.6053,0.0],[169.1559,-52.607,0.0],[169.1803,-52.6034,0.0],[169.1853,-52.6038,0.0],[169.1773,-52.5992,0.0],[169.1745,-52.5955,0.0],[169.1743,-52.591,19.2397],[169.1787,-52.5915,26.0209],[169.1964,-52.5999,0.0],[169.2011,-52.5997,19.8551],[169.2039,-52.6024,0.0],[169.2078,-52.6018,0.0],[169.2084,-52.5969,23.3046],[169.2128,-52.5957,0.0],[169.2172,-52.5911,13.6904],[169.22,-52.5939,0.0],[169.2228,-52.5933,0.0],[169.2211,-52.5911,9.6674],[169.2229,-52.5872,0.0],[169.2415,-52.5769,3.3067],[169.2422,-52.5744,0.0],[169.2289,-52.5675,0.0],[169.2195,-52.5661,4.2944],[169.2039,-52.5583,23.586],[169.1806,-52.5556,1.8341],[169.1745,-52.5536,1.6799],[169.1739,-52.5522,0.0],[169.1683,-52.5547,12.6877],[169.1611,-52.5544,0.0],[169.1489,-52.5569,0.0],[169.1428,-52.56,6.8465],[169.1372,-52.5603,0.0],[169.1356,-52.5631,5.5894],[169.1333,-52.5606,3.3822],[169.1367,-52.5578,4.6737],[169.1357,-52.5555,1.2909],[169.1421,-52.557,0.0],[169.1472,-52.5553,4.4314],[169.1453,-52.551,1.1232],[169.1422,-52.5489,0.0],[169.1511,-52.5522,1.5162],[169.1575,-52.5449,16.3463],[169.1855,-52.5455,7.543],[169.1911,-52.5475,0.5536],[169.2023,-52.5451,0.0],[169.2087,-52.5455,5.5123],[169.216,-52.5484,2.7117],[169.2372,-52.564,0.0],[169.2621,-52.5637,0.0],[169.262,-52.556399999999996,19.2116],[169.2661,-52.556399999999996,0.0],[169.2617,-52.555,68.8125],[169.2694,-52.5511,0.0],[169.2673,-52.5492,0.0],[169.2552,-52.5469,32.2382],[169.2412,-52.5466,61.1339],[169.2417,-52.5453,10.2627],[169.2393,-52.5437,14.8143],[169.2343,-52.544,10.7314],[169.2325,-52.5424,0.0],[169.2361,-52.5403,0.0],[169.2339,-52.5389,24.3065],[169.2351,-52.5375,0.0],[169.2327,-52.5343,0.0],[169.235,-52.5283,0.0],[169.2373,-52.5262,27.4027],[169.2436,-52.5262,0.0],[169.2458,-52.5245,0.0],[169.2432,-52.5237,4.0818],[169.2432,-52.5209,0.0],[169.2381,-52.519,0.0],[169.2386,-52.5163,0.0],[169.2417,-52.5149,0.0],[169.2421,-52.5134,9.6232],[169.24,-52.5128,9.5476],[169.2409,-52.5101,0.0],[169.2322,-52.5136,7.187],[169.2044,-52.5178,0.0],[169.1933,-52.5219,10.6774],[169.1906,-52.5217,6.0729],[169.1956,-52.5192,0.0],[169.1901,-52.5173,9.534],[169.1953,-52.5155,2.9718],[169.2206,-52.5128,10.3515],[169.2386,-52.5059,0.0],[169.2189,-52.5019,43.8206],[169.22,-52.4993,0.0],[169.2166,-52.4967,23.9518],[169.2161,-52.4928,16.1074],[169.2175,-52.4891,8.6985],[169.2235,-52.4839,0.0],[169.2228,-52.4811,4.1579],[169.2256,-52.4789,0.0],[169.2274,-52.4752,22.2606],[169.2266,-52.4731,44.2973],[169.2283,-52.4714,0.0],[169.2117,-52.4672,11.8001]]],
[[[169.1307,-52.5063,0.0],[169.13,-52.5078,0.0],[169.1331,-52.5075,0.0],[169.1316,-52.5058,0.0],[169.1307,-52.5063,0.0]]],
[[[169.2442,-52.5047,0.0472],[169.2413,-52.5051,0.0],[169.2412,-52.5055,0.0],[169.2463,-52.5046,0.0],[169.2442,-52.5047,0.0472]]],
[[[169.1301,-52.4698,0.0],[169.1315,-52.4697,0.0],[169.1312,-52.468,0.0],[169.1283,-52.4669,5.0195],[169.1264,-52.4679,0.0],[169.1268,-52.4708,0.0],[169.1292,-52.4714,0.0],[169.1301,-52.4698,0.0]]],
[[[178.7358,-49.6908,0.0],[178.7355,-49.6922,0.0],[178.7372,-49.6921,0.0],[178.7373,-49.6914,0.0],[178.7358,-49.6908,0.0]]],
[[[178.8139,-49.6872,0.0],[178.8089,-49.6856,0.0],[178.8076,-49.6893,0.0],[178.8114,-49.69,0.0],[178.8139,-49.6872,0.0]]],
[[[178.8007,-49.6653,7.6135],[178.799,-49.6636,4.848],[178.7988,-49.6587,0.0],[178.7942,-49.6575,0.0],[178.7858,-49.6644,26.1034],[178.782,-49.6631,78.5351],[178.7753,-49.6644,0.0],[178.7761,-49.6672,5.5317],[178.7742,-49.6686,0.2913],[178.7735,-49.6719,23.8204],[178.765,-49.6733,21.8066],[178.7552,-49.6709,0.0],[178.7566,-49.6729,0.0],[178.7519,-49.6758,0.0],[178.7489,-49.6744,0.0],[178.7458,-49.6758,0.0],[178.7446,-49.6805,9.4368],[178.7354,-49.6804,8.7386],[178.7279,-49.6851,0.0],[178.7397,-49.6914,20.4006],[178.7403,-49.695,15.3542],[178.7358,-49.6975,0.0],[178.7378,-49.7042,0.0],[178.7421,-49.7068,0.5837],[178.7503,-49.7081,0.0],[178.7489,-49.71,0.0],[178.7508,-49.7119,0.0],[178.7556,-49.7091,11.889],[178.7576,-49.7106,22.9113],[178.7558,-49.7117,0.0],[178.758,-49.7131,6.0519],[178.7575,-49.7153,0.0],[178.7658,-49.7146,0.0],[178.7664,-49.7133,0.0],[178.7719,-49.7142,0.0],[178.7734,-49.7119,0.0],[178.7793,-49.7146,0.0],[178.7829,-49.7142,6.3533],[178.7902,-49.711,0.0],[178.7878,-49.7063,0.0],[178.7833,-49.7062,35.192],[178.7861,-49.6993,4.3667],[178.7992,-49.6963,0.0],[178.7983,-49.6928,131.7311],[178.805,-49.6883,0.0],[178.8089,-49.6817,0.0],[178.8081,-49.6794,2.8892],[178.812,-49.6772,0.0],[178.8076,-49.6755,31.9851],[178.8106,-49.6719,0.0],[178.8142,-49.6711,0.0],[178.8111,-49.6692,0.0],[178.8128,-49.6658,0.0],[178.8007,-49.6653,7.6135]]],
[[[178.7168,-49.6736,18.1617],[178.7176,-49.6762,1.4075],[178.721,-49.6763,0.0],[178.7184,-49.6727,0.3379],[178.7168,-49.6736,18.1617]]],
[[[178.7345,-49.6769,0.0],[178.7364,-49.6759,5.6049],[178.7363,-49.6734,10.2885],[178.7308,-49.6722,0.0],[178.7315,-49.6758,3.4825],[178.7345,-49.6769,0.0]]],
[[[178.824,-49.6427,19.7176],[178.8205,-49.6398,57.8927],[178.8105,-49.6386,0.0],[178.8111,-49.6403,0.0],[178.8174,-49.6405,0.0],[178.8182,-49.6433,0.0],[178.8175,-49.6448,29.2584],[178.8098,-49.647,0.0],[178.8146,-49.6501,0.0],[178.8213,-49.6499,0.0],[178.8245,-49.6468,0.0],[178.824,-49.6427,19.7176]]],
[[[179.0614,-47.7683,0.0],[179.0633,-47.7667,2.6435],[179.0631,-47.7655,0.0],[179.0597,-47.7678,0.699],[179.0614,-47.7683,0.0]]],
[[[179.0433,-47.7626,0.0],[179.0442,-47.7607,0.0],[179.0425,-47.76,0.0],[179.0394,-47.762,0.0],[179.0405,-47.7632,0.0],[179.0433,-47.7626,0.0]]],
[[[179.0603,-47.7606,0.0],[179.0621,-47.7616,0.0],[179.0658,-47.7589,0.0],[179.0638,-47.759,0.0],[179.0603,-47.7606,0.0]]],
[[[179.0236,-47.7544,0.0],[179.0227,-47.7568,0.0],[179.0268,-47.7547,0.0],[179.0259,-47.7541,7.567],[179.0236,-47.7544,0.0]]],
[[[179.0188,-47.7547,0.0],[179.021,-47.754,0.4011],[179.0158,-47.7547,0.0],[179.0168,-47.7553,0.0],[179.0188,-47.7547,0.0]]],
[[[179.0388,-47.7525,1.4177],[179.0426,-47.7512,0.0],[179.0344,-47.7519,0.0],[179.0346,-47.7529,0.0],[179.0388,-47.7525,1.4177]]],
[[[179.0296,-47.7508,0.0],[179.0284,-47.749,0.0],[179.023,-47.7496,23.1528],[179.0206,-47.7516,12.4757],[179.0223,-47.7531,0.4011],[179.0337,-47.7512,0.0],[179.0296,-47.7508,0.0]]],
[[[179.019,-47.749,0.5297],[179.0222,-47.7489,2.4828],[179.0242,-47.7475,0.3958],[179.0213,-47.7469,14.6207],[179.019,-47.749,0.5297]]]]}
,"properties": {"GID_1": "NZL.13_1","GID_0": "NZL","country": "NewZealand","province": "SouthernIslands","VARNAME_1": "NA","NL_NAME_1": "NA","TYPE_1": "Groupofislands","ENGTYPE_1": "Groupofislands","CC_1": "NA","HASC_1": "NZ.02","ISO_1": "NA","name": "Southern_Islands.province","area_km2": 739.2671,"hist_schema_id": "Elevation0-9000","hist_area_km2": {"-25": 0.0129,"0": 68.4954,"25": 55.8933,"50": 52.8578,"75": 49.9948,"100": 48.8346,"125": 43.472,"150": 41.8476,"175": 39.9834,"200": 38.8974,"225": 37.0105,"250": 34.5062,"275": 31.1621,"300": 29.4608,"325": 27.5535,"350": 25.4217,"375": 22.1304,"400": 19.5524,"425": 16.4461,"450": 14.4115,"475": 12.0835,"500": 11.0541,"525": 7.4509,"550": 5.0133,"575": 3.3773,"600": 1.6743,"625": 0.6289,"650": 0.0402}}}