{"type":"Feature","properties":{"ISO3166-1-Alpha-3":"NZL","country":"New Zealand","fill":"#F0F","id":"5480","name":"The Snares"},
"geometry":{"type": "Polygon","coordinates": [[[166.63722,-47.99358,0.0],[166.61883,-47.99798,0.0],[166.56837,-48.03444,0.0],[166.56837,-48.04192,0.0],[166.60483,-48.03533,0.0],[166.61305,-48.03826,6.9057],[166.62233,-48.05299,0.0],[166.62778,-48.05877,0.0],[166.63722,-48.06243,0.0],[166.63746,-48.05088,0.0],[166.63429,-48.03997,0.0],[166.62941,-48.02988,0.0],[166.62355,-48.02093,0.0],[166.63209,-48.00018,0.0],[166.63722,-47.99358,0.0]]]}}