{"type": "Feature","bbox": [166.4947,-48.0639,166.63,-48.01],"geometry": {"type": "MultiPolygon","coordinates": [[[[166.5044,-48.0603,0.0],[166.5069,-48.0561,0.0],[166.5031,-48.0592,0.0],[166.5011,-48.0583,0.1971],[166.4992,-48.0614,2.6582],[166.4953,-48.0622,4.696],[166.4947,-48.0639,0.0],[166.4989,-48.0631,0.0],[166.5044,-48.0603,0.0]]],
[[[166.5155,-48.0531,7.6904],[166.5142,-48.0522,0.0],[166.51,-48.0569,0.9811],[166.5181,-48.0536,0.0],[166.5155,-48.0531,7.6904]]],
[[[166.6064,-48.0144,0.0],[166.6003,-48.0136,3.0607],[166.5964,-48.0167,19.3534],[166.5964,-48.0181,0.0],[166.5992,-48.0186,0.0],[166.5906,-48.0286,22.997],[166.589,-48.0286,2.1308],[166.5877,-48.0262,0.0],[166.5733,-48.0284,0.0],[166.5728,-48.0331,13.7192],[166.5642,-48.0308,0.0],[166.563,-48.0331,0.0],[166.5731,-48.035,0.0],[166.5736,-48.0367,21.3474],[166.5708,-48.0389,0.0],[166.5744,-48.04,0.0],[166.5775,-48.0389,0.0],[166.5772,-48.0369,0.0],[166.5895,-48.0353,0.0],[166.5896,-48.0333,10.5885],[166.5933,-48.0306,13.0037],[166.6003,-48.0292,55.4734],[166.6069,-48.0342,14.3583],[166.6075,-48.0356,0.0],[166.6044,-48.0375,0.0],[166.6083,-48.0369,8.3912],[166.6131,-48.0397,0.0],[166.615,-48.0383,0.0],[166.6134,-48.0364,6.0055],[166.615,-48.035,0.0],[166.614,-48.0324,10.0657],[166.6167,-48.0294,0.0],[166.6133,-48.0264,8.3908],[166.6125,-48.0203,0.0],[166.6076,-48.0194,11.1415],[166.6083,-48.0178,0.0],[166.6064,-48.0144,0.0]]],
[[[166.6233,-48.0394,0.0],[166.6164,-48.0397,17.0226],[166.6131,-48.0422,2.5486],[166.6233,-48.0461,24.1338],[166.63,-48.0442,0.0],[166.6267,-48.0431,37.6171],[166.6233,-48.0394,0.0]]],
[[[166.6064,-48.0125,0.0],[166.605,-48.01,0.0],[166.6025,-48.0111,2.7782],[166.6053,-48.0128,0.5781],[166.6064,-48.0125,0.0]]]]}
,"properties": {"GID_2": "NZL.13.5_1","GID_0": "NZL","country": "NewZealand","GID_1": "NZL.13_1","province": "SouthernIslands","NL_NAME_1": "NA","county": "SnaresIslands","VARNAME_2": "NA","NL_NAME_2": "NA","TYPE_2": "Territory","ENGTYPE_2": "Territory","CC_2": "NZ.02.01","HASC_2": "NA","name": "Snares_Islands.county","area_km2": 5.160945,"hist_schema_id": "Elevation0-9000","hist_area_km2": {"0": 2.396028,"25": 0.723117,"50": 0.680568,"75": 0.623921,"100": 0.63806,"125": 0.085073,"150": 0.014178}}}