{"type":"Feature","properties":{"GID_2":"NZL.7.6_1","GID_0":"NZL","country":"NewZealand","GID_1":"NZL.7_1","province":"Manawatu-Wanganui","NL_NAME_1":"NA","county":"Tararua","VARNAME_2":"NA","NL_NAME_2":"NA","TYPE_2":"District","ENGTYPE_2":"District","CC_2":"041","HASC_2":"NZ.MW.TR","name":"Tararua.county"},
"geometry":{"type": "MultiPolygon","coordinates": [[[[176.0938,-39.9955,1055.0044],[176.0894,-40.0055,1130.1804],[176.0791,-40.0111,1042.7959],[176.0773,-40.0139,1023.0208],[176.0775,-40.0272,1086.5791],[176.0741,-40.036,1067.4995],[176.0811,-40.0478,883.1146],[176.077,-40.0509,905.5855],[176.0702,-40.0611,857.9391],[176.033,-40.08,947.7098],[176.017,-40.1056,1013.5535],[176.0033,-40.1148,1093.2654],[175.9877,-40.1281,1132.6661],[175.9789,-40.1434,1016.2307],[175.9584,-40.1561,1016.5398],[175.9384,-40.1556,957.6373],[175.9274,-40.1753,1048.8156],[175.9186,-40.1735,1068.3478],[175.8983,-40.1847,889.5098],[175.8984,-40.1921,939.7104],[175.8937,-40.2005,919.9751],[175.8745,-40.2157,1010.9677],[175.874,-40.2214,997.5438],[175.8699,-40.2273,942.2085],[175.8726,-40.2334,888.854],[175.8649,-40.2399,758.9404],[175.8628,-40.244,816.8647],[175.8672,-40.2459,873.19],[175.8596,-40.2544,876.7557],[175.8415,-40.2461,514.8146],[175.8275,-40.262,582.0312],[175.8275,-40.2472,481.1031],[175.815,-40.2472,292.2548],[175.8146,-40.2722,290.7122],[175.8079,-40.269,290.691],[175.8051,-40.265,234.0723],[175.7711,-40.3057,52.0822],[175.7813,-40.3116,132.7661],[175.7906,-40.3135,90.5106],[175.784,-40.3325,389.9669],[175.7795,-40.3359,341.1984],[175.7793,-40.3386,333.5236],[175.7815,-40.3391,355.3851],[175.776,-40.339,335.9384],[175.7792,-40.3454,400.9132],[175.7739,-40.3503,409.8531],[175.7736,-40.3554,409.8821],[175.7697,-40.3571,431.2947],[175.7706,-40.3591,444.1062],[175.7648,-40.3599,469.5563],[175.7603,-40.3658,476.0628],[175.7616,-40.3688,465.1524],[175.7668,-40.37,441.1309],[175.7664,-40.3726,430.2832],[175.7569,-40.3744,418.3427],[175.7579,-40.3768,497.403],[175.7525,-40.3767,455.9267],[175.7533,-40.3783,510.3389],[175.751,-40.3784,501.7548],[175.7512,-40.3819,511.6549],[175.7482,-40.3827,465.9811],[175.7485,-40.3846,494.0712],[175.7469,-40.3843,463.1835],[175.7466,-40.3867,480.5414],[175.7396,-40.3885,501.5421],[175.7401,-40.3903,490.5732],[175.7384,-40.3899,507.4167],[175.7371,-40.3921,495.0839],[175.7359,-40.3908,496.9908],[175.7333,-40.3917,472.6944],[175.7326,-40.3993,478.8942],[175.7286,-40.3996,480.1395],[175.7237,-40.4024,446.1632],[175.7249,-40.4048,463.0754],[175.7229,-40.4053,442.5613],[175.7252,-40.41,406.9851],[175.7288,-40.4106,402.70119999999997],[175.7297,-40.4125,385.4693],[175.7228,-40.4187,390.0814],[175.7243,-40.4212,376.1449],[175.7223,-40.4223,385.2288],[175.7224,-40.4245,385.048],[175.7151,-40.4267,412.0132],[175.715,-40.4287,412.3392],[175.712,-40.431,418.5053],[175.7056,-40.4327,442.0221],[175.7146,-40.4378,293.1017],[175.6892,-40.4655,441.5148],[175.683,-40.4667,523.9672],[175.6253,-40.5101,720.919],[175.4734,-40.6934,1006.372],[175.5605,-40.7288,961.6417],[175.5591,-40.7326,832.9996],[175.5608,-40.7349,843.5503],[175.5678,-40.7366,789.2047],[175.576,-40.7331,782.7725],[175.5863,-40.7357,589.3043],[175.5874,-40.7342,639.6829],[175.5905,-40.737,545.8588],[175.5977,-40.7387,549.6598],[175.6053,-40.7447,448.1747],[175.6085,-40.743899999999996,433.7854],[175.6277,-40.7528,473.6859],[175.6321,-40.7463,506.5466],[175.6278,-40.7455,441.4408],[175.628,-40.7427,488.2077],[175.6532,-40.7425,429.054],[175.6583,-40.7282,400.4701],[175.6615,-40.7254,475.9409],[175.6759,-40.7294,295.0126],[175.6835,-40.7229,286.0045],[175.6823,-40.7161,293.6129],[175.6937,-40.7163,274.7621],[175.6939,-40.705,459.1207],[175.6905,-40.7049,454.8445],[175.6906,-40.6966,364.6342],[175.7524,-40.6974,288.5534],[175.7559,-40.7005,296.6376],[175.7572,-40.7057,308.9028],[175.7542,-40.7093,322.4484],[175.7563,-40.7088,317.383],[175.7701,-40.6989,346.0203],[175.7814,-40.7082,336.7241],[175.7807,-40.7114,351.6589],[175.7771,-40.714,331.3656],[175.774,-40.719,325.8386],[175.7765,-40.7197,323.1074],[175.7781,-40.7239,275.762],[175.7907,-40.7256,218.4236],[175.7816,-40.7395,399.4821],[175.7806,-40.7441,377.5765],[175.7762,-40.7453,352.3453],[175.7753,-40.7508,330.0583],[175.7677,-40.7531,308.0222],[175.7664,-40.755,318.3445],[175.767,-40.7592,300.8836],[175.7647,-40.7681,221.4926],[175.7855,-40.7723,215.9254],[175.7886,-40.768,215.6608],[175.796,-40.7731,330.5561],[175.7974,-40.7758,331.213],[175.8016,-40.7771,342.6661],[175.8033,-40.7758,274.5844],[175.8109,-40.7796,378.8237],[175.8269,-40.7609,281.1105],[175.8285,-40.7615,239.8218],[175.8272,-40.7655,272.6003],[175.8282,-40.7661,272.6003],[175.8304,-40.7645,263.3907],[175.8328,-40.7661,307.2752],[175.8363,-40.7656,316.4004],[175.8423,-40.7691,286.7023],[175.8497,-40.7614,313.525],[175.8628,-40.7698,336.8206],[175.8666,-40.7696,303.1491],[175.8716,-40.7779,331.2809],[175.8855,-40.7733,468.0127],[175.9099,-40.7509,301.4549],[175.935,-40.7668,362.1676],[175.9434,-40.7407,489.9603],[175.9516,-40.7435,493.3812],[175.9555,-40.7433,484.7231],[175.9606,-40.7364,478.8738],[175.965,-40.7392,490.8006],[175.9755,-40.7383,415.7008],[175.9714,-40.7367,416.9793],[175.9785,-40.7326,331.8205],[175.9777,-40.7305,311.4254],[175.9753,-40.7305,332.5601],[175.9775,-40.7295,308.0989],[175.9776,-40.7269,296.403],[175.974,-40.7229,270.3559],[175.9797,-40.7222,352.0916],[175.9888,-40.7259,362.2037],[175.9934,-40.7238,402.7497],[175.9954,-40.725,431.6507],[176.0106,-40.7132,419.3069],[176.0125,-40.717,343.4741],[176.0172,-40.7056,328.0068],[176.0242,-40.7073,284.5872],[176.0224,-40.7115,343.6885],[176.0437,-40.7164,349.696],[176.0475,-40.7146,331.9992],[176.0556,-40.7168,351.8371],[176.0569,-40.713,331.5475],[176.062,-40.7146,375.2533],[176.0748,-40.7132,412.8906],[176.082,-40.7157,418.0546],[176.0791,-40.7074,323.6015],[176.0823,-40.7082,339.3108],[176.0939,-40.6751,301.199],[176.1,-40.6755,263.1501],[176.1032,-40.6729,245.4813],[176.1053,-40.6733,213.834],[176.1072,-40.6742,206.1544],[176.1082,-40.6778,205.1395],[176.1116,-40.6794,198.0697],[176.1175,-40.6804,206.0562],[176.1181,-40.6788,213.6286],[176.1226,-40.6821,184.8128],[176.1299,-40.6824,165.7667],[176.1331,-40.6846,179.5746],[176.1414,-40.6807,145.2749],[176.144,-40.6826,129.4761],[176.1434,-40.6803,149.3038],[176.1532,-40.677,232.7222],[176.1625,-40.6822,392.8969],[176.1572,-40.6922,306.4017],[176.1756,-40.7009,89.6124],[176.1852,-40.6973,91.5469],[176.1908,-40.7007,82.6171],[176.1936,-40.6992,87.6049],[176.1976,-40.7004,77.1816],[176.198,-40.7019,77.6693],[176.2006,-40.7007,73.9131],[176.2039,-40.7039,73.779],[176.2082,-40.7024,95.8999],[176.2092,-40.7052,80.812],[176.2119,-40.7028,115.6824],[176.2167,-40.7034,69.7379],[176.2191,-40.7056,58.3957],[176.2225,-40.7032,65.4914],[176.228,-40.7054,63.2058],[176.2252,-40.707,55.6677],[176.2258,-40.7083,72.4283],[176.2343,-40.7077,49.7489],[176.2315,-40.7109,50.577],[176.2343,-40.7124,52.3605],[176.2344,-40.7157,39.723],[176.2413,-40.7176,45.7968],[176.2398,-40.7201,39.1156],[176.2365,-40.7211,43.8487],[176.2382,-40.7252,88.2073],[176.2413,-40.7259,70.9369],[176.2376,-40.729,47.4339],[176.248,-40.7307,38.2393],[176.2513,-40.7336,25.5127],[176.2506,-40.7349,29.1053],[176.2466,-40.7332,26.0091],[176.2445,-40.734,47.1424],[176.2466,-40.7409,26.5502],[176.2501,-40.7431,19.6798],[176.2497,-40.7401,22.1895],[176.2527,-40.7415,20.2797],[176.2508,-40.744,19.6798],[176.2525,-40.7455,20.1726],[176.2551,-40.743,16.4539],[176.2593,-40.7441,65.1986],[176.2586,-40.74,14.8177],[176.2604,-40.7384,16.7164],[176.2613,-40.7405,14.8261],[176.2661,-40.7401,12.8361],[176.2716,-40.7446,53.2103],[176.2637,-40.7465,17.1945],[176.264,-40.7484,28.4416],[176.2698,-40.7497,50.7005],[176.2636,-40.7533,9.8801],[176.2655,-40.7572,76.6289],[176.2603,-40.7564,12.017],[176.2582,-40.7599,11.0423],[176.2595,-40.7617,16.953],[176.2663,-40.7631,26.8406],[176.2629,-40.7668,12.5873],[176.2654,-40.7722,36.3346],[176.2621,-40.7753,10.2159],[176.2641,-40.7769,3.3733],[176.2643,-40.7811,1.4195],[176.2671,-40.7824,1.3227],[176.2741,-40.7779,6.0468],[176.2887,-40.7618,0.9936],[176.2903,-40.7554,1.1096],[176.2878,-40.7535,16.8717],[176.2879,-40.7485,0.0],[176.2932,-40.7403,1.2402],[176.303,-40.7328,1.1725],[176.3097,-40.722,4.4565],[176.3098,-40.7163,5.6413],[176.3189,-40.7093,0.3348],[176.3239,-40.7027,11.9378],[176.33,-40.701,4.9169],[176.3314,-40.6986,5.2896],[176.3426,-40.6919,4.5789],[176.3447,-40.687,15.0763],[176.3487,-40.6863,0.0],[176.3507,-40.681,4.4283],[176.354,-40.6779,5.5938],[176.3648,-40.6773,1.0878],[176.3678,-40.6747,0.0],[176.3678,-40.6727,30.0279],[176.3726,-40.6689,3.0727],[176.3763,-40.6681,0.6747],[176.3775,-40.663,12.4642],[176.3762,-40.6598,30.8459],[176.3778,-40.6553,24.3971],[176.3818,-40.652,8.0345],[176.3845,-40.652,2.4525],[176.3875,-40.6417,12.0595],[176.3988,-40.6295,24.7329],[176.407,-40.6247,14.5084],[176.4151,-40.6223,6.2726],[176.4155,-40.6127,0.0],[176.4221,-40.6046,0.0],[176.4364,-40.5949,1.4129],[176.4519,-40.5876,19.5351],[176.4577,-40.5835,10.5635],[176.459,-40.5796,0.0],[176.4677,-40.5748,0.0],[176.4703,-40.5712,13.8073],[176.4724,-40.5578,19.1946],[176.4779,-40.5492,0.0],[176.4792,-40.5442,41.1258],[176.493,-40.5308,22.9938],[176.5396,-40.5047,0.6326],[176.5595,-40.496,4.4522],[176.5769,-40.4927,8.966],[176.5869,-40.4931,0.0],[176.6019,-40.4912,27.1134],[176.6144,-40.4943,0.4561],[176.6149,-40.4922,27.594],[176.6226,-40.4905,8.5066],[176.6247,-40.4813,9.7645],[176.6289,-40.4732,3.8827],[176.628,-40.4608,0.0],[176.633,-40.4529,22.1538],[176.623,-40.4435,57.5528],[176.6226,-40.428,23.9028],[176.5897,-40.4226,158.8152],[176.5873,-40.4313,259.1971],[176.5831,-40.4198,217.1427],[176.5793,-40.4182,239.9899],[176.5786,-40.4146,252.4847],[176.5587,-40.4072,108.0952],[176.55,-40.4212,197.8806],[176.4929,-40.4001,136.0143],[176.4916,-40.4119,278.317],[176.4834,-40.412,233.6063],[176.4829,-40.4098,192.1255],[176.4805,-40.4088,192.472],[176.4682,-40.4112,205.3468],[176.4616,-40.409,209.9824],[176.4614,-40.4118,230.7242],[176.4589,-40.4098,250.9046],[176.4403,-40.4067,378.2087],[176.4339,-40.4029,418.634],[176.4357,-40.4008,421.7726],[176.4363,-40.3974,445.9354],[176.4349,-40.396,441.5951],[176.4371,-40.3952,457.2724],[176.4368,-40.3917,442.909],[176.4322,-40.392,411.2601],[176.4305,-40.3893,367.3939],[176.4282,-40.3911,376.2527],[176.4178,-40.3923,350.8689],[176.407,-40.3786,368.0509],[176.4033,-40.3767,325.2243],[176.3915,-40.3778,277.386],[176.391,-40.3758,288.3313],[176.3871,-40.3738,286.075],[176.3883,-40.3678,303.3271],[176.3905,-40.3662,277.6796],[176.3919,-40.3617,283.3641],[176.3707,-40.3586,327.4722],[176.4059,-40.333,228.0662],[176.3971,-40.329,287.6739],[176.392,-40.3293,405.4901],[176.3889,-40.323,429.4728],[176.39,-40.3201,444.3965],[176.3891,-40.3125,463.1919],[176.3992,-40.2849,465.9595],[176.3926,-40.277,411.3715],[176.3861,-40.2793,412.7299],[176.3807,-40.2772,426.012],[176.3833,-40.2748,425.1246],[176.3814,-40.2744,458.2465],[176.3809,-40.2726,445.4737],[176.3781,-40.2725,476.5348],[176.3795,-40.2676,482.2337],[176.3863,-40.2657,480.1342],[176.3817,-40.2628,436.7972],[176.3797,-40.2585,409.4965],[176.3792,-40.2539,409.9683],[176.3812,-40.2491,377.919],[176.3785,-40.2465,375.9751],[176.3803,-40.2463,375.9751],[176.3803,-40.2374,441.2177],[176.3703,-40.2342,449.2724],[176.3702,-40.2144,441.6459],[176.3645,-40.2137,389.8584],[176.3617,-40.2153,384.7009],[176.3611,-40.2012,303.4423],[176.3587,-40.1979,310.2494],[176.3622,-40.1965,311.6628],[176.3639,-40.1928,337.0885],[176.3613,-40.1921,320.2764],[176.3658,-40.1891,326.9144],[176.3659,-40.1864,330.6808],[176.367,-40.1863,331.639],[176.3635,-40.181,345.8812],[176.3656,-40.1797,344.0563],[176.366,-40.1732,353.2385],[176.3711,-40.1662,274.4194],[176.3783,-40.1632,234.8477],[176.3788,-40.1581,205.729],[176.3721,-40.1548,237.4938],[176.3697,-40.1516,280.0714],[176.3432,-40.1455,399.473],[176.3366,-40.1397,355.9572],[176.3371,-40.1388,343.9319],[176.3338,-40.1386,344.9366],[176.3365,-40.1279,324.6363],[176.3345,-40.1276,327.1511],[176.3296,-40.1225,318.9855],[176.3244,-40.1231,323.7217],[176.3215,-40.1213,314.6022],[176.322,-40.1198,315.2098],[176.3132,-40.1239,312.6422],[176.3128,-40.1221,331.281],[176.3104,-40.1211,296.1655],[176.3091,-40.1192,307.6436],[176.31,-40.1159,298.7898],[176.3171,-40.1091,366.2628],[176.3162,-40.1081,351.1762],[176.318,-40.1064,377.0499],[176.3162,-40.1026,402.4434],[176.3198,-40.0982,463.9532],[176.3204,-40.0946,447.8852],[176.3232,-40.0937,427.9469],[176.3229,-40.0897,397.8122],[176.3198,-40.0891,399.6453],[176.3209,-40.0856,380.2929],[176.3169,-40.0825,326.5451],[176.3106,-40.0814,330.1836],[176.3079,-40.0789,305.506],[176.2998,-40.0761,302.2262],[176.3027,-40.0723,296.7221],[176.2989,-40.0711,304.111],[176.2972,-40.0681,308.6935],[176.2932,-40.0687,328.0091],[176.2834,-40.0667,309.5343],[176.2801,-40.0677,312.1677],[176.2672,-40.0648,331.2858],[176.2638,-40.0627,355.5026],[176.2652,-40.0543,357.9771],[176.2641,-40.0522,356.7618],[176.2611,-40.0517,359.6219],[176.2622,-40.0451,353.0672],[176.2511,-40.0437,357.5963],[176.2487,-40.0402,362.0514],[176.2387,-40.0384,375.5722],[176.2388,-40.0273,364.7381],[176.2178,-40.0288,392.0168],[176.2175,-40.0263,392.2475],[176.2135,-40.0256,401.2104],[176.2135,-40.0178,418.3765],[176.205,-40.019,424.5818],[176.1813,-40.0182,462.373],[176.1806,-40.0162,466.9393],[176.1652,-40.0176,503.7752],[176.1543,-40.0122,627.1406],[176.1365,-40.0285,532.7667],[176.1334,-40.0247,576.5519],[176.1245,-40.0188,770.21],[176.1255,-40.0136,936.1838],[176.0938,-39.9955,1055.0044]]]]}}