{"type":"Feature","properties":{"featurecla":"River","scalerank":6,"rivernum":2004,"dissolve":"2004River","name":"Buller","name_alt":null,"note":null,"min_zoom":5.0,"strokeweig":0.2,"name_en":"Buller","min_label":6.0},
"geometry":{"type": "LineString","coordinates": [[172.82195203292105,-41.801936641340021,620.6051],[172.81622696968338,-41.791476796073368,654.699],[172.80528745695625,-41.78052181020238,570.8364],[172.78531162819996,-41.768174241381686,535.0057],[172.75628401027063,-41.755331531956649,502.3588],[172.70534642059928,-41.731038696056288,429.882],[172.68727378854092,-41.721538185710536,412.7534],[172.6777578050513,-41.713430258314496,400.521],[172.66824182156165,-41.702970413047836,438.6859],[172.65682264137411,-41.701546883810366,409.8944],[172.64015806540934,-41.699628213968552,370.196],[172.61968709604872,-41.697245349810174,398.8864],[172.60588505170276,-41.698668879047645,499.9655],[172.5987519323715,-41.704858136601878,352.6368],[172.59019528380279,-41.705817471522785,340.1368],[172.57733710123387,-41.710583199839547,363.8022],[172.55688160501711,-41.712470923393589,332.8172],[172.54259989321073,-41.706776806443692,330.7926],[172.52689465216687,-41.7024752724435,296.0471],[172.50928621442506,-41.700587548889459,306.2838],[172.49454030830211,-41.697245349810174,273.5934],[172.48120245827275,-41.6967811554936,258.7642],[172.47074261300608,-41.6967811554936,252.7614],[172.46122662951646,-41.690127703622807,245.772],[172.4455213884726,-41.687744839464429,301.964],[172.43837279599745,-41.690127703622807,229.8556],[172.42837714504736,-41.7024752724435,226.836],[172.42124402571611,-41.70915967060207,238.6273],[172.41457510070143,-41.713925398918832,220.6504],[172.40744198137017,-41.725344579106391,219.4762],[172.40030886203891,-41.74007501208547,203.4326],[172.3960228011826,-41.752453527193929,197.8839],[172.38602715023254,-41.766719765856436,192.98],[172.37747050166379,-41.77578702817339,191.837],[172.37224057903046,-41.78862973759842,193.7481],[172.36557165401578,-41.794323854548317,179.496],[172.35413700068435,-41.795747383785788,167.522],[172.33844723278435,-41.793395465915182,163.7302],[172.32464518843841,-41.796242524390131,158.3911],[172.31226667332996,-41.78862973759842,153.8382],[172.2965614322861,-41.775291887569054,145.75],[172.28275938794016,-41.771021299856628,147.9588],[172.26991667851513,-41.7790982809649,144.6152],[172.2537317700108,-41.778634086648339,141.7179],[172.23992972566487,-41.773404164015012,170.9387],[172.22945440725431,-41.771021299856628,147.988],[172.21945875630422,-41.778169892331768,150.1881],[172.20615185256264,-41.783864009281665,135.6605],[172.19710006338957,-41.781016950806716,296.216],[172.19281400253325,-41.77578702817339,133.9563],[172.18520121574156,-41.773404164015012,121.627],[172.17330236809354,-41.7767463630943,160.9983],[172.1595157968915,-41.774827693252483,138.0022],[172.14952014594141,-41.772444829094106,114.2385],[172.14046835676834,-41.775291887569054,115.8626],[172.12952884404123,-41.781481145123287,130.6372],[172.11619099401184,-41.78862973759842,120.4003],[172.10953754214106,-41.801008252706886,119.4621],[172.10382795204728,-41.809549428131731,179.5726],[172.08812271100342,-41.813386767815352,97.1248],[172.06432501570737,-41.815738685685965,130.2744],[172.0510026388219,-41.813386767815352,108.7765],[172.04195084964883,-41.801472447023457,183.061],[172.03577706523848,-41.797201859311038,105.265],[172.0324503393031,-41.78862973759842,96.2207],[172.02816427844678,-41.783399814965094,86.2379],[172.02387821759046,-41.785287538519135,67.3664],[172.02387821759046,-41.790548407440234,61.0],[172.02483755251137,-41.802431781944364,88.4292],[172.01864829495713,-41.8086210394986,89.4997],[172.00911683832362,-41.817193161211208,60.8267],[172.00436658315076,-41.826693671556953,74.3428],[171.99104420626526,-41.831923594190279,83.2332],[171.98199241709221,-41.843342774377845,50.6631],[171.97389996284005,-41.845725638536223,78.0908],[171.95725086001914,-41.847149167773694,52.9964],[171.94392848313367,-41.847644308378037,42.0],[171.94218001787459,-41.846654027169357,42.0]]}}