{"type":"Feature","properties":{"featurecla":"River","scalerank":9,"rivernum":2019,"dissolve":"2019River","name":"Motueka","name_alt":null,"note":null,"min_zoom":7.1,"strokeweig":0.2,"name_en":"Motueka","min_label":8.1},
"geometry":{"type": "LineString","coordinates": [[172.94400419189051,-41.642408527879674,459.9052],[172.93886710812049,-41.640737428340024,465.5103],[172.93403948722818,-41.6419443335631,464.443],[172.9317804082209,-41.640149448872378,427.0764],[172.92846915542938,-41.636992927519714,419.8069],[172.9206242714794,-41.636807249793087,431.4237],[172.91369230301865,-41.634114922757,403.613],[172.9073018945939,-41.629194463001383,376.9862],[172.90343360862252,-41.625016714152274,366.1351],[172.90312414574481,-41.619075026900212,358.2071],[172.90312414574481,-41.612235897302789,397.0889],[172.90134473419795,-41.609574516554467,356.157],[172.89837389057192,-41.59914561757558,333.5695],[172.89540304694589,-41.586952780193741,323.4559],[172.88915189681612,-41.5786282287833,308.4256],[172.88112133513951,-41.565228486178384,293.3142],[172.87666506970046,-41.556625418178,284.9789],[172.87576762735509,-41.545918002609177,272.6639],[172.87189934138371,-41.5354891036303,264.0248],[172.86863450802383,-41.525091150939183,254.7442],[172.86177990528253,-41.514971714838012,243.8782],[172.85941251426803,-41.507544605772935,235.9176],[172.8513819525914,-41.494732842635671,224.8372],[172.84305740118097,-41.484334889944563,214.4835],[172.83799768313037,-41.473039494908086,204.3786],[172.83383540742517,-41.464096017742222,194.8488],[172.83264397534597,-41.45428604451876,187.266],[172.83383540742517,-41.444785534173015,181.544],[172.83352594454746,-41.440019805856252,177.7777],[172.834129397159,-41.430797812100451,172.4794],[172.83710024078502,-41.423061240157658,167.0758],[172.83532082923819,-41.419192954186258,165.0431],[172.82996712145376,-41.41207530799889,160.7881],[172.81984768535261,-41.393909837077217,148.4914],[172.81390599810052,-41.383202421508393,143.8911],[172.81062569159678,-41.375775312443317,137.4968],[172.80408055173319,-41.369833625191255,133.3747],[172.79784487474728,-41.357640787809416,125.9506],[172.7936671258982,-41.350182732456567,123.3281],[172.79129973488369,-41.33888733742009,147.4418],[172.7860543391065,-41.323321354671194,110.7953],[172.78511047732945,-41.310942839562728,106.9384],[172.78749334148785,-41.297140795216791,101.6113],[172.79224359666071,-41.296645654612448,135.5961],[172.79652965751703,-41.300947188612639,136.8169],[172.80366277684828,-41.299523659375168,144.4009],[172.8108113693234,-41.29426279045407,112.4648],[172.81127556363998,-41.289032867820744,86.5548],[172.80938784008595,-41.2871451442667,157.0303],[172.80842850516504,-41.281420081029033,243.4301],[172.81413809525881,-41.276190158395707,79.2268],[172.81746482119422,-41.266194507445626,103.1943],[172.82318988443188,-41.250009598941304,70.7113],[172.82271021697142,-41.23766203012061,87.6207],[172.81984768535261,-41.230977631962041,95.6131],[172.81794448865466,-41.222900650853767,110.8705],[172.82507760798592,-41.21767072822044,60.7393],[172.83651226131735,-41.212409859299342,66.2426],[172.85506456083618,-41.205756407428538,53.8044],[172.8755355301968,-41.196720091399357,63.3136],[172.88266864952806,-41.19576075647845,45.1298],[172.88362798444896,-41.19006663952856,42.561],[172.89124077124069,-41.185765105528368,40.3946],[172.89408782971563,-41.180070988578471,40.1163],[172.89885355803239,-41.173881731024238,36.4108],[172.9159823283137,-41.168651808390912,29.7293],[172.92549831180335,-41.152002705570027,84.4549],[172.94406608446604,-41.141047719699031,21.3703],[172.95262273303479,-41.13105206874895,17.4602],[172.96594510992026,-41.113907825323722,12.5036],[172.97165470001403,-41.105335703611111,11.9316],[172.98545674436,-41.102488645136162,7.6571],[173.00258551464134,-41.095370998948795,7.4612],[173.02211262222494,-41.079650284761044,2.1407],[173.04341914135537,-41.072408853422594,0.0]]}}