{"type":"Feature","properties":{"featurecla":"River","scalerank":10,"rivernum":2020,"dissolve":"2020River","name":"Motueka1","name_alt":null,"note":null,"min_zoom":7.2,"strokeweig":0.15,"name_en":"Motueka Left Branch","min_label":8.2},
"geometry":{"type": "LineString","coordinates": [[173.02229829995156,-41.594813137287623,893.4667],[173.01125047521725,-41.596917484856057,752.2313],[173.00306518210178,-41.595772472208523,721.2111],[172.99450853353306,-41.596515183115031,689.7704],[172.9899284829429,-41.599764543331005,691.4575],[172.98898462116591,-41.605303928842048,664.2449],[172.98479139917291,-41.613473748813632,581.566],[172.97869498048198,-41.618610832583649,579.3977],[172.97279971266158,-41.625078606727818,542.9554],[172.96651761624403,-41.631175025418742,553.3966],[172.96195303879779,-41.635352774267844,547.924],[172.95871915172569,-41.636869142368631,559.2355],[172.95358206795569,-41.637271444109658,489.6449],[172.94900201736556,-41.640118502584606,483.0184],[172.94400419189051,-41.642408527879674,459.9052]]}}