{"type":"Feature","properties":{"GID_2":"NZL.17.5_1","GID_0":"NZL","country":"NewZealand","GID_1":"NZL.17_1","province":"Waikato","NL_NAME_1":"NA","county":"SouthWaikato","VARNAME_2":"NA","NL_NAME_2":"NA","TYPE_2":"District","ENGTYPE_2":"District","CC_2":"019","HASC_2":"NZ.WK.SW","name":"South_Waikato.county"},
"geometry":{"type": "MultiPolygon","coordinates": [[[[176.0622,-38.0268,572.6089],[176.0545,-38.0194,564.7075],[176.0328,-38.0083,571.6085],[176.0229,-37.9989,573.8287],[176.0132,-37.9935,570.5463],[176.0058,-37.9913,569.8886],[175.9801,-37.9885,552.6599],[175.9705,-37.9855,641.552],[175.9726,-37.9749,532.2429],[175.9718,-37.9712,520.9934],[175.9659,-37.9657,506.9825],[175.9601,-37.9678,505.1183],[175.9529,-37.9623,539.4326],[175.9474,-37.9513,542.4343],[175.9409,-37.9294,533.4558],[175.9469,-37.9227,528.9187],[175.9772,-37.9137,422.088],[175.958,-37.9058,503.028],[175.9542,-37.9019,491.4176],[175.9202,-37.9235,359.5627],[175.9086,-37.9206,232.1317],[175.908,-37.9188,207.8654],[175.9096,-37.919,246.9474],[175.9101,-37.9163,229.6852],[175.9084,-37.9129,171.3671],[175.9157,-37.9116,305.3799],[175.9121,-37.9079,179.0055],[175.9047,-37.9093,182.9077],[175.9034,-37.911,149.2029],[175.9041,-37.9126,136.2015],[175.9014,-37.9114,152.2447],[175.8943,-37.9137,142.0683],[175.884,-37.9128,95.7254],[175.8849,-37.9136,98.3661],[175.8829,-37.9179,110.1726],[175.8817,-37.9176,96.989],[175.8813,-37.9212,100.8598],[175.8785,-37.9231,112.1734],[175.8731,-37.9233,102.6784],[175.8683,-37.9215,89.2029],[175.8727,-37.9148,102.3952],[175.8553,-37.9099,76.4538],[175.8577,-37.9141,76.677],[175.8564,-37.9152,76.3673],[175.8568,-37.9239,89.8125],[175.8485,-37.9271,80.3353],[175.8448,-37.9226,84.2757],[175.8345,-37.9197,96.3279],[175.8294,-37.9085,89.4108],[175.8356,-37.9059,75.7728],[175.8249,-37.9061,92.3719],[175.825,-37.9184,93.3199],[175.8025,-37.9187,78.7687],[175.8032,-37.9176,87.2779],[175.801,-37.9177,77.1721],[175.8008,-37.9146,72.7505],[175.7988,-37.9144,68.5414],[175.8005,-37.9121,71.46],[175.7964,-37.9079,68.9421],[175.798,-37.9059,74.5349],[175.8018,-37.9059,74.112799999999993],[175.8018,-37.9038,76.5752],[175.7999,-37.903,80.1976],[175.8013,-37.902,73.4373],[175.7972,-37.9023,66.2],[175.7998,-37.8961,75.2626],[175.7933,-37.8974,76.3275],[175.7935,-37.9016,78.4008],[175.7727,-37.9012,82.8788],[175.7712,-37.905,81.3824],[175.7599,-37.9044,93.8583],[175.7462,-37.914,93.6421],[175.7392,-37.9165,88.4263],[175.7222,-37.9016,99.7843],[175.7194,-37.9034,90.6907],[175.7141,-37.9005,96.9345],[175.7073,-37.9046,103.8907],[175.6919,-37.941,195.0202],[175.6861,-37.9395,152.405],[175.6852,-37.9416,165.26],[175.6815,-37.9409,142.8445],[175.6791,-37.9427,122.8202],[175.6757,-37.9422,102.1793],[175.6742,-37.9441,102.227],[175.6697,-37.9411,101.1165],[175.6669,-37.9452,62.6431],[175.6625,-37.9465,57.803],[175.6619,-37.9493,55.8094],[175.6587,-37.9518,51.5],[175.66,-37.9589,51.5],[175.6561,-37.9647,55.0923],[175.6587,-37.9682,52.0],[175.657,-37.9704,52.0],[175.6585,-37.9771,52.0],[175.6544,-37.9821,52.0],[175.6596,-37.9883,52.5],[175.6579,-38.0014,54.0],[175.6592,-38.0053,54.2226],[175.6519,-38.0091,69.3228],[175.652,-38.0107,77.3928],[175.6557,-38.0132,54.0],[175.6517,-38.0183,93.085],[175.6523,-38.0199,54.0],[175.6565,-38.02,54.0],[175.6579,-38.0216,54.0],[175.6566,-38.0319,54.0],[175.658,-38.0346,57.6686],[175.6592,-38.0446,54.0],[175.658,-38.0481,72.9539],[175.6605,-38.0521,64.6517],[175.6602,-38.0567,61.5379],[175.654,-38.0602,63.1493],[175.6401,-38.0618,71.1752],[175.6381,-38.0633,64.8525],[175.6402,-38.0732,109.2675],[175.6362,-38.0808,129.0614],[175.637,-38.0843,103.5],[175.6342,-38.0908,125.4037],[175.636,-38.0929,121.2776],[175.6348,-38.1002,109.3747],[175.6293,-38.1106,106.0],[175.6221,-38.1135,106.5],[175.6253,-38.1183,107.0],[175.6257,-38.1234,107.0],[175.6318,-38.1265,107.5],[175.6328,-38.1301,107.5],[175.6316,-38.1338,107.875],[175.6351,-38.1411,118.5654],[175.6413,-38.1435,108.5],[175.6407,-38.1475,109.0],[175.6466,-38.1558,109.0],[175.6527,-38.1578,109.0],[175.6496,-38.1615,131.9909],[175.659,-38.162,109.5],[175.6648,-38.1645,134.5292],[175.6628,-38.1687,109.5],[175.6656,-38.1713,109.5],[175.6696,-38.1702,109.5],[175.6702,-38.1735,109.5],[175.6734,-38.1776,109.5],[175.6753,-38.1855,109.5],[175.6724,-38.1929,110.0],[175.6729,-38.2039,110.0],[175.6774,-38.2128,110.0],[175.6779,-38.2188,110.0],[175.6753,-38.2235,110.5],[175.6806,-38.2283,110.5],[175.6773,-38.2307,110.5],[175.6777,-38.2418,113.1967],[175.6809,-38.2499,129.1295],[175.6777,-38.2575,120.2901],[175.6799,-38.2607,115.3237],[175.6794,-38.2675,114.7802],[175.6812,-38.2757,126.0382],[175.6856,-38.281,120.1137],[175.6856,-38.2871,114.69],[175.6809,-38.2931,124.5],[175.682,-38.2996,125.0],[175.6878,-38.3066,125.5],[175.6904,-38.3072,127.9622],[175.6914,-38.3105,125.5],[175.7172,-38.3221,129.0082],[175.7238,-38.3296,129.7742],[175.7246,-38.3326,141.2969],[175.7357,-38.3406,132.7199],[175.7382,-38.3447,157.5815],[175.7386,-38.3491,135.3502],[175.7465,-38.3496,210.7123],[175.7468,-38.3522,187.3397],[175.7492,-38.353,194.6491],[175.7667,-38.3551,190.3998],[175.7756,-38.3583,188.5],[175.7812,-38.3622,188.5],[175.7843,-38.3674,188.5],[175.7836,-38.3762,189.0],[175.7718,-38.3888,189.5],[175.7696,-38.3922,190.508],[175.7696,-38.3955,190.5],[175.7763,-38.399,211.0541],[175.7785,-38.4044,199.4805],[175.7871,-38.4065,210.8188],[175.8023,-38.416,240.0498],[175.8111,-38.4188,250.1698],[175.8091,-38.4214,219.0],[175.8162,-38.4257,222.6578],[175.8176,-38.4277,219.5],[175.8167,-38.4304,220.0],[175.8196,-38.4317,220.0],[175.8201,-38.4356,220.0],[175.8225,-38.4373,220.5],[175.8306,-38.4398,220.5],[175.8444,-38.4387,221.5],[175.8541,-38.4334,222.0],[175.8558,-38.4338,232.5456],[175.8631,-38.4255,222.5],[175.8661,-38.4269,222.5],[175.8799,-38.4252,223.0],[175.8961,-38.4298,261.1148],[175.8999,-38.4264,224.0],[175.9311,-38.4183,224.0],[175.9383,-38.4206,225.7395],[175.9561,-38.4217,224.0],[175.9607,-38.4187,226.8901],[175.9783,-38.4145,229.0229],[175.983,-38.4106,233.506],[175.9922,-38.4112,226.5],[175.9934,-38.4091,229.8129],[175.9921,-38.4063,227.0],[176.0023,-38.4018,246.1228],[176.0137,-38.3925,245.068],[176.0212,-38.3891,282.6027],[176.024,-38.3896,253.5],[176.0232,-38.3863,253.5],[176.0279,-38.3858,253.5],[176.0261,-38.3843,253.5],[176.0312,-38.3798,266.1775],[176.0275,-38.3733,268.6714],[176.0272,-38.3691,254.1252],[176.0248,-38.3686,255.2923],[176.0238,-38.3651,253.5],[176.0311,-38.3636,286.631],[176.0376,-38.3582,253.5],[176.0399,-38.3587,255.9586],[176.0465,-38.3564,260.7111],[176.0477,-38.3542,258.5597],[176.0501,-38.3544,267.8365],[176.0488,-38.3498,264.062],[176.057,-38.3453,268.1797],[176.0555,-38.3431,260.4291],[176.0606,-38.3429,266.1909],[176.063,-38.3404,262.1225],[176.0586,-38.3345,277.2111],[176.0642,-38.3348,274.2924],[176.0735,-38.3269,290.657],[176.0886,-38.322,337.1993],[176.0935,-38.3175,370.4984],[176.0999,-38.3171,408.763],[176.1097,-38.3134,351.8178],[176.1171,-38.3146,319.6454],[176.1265,-38.3088,316.428],[176.1311,-38.3036,313.5389],[176.1309,-38.3014,306.6091],[176.1292,-38.3016,318.2344],[176.1308,-38.2998,306.2992],[176.1301,-38.2978,310.9757],[176.1282,-38.2968,309.7462],[176.1379,-38.2943,340.1389],[176.1361,-38.2926,325.3558],[176.1378,-38.2877,352.907],[176.1355,-38.2878,342.2986],[176.1347,-38.285,349.7452],[176.1325,-38.284,351.1355],[176.1317,-38.2857,334.3265],[176.1301,-38.2829,355.7148],[176.1233,-38.281,381.8755],[176.122,-38.282,351.8658],[176.1197,-38.2802,362.6453],[176.114,-38.2804,355.8837],[176.1135,-38.2778,370.8731],[176.1087,-38.2758,358.4955],[176.1293,-38.2732,685.0859],[176.116,-38.2691,455.899],[176.1205,-38.2679,627.0029],[176.1503,-38.2182,479.1332],[176.1101,-38.1669,644.3419],[176.09,-38.167,657.3765],[176.0887,-38.1643,652.9938],[176.0583,-38.1642,600.2585],[176.0583,-38.1667,613.2113],[176.0307,-38.1666,553.9214],[176.0307,-38.1392,574.532],[176.022,-38.1393,559.9472],[176.0197,-38.1425,548.9321],[175.9845,-38.142,345.8654],[175.9818,-38.1386,404.1497],[175.9991,-38.1315,523.6631],[176.0622,-38.0268,572.6089]]]]}}