{"type":"Feature","properties":{"ISO3166-1-Alpha-3":"NZL","country":"New Zealand","fill":"#F0F","id":"3408","name":"Southland"},
"geometry":{"type": "MultiPolygon","coordinates": [[[[167.44947,-47.23943,0.0],[167.47389,-47.22731,53.2521],[167.48699,-47.21893,180.1802],[167.47731,-47.20566,0.0],[167.45427,-47.20745,0.0],[167.43067,-47.21852,0.0],[167.41871,-47.2326,69.2304],[167.42677,-47.24456,0.0],[167.44947,-47.23943,0.0]]],
[[[167.69768,-47.18401,74.8279],[167.69223,-47.19028,37.2116],[167.6963,-47.19476,0.0],[167.70167,-47.19817,1.1872],[167.70151,-47.20696,57.578],[167.71046,-47.20737,0.0],[167.71787,-47.20371,0.0],[167.71811,-47.19891,0.0],[167.72136,-47.19834,0.0],[167.72527,-47.19419,0.0],[167.72088,-47.18532,12.0723],[167.71136,-47.1867,152.1043],[167.69768,-47.18401,74.8279]]],
[[[167.4109,-47.15016,0.0],[167.41261,-47.14666,0.0],[167.41147,-47.14422,0.0],[167.41131,-47.14031,0.0],[167.40626,-47.14129,33.7056],[167.40211,-47.14536,54.6575],[167.40268,-47.15057,80.9306],[167.40447,-47.15675,20.1244],[167.40268,-47.16131,0.0],[167.4109,-47.15016,0.0]]],
[[[168.24789,-46.91497,0.0],[168.24855,-46.90838,0.0],[168.24057,-46.90138,29.7578],[168.23243,-46.90586,0.0],[168.2295,-46.91334,5.8729],[168.24171,-46.91644,0.0],[168.24789,-46.91497,0.0]]],
[[[167.69776,-46.79176,0.0],[167.70924,-46.78411,0.0],[167.71974,-46.76719,327.0359],[167.70672,-46.7597,0.0],[167.69337,-46.75726,0.0],[167.67872,-46.75856,0.0],[167.667,-46.76523,0.0],[167.66285,-46.7785,6.3238],[167.66944,-46.7916,0.0],[167.68263,-46.7951,0.0],[167.69776,-46.79176,0.0]]],
[[[168.5726,-46.79176,0.0],[168.59352,-46.77532,0.0],[168.60572,-46.75457,0.0],[168.59002,-46.73235,0.0],[168.58375,-46.7457,0.0],[168.57211,-46.75416,0.0],[168.55763,-46.75856,0.0],[168.54217,-46.7597,0.0],[168.5503,-46.77223,0.0],[168.56121,-46.78183,0.0],[168.56788,-46.7907,0.0],[168.56324,-46.8012,0.0],[168.5726,-46.79176,0.0]]],
[[[167.96754,-46.6998,0.0],[167.92058,-46.68304,0.0],[167.90919,-46.68483,0.0],[167.89527,-46.69476,58.7011],[167.88233,-46.69988,60.0989],[167.86695,-46.69817,179.1431],[167.8401,-46.69134,0.0],[167.80974,-46.69207,5.4945],[167.78745,-46.6972,198.1963],[167.77361,-46.71168,186.9738],[167.76808,-46.73984,103.4435],[167.76588,-46.74538,93.2178],[167.76189,-46.75042,55.0638],[167.76026,-46.75604,64.9726],[167.76441,-46.76336,30.1569],[167.76905,-46.76824,31.9771],[167.77215,-46.77256,38.2982],[167.77394,-46.77744,22.5845],[167.77426,-46.78387,39.5703],[167.77027,-46.79119,48.2097],[167.76254,-46.7986,165.4454],[167.75831,-46.80739,100.7239],[167.76441,-46.81829,68.4772],[167.79819,-46.85345,49.565],[167.81137,-46.87477,55.0501],[167.81658,-46.89739,73.5402],[167.81422,-46.91123,52.2223],[167.8086,-46.92205,48.337],[167.792,-46.94183,164.8255],[167.77882,-46.94988,268.5486],[167.74936,-46.94988,21.3226],[167.73707,-46.95517,8.0208],[167.73227,-46.97674,215.7239],[167.74,-47.00335,227.6598],[167.74383,-47.02728,337.9344],[167.72657,-47.04079,96.8369],[167.71306,-47.03997,0.0],[167.70118,-47.03558,0.0],[167.68824,-47.03289,0.0],[167.67189,-47.03704,0.0],[167.6482,-47.04803,324.6537],[167.63771,-47.05462,312.138],[167.62745,-47.06471,352.7003],[167.6198,-47.07871,237.2576],[167.61988,-47.08978,225.0978],[167.62322,-47.10133,241.2052],[167.62477,-47.11647,242.8825],[167.6198,-47.129,117.872],[167.6128,-47.13942,226.7147],[167.61305,-47.14861,153.8223],[167.63038,-47.15691,95.7485],[167.59571,-47.16863,322.3784],[167.57545,-47.17978,53.7377],[167.55584,-47.18174,75.9739],[167.54558,-47.18825,67.6707],[167.53403,-47.20403,79.9126],[167.52182,-47.22829,283.5043],[167.51547,-47.25368,438.694],[167.52101,-47.27304,228.5717],[167.54135,-47.2776,180.8423],[167.57569,-47.27597,1.1072],[167.60922,-47.27044,0.0],[167.62745,-47.2636,33.3293],[167.64177,-47.24928,62.279],[167.65943,-47.23642,0.0],[167.67213,-47.2361,0.0],[167.67189,-47.26051,0.0],[167.7033,-47.23724,0.0],[167.71461,-47.22438,0.0],[167.72657,-47.20525,0.0],[167.66578,-47.22145,32.58],[167.63461,-47.22552,2.3078],[167.61671,-47.21217,7.1354],[167.64576,-47.20517,0.0],[167.69703,-47.17693,0.0],[167.7129,-47.18483,141.8711],[167.71941,-47.16058,60.0121],[167.71974,-47.15691,114.2241],[167.72739,-47.1535,211.6831],[167.74415,-47.15065,158.8711],[167.7649,-47.13747,171.8305],[167.77312,-47.14471,87.6645],[167.77955,-47.15911,59.6491],[167.78924,-47.17116,60.2835],[167.80161,-47.17246,153.9715],[167.8379,-47.16839,163.5549],[167.85353,-47.17425,98.4919],[167.86671,-47.18255,0.0],[167.88413,-47.18808,0.0],[167.90187,-47.18841,0.0],[167.91521,-47.18108,0.0],[167.93377,-47.16448,0.0],[167.99627,-47.12444,45.2042],[168.02125,-47.11647,78.1892],[168.08334,-47.10906,6.2332],[168.15797,-47.10906,0.0],[168.14649,-47.09352,34.6271],[168.181,-47.10394,0.0],[168.19207,-47.09889,0.0],[168.1858,-47.07431,0.0],[168.19109,-47.06715,0.0],[168.21315,-47.06813,0.0],[168.22071,-47.0722,8.2627],[168.22828,-47.08514,0.0],[168.23365,-47.08856,0.0],[168.24122,-47.08896,0.0],[168.25172,-47.08799,0.0],[168.25929,-47.08473,0.0],[168.25758,-47.07838,0.0],[168.24464,-47.06862,0.0],[168.19947,-47.04762,61.4778],[168.19947,-47.04079,61.3281],[168.21306,-47.04168,0.0],[168.22486,-47.04461,0.0],[168.23609,-47.04559,0.0],[168.24733,-47.04079,0.0],[168.24985,-47.03411,0.0],[168.25611,-47.00872,0.0],[168.261,-46.9992,0.0],[168.25318,-46.99619,0.0],[168.24431,-46.99082,0.0],[168.23666,-46.98358,0.0],[168.23365,-46.97568,0.0],[168.23024,-46.97161,0.0],[168.22267,-46.97324,0.0],[168.20932,-46.97869,0.0],[168.19654,-46.97926,0.0],[168.14259,-46.99277,69.733],[168.13111,-46.99245,39.9226],[168.13111,-46.98561,0.0],[168.13901,-46.98211,0.0],[168.14381,-46.97796,7.9056],[168.14731,-46.97275,14.6256],[168.15113,-46.96575,0.0],[168.11183,-46.95371,0.0],[168.08644,-46.94891,0.0],[168.05885,-46.93475,0.0],[168.04868,-46.93157,0.0],[168.0267,-46.93955,18.2504],[167.99187,-46.97047,313.3802],[167.96664,-46.97259,443.2184],[168.01539,-46.92555,0.0],[168.01824,-46.91448,0.0],[168.00815,-46.89511,0.0],[168.02703,-46.88844,49.7404],[168.08334,-46.88991,81.9128],[168.07651,-46.90358,29.4537],[168.16733,-46.90984,0.0],[168.19207,-46.90358,0.0],[168.19207,-46.89739,0.0],[168.17164,-46.88991,0.0],[168.19125,-46.87705,0.0],[168.17921,-46.86443,0.0],[168.1565,-46.85524,0.0],[168.14422,-46.85247,0.0],[168.13844,-46.8388,0.0],[168.12428,-46.82952,0.0],[168.10743,-46.82147,0.0],[168.09327,-46.81146,0.0],[168.00408,-46.7247,0.0],[167.98666,-46.71103,0.0],[167.96754,-46.6998,0.0]]],
[[[166.93662,-46.56463,0.0],[166.938,-46.55617,0.0],[166.93686,-46.55161,0.0],[166.93084,-46.55112,0.0],[166.91594,-46.55226,0.0],[166.92498,-46.56024,0.0],[166.938,-46.57073,0.0],[166.93662,-46.56463,0.0]]],
[[[167.85458,-46.45786,5.2082],[167.85532,-46.45249,0.0],[167.85239,-46.44744,0.0],[167.84807,-46.44997,0.0],[167.83562,-46.45119,0.0],[167.83253,-46.45387,0.0],[167.84295,-46.4546,52.7694],[167.85117,-46.46111,5.1877],[167.85458,-46.45786,5.2082]]],
[[[166.62176,-46.13787,0.0],[166.64942,-46.11972,0.0],[166.6561,-46.11207,0.0],[166.65105,-46.10394,43.6109],[166.6373,-46.098,19.6845],[166.62176,-46.10141,81.7683],[166.60857,-46.11102,10.6858],[166.60678,-46.12461,26.5646],[166.60971,-46.13559,0.0],[166.60784,-46.13926,9.6643],[166.61199,-46.14153,0.0],[166.62176,-46.13787,0.0]]],
[[[166.53281,-46.0608,16.0197],[166.53614,-46.05088,2.7211],[166.54021,-46.04518,23.4885],[166.53826,-46.04355,30.3674],[166.53191,-46.04306,106.8053],[166.5232,-46.03997,110.9489],[166.51401,-46.0394,21.5006],[166.50847,-46.04404,84.1308],[166.50815,-46.05023,26.8136],[166.52329,-46.06439,0.4048],[166.52825,-46.06723,0.0],[166.53281,-46.0608,16.0197]]],
[[[166.54412,-46.03232,33.5893],[166.54412,-46.0254,85.2572],[166.54005,-46.02003,25.8061],[166.5337,-46.01824,78.0225],[166.53077,-46.01881,34.0681],[166.52849,-46.02418,2.1573],[166.52963,-46.02955,0.0],[166.5416,-46.0333,0.0],[166.54412,-46.03232,33.5893]]],
[[[166.5818,-45.99318,0.0],[166.58595,-45.9874,0.0],[166.58334,-45.98235,85.8937],[166.5761,-45.98244,100.0929],[166.57179,-45.98374,150.2085],[166.56739,-45.98374,150.2597],[166.5503,-45.9883,37.8296],[166.54835,-45.99033,0.0],[166.54754,-45.99489,93.7149],[166.54233,-45.99896,38.7209],[166.53964,-46.00311,0.0],[166.5416,-46.00604,0.0],[166.55372,-46.00888,0.0],[166.56235,-46.00897,0.0],[166.5818,-45.99318,0.0]]],
[[[166.77402,-45.75132,0.0],[166.77695,-45.74896,0.0],[166.77182,-45.74627,26.2471],[166.76596,-45.74668,15.9597],[166.71681,-45.74904,215.4615],[166.67978,-45.76181,60.2239],[166.65374,-45.76287,120.9812],[166.64129,-45.77199,63.7219],[166.61834,-45.77459,7.0715],[166.61524,-45.77776,0.0],[166.6185,-45.77955,0.0],[166.61834,-45.78183,3.9319],[166.62371,-45.78305,0.0],[166.65187,-45.78053,0.0],[166.6574,-45.7789,0.0],[166.66554,-45.78078,0.0],[166.77402,-45.75132,0.0]]],
[[[166.50937,-45.7728,0.0],[166.52548,-45.76735,0.0],[166.5394,-45.76157,0.0],[166.55177,-45.75986,0.0],[166.56284,-45.7553,9.0834],[166.56316,-45.75018,4.6455],[166.54892,-45.74546,74.7014],[166.53476,-45.74594,141.353],[166.52491,-45.7514,0.0],[166.50937,-45.75156,71.0528],[166.48894,-45.75636,67.7278],[166.48552,-45.76507,26.4549],[166.48504,-45.76922,43.113],[166.48976,-45.77329,0.0],[166.50937,-45.7728,0.0]]],
[[[166.83717,-45.75579,0.0],[166.87761,-45.74383,142.9404],[166.88168,-45.74074,5.7196],[166.88103,-45.73504,5.5633],[166.87615,-45.73056,0.0],[166.8156,-45.72625,299.7042],[166.80388,-45.73097,321.9495],[166.79444,-45.73878,37.9664],[166.79444,-45.74448,51.5425],[166.80161,-45.74717,50.3088],[166.79705,-45.75083,0.0],[166.81227,-45.75579,0.0],[166.83717,-45.75579,0.0]]],
[[[166.73015,-45.62656,65.6801],[166.71144,-45.61631,0.0],[166.70248,-45.61517,144.6566],[166.68385,-45.61598,222.8274],[166.60377,-45.63551,360.2759],[166.57862,-45.63494,337.1129],[166.56666,-45.63714,215.0285],[166.55893,-45.65195,141.8258],[166.54737,-45.66725,158.0418],[166.54444,-45.67034,238.7336],[166.53289,-45.67734,221.7035],[166.52101,-45.69354,40.4887],[166.51149,-45.71168,0.0],[166.5062,-45.72487,0.0],[166.52735,-45.71966,0.0],[166.54347,-45.71152,0.0],[166.60572,-45.65984,534.4783],[166.62306,-45.6583,546.6623],[166.63722,-45.67718,245.8033],[166.636,-45.68873,478.2418],[166.63893,-45.70892,312.4172],[166.64422,-45.72869,220.3399],[166.65008,-45.73919,0.0],[166.6574,-45.74114,33.0984],[166.66668,-45.74082,152.7052],[166.67482,-45.73691,286.3708],[166.68181,-45.71885,651.9456],[166.68995,-45.72389,661.3602],[166.69728,-45.73398,245.4373],[166.69939,-45.73919,0.0],[166.72169,-45.73707,0.0],[166.73927,-45.72796,0.0],[166.75066,-45.71209,521.5675],[166.75465,-45.69012,681.9499],[166.75172,-45.66872,107.2946],[166.7435,-45.64577,557.1791],[166.73015,-45.62656,65.6801]]],
[[[167.03443,-45.30047,22.9236],[166.99708,-45.23317,121.3992],[166.98276,-45.1994,216.3895],[166.97364,-45.16326,0.0],[166.97088,-45.15976,0.0],[166.96827,-45.15732,165.6277],[166.96632,-45.15447,0.0],[166.96616,-45.14959,0.0],[166.90577,-45.21795,298.9344],[166.89918,-45.22772,639.3652],[166.90113,-45.23211,608.0403],[166.89096,-45.23561,534.7274],[166.89332,-45.24342,451.1086],[166.90414,-45.25604,273.7806],[166.91228,-45.26979,44.4204],[166.93181,-45.27711,327.435],[166.95362,-45.28232,587.3699],[166.9699,-45.28948,575.4794],[166.98748,-45.30234,0.0],[167.00099,-45.30495,0.0],[167.03443,-45.30047,22.9236]]],
[[[168.18584,-44.63392,1203.7567],[168.20506,-44.59666,716.0706],[168.24041,-44.55361,1667.1145],[168.274,-44.52302,1512.9685],[168.30717,-44.50638,2041.1316],[168.32888,-44.49,1845.0588],[168.3573,-44.40985,1913.6802],[168.36536,-44.39316,1923.691],[168.37394,-44.36975,1183.8846],[168.36133,-44.35233,1450.665],[168.35089,-44.33207,1390.6215],[168.33043,-44.31052,1097.5308],[168.31089,-44.29378,1015.5583],[168.27689,-44.27725,362.9313],[168.24155,-44.26562,916.2126],[168.19101,-44.26779,577.494],[168.13674,-44.28079,533.6642],[168.1399,-44.28395,493.5557],[168.1395,-44.29925,25.5832],[168.12745,-44.31658,31.1328],[168.11817,-44.32041,29.6846],[168.02817,-44.32041,0.0],[168.03321,-44.35329,302.1188],[168.00815,-44.37615,19.9136],[167.97193,-44.39422,297.6926],[167.94288,-44.41286,38.6404],[167.86004,-44.48073,262.5187],[167.83644,-44.5053,156.4661],[167.84441,-44.51678,210.2153],[167.85043,-44.53151,468.8085],[167.85678,-44.56048,453.7195],[167.85524,-44.58717,1417.4558],[167.85678,-44.59466,1296.6721],[167.86207,-44.60198,754.6591],[167.86695,-44.60394,548.4479],[167.87192,-44.60475,272.4742],[167.87794,-44.60833,947.4214],[167.90455,-44.62884,31.914],[167.92709,-44.6386,1094.0343],[167.93263,-44.64251,477.438],[167.93946,-44.65521,407.8493],[167.94191,-44.67059,839.5023],[167.93971,-44.68548,160.4719],[167.93263,-44.69704,1580.6844],[167.90187,-44.65276,0.0],[167.88868,-44.64235,0.0],[167.85499,-44.62811,1257.282],[167.8108,-44.59922,0.0],[167.78126,-44.59433,478.743],[167.75196,-44.6032,3.8496],[167.72316,-44.62542,540.3289],[167.71599,-44.62957,441.5],[167.69899,-44.6334,691.4989],[167.69239,-44.63633,623.7849],[167.68702,-44.64275,651.4333],[167.67897,-44.657,196.6601],[167.67189,-44.66302,509.0585],[167.61891,-44.674,411.1022],[167.60304,-44.68336,188.7367],[167.59474,-44.69769,127.1346],[167.59913,-44.70818,303.6087],[167.62477,-44.72503,655.3546],[167.66245,-44.75856,1337.6077],[167.67937,-44.76539,441.5286],[167.65358,-44.75986,877.2133],[167.63502,-44.75262,704.7439],[167.61866,-44.74082,213.5932],[167.59986,-44.72161,789.3569],[167.58872,-44.71624,423.9389],[167.57814,-44.72031,113.0537],[167.56804,-44.72747,0.0],[167.54884,-44.73447,0.0],[167.55112,-44.74196,168.8904],[167.56202,-44.75514,977.1414],[167.56853,-44.77256,657.1564],[167.59474,-44.79339,1029.9769],[167.59685,-44.81373,677.429],[167.58912,-44.83148,899.2567],[167.57862,-44.84466,1144.5066],[167.57008,-44.85947,517.8192],[167.56813,-44.88201,100.6156],[167.55014,-44.87225,659.8824],[167.54005,-44.86053,1027.921],[167.53728,-44.84588,601.5787],[167.54217,-44.82741,659.783],[167.55128,-44.81325,260.3575],[167.55942,-44.80608,509.8589],[167.56227,-44.79925,495.461],[167.55519,-44.78582,889.7214],[167.52329,-44.76377,516.1765],[167.48715,-44.76719,0.0],[167.45769,-44.78932,488.7412],[167.44532,-44.82366,855.5625],[167.44809,-44.83587,504.343],[167.46266,-44.86826,233.9131],[167.46998,-44.87859,741.7259],[167.4769,-44.89316,323.6767],[167.47641,-44.90911,765.4139],[167.47438,-44.92352,509.0],[167.47706,-44.93353,306.2484],[167.49781,-44.94801,767.1572],[167.50066,-44.95403,630.577],[167.50131,-44.96136,156.7059],[167.50343,-44.96917,413.6463],[167.50685,-44.97625,815.9551],[167.51108,-44.9817,1124.7905],[167.51417,-44.99261,807.1456],[167.49676,-44.99472,1192.113],[167.45965,-44.99188,465.7331],[167.46648,-44.97324,58.5],[167.45924,-44.96103,761.8094],[167.44711,-44.95078,1038.0559],[167.43914,-44.93727,230.5706],[167.44028,-44.92783,254.4772],[167.45021,-44.90862,1032.2239],[167.45281,-44.8991,738.3978],[167.44972,-44.88942,689.5453],[167.44256,-44.88201,794.8004],[167.43556,-44.87623,745.5391],[167.4323,-44.87184,461.5272],[167.41871,-44.84092,440.3882],[167.38575,-44.84238,583.1055],[167.30885,-44.87526,558.8727],[167.31414,-44.88006,401.8183],[167.32374,-44.89121,892.0778],[167.32927,-44.89568,774.4819],[167.30543,-44.89658,684.5078],[167.28663,-44.89935,651.1273],[167.27019,-44.90553,188.6075],[167.22023,-44.93613,536.5063],[167.20346,-44.94997,341.0622],[167.19899,-44.96404,9.6028],[167.21062,-44.97259,477.4288],[167.33107,-45.02223,167.8116],[167.34986,-45.02606,184.1905],[167.3357,-45.0372,55.9909],[167.31349,-45.0285,724.8998],[167.28875,-45.01344,935.0516],[167.26783,-45.00555,997.8149],[167.24147,-45.00042,819.957],[167.21485,-44.9909,552.7145],[167.18914,-44.98528,1058.1913],[167.16481,-44.99188,731.2624],[167.15154,-45.00758,30.514],[167.15309,-45.02402,512.5211],[167.16489,-45.0407,795.6117],[167.18181,-45.05706,507.5497],[167.20281,-45.06683,753.0747],[167.25953,-45.0818,1010.9144],[167.27467,-45.09441,495.4829],[167.21404,-45.08953,520.2987],[167.19899,-45.09441,146.623],[167.19451,-45.10215,0.0],[167.19744,-45.12225,839.472],[167.19215,-45.13592,973.2353],[167.18067,-45.12713,663.7087],[167.17905,-45.1159,719.7495],[167.18067,-45.10263,0.0],[167.17848,-45.08815,681.0482],[167.14064,-45.04315,321.7027],[167.1185,-45.03924,237.6078],[167.09441,-45.05592,0.0],[167.05494,-45.10174,390.011],[167.0796,-45.1032,437.6696],[167.1006,-45.11598,851.7139],[167.13697,-45.14959,799.3461],[167.17302,-45.17116,574.6288],[167.17848,-45.1775,825.3773],[167.17075,-45.18475,919.7203],[167.15528,-45.18475,452.0403],[167.13844,-45.18027,281.1047],[167.12696,-45.17376,0.0],[167.0879,-45.13494,583.4652],[167.06422,-45.12274,0.0],[167.03443,-45.12225,730.0108],[167.01205,-45.13291,661.2889],[167.00489,-45.14959,494.9267],[167.00766,-45.19427,404.6152],[167.01197,-45.20566,639.7225],[167.03028,-45.21657,629.4952],[167.03639,-45.23659,645.2638],[167.04542,-45.25652,785.9591],[167.04754,-45.26971,945.7227],[167.06479,-45.27695,475.5745],[167.14625,-45.27093,14.8321],[167.17164,-45.26629,435.925],[167.20973,-45.25359,552.7107],[167.24724,-45.25311,936.84],[167.24733,-45.25433,936.84],[167.23878,-45.25888,1363.8745],[167.23308,-45.26971,1174.9714],[167.23121,-45.28875,657.8066],[167.2339,-45.29339,664.9684],[167.24366,-45.30389,324.2411],[167.25758,-45.31113,429.0728],[167.29274,-45.30983,982.5845],[167.30885,-45.31341,666.7042],[167.29786,-45.32659,836.5944],[167.2798,-45.33213,624.0829],[167.25913,-45.33164,718.5813],[167.24057,-45.32708,611.9844],[167.22657,-45.31813,626.0698],[167.20916,-45.29404,648.4051],[167.19899,-45.28607,1038.3591],[167.18051,-45.28476,554.2258],[167.07887,-45.30633,974.7714],[167.06202,-45.31316,912.1508],[167.04754,-45.32708,897.7908],[167.14845,-45.39813,626.6135],[167.20021,-45.44598,1173.095],[167.20574,-45.47861,1061.2249],[167.19907,-45.47381,677.5705],[167.18605,-45.46885,762.9226],[167.17848,-45.46494,788.8214],[167.17595,-45.46852,506.8952],[167.17164,-45.47112,56.5172],[167.15366,-45.43727,787.2982],[167.14698,-45.41375,57.0388],[167.13689,-45.40553,554.5714],[167.12436,-45.39959,419.4087],[167.09718,-45.38209,0.0],[167.09002,-45.38747,0.0],[167.08595,-45.40049,440.9402],[167.07911,-45.41334,758.2689],[167.06617,-45.42409,1219.0322],[167.05421,-45.42929,980.0115],[167.02027,-45.43076,687.5401],[167.01108,-45.42645,15.0112],[167.02182,-45.41717,55.7368],[167.04754,-45.40276,549.1653],[167.05698,-45.38991,770.5847],[167.05885,-45.38006,715.0],[167.0547,-45.37127,810.4509],[167.04754,-45.36191,276.9207],[167.01905,-45.34124,0.0],[166.99204,-45.34303,546.8021],[166.96404,-45.35247,919.0445],[166.93214,-45.35508,497.0309],[166.9358,-45.34564,690.1072],[166.94215,-45.33807,949.3967],[166.95021,-45.33196,457.3408],[166.95932,-45.32708,261.7264],[166.91774,-45.31268,477.8886],[166.89894,-45.29998,0.0],[166.89096,-45.28297,18.4042],[166.88136,-45.27955,0.0],[166.85955,-45.29144,231.9358],[166.82553,-45.31715,539.6976],[166.81178,-45.33367,409.8679],[166.806,-45.34629,734.3598],[166.80926,-45.35719,458.348],[166.82228,-45.36875,541.5674],[166.84002,-45.37786,752.4604],[166.87941,-45.39219,676.535],[166.8978,-45.40276,486.7871],[166.91,-45.37957,609.1434],[166.92563,-45.3886,519.733],[166.94117,-45.41326,0.0],[166.95248,-45.43694,832.8774],[166.90935,-45.42978,52.8248],[166.86109,-45.40732,122.2935],[166.81227,-45.39284,0.0],[166.76759,-45.4096,629.8204],[166.7575,-45.42523,758.8572],[166.73959,-45.48545,485.6861],[166.70248,-45.54241,686.7484],[166.7024,-45.55739,671.6465],[166.71461,-45.57562,304.3932],[166.72267,-45.57969,32.2604],[166.74024,-45.58099,0.0],[166.75172,-45.58001,0.0],[166.77345,-45.57562,0.0],[166.78452,-45.5748,36.9594],[166.83961,-45.55291,0.0],[166.92189,-45.54127,649.1207],[167.05494,-45.49163,337.3286],[167.0464,-45.51686,944.693],[167.0171,-45.5324,1008.6613],[166.95248,-45.54681,156.964],[166.96461,-45.55771,19.115],[166.97975,-45.5617,0.0],[167.01344,-45.56113,707.6309],[166.99195,-45.57545,948.857],[166.96437,-45.57431,1175.2302],[166.91163,-45.56113,0.0],[166.88217,-45.56463,39.5692],[166.83204,-45.58343,753.4304],[166.80519,-45.58782,535.5894],[166.78199,-45.59417,309.4595],[166.77076,-45.61061,473.8288],[166.77003,-45.63275,655.5988],[166.77768,-45.65667,0.0],[166.79461,-45.65993,9.6634],[166.89096,-45.64983,744.8718],[166.8755,-45.65927,973.3242],[166.82228,-45.67034,747.4326],[166.80486,-45.67889,759.4023],[166.79282,-45.68955,777.9519],[166.77426,-45.71885,57.7983],[166.79754,-45.72438,0.0],[166.89096,-45.70517,478.8818],[166.96274,-45.71136,439.6743],[166.9782,-45.70957,311.834],[167.02084,-45.69769,320.788],[167.00847,-45.71852,700.2312],[166.98732,-45.73024,363.5828],[166.93881,-45.74538,483.5462],[166.91912,-45.75579,832.387],[166.90943,-45.76238,635.9626],[166.90113,-45.76995,961.3435],[166.88966,-45.77646,551.0095],[166.87599,-45.77695,787.5109],[166.84645,-45.77337,19.8803],[166.8191,-45.77654,700.4569],[166.76596,-45.7907,392.9908],[166.74024,-45.79388,562.9171],[166.67791,-45.79412,830.0847],[166.64829,-45.80006,753.4343],[166.62355,-45.81504,407.9858],[166.61606,-45.80755,332.8094],[166.62355,-45.80071,561.3424],[166.55454,-45.80071,111.1581],[166.48976,-45.80755,86.8625],[166.4734,-45.81732,25.7451],[166.46681,-45.84051,131.452],[166.46648,-45.93043,139.9093],[166.47185,-45.95029,172.3765],[166.47316,-45.9638,140.2235],[166.46941,-45.97536,111.5148],[166.46941,-45.98349,76.0212],[166.47478,-45.99603,5.2123],[166.48243,-46.00775,0.0],[166.48976,-46.01295,0.0],[166.49741,-46.00905,0.0],[166.52101,-45.99082,54.382],[166.53419,-45.98504,48.4666],[166.62924,-45.96526,0.0],[166.64405,-45.95428,0.0],[166.64763,-45.94443,87.808],[166.67482,-45.91326,44.8359],[166.68084,-45.90895,110.1748],[166.69939,-45.89967,334.7421],[166.70053,-45.89414,268.4465],[166.70387,-45.88698,392.0872],[166.70818,-45.8803,292.2912],[166.71225,-45.87575,35.2381],[166.72145,-45.86883,20.0],[166.7326,-45.8624,99.4946],[166.74391,-45.86094,20.0],[166.75392,-45.86891,536.2067],[166.75196,-45.87656,840.7693],[166.74301,-45.88698,635.6167],[166.68849,-45.93385,596.1932],[166.69125,-45.9402,769.2444],[166.7068,-45.94573,325.2947],[166.72584,-45.9494,5.4069],[166.73959,-45.95029,0.0],[166.77442,-45.94215,18.2302],[166.8086,-45.93043,826.7927],[166.79184,-45.95306,838.8871],[166.76588,-45.96185,0.0],[166.70558,-45.97194,146.0442],[166.67758,-45.9848,361.6375],[166.65854,-46.00018,184.1775],[166.64747,-46.02191,466.2646],[166.64405,-46.05389,263.7511],[166.62827,-46.04697,375.4015],[166.6194,-46.05478,152.2393],[166.61598,-46.07073,0.0],[166.61606,-46.08807,0.0],[166.68849,-46.07708,0.0],[166.72006,-46.06414,97.3677],[166.73341,-46.03289,186.9324],[166.74448,-46.04022,0.0],[166.74448,-46.0486,0.0],[166.74041,-46.05625,44.9212],[166.73959,-46.06129,0.0],[166.74838,-46.07,415.0036],[166.75099,-46.07041,406.6693],[166.75278,-46.06634,371.1588],[166.78395,-46.04241,96.5156],[166.7881,-46.0403,275.4388],[166.78989,-46.03069,415.9133],[166.78688,-46.0241,198.4781],[166.78443,-46.01686,389.9414],[166.7881,-46.00555,361.5037],[166.80291,-45.99277,0.0],[166.82635,-45.98333,0.0],[166.86988,-45.97194,25.0159],[166.93067,-45.94622,517.6282],[166.95248,-45.94402,920.7773],[166.95248,-45.95029,418.9916],[166.92791,-45.96087,1038.4308],[166.88217,-45.98724,323.5169],[166.85288,-45.99245,546.5979],[166.83229,-46.00107,720.4143],[166.81625,-46.02142,281.1832],[166.7881,-46.06813,515.9561],[166.75392,-46.10231,479.7653],[166.71567,-46.13275,305.6611],[166.70558,-46.13812,321.771],[166.67726,-46.14715,287.9136],[166.67123,-46.15358,145.8006],[166.67579,-46.16302,112.4802],[166.70558,-46.19109,206.3252],[166.76197,-46.21998,0.0],[166.82887,-46.22829,0.0],[166.96616,-46.22584,31.7233],[167.03443,-46.23886,0.0],[167.05161,-46.23935,0.0],[167.06861,-46.23724,48.3403],[167.0857,-46.23691,61.6195],[167.14967,-46.25807,0.0],[167.16114,-46.26002,0.0],[167.16489,-46.26312,0.0],[167.16928,-46.26914,0.0],[167.17482,-46.27313,0.0],[167.18181,-46.2702,0.0],[167.188,-46.26621,0.0],[167.19597,-46.26328,0.0],[167.21258,-46.26002,6.8394],[167.23422,-46.261,0.0],[167.27524,-46.27215,0.0],[167.29518,-46.27361,0.0],[167.30991,-46.26971,0.0],[167.34034,-46.25628,0.0],[167.3567,-46.25254,0.0],[167.39047,-46.25433,0.0],[167.40577,-46.25115,0.0],[167.41871,-46.23886,0.0],[167.42457,-46.22405,0.0],[167.42661,-46.21071,0.0],[167.43067,-46.19695,0.0],[167.44215,-46.18125,0.0],[167.44597,-46.1736,0.0],[167.44679,-46.15732,0.0],[167.45281,-46.15016,0.0],[167.46095,-46.14821,30.8827],[167.57545,-46.15691,68.7048],[167.59002,-46.1596,73.5023],[167.63705,-46.18125,4.2043],[167.65724,-46.1858,12.6618],[167.69793,-46.18873,64.7827],[167.7129,-46.19793,112.9124],[167.71315,-46.21795,107.191],[167.73805,-46.24676,86.9969],[167.78924,-46.29412,223.0903],[167.7798,-46.30633,37.6707],[167.76775,-46.31227,35.2155],[167.75408,-46.31618,19.1829],[167.74024,-46.32204,15.5613],[167.75221,-46.32903,13.4996],[167.77573,-46.33864,16.3501],[167.78541,-46.34539,24.4953],[167.79957,-46.36395,10.2698],[167.80844,-46.37282,7.1582],[167.81959,-46.37664,0.0],[167.82887,-46.38641,0.0],[167.83863,-46.39324,0.0],[167.85011,-46.39658,0.0],[167.85597,-46.39463,0.0],[167.8711,-46.38519,60.4552],[167.87794,-46.38291,40.8131],[167.88575,-46.38388,6.687],[167.89991,-46.38909,0.0],[167.91017,-46.3917,0.0],[167.92213,-46.393,0.0],[167.93393,-46.39031,0.0],[167.93946,-46.37982,0.0],[167.94793,-46.37029,0.0],[167.96713,-46.36989,0.0],[167.99741,-46.3733,107.6073],[168.00994,-46.36981,46.9107],[168.02703,-46.37371,15.641],[168.04469,-46.37965,0.0],[168.05926,-46.38291,0.0],[168.06178,-46.37754,0.0],[168.05828,-46.36582,0.0],[168.05885,-46.35418,0.0],[168.07325,-46.34881,0.0],[168.17115,-46.33668,7.2692],[168.19947,-46.34197,10.7182],[168.21608,-46.35442,2.1666],[168.26954,-46.42352,11.0332],[168.29021,-46.46478,6.7075],[168.30193,-46.47845,0.0],[168.32228,-46.48008,0.0],[168.34148,-46.46575,0.0],[168.35157,-46.44232,3.0151],[168.34352,-46.41709,3.8111],[168.36891,-46.41692,7.7853],[168.38746,-46.44052,10.1046],[168.39438,-46.47291,11.1464],[168.3851,-46.49961,8.328],[168.33277,-46.53004,5.4349],[168.32643,-46.5368,7.5775],[168.32154,-46.52972,7.0826],[168.32163,-46.52532,4.1227],[168.31983,-46.52256,4.0949],[168.30934,-46.52011,3.1712],[168.29859,-46.51971,3.6091],[168.26783,-46.5263,54.0309],[168.26979,-46.53786,20.2044],[168.2741,-46.54664,34.2156],[168.2815,-46.55234,53.5128],[168.30779,-46.55836,0.0],[168.31381,-46.5678,0.0],[168.31568,-46.57724,0.0],[168.31918,-46.58148,0.0],[168.34181,-46.58904,0.0],[168.3781,-46.61981,0.0],[168.40553,-46.62314,0.0],[168.39381,-46.60508,0.0],[168.36345,-46.57806,0.0],[168.35711,-46.55771,0.0],[168.36573,-46.54022,5.1007999999999996],[168.38575,-46.54339,2.3293],[168.42604,-46.56113,0.6498],[168.51319,-46.55967,4.3499],[168.54217,-46.5678,8.1423],[168.56511,-46.58506,4.3071],[168.54721,-46.59075,4.7951],[168.51832,-46.58668,0.0],[168.50799,-46.57529,0.0],[168.49586,-46.57252,3.7069],[168.46013,-46.57204,0.0],[168.44581,-46.57529,0.0],[168.43751,-46.57977,0.0614],[168.43181,-46.58473,1.5652],[168.4192,-46.60198,4.8265],[168.59148,-46.61435,0.0],[168.64519,-46.60198,0.0],[168.64161,-46.59889,0.0],[168.63526,-46.5914,0.0],[168.63152,-46.58831,0.0],[168.64454,-46.57789,0.0],[168.63868,-46.57041,0.5],[168.62574,-46.56146,1.5541],[168.61785,-46.54746,8.8668],[168.66774,-46.5486,7.3041],[168.69288,-46.55267,8.0201],[168.7129,-46.56113,2.6291],[168.69923,-46.56601,15.3228],[168.68539,-46.56756,5.7357],[168.67335,-46.57098,1.1201],[168.66505,-46.58148,0.0],[168.69923,-46.58172,0.0],[168.80177,-46.5678,17.2442],[168.83123,-46.56015,34.9438],[168.8449,-46.56015,57.222],[168.8506,-46.57155,32.7717],[168.85231,-46.58148,50.0005],[168.87745,-46.64422,11.6042],[168.88917,-46.65602,4.3879],[168.90748,-46.65814,0.0],[168.93995,-46.65732,2.8517],[168.96795,-46.66375,35.6955],[169.00221,-46.67571,0.26],[169.03598,-46.6819,0.0],[169.06284,-46.67099,84.2981],[169.06642,-46.65846,17.4899],[169.06332,-46.64617,19.9314],[169.06365,-46.63738,116.9599],[169.07651,-46.63616,92.7221],[169.08351,-46.64129,107.2038],[169.09018,-46.65081,42.9035],[169.1006,-46.65993,7.6907],[169.11842,-46.66416,0.0],[169.14894,-46.66416,0.0],[169.15496,-46.6618,0.0],[169.15756,-46.65691,0.0],[169.15943,-46.65203,0.0],[169.17189,-46.64511,75.03],[169.17107,-46.62274,14.8812],[169.18019,-46.61566,88.6897],[169.1927,-46.61801,38.5794],[169.19601,-46.56481,344.4556],[169.21286,-46.54315,152.9273],[169.22505,-46.51737,239.1524],[169.22381,-46.49737,404.5078],[169.18247,-46.45825,273.7346],[169.17741,-46.43691,424.5775],[169.17772,-46.41086,223.6061],[169.16934,-46.38435,312.2874],[169.15715,-46.35913,136.9525],[169.16449,-46.32864,293.5173],[169.17896,-46.30332,588.5714],[169.18547,-46.27454,341.4134],[169.18764,-46.20969,177.8838],[169.15549,-46.1545,147.6382],[169.14433,-46.1268,217.9297],[169.14599,-46.10137,120.282],[169.13503,-46.06732,148.4753],[169.10775,-46.03347,185.6828],[169.0818,-46.00779,179.0959],[169.07281,-45.97554,182.6843],[169.07188,-45.94614,170.841],[169.07591,-45.91787,195.9126],[169.07168,-45.89265,187.2363],[169.05896,-45.87115,206.6572],[169.0293,-45.85208,405.9344],[169.01245,-45.83865,604.549],[169.00791,-45.80377,369.372],[169.00202,-45.78335,600.1106],[168.99974,-45.76542,905.6708],[169.00016,-45.73772,1046.2026],[169.00605,-45.70589,952.7086],[169.02155,-45.66155,809.3444],[169.08335,-45.57262,1114.3828],[169.15281,-45.444,1326.1963],[169.19508,-45.41614,1233.929],[169.17741,-45.37361,1488.0245],[169.08583,-45.30168,1545.1135],[169.04966,-45.28659,1661.4841],[169.0047,-45.30364,1528.7819],[168.89494,-45.4163,1246.2605],[168.85122,-45.43087,1364.4535],[168.81226,-45.42663,1137.4624],[168.77846,-45.41666,1226.3311],[168.75376,-45.38167,1147.2954],[168.68999,-45.31739,1086.929],[168.66064,-45.26695,1145.6134],[168.6378,-45.25817,1431.3752],[168.46251,-45.31558,1372.3866],[168.39668,-45.31925,1507.6044],[168.35668,-45.3177,1266.0723],[168.30759,-45.29951,1603.1444],[168.29394,-45.26948,708.9285],[168.29229,-45.24179,833.4574],[168.26067,-45.19445,1308.0052],[168.24372,-45.16086,1433.8564],[168.23906,-45.13177,1367.1062],[168.27596,-45.04707,1447.9849],[168.27286,-45.0281,1285.7316],[168.21653,-45.0095,1343.496],[168.18904,-44.99105,1554.0829],[168.16072,-44.96444,1455.9833],[168.14129,-44.93333,1215.0365],[168.13137,-44.90067,1502.5463],[168.1261,-44.863,1259.9906],[168.14698,-44.82491,928.2274],[168.16331,-44.74492,1074.9873],[168.16041,-44.70885,1291.2888],[168.18584,-44.63392,1203.7567]]]]}}