{"type": "Feature","bbox": [175.2702,-41.3624,175.9924,-40.7455],"geometry": {"type": "MultiPolygon","coordinates": [[[[175.425,-40.7455,1392.835],[175.4229,-40.7485,1309.6809],[175.4187,-40.7499,1166.1703],[175.405,-40.7522,1083.7423],[175.3958,-40.7588,1039.3406],[175.3928,-40.7643,1023.7418],[175.3931,-40.7674,1060.1609],[175.3887,-40.7708,1073.9049],[175.3846,-40.7783,1075.884],[175.38,-40.781,1051.928],[175.379,-40.7884,1025.1868],[175.376,-40.794,1010.578],[175.377,-40.8091,1209.4406],[175.3597,-40.8122,1289.2834],[175.3567,-40.8147,1364.1636],[175.3577,-40.8182,1423.6556],[175.3542,-40.8233,1305.6221],[175.3539,-40.8266,1302.1256],[175.3578,-40.834,1307.679],[175.3555,-40.8384,1222.4351],[175.3561,-40.8478,1172.7573],[175.3583,-40.8595,1162.2595],[175.3605,-40.8613,1268.9751],[175.3587,-40.8684,1267.1738],[175.3611,-40.8729,1269.8423],[175.3571,-40.887,1336.4174],[175.3537,-40.8924,1123.7708],[175.3469,-40.8987,1134.7036],[175.3376,-40.9003,1106.3884],[175.3342,-40.908,1200.5776],[175.3332,-40.9145,1297.8701],[175.318,-40.9178,1202.6265],[175.3107,-40.9254,1119.8169],[175.2999,-40.9258,1139.2256],[175.2925,-40.9309,1105.4042],[175.2843,-40.9344,1099.0183],[175.2726,-40.9365,1405.9529],[175.2702,-40.9387,1403.7738],[175.2726,-40.9412,1418.0308],[175.2711,-40.9445,1391.6497],[175.2752,-40.9447,1407.4833],[175.28,-40.9495,1386.5961],[175.2839,-40.9452,1180.2091],[175.292,-40.9429,949.9869],[175.298,-40.9368,816.0471],[175.3039,-40.9341,673.7006],[175.322,-40.9365,529.5394],[175.3253,-40.9354,507.5872],[175.3319,-40.9377,486.1033],[175.3399,-40.9355,455.8465],[175.3419,-40.9364,470.1088],[175.3514,-40.932,420.0654],[175.3555,-40.9327,374.2502],[175.3617,-40.9305,370.342],[175.3617,-40.9292,389.5523],[175.3688,-40.9263,367.231],[175.3712,-40.923,300.1448],[175.3774,-40.9211,274.2596],[175.3816,-40.9253,260.0143],[175.3924,-40.9237,240.9193],[175.394,-40.9265,272.403],[175.404,-40.9327,204.9757],[175.4041,-40.9347,204.1984],[175.3929,-40.9455,186.9681],[175.3913,-40.9509,185.0987],[175.3846,-40.9528,187.1384],[175.387,-40.9569,183.2873],[175.3839,-40.9647,184.0854],[175.3862,-40.9657,171.6915],[175.3819,-40.9738,168.6484],[175.39,-40.9817,180.4142],[175.3933,-40.9878,197.088],[175.3895,-40.9912,167.373],[175.3877,-40.9958,184.1843],[175.3918,-40.9981,176.3466],[175.3898,-41.0014,149.1585],[175.394,-41.0046,145.9317],[175.3907,-41.008,164.7492],[175.3975,-41.0135,119.4177],[175.402,-41.0201,128.9465],[175.3933,-41.0292,108.7053],[175.394,-41.031,105.7117],[175.3968,-41.0309,106.5097],[175.3953,-41.0338,111.8293],[175.3959,-41.038,105.6567],[175.3936,-41.0416,97.9773],[175.4006,-41.0415,97.3238],[175.3973,-41.0488,99.3695],[175.399,-41.0562,86.9274],[175.4137,-41.0637,78.2709],[175.4221,-41.0608,75.4121],[175.441,-41.0597,67.0162],[175.4648,-41.0612,59.3938],[175.4809,-41.0643,56.937],[175.4938,-41.0583,49.8939],[175.4985,-41.0627,48.6302],[175.4991,-41.0694,46.6886],[175.5084,-41.0721,43.5404],[175.5062,-41.0761,43.1863],[175.5064,-41.0796,44.5528],[175.5033,-41.0828,42.3692],[175.5031,-41.0859,46.7622],[175.5076,-41.0917,43.4983],[175.5126,-41.0945,39.6887],[175.513,-41.0966,38.6577],[175.503,-41.1069,36.2716],[175.4963,-41.1093,40.6381],[175.4903,-41.1177,36.0492],[175.4798,-41.1184,35.1195],[175.4768,-41.1203,33.6794],[175.4787,-41.1228,35.314],[175.4841,-41.1246,34.1154],[175.4883,-41.1321,32.7292],[175.4869,-41.1338,30.9635],[175.4765,-41.1354,29.7497],[175.4755,-41.1426,29.9299],[175.4899,-41.1498,25.8215],[175.493,-41.1452,32.6364],[175.5143,-41.1487,140.0478],[175.5175,-41.147,127.4011],[175.5229,-41.1494,101.0796],[175.5213,-41.1515,93.2079],[175.53,-41.1552,93.6507],[175.5636,-41.1616,332.9721],[175.5648,-41.1596,343.7256],[175.5776,-41.1608,210.5967],[175.5753,-41.1689,195.3932],[175.5762,-41.1701,175.2226],[175.5833,-41.172,183.774],[175.5845,-41.1741,116.5844],[175.5884,-41.1732,112.6468],[175.587,-41.1758,108.684],[175.5908,-41.1753,125.6249],[175.5917,-41.177,120.3299],[175.5909,-41.181399999999996,109.6125],[175.5841,-41.1838,104.6554],[175.5863,-41.1878,103.8692],[175.5823,-41.1927,102.947],[175.585,-41.1961,107.0192],[175.5818,-41.1982,108.3914],[175.5894,-41.2006,193.4942],[175.5947,-41.2055,209.0963],[175.6007,-41.2062,261.5453],[175.6047,-41.2036,279.5735],[175.6069,-41.2066,230.1265],[175.6135,-41.2061,262.4068],[175.6367,-41.2119,319.0848],[175.6469,-41.2089,357.313],[175.6478,-41.2109,319.5446],[175.6465,-41.2136,277.9993],[175.6768,-41.2179,82.3064],[175.6788,-41.2197,82.2175],[175.6774,-41.2212,88.7446],[175.6808,-41.2216,84.2415],[175.6792,-41.2243,81.1061],[175.6877,-41.225,83.4803],[175.6871,-41.2273,84.5604],[175.6842,-41.2285,93.5357],[175.6882,-41.231,76.8166],[175.6908,-41.231,76.8207],[175.6917,-41.2287,82.5772],[175.6941,-41.2304,80.0464],[175.696,-41.2283,94.3385],[175.6974,-41.234,74.1505],[175.6961,-41.2367,110.6301],[175.7002,-41.2338,79.6504],[175.7019,-41.237,82.0381],[175.7027,-41.2325,109.1897],[175.7078,-41.2339,83.2281],[175.7077,-41.2311,85.466],[175.7152,-41.2283,84.324],[175.7209,-41.2294,91.2747],[175.7302,-41.2031,295.4254],[175.7401,-41.2045,403.5744],[175.7439,-41.2025,457.4947],[175.7512,-41.2036,423.2542],[175.7559,-41.209,398.0357],[175.7466,-41.2349,136.624],[175.7394,-41.2334,84.6347],[175.74,-41.2351,117.8877],[175.744,-41.2353,80.8053],[175.744,-41.2381,95.7764],[175.7326,-41.2453,117.271],[175.7324,-41.2481,140.4753],[175.7279,-41.2511,128.72],[175.7269,-41.254,80.4287],[175.7346,-41.259,58.062],[175.7395,-41.255,69.4267],[175.7355,-41.2532,91.556],[175.738,-41.2508,107.3214],[175.7422,-41.2524,84.0389],[175.7453,-41.2512,111.7004],[175.7495,-41.2547,154.6793],[175.7556,-41.2609,209.0374],[175.7504,-41.2754,301.7128],[175.8018,-41.2856,387.9367],[175.7956,-41.3024,407.476],[175.7735,-41.298,338.9705],[175.7669,-41.3167,603.6465],[175.8098,-41.3252,419.4579],[175.7847,-41.3432,340.9438],[175.7987,-41.3486,45.6497],[175.799,-41.3512,48.3924],[175.8015,-41.3514,27.8871],[175.8021,-41.3549,23.8901],[175.8002,-41.3571,39.5245],[175.803,-41.3613,0.4712],[175.8011,-41.3624,2.1239],[175.8108,-41.3605,0.0],[175.8136,-41.3552,1.1025],[175.8172,-41.3549,0.3993],[175.8185,-41.3506,16.5669],[175.821,-41.3482,0.0],[175.8252,-41.3479,1.3522],[175.8274,-41.3459,4.8687],[175.8313,-41.3466,0.2159],[175.8304,-41.3432,1.3679],[175.8316,-41.3408,4.618],[175.8374,-41.3367,1.0009],[175.8401,-41.3378,1.0738],[175.8398,-41.3328,1.3761],[175.8416,-41.3299,0.0],[175.8457,-41.3294,0.0],[175.8484,-41.3246,0.0],[175.857,-41.3212,1.6827],[175.8629,-41.317,0.0],[175.8669,-41.3019,0.9961],[175.8664,-41.2926,2.3893],[175.8689,-41.2872,0.6198],[175.8827,-41.2742,1.9635],[175.8887,-41.2717,0.0],[175.8993,-41.2633,0.0],[175.9145,-41.2565,2.0603],[175.9446,-41.2471,2.2207],[175.9513,-41.2474,1.7274],[175.9632,-41.2446,0.0],[175.9718,-41.2272,1.7447],[175.9843,-41.2164,8.7364],[175.9874,-41.2074,0.0],[175.9865,-41.2055,1.627],[175.9924,-41.2018,0.0],[175.9922,-41.1963,0.0],[175.9875,-41.1959,7.5808],[175.9847,-41.1933,4.6227],[175.9821,-41.1958,6.7687],[175.9795,-41.196,9.0503],[175.9738,-41.1942,11.4035],[175.9732,-41.1917,22.8621],[175.9659,-41.1948,25.9948],[175.9636,-41.1917,12.771],[175.9587,-41.1918,14.44],[175.9538,-41.1888,14.1749],[175.9469,-41.1884,19.5674],[175.9453,-41.1863,20.1366],[175.9385,-41.1852,36.789],[175.9376,-41.1753,320.9138],[175.9333,-41.1716,396.5736],[175.9321,-41.1683,346.0236],[175.9351,-41.1645,382.5377],[175.9328,-41.1636,371.9005],[175.9295,-41.1575,404.9818],[175.9305,-41.155,418.0738],[175.9244,-41.1502,254.3397],[175.9192,-41.1504,262.0442],[175.917,-41.1489,285.9333],[175.9136,-41.15,262.5978],[175.9113,-41.1494,250.8352],[175.91,-41.1471,263.6262],[175.9018,-41.1453,100.6805],[175.9037,-41.1469,119.0402],[175.9019,-41.1481,101.0157],[175.904,-41.1498,109.5022],[175.8983,-41.1556,224.2917],[175.8823,-41.1477,162.5587],[175.8782,-41.1409,225.5486],[175.8651,-41.1446,314.1577],[175.8597,-41.1437,325.0558],[175.838,-41.16,219.5925],[175.8294,-41.1542,206.1364],[175.8291,-41.1525,214.4985],[175.8252,-41.1538,203.2564],[175.8242,-41.1516,194.5066],[175.8216,-41.1529,194.1633],[175.8176,-41.1506,207.9764],[175.818,-41.1496,207.9764],[175.8161,-41.1487,216.8423],[175.8171,-41.1463,190.6117],[175.8141,-41.144,181.6085],[175.8166,-41.1416,184.3198],[175.8157,-41.1401,178.0789],[175.8176,-41.1395,173.8711],[175.8168,-41.1379,201.1525],[175.8129,-41.1377,184.3144],[175.8105,-41.133,183.5623],[175.8058,-41.1331,185.0824],[175.8062,-41.1313,177.112],[175.8043,-41.1302,187.2132],[175.7966,-41.1306,161.8246],[175.7987,-41.1287,164.9798],[175.7985,-41.1254,166.5259],[175.7942,-41.125,164.1255],[175.789,-41.1128,165.0278],[175.7864,-41.1152,152.959],[175.7834,-41.1109,142.4616],[175.778,-41.1089,142.6252],[175.7738,-41.1109,143.6739],[175.774,-41.1093,176.9814],[175.77,-41.1063,182.8188],[175.7734,-41.1019,179.931],[175.7727,-41.1007,178.3642],[175.7591,-41.0938,209.3391],[175.7638,-41.0864,201.759],[175.7608,-41.0852,268.2755],[175.7527,-41.0879,258.3245],[175.7389,-41.0836,449.0617],[175.7522,-41.0671,483.4995],[175.754,-41.0524,383.4989],[175.777,-41.0412,309.054],[175.7773,-41.0399,309.054],[175.7736,-41.0376,310.2392],[175.774,-41.0341,315.8665],[175.7699,-41.0294,246.1768],[175.7608,-41.0238,137.4048],[175.762,-41.023,135.2275],[175.7585,-41.0226,133.6581],[175.7564,-41.0191,124.9751],[175.7531,-41.0194,130.4348],[175.7567,-41.0121,108.1397],[175.7573,-41.003,99.5997],[175.7508,-41.0026,93.2721],[175.7491,-41.0055,102.9179],[175.7444,-41.0064,89.8284],[175.7425,-41.0059,86.9686],[175.7412,-41.0031,85.2588],[175.7374,-41.0083,86.5051],[175.7407,-41.0098,94.2012],[175.741,-41.0117,104.4645],[175.7362,-41.0121,87.8374],[175.7396,-41.0145,80.4027],[175.7328,-41.0173,87.8804],[175.731,-41.014,83.8479],[175.7291,-41.0197,85.8102],[175.7228,-41.0175,99.813],[175.7192,-41.0203,87.1574],[175.6971,-41.0224,76.7024],[175.6987,-41.0253,77.4622],[175.6927,-41.0227,80.18],[175.6903,-41.0247,76.0676],[175.688,-41.0237,76.1636],[175.6886,-41.0302,73.5481],[175.6897,-41.0315,73.8999],[175.692,-41.0309,75.2158],[175.6911,-41.0329,73.8999],[175.6938,-41.0339,73.5151],[175.6914,-41.0384,73.2968],[175.6964,-41.0394,95.5807],[175.6905,-41.0394,73.956],[175.6882,-41.0426,70.8955],[175.6831,-41.0399,72.4442],[175.6732,-41.0433,70.3404],[175.6725,-41.0445,70.1251],[175.675,-41.0456,70.2638],[175.6755,-41.0491,71.6505],[175.6723,-41.0523,68.7876],[175.667,-41.0545,68.6214],[175.6665,-41.0566,68.146],[175.669,-41.0585,67.6632],[175.668,-41.0629,70.6855],[175.6658,-41.0634,74.5745],[175.6621,-41.0594,66.9872],[175.6586,-41.0597,66.7414],[175.6556,-41.062,66.9849],[175.6595,-41.0652,64.9311],[175.6501,-41.0705,64.6145],[175.6472,-41.0702,64.1546],[175.648,-41.065,63.9161],[175.6459,-41.0643,63.8958],[175.6426,-41.0663,62.9801],[175.6396,-41.0642,63.6542],[175.6373,-41.0648,61.7631],[175.6323,-41.0693,59.2652],[175.633,-41.0668,59.2888],[175.6277,-41.0571,62.2225],[175.6401,-41.0486,65.4195],[175.6494,-41.0494,66.3406],[175.6553,-41.0442,67.1067],[175.6578,-41.0389,70.5252],[175.656,-41.0306,72.2634],[175.6613,-41.0234,73.75],[175.6644,-41.0116,80.9868],[175.6639,-41.007,81.6662],[175.6598,-41.0013,84.6967],[175.6499,-40.9984,92.8744],[175.6355,-40.9885,98.7675],[175.6264,-40.9798,103.6597],[175.6222,-40.973,109.6698],[175.6127,-40.9681,117.4075],[175.6075,-40.9621,120.1807],[175.5978,-40.9551,132.0453],[175.5935,-40.9461,141.9374],[175.5823,-40.9394,152.009],[175.573,-40.9294,166.2368],[175.5682,-40.9257,176.6369],[175.5607,-40.9242,180.4066],[175.5563,-40.9189,184.3102],[175.5556,-40.914,192.013],[175.5506,-40.9081,197.9051],[175.5476,-40.9005,209.7867],[175.5427,-40.8963,210.7611],[175.5347,-40.8961,218.4242],[175.5283,-40.8901,234.216],[175.5244,-40.8893,234.8907],[175.5236,-40.8869,246.5191],[175.5166,-40.8827,257.9171],[175.5124,-40.8828,251.6335],[175.5095,-40.8851,268.1282],[175.5059,-40.8827,258.7829],[175.4966,-40.8837,263.7126],[175.4967,-40.8817,271.9375],[175.4931,-40.8787,279.8034],[175.494,-40.8761,320.1904],[175.491,-40.8686,282.0393],[175.4924,-40.8648,280.0729],[175.4859,-40.8605,340.7384],[175.4851,-40.8575,331.6925],[175.4814,-40.8573,337.7278],[175.4771,-40.8547,387.2961],[175.4741,-40.8502,353.9444],[175.4737,-40.8455,357.6436],[175.4746,-40.8432,370.2903],[175.477,-40.8425,378.7556],[175.4754,-40.8365,358.7362],[175.4787,-40.8342,386.9021],[175.4814,-40.8227,393.4876],[175.4834,-40.8213,402.197],[175.4823,-40.8171,429.6077],[175.4851,-40.8132,432.8153],[175.4847,-40.8105,475.9131],[175.4906,-40.8043,454.3421],[175.4894,-40.7984,472.1418],[175.4922,-40.7932,465.3102],[175.49,-40.7919,468.7524],[175.4915,-40.7843,486.1021],[175.4901,-40.7832,486.1021],[175.4921,-40.7812,508.3784],[175.4902,-40.7787,505.4739],[175.4921,-40.7767,507.8256],[175.4853,-40.774,570.0497],[175.4807,-40.7742,574.1758],[175.4776,-40.7707,654.2679],[175.4742,-40.7718,633.5035],[175.4678,-40.768,690.1625],[175.4576,-40.7659,697.1998],[175.4534,-40.7606,752.4406],[175.4491,-40.7581,779.2239],[175.442,-40.7472,1234.9949],[175.425,-40.7455,1392.835]]]]}
,"properties": {"GID_2": "NZL.18.1_1","GID_0": "NZL","country": "NewZealand","GID_1": "NZL.18_1","province": "Wellington","NL_NAME_1": "NA","county": "Carterton","VARNAME_2": "NA","NL_NAME_2": "NA","TYPE_2": "District","ENGTYPE_2": "District","CC_2": "049","HASC_2": "NZ.WG.CR","name": "Carterton.county","area_km2": 1178.1738,"hist_schema_id": "Elevation0-9000","hist_area_km2": {"0": 8.1422,"25": 11.0199,"50": 61.5993,"75": 103.2656,"100": 103.218,"125": 71.1974,"150": 55.8308,"175": 59.596,"200": 70.4768,"225": 64.6494,"250": 60.3539,"275": 51.4633,"300": 47.0595,"325": 41.108,"350": 37.3767,"375": 32.4165,"400": 26.9287,"425": 23.3218,"450": 18.739,"475": 17.8176,"500": 14.7518,"525": 11.8938,"550": 9.1129,"575": 7.947,"600": 7.6283,"625": 6.7478,"650": 6.86,"675": 5.8668,"700": 5.7714,"725": 5.9959,"750": 5.8203,"775": 5.8368,"800": 5.0357,"825": 5.5652,"850": 5.0524,"875": 5.6942,"900": 5.3898,"925": 5.6464,"950": 6.2564,"975": 6.128,"1000": 6.1765,"1025": 6.1602,"1050": 5.7111,"1075": 5.9681,"1100": 4.9411,"1125": 4.7968,"1150": 4.6047,"1175": 4.7165,"1200": 4.669,"1225": 4.1554,"1250": 3.6741,"1275": 3.4334,"1300": 3.514,"1325": 2.7277,"1350": 2.1342,"1375": 1.7651,"1400": 1.8931,"1425": 1.1874,"1450": 0.706,"1475": 0.3851,"1500": 0.1444,"1525": 0.1123,"1550": 0.0161}}}