{"type":"Feature","properties":{"ISO3166-1-Alpha-3":"NZL","country":"New Zealand","fill":"#F00","id":"5468","name":"Waikato"},
"geometry":{"type": "MultiPolygon","coordinates": [[[[175.83513,-36.62859,0.0],[175.84132,-36.62721,0.0],[175.84767,-36.6251,0.0],[175.84278,-36.61517,0.0],[175.83627,-36.60858,0.0],[175.82781,-36.60508,0.0],[175.81666,-36.60394,0.0],[175.80584,-36.57773,0.0],[175.79916,-36.56976,0.0],[175.77198,-36.57659,0.0],[175.77687,-36.5875,97.8634],[175.78452,-36.59149,0.0],[175.79282,-36.59319,0.0],[175.79916,-36.5971,0.0],[175.80104,-36.60084,0.0],[175.80144,-36.60426,0.0],[175.80055,-36.60735,0.0],[175.79916,-36.61012,71.7057],[175.7964,-36.61452,120.3408],[175.79493,-36.61834,115.9524],[175.79754,-36.62176,145.0096],[175.80974,-36.62664,144.0903],[175.81788,-36.62851,155.038],[175.82211,-36.62884,121.8264],[175.82862,-36.62908,50.5657],[175.83513,-36.62859,0.0]]],
[[[175.44695,-36.47967,0.0],[175.44044,-36.4747,0.0],[175.40724,-36.4804,74.3347],[175.38258,-36.47682,94.6665],[175.36248,-36.47682,33.6387],[175.35426,-36.49098,108.6953],[175.35711,-36.52955,588.0771],[175.36207,-36.54599,313.9274],[175.37062,-36.55926,107.7309],[175.38722,-36.57155,24.1261],[175.42457,-36.58294,36.0616],[175.44239,-36.59092,175.8791],[175.46046,-36.61159,20.205],[175.46339,-36.61419,0.153],[175.46778,-36.62298,0.0],[175.47779,-36.62623,49.0208],[175.48911,-36.62786,201.7475],[175.49757,-36.63128,322.8423],[175.50245,-36.6539,194.8927],[175.48951,-36.67816,342.9698],[175.48243,-36.70477,261.4292],[175.50506,-36.73496,102.0396],[175.49879,-36.74505,45.6092],[175.49936,-36.7553,8.9491],[175.50441,-36.76556,6.7011],[175.51124,-36.77532,10.5287],[175.51629,-36.77044,92.2334],[175.53224,-36.76149,294.3286],[175.53712,-36.78607,187.3406],[175.52052,-36.79795,64.7278],[175.47023,-36.80934,0.0],[175.47641,-36.81146,47.82],[175.48227,-36.81439,106.1764],[175.48894,-36.81658,77.5453],[175.49757,-36.81683,48.6047],[175.49122,-36.82692,181.9964],[175.48072,-36.83123,73.2535],[175.46827,-36.83359,26.8134],[175.4559,-36.83733,47.586],[175.46974,-36.84344,0.5693],[175.4852,-36.84539,23.5675],[175.51791,-36.84482,182.9018],[175.50318,-36.86175,123.9579],[175.48129,-36.86199,16.0618],[175.45729,-36.85849,100.0438],[175.43621,-36.86468,227.1499],[175.4489,-36.87412,260.6143],[175.45411,-36.88421,217.6354],[175.45729,-36.89479,179.9416],[175.46339,-36.90553,219.0286],[175.47389,-36.91465,264.0663],[175.49903,-36.92938,154.6163],[175.51124,-36.93914,137.5665],[175.52084,-36.95086,282.0445],[175.52784,-36.9625,164.9202],[175.55144,-37.0241,266.2114],[175.55592,-37.03216,286.6849],[175.56072,-37.04461,301.9684],[175.55958,-37.09734,437.6011],[175.56275,-37.11191,375.5321],[175.58009,-37.14202,280.5626],[175.58229,-37.15472,73.78],[175.59148,-37.18141,99.0152],[175.59571,-37.21315,2.6048],[175.60174,-37.22796,1.7974],[175.61232,-37.23846,0.0],[175.62794,-37.24196,2.6056],[175.60955,-37.25156,1.6396],[175.59181,-37.2492,1.0409],[175.57862,-37.23724,1.5867],[175.57325,-37.21746,0.8387],[175.57399,-37.19508,2.0442],[175.57097,-37.1845,10.083],[175.56275,-37.17995,1.356],[175.54884,-37.18206,0.865],[175.54347,-37.18719,1.1435],[175.54021,-37.19394,0.8132],[175.53224,-37.20037,1.0817],[175.4935,-37.21551,0.3999],[175.44793,-37.22487,0.8622],[175.40333,-37.22381,0.8003],[175.3672,-37.20721,0.0],[175.35174,-37.19215,0.0],[175.33627,-37.17327,0.0],[175.32472,-37.15163,0.0],[175.32008,-37.12868,0.0],[175.33269,-37.05901,0.0],[175.33375,-37.0359,0.0],[175.33107,-37.02125,0.0],[175.32602,-37.00945,0.0],[175.27124,-37.03259,137.056],[175.23883,-37.01639,387.8405],[175.21723,-37.05419,546.3521],[175.19563,-37.1082,385.6365],[175.19023,-37.17841,73.5557],[175.09841,-37.18921,227.0732],[174.985,-37.21082,156.8129],[174.87698,-37.23242,119.9074],[174.79057,-37.25402,20.7916],[174.73116,-37.28643,1.6389],[174.67291,-37.29377,156.7431],[174.69166,-37.32936,100.5013],[174.70639,-37.34783,120.5022],[174.72853,-37.36297,67.9451],[174.74269,-37.35735,22.5391],[174.77133,-37.3165,2.4924],[174.77955,-37.30983,1.4306],[174.79908,-37.2999,1.9136],[174.80885,-37.29323,1.7786],[174.8226,-37.28769,2.0963],[174.83302,-37.29168,9.7689],[174.8379,-37.299,0.0],[174.83579,-37.30283,6.1757],[174.8117,-37.3108,3.9109],[174.79851,-37.33017,1.1482],[174.78972,-37.35296,293.6091],[174.77882,-37.37176,67.2905],[174.76759,-37.37762,200.8835],[174.73829,-37.38356,0.0],[174.7269,-37.38909,0.2804],[174.71795,-37.40114,122.0169],[174.71778,-37.41188,122.2856],[174.72853,-37.45778,106.9846],[174.78639,-37.56854,111.8112],[174.85035,-37.76491,39.0143],[174.86744,-37.78086,17.4098],[174.89796,-37.76971,44.4858],[174.90496,-37.77166,32.7826],[174.91082,-37.77483,0.0],[174.91481,-37.77581,0.0],[174.91977,-37.77117,0.0],[174.92359,-37.75986,0.0],[174.9284,-37.7553,9.3093],[174.96998,-37.7348,14.1182],[174.97706,-37.74993,76.0631],[174.97348,-37.7636,15.4255],[174.96274,-37.775,16.685],[174.9489,-37.7833,0.0],[174.95875,-37.78493,0.0],[174.96681,-37.789,0.0],[174.97299,-37.79518,30.9566],[174.97682,-37.80381,2.1114],[174.92286,-37.81072,32.8922],[174.86622,-37.81113,2.0252],[174.81886,-37.82488,103.019],[174.79184,-37.872,345.097],[174.78443,-37.96689,54.3569],[174.7881,-37.98528,11.4934],[174.81568,-38.00115,0.0],[174.82814,-37.98854,11.0841],[174.83676,-37.96502,0.0],[174.85328,-37.94785,26.5512],[174.87615,-37.9498,43.173],[174.88803,-37.96689,28.0569],[174.88689,-37.98626,60.505],[174.87037,-37.99554,16.4398],[174.83904,-38.02353,2.8492],[174.82618,-38.02809,76.1007],[174.81625,-38.02939,88.0579],[174.80763,-38.03281,82.9873],[174.79859,-38.04323,62.5107],[174.79412,-38.05413,24.2626],[174.79078,-38.07025,15.2366],[174.792,-38.08473,0.0],[174.80177,-38.09108,0.0],[174.81788,-38.08847,0.0],[174.82447,-38.08148,0.0],[174.82838,-38.07155,0.0],[174.83579,-38.06015,0.0],[174.85597,-38.05576,0.0],[174.88396,-38.06268,0.0],[174.90398,-38.07757,0.0],[174.90113,-38.09734,10.7492],[174.90846,-38.10475,27.4165],[174.91603,-38.0993,41.3137],[174.92384,-38.09726,24.9058],[174.94264,-38.09734,12.2981],[174.92449,-38.11842,15.7927],[174.89633,-38.12005,20.3151],[174.86541,-38.11688,12.7584],[174.83904,-38.12469,0.0],[174.85939,-38.14137,37.1623],[174.86687,-38.14568,141.8267],[174.84669,-38.15374,107.4793],[174.83253,-38.14666,0.0],[174.82016,-38.13372,0.0],[174.80486,-38.12469,19.5628],[174.80486,-38.13893,62.1456],[174.79859,-38.13893,45.7753],[174.79225,-38.13323,23.9382],[174.78533,-38.12558,0.0],[174.78012,-38.11598,0.0],[174.77882,-38.10475,0.0],[174.76295,-38.11004,0.0],[174.74431,-38.11289,0.0],[174.7256,-38.1115,0.0],[174.70981,-38.10475,0.0],[174.70509,-38.11972,56.3425],[174.71013,-38.1369,73.5545],[174.71852,-38.15504,77.3035],[174.72348,-38.17303,30.5964],[174.72234,-38.19402,95.5222],[174.71241,-38.22967,59.8485],[174.70737,-38.28851,0.0],[174.69972,-38.32708,37.5852],[174.68702,-38.36224,280.3187],[174.65187,-38.42547,134.0069],[174.64357,-38.46282,0.0],[174.64088,-38.63543,117.3695],[174.63746,-38.65293,4.212],[174.63111,-38.66774,218.2067],[174.62818,-38.68288,174.4028],[174.63478,-38.70062,1.3944],[174.61948,-38.70403,0.0],[174.61761,-38.70736,3.1095],[174.68849,-38.73577,161.9841],[174.77644,-38.74022,257.7504],[174.79629,-38.73583,260.3546],[174.81045,-38.73882,296.1993],[174.82244,-38.74714,370.2745],[174.84063,-38.76296,416.2932],[174.86832,-38.77706,451.9254],[174.90326,-38.76032,504.9313],[174.94088,-38.75014,400.6132],[174.94005,-38.74136,452.2013],[174.94274,-38.73293,304.1291],[174.96765,-38.70048,396.0474],[174.96279,-38.68146,352.8324],[174.97116,-38.66875,292.9217],[175.03359,-38.65929,339.2091],[175.05612,-38.65087,399.0672],[175.0772,-38.63702,262.4717],[175.08857,-38.63537,212.3903],[175.09942,-38.6395,332.727],[175.10821,-38.63392,347.661],[175.11947,-38.62839,471.4888],[175.15999,-38.62994,312.2258],[175.20009,-38.63588,453.7181],[175.22427,-38.63377,518.9408],[175.26427,-38.61635,317.4889],[175.28112,-38.60452,372.0728],[175.29424,-38.59909,397.9294],[175.30427,-38.59604,382.5356],[175.30623,-38.58431,313.2118],[175.31129,-38.57351,318.0563],[175.33217,-38.56245,481.3058],[175.34912,-38.5747,454.9227],[175.37279,-38.57408,422.7177],[175.43242,-38.56312,413.8186],[175.49361,-38.56328,702.4662],[175.52813,-38.58162,548.6255],[175.56906,-38.59635,678.6468],[175.59996,-38.58886,705.1489],[175.62828,-38.57434,843.6376],[175.64109,-38.58596,796.7666],[175.62518,-38.61444,876.3514],[175.59665,-38.63976,1029.7981],[175.58425,-38.67309,831.7372],[175.56172,-38.71448,719.196],[175.52637,-38.75769,808.7496],[175.54425,-38.78497,917.1813],[175.57329,-38.80419,795.5182],[175.57371,-38.83313,963.858],[175.55521,-38.86057,887.6191],[175.56099,-38.88538,779.0493],[175.58043,-38.90321,704.3671],[175.58208,-38.91917,713.3139],[175.57402,-38.93189,682.7404],[175.56534,-38.96847,650.7644],[175.60068,-38.98424,696.5124],[175.63334,-38.98026,639.5376],[175.66559,-38.98191,817.0995],[175.6661,-39.00372,654.2373],[175.64874,-39.03162,619.0352],[175.63158,-39.05121,690.177],[175.62569,-39.07405,921.4331],[175.63851,-39.09028,1095.26],[175.64709,-39.11038,1564.5367],[175.635,-39.15632,2244.4265],[175.61329,-39.19854,1315.5024],[175.59014,-39.23518,1728.4957],[175.59417,-39.2745,2046.8976],[175.68088,-39.29445,1171.5217],[175.77235,-39.29352,1332.9827],[175.8139,-39.29729,1311.8262],[175.85317,-39.28189,1450.932],[175.86475,-39.26985,1408.7935],[175.86909,-39.25435,1456.7092],[175.87705,-39.23941,1324.4175],[175.88769,-39.22572,1393.7898],[175.89451,-39.21254,1399.6931],[175.9064,-39.20128,1381.5217],[175.9464,-39.1897,1456.8048],[175.97275,-39.16417,1279.0942],[175.97565,-39.15875,1418.6166],[175.98102,-39.15575,1279.793],[176.02464,-39.1511,1324.345],[176.10081,-39.15363,1078.3381],[176.1592,-39.13777,959.4235],[176.18628,-39.14464,1111.7251],[176.2362,-39.09668,713.8848],[176.28219,-39.03503,650.6122],[176.26328,-38.94424,952.4062],[176.24622,-38.93049,874.8443],[176.22287,-38.94088,764.7255],[176.19196,-38.93576,704.3848],[176.16582,-38.91659,591.0833],[176.13657,-38.87892,585.2755],[176.11166,-38.83861,487.7236],[176.1007,-38.82512,483.0816],[176.10711,-38.79215,431.9929],[176.11662,-38.76947,457.1059],[176.13667,-38.77009,486.874],[176.20364,-38.79009,693.0917],[176.22535,-38.78394,721.6135],[176.24333,-38.76936,702.2362],[176.2207,-38.73159,593.2921],[176.18101,-38.69464,498.0556],[176.19238,-38.65531,405.4561],[176.21615,-38.61242,345.5109],[176.20075,-38.5978,366.0537],[176.11796,-38.5715,461.9104],[176.06009,-38.55935,619.0702],[176.04934,-38.53806,596.9374],[176.05895,-38.51584,525.6459],[176.07363,-38.51341,620.273],[176.08696,-38.50995,482.0367],[176.09626,-38.49527,501.6598],[176.10835,-38.48272,513.5878],[176.13398,-38.46204,581.4099],[176.1529,-38.47553,360.0006],[176.17367,-38.48463,388.763],[176.19424,-38.50509,364.0323],[176.19982,-38.50954,315.8796],[176.23331,-38.50943,339.0816],[176.24932,-38.50757,292.374],[176.26534,-38.50266,292.4789],[176.27465,-38.49734,304.964],[176.29036,-38.48561,289.9519],[176.29945,-38.4822,291.0247],[176.31289,-38.4822,314.5793],[176.32643,-38.48633,294.1895],[176.33686,-38.49439,295.2209],[176.3411,-38.50607,300.1126],[176.33904,-38.51822,298.1735],[176.33356,-38.52643,298.1316],[176.31681,-38.54023,304.8765],[176.3103,-38.55186,328.2371],[176.30782,-38.56256,323.0623],[176.32281,-38.57015,339.8049],[176.3472,-38.5716,434.4534],[176.36963,-38.56287,462.8317],[176.38089,-38.54121,452.2124],[176.38802,-38.52039,403.5795],[176.40549,-38.51,409.9939],[176.46554,-38.53279,529.3395],[176.48538,-38.50556,562.5494],[176.5076,-38.42659,541.4465],[176.4983,-38.38732,512.3236],[176.47205,-38.36784,514.5398],[176.3195,-38.31441,429.2419],[176.30803,-38.3018,489.4729],[176.29811,-38.28588,567.5176],[176.28074,-38.2634,453.8011],[176.26752,-38.23601,428.9627],[176.25873,-38.19353,363.7757],[176.24612,-38.15219,295.3634],[176.24674,-38.12997,307.0165],[176.23124,-38.11426,285.3508],[176.18752,-38.08057,315.7125],[176.11569,-38.07111,520.6577],[176.08603,-38.05742,568.7378],[176.06339,-38.03954,553.9887],[176.05192,-38.01174,560.452],[176.01885,-38.00006,571.3899],[176.00169,-37.99866,557.6844],[175.98588,-37.99572,515.8457],[175.97482,-37.97949,573.0091],[175.95952,-37.93722,495.5759],[175.96738,-37.91427,520.1539],[175.96769,-37.8919,437.9929],[175.9402,-37.86477,503.4362],[175.93317,-37.85231,521.5447],[175.92056,-37.77175,495.5549],[175.88511,-37.70225,506.5877],[175.8602,-37.67036,608.0868],[175.84046,-37.63517,501.8381],[175.83974,-37.60546,460.5607],[175.8232,-37.57791,673.7928],[175.82558,-37.55487,563.1486],[175.83343,-37.53879,542.5399],[175.82248,-37.52029,520.4153],[175.80925,-37.50805,543.2524],[175.817,-37.49218,474.4504],[175.82878,-37.47854,462.7008],[175.85844,-37.49141,285.5707],[175.89131,-37.49916,144.9549],[175.894,-37.48619,171.1213],[175.87054,-37.47017,203.4564],[175.87477,-37.45286,128.2743],[175.89286,-37.44583,85.3429],[175.91394,-37.41916,159.9529],[175.91839,-37.3818,246.0911],[175.95874,-37.36866,0.0],[175.9568,-37.3615,0.0],[175.95297,-37.32155,0.0],[175.94313,-37.2824,0.0],[175.9336,-37.26409,0.0],[175.92189,-37.25482,0.0],[175.88795,-37.24196,91.8658],[175.90138,-37.23065,0.0],[175.89991,-37.21315,0.0],[175.89243,-37.19134,3.573],[175.88795,-37.16627,0.0],[175.89552,-37.16627,0.0],[175.90008,-37.17718,0.0],[175.90561,-37.18711,0.0],[175.9131,-37.195,0.0],[175.9227,-37.20037,0.0],[175.91782,-37.18719,0.0],[175.91928,-37.15814,0.0],[175.91586,-37.14577,0.0],[175.90724,-37.14227,0.0],[175.89389,-37.14039,0.0],[175.8838,-37.13714,9.7556],[175.88494,-37.12868,3.4224],[175.90162,-37.10613,0.0],[175.91627,-37.07977,0.0],[175.91969,-37.05462,0.0],[175.90162,-37.0359,0.0],[175.89527,-37.04412,0.0],[175.8838,-37.05478,277.655],[175.87306,-37.06032,245.6623],[175.86801,-37.0534,205.7498],[175.87233,-37.04306,266.0591],[175.88054,-37.032,169.6556],[175.88689,-37.02125,0.0],[175.88494,-37.01141,0.0],[175.88461,-37.00563,0.0],[175.88795,-36.97381,0.0],[175.88185,-36.92604,0.0],[175.87761,-36.91286,0.0],[175.87322,-36.90496,0.0],[175.8576,-36.8886,0.0],[175.8532,-36.87786,0.0],[175.8545,-36.85198,0.0],[175.85076,-36.841,0.0],[175.82781,-36.82578,0.0],[175.78696,-36.83294,84.581],[175.76498,-36.82366,85.9905],[175.75196,-36.83717,1.5846],[175.75978,-36.86858,10.3717],[175.74391,-36.879,142.698],[175.74488,-36.88991,148.7977],[175.73683,-36.89039,190.8318],[175.72478,-36.88421,138.8444],[175.71355,-36.87518,1.2161],[175.71111,-36.86728,47.0218],[175.71485,-36.85996,125.0673],[175.71559,-36.85272,163.7696],[175.70362,-36.84482,0.0],[175.71844,-36.82391,0.0],[175.73439,-36.80633,0.0],[175.74684,-36.79803,0.0],[175.77263,-36.78973,0.0],[175.78566,-36.78281,0.0],[175.80494,-36.75351,0.0],[175.80974,-36.74863,0.0],[175.83806,-36.75164,0.0],[175.84832,-36.74814,0.0],[175.85377,-36.73496,0.0],[175.85174,-36.71836,0.0],[175.84132,-36.71941,0.0],[175.82781,-36.72568,0.0],[175.81666,-36.72405,18.7971],[175.8034,-36.71217,0.0],[175.7907,-36.70761,1.5445],[175.77638,-36.70843,62.6032],[175.75815,-36.7138,1.8735],[175.73365,-36.73016,32.9054],[175.719,-36.73594,42.228],[175.7068,-36.73113,2.793],[175.69565,-36.72422,0.0],[175.68165,-36.72234,0.0],[175.66912,-36.72576,0.0],[175.66212,-36.73496,2.3642],[175.66814,-36.73602,10.5277],[175.68247,-36.74114,55.9929],[175.6421,-36.7667,1.71],[175.6281,-36.76385,9.135],[175.6211,-36.73496,0.0],[175.62428,-36.72479,0.0],[175.63103,-36.71494,0.0],[175.63445,-36.70452,0.0],[175.62794,-36.69329,0.0],[175.61695,-36.69052,0.0],[175.58815,-36.69402,290.3364],[175.57667,-36.68987,90.2939],[175.57065,-36.6784,0.0],[175.57407,-36.66985,11.8178],[175.58383,-36.66774,0.0],[175.59693,-36.6762,0.0],[175.60743,-36.6806,0.0],[175.61012,-36.66758,0.0],[175.60743,-36.64219,0.0],[175.59995,-36.61582,0.0],[175.58204,-36.6111,0.0],[175.55934,-36.61077,124.513],[175.53842,-36.5971,0.0],[175.56031,-36.57741,0.0],[175.56202,-36.55169,0.0],[175.55047,-36.52646,0.0],[175.53224,-36.50775,0.0],[175.50611,-36.53151,181.0562],[175.49594,-36.53045,141.0395],[175.47535,-36.51458,40.795],[175.4673,-36.51084,0.0],[175.46339,-36.50775,0.0],[175.46119,-36.50465,0.0],[175.45729,-36.49676,0.0],[175.45118,-36.48773,0.0],[175.44695,-36.47967,0.0]]]]}}