{"type":"Feature","properties":{"GID_2":"NZL.19.1_1","GID_0":"NZL","country":"NewZealand","GID_1":"NZL.19_1","province":"WestCoast","NL_NAME_1":"NA","county":"Buller","VARNAME_2":"NA","NL_NAME_2":"NA","TYPE_2":"District","ENGTYPE_2":"District","CC_2":"055","HASC_2":"NZ.WC.BU","name":"Buller.county"},
"geometry":{"type": "MultiPolygon","coordinates": [[[[171.3675,-42.0338,0.0],[171.3677,-42.0329,0.0],[171.367,-42.0307,0.0],[171.3658,-42.0332,0.0],[171.3675,-42.0338,0.0]]],
[[[172.4792,-42.2774,1908.3873],[172.4746,-42.2743,2002.728],[172.4675,-42.2783,1871.4009],[172.4536,-42.2748,1908.9722],[172.4518,-42.2788,1765.2139],[172.4461,-42.2834,1736.4768],[172.4447,-42.2908,1808.5054],[172.4406,-42.2952,1830.0933],[172.4411,-42.2979,1741.5516],[172.4387,-42.3018,1575.8267],[172.4309,-42.3056,1524.8856],[172.4178,-42.3006,1514.2642],[172.4021,-42.2983,1658.3926],[172.3722,-42.2812,1599.0629],[172.3557,-42.281,1661.069],[172.3479,-42.2767,1713.6462],[172.3565,-42.2674,1714.6888],[172.3544,-42.2561,1630.8054],[172.3463,-42.254,1568.51],[172.3454,-42.2492,1538.9717],[172.3407,-42.243899999999996,1364.0205],[172.3344,-42.245,1508.6338],[172.3334,-42.2387,1584.8688],[172.3357,-42.2343,1576.3065],[172.3468,-42.227,1296.4518],[172.3494,-42.2223,1128.2921],[172.3441,-42.2143,1471.6454],[172.3429,-42.2084,1462.387],[172.3438,-42.2009,1494.7858],[172.3403,-42.1991,1490.3347],[172.3396,-42.1971,1547.1943],[172.3416,-42.1932,1522.6663],[172.3395,-42.1903,1488.6068],[172.3412,-42.1806,1394.6072],[172.3451,-42.1758,1312.8163],[172.3409,-42.1695,1336.1342],[172.3405,-42.1626,1515.1688],[172.3373,-42.1611,1569.8145],[172.333,-42.1523,1557.9102],[172.3334,-42.1492,1652.5525],[172.332,-42.1506,1607.8441],[172.3254,-42.1506,1333.7101],[172.3162,-42.1479,1006.1208],[172.2741,-42.1481,469.5452],[172.261,-42.1483,543.114],[172.2515,-42.1503,681.7344],[172.252,-42.1444,649.7276],[172.25,-42.1432,621.5447],[172.2506,-42.1379,625.9513],[172.2477,-42.1324,646.7365],[172.235,-42.1336,371.4529],[172.2327,-42.1316,366.3885],[172.221,-42.1316,311.1821],[172.2166,-42.1239,307.4702],[172.2179,-42.1148,325.6374],[172.2056,-42.1145,306.6701],[172.2059,-42.1106,302.1098],[172.213,-42.1109,297.5187],[172.215,-42.1091,309.1766],[172.2138,-42.1074,317.5432],[172.2059,-42.105,294.6416],[172.2067,-42.0983,289.4288],[172.1942,-42.1017,448.2162],[172.1873,-42.1056,684.7261],[172.1743,-42.1002,974.4944],[172.1703,-42.1013,1049.7217],[172.1682,-42.1039,1083.895],[172.1352,-42.104,1392.5645],[172.1356,-42.1023,1568.589],[172.1299,-42.0924,1371.8843],[172.133,-42.0844,1284.0229],[172.1325,-42.0806,1255.0941],[172.1214,-42.0751,1159.9457],[172.1165,-42.0756,1284.6219],[172.1196,-42.0727,1166.7406],[172.113,-42.0615,1303.6047],[172.109,-42.0589,1462.6406],[172.1091,-42.0554,1492.217],[172.1049,-42.0484,1463.7302],[172.1057,-42.0446,1409.2529],[172.1119,-42.0383,1462.4338],[172.1124,-42.0335,1408.9865],[172.1181,-42.0289,1554.7588],[172.1168,-42.0268,1417.4009],[172.1175,-42.0204,1246.783],[172.1204,-42.0167,1395.4678],[172.12,-42.0146,1403.0039],[172.116,-42.0121,1366.2496],[172.1044,-42.0129,1166.1287],[172.081,-42.0077,1353.1736],[172.0765,-42.002,1304.7257],[172.071,-41.9985,1375.9882],[172.0766,-41.9875,1350.2516],[172.0697,-41.9801,1382.3098],[172.0712,-41.9769,1289.7222],[172.0692,-41.9731,1275.5251],[172.0701,-41.9647,1281.653],[172.0608,-41.9602,1200.4135],[172.0536,-41.9592,1253.6501],[172.0506,-41.9519,1375.6311],[172.0521,-41.9452,1339.694],[172.056,-41.9393,1305.1593],[172.0602,-41.9368,1280.677],[172.0656,-41.9365,1278.877],[172.0683,-41.9295,1314.9025],[172.0726,-41.9269,1320.7009],[172.0774,-41.9205,1295.2906],[172.0724,-41.9129,1333.6602],[172.0687,-41.9103,1356.2059],[172.0688,-41.9042,1315.208],[172.0634,-41.8989,1361.3842],[172.0654,-41.8944,1317.0914],[172.0707,-41.8929,1303.6443],[172.0784,-41.8965,1220.8727],[172.0858,-41.893,1334.9082],[172.0929,-41.8919,1291.5948],[172.0949,-41.887,1339.7668],[172.093,-41.8838,1291.7375],[172.0938,-41.8744,1308.2792],[172.1032,-41.868899999999996,1165.3932],[172.1157,-41.8684,1199.7854],[172.1163,-41.7892,120.4003],[172.1051,-41.7893,369.0346],[172.1041,-41.7864,436.1191],[172.1001,-41.7838,691.7866],[172.1006,-41.7782,559.4165],[172.0977,-41.7767,570.4105],[172.0973,-41.7743,574.3455],[172.1001,-41.7676,562.5017],[172.1075,-41.7643,673.321],[172.1179,-41.7562,825.8892],[172.1187,-41.7479,875.896],[172.124,-41.7423,1154.1339],[172.1246,-41.738,1182.5792],[172.1241,-41.7353,1270.667],[172.12,-41.7351,1280.4459],[172.1158,-41.7321,1336.8944],[172.119,-41.7254,1327.5518],[172.1249,-41.7225,1237.1036],[172.1291,-41.7141,1311.8876],[172.1392,-41.7159,1393.7957],[172.1441,-41.7117,1298.1014],[172.1504,-41.7108,1368.2979],[172.1515,-41.7042,1199.0938],[172.1553,-41.6997,1332.8774],[172.1611,-41.7027,1134.2308],[172.1745,-41.703,1046.5927],[172.188,-41.6925,949.5604],[172.2033,-41.6956,1005.6576],[172.2091,-41.6999,1066.6355],[172.2125,-41.696,918.2175],[172.2127,-41.6892,1059.5323],[172.2257,-41.6936,960.1338],[172.2329,-41.6915,939.2162],[172.2358,-41.6928,878.7753],[172.2413,-41.7,916.4456],[172.2476,-41.7028,966.1137],[172.2515,-41.7027,901.8438],[172.2597,-41.6944,859.9435],[172.2471,-41.6842,852.5765],[172.2507,-41.6725,798.5311],[172.2538,-41.6681,901.2748],[172.2518,-41.6633,1014.8438],[172.2433,-41.6603,1073.5509],[172.2402,-41.6555,1161.6765],[172.2392,-41.6527,1104.8188],[172.2412,-41.65,1105.3625],[172.2413,-41.6439,1129.0645],[172.2378,-41.6426,1032.9395],[172.2374,-41.6402,1052.3453],[172.2469,-41.6349,1081.7802],[172.2577,-41.6319,1090.4988],[172.2644,-41.6273,1157.5997],[172.2764,-41.6315,1101.7368],[172.2804,-41.6365,1113.2826],[172.291,-41.6348,1202.0255],[172.2944,-41.6304,1156.6039],[172.2925,-41.626,1138.427],[172.2931,-41.6239,1130.126],[172.3038,-41.6161,1091.3145],[172.3205,-41.6104,1106.1017],[172.3273,-41.6038,1046.9062],[172.3304,-41.5996,1153.6348],[172.33,-41.596,1152.1053],[172.3345,-41.5836,1250.5801],[172.3318,-41.5721,1184.8624],[172.3275,-41.5659,1300.7877],[172.3268,-41.5603,1484.7517],[172.3447,-41.5552,1329.751],[172.3457,-41.5449,1276.6201],[172.3438,-41.5396,1255.3008],[172.3467,-41.5312,1280.3945],[172.3426,-41.5166,1328.4954],[172.343,-41.5115,1532.4417],[172.3526,-41.508,1348.2716],[172.372,-41.493899999999996,1385.1774],[172.3771,-41.4916,1192.7773],[172.3889,-41.4906,1199.0029],[172.3961,-41.4786,1336.8743],[172.4033,-41.4787,1277.644],[172.4069,-41.4755,1206.51],[172.4141,-41.4745,1331.7805],[172.4189,-41.4707,1346.1089],[172.4197,-41.4586,1352.7317],[172.4254,-41.4518,1413.3606],[172.4222,-41.4391,1440.0574],[172.4301,-41.4346,1328.6919],[172.4311,-41.429,1372.3557],[172.4292,-41.4252,1338.824],[172.4222,-41.4249,1030.3751],[172.4189,-41.4227,1058.2004],[172.4155,-41.4167,1236.1023],[172.4159,-41.4126,1393.2465],[172.4194,-41.4105,1358.8657],[172.4385,-41.4081,1223.9135],[172.4612,-41.3944,1571.547],[172.4627,-41.3962,1478.5754],[172.4631,-41.4043,1480.4692],[172.4651,-41.4055,1476.4949],[172.4847,-41.4081,1206.2949],[172.4979,-41.4072,1107.0597],[172.5043,-41.4086,1132.5769],[172.5086,-41.4124,1283.9255],[172.5124,-41.4128,1358.1027],[172.5225,-41.4067,1421.4678],[172.5321,-41.4055,1537.7048],[172.5339,-41.4018,1460.2932],[172.5365,-41.4005,1372.0153],[172.5436,-41.4006,1402.0203],[172.5524,-41.3983,1377.7684],[172.5599,-41.3828,1315.0542],[172.5736,-41.377,1231.9265],[172.5781,-41.3786,1441.5385],[172.5843,-41.3763,1530.9679],[172.5865,-41.3645,1491.4185],[172.5818,-41.3585,1451.9576],[172.586,-41.3515,1261.0962],[172.5816,-41.3436,1349.0695],[172.5894,-41.3353,1525.6084],[172.5873,-41.328,1506.2946],[172.5879,-41.3227,1555.0841],[172.5909,-41.3166,1488.1959],[172.5982,-41.3102,1588.3979],[172.6003,-41.3009,1399.7791],[172.5965,-41.2926,1418.7985],[172.5885,-41.2908,1490.4275],[172.5861,-41.2887,1496.0203],[172.5853,-41.2809,1457.0925],[172.5818,-41.2721,1446.6055],[172.5726,-41.2637,1550.8843],[172.5744,-41.2583,1432.2377],[172.5802,-41.254,1421.2881],[172.6052,-41.2534,1518.2786],[172.6105,-41.2492,1447.9753],[172.6253,-41.2431,1354.1931],[172.637,-41.2452,1421.0251],[172.6579,-41.2392,1692.3781],[172.6621,-41.2321,1615.3032],[172.6781,-41.2224,1565.6],[172.6822,-41.2171,1738.9534],[172.6908,-41.2113,1515.4789],[172.692,-41.1999,1331.0336],[172.6828,-41.1927,1441.0421],[172.6732,-41.1882,1292.9915],[172.6682,-41.1896,1126.4296],[172.6644,-41.1946,989.2088],[172.6566,-41.1925,1098.9958],[172.6371,-41.1957,1161.8448],[172.6289,-41.1948,1205.3872],[172.6295,-41.1875,1233.1945],[172.6252,-41.1847,1256.1321],[172.6223,-41.1798,1233.5626],[172.6204,-41.1715,1297.4824],[172.621,-41.1646,1284.6405],[172.6185,-41.1604,1372.9916],[172.5966,-41.148,1531.2906],[172.5917,-41.1377,1591.4359],[172.5852,-41.139,1453.3894],[172.5814,-41.137,1517.5863],[172.5735,-41.1251,1481.7463],[172.5672,-41.1228,1439.7683],[172.5607,-41.1168,1503.3193],[172.5529,-41.1024,1555.7397],[172.5436,-41.1015,1474.8322],[172.5334,-41.0963,1453.5009],[172.5198,-41.0957,1637.2573],[172.5181,-41.091,1434.1167],[172.5226,-41.0817,1599.7008],[172.5132,-41.0668,1562.4988],[172.4921,-41.0647,1547.1482],[172.4891,-41.0577,1507.9797],[172.4859,-41.0546,1526.704],[172.4922,-41.0483,1486.7144],[172.4961,-41.041,1480.7646],[172.494,-41.0246,1628.9526],[172.4915,-41.0226,1653.6373],[172.4776,-41.0252,1593.2451],[172.4684,-41.0227,1498.839],[172.4397,-41.0204,1444.2484],[172.4356,-41.0275,1380.2728],[172.4192,-41.0335,1440.8979],[172.4072,-41.0275,1380.8768],[172.3827,-41.0226,1506.9769],[172.3668,-41.0365,1267.7535],[172.3611,-41.0441,1329.7395],[172.3624,-41.0514,1473.1035],[172.3552,-41.0513,1399.8455],[172.3507,-41.054,1367.026],[172.3503,-41.0634,1473.7295],[172.3429,-41.0603,1236.4318],[172.3322,-41.0617,1171.5361],[172.3248,-41.0595,1229.8721],[172.3235,-41.054,1400.9048],[172.3309,-41.0458,1437.174],[172.3337,-41.035,1366.0107],[172.3237,-41.0282,1454.2639],[172.314,-41.0183,1495.5679],[172.3105,-41.014,1198.969],[172.3109,-41.0112,1228.9641],[172.3297,-40.987,1323.8075],[172.3351,-40.9844,1367.4314],[172.3487,-40.9839,1297.261],[172.3576,-40.9794,1312.5419],[172.3702,-40.9707,1234.5487],[172.3747,-40.962,1277.979],[172.3831,-40.9552,1357.8339],[172.3864,-40.9493,1412.2493],[172.3811,-40.9455,1295.4331],[172.3758,-40.9344,1371.6406],[172.3689,-40.9366,1344.6985],[172.3507,-40.9319,835.4493],[172.3281,-40.9363,766.2162],[172.3166,-40.9245,794.7152],[172.3052,-40.9255,856.3704],[172.2977,-40.9225,852.05],[172.294,-40.9194,880.9739],[172.3004,-40.9153,843.5726],[172.301,-40.9102,831.3593],[172.2952,-40.9032,797.0661],[172.2884,-40.9038,785.6722],[172.2815,-40.8989,786.7318],[172.2899,-40.8859,719.3899],[172.2898,-40.8775,736.9271],[172.2847,-40.8739,805.1042],[172.2679,-40.8712,789.1461],[172.2634,-40.8659,783.7521],[172.2625,-40.859,801.6823],[172.2531,-40.8609,798.4888],[172.251,-40.869,817.5377],[172.2471,-40.866,797.1075],[172.2385,-40.8713,821.4946],[172.2336,-40.869,833.0452],[172.2303,-40.8639,820.524],[172.2312,-40.8592,811.6],[172.229,-40.8561,813.0275],[172.2321,-40.8534,831.8529],[172.2305,-40.8501,824.8228],[172.2381,-40.8453,825.8199],[172.2402,-40.8417,829.7075],[172.2382,-40.8296,714.806],[172.2426,-40.8263,719.5071],[172.2402,-40.8248,724.3134],[172.2463,-40.8185,712.3865],[172.2456,-40.8147,693.965],[172.2488,-40.8069,611.3444],[172.2348,-40.7922,326.2522],[172.2239,-40.7848,139.4085],[172.2182,-40.7777,78.5447],[172.2177,-40.7746,42.0666],[172.2151,-40.7771,0.0],[172.2119,-40.7884,7.2402],[172.2128,-40.7901,27.6071],[172.2009,-40.7926,0.0],[172.1957,-40.7972,8.3473],[172.1858,-40.8024,0.0],[172.1851,-40.8049,33.6109],[172.1727,-40.81,7.7131],[172.1735,-40.8156,12.1915],[172.1663,-40.8201,8.1652],[172.1627,-40.8254,37.0973],[172.1601,-40.8261,0.687],[172.1588,-40.8306,7.5577],[172.1556,-40.8304,0.0],[172.1552,-40.8329,0.0],[172.1513,-40.8352,0.0],[172.1498,-40.8383,48.9192],[172.1465,-40.8396,34.8769],[172.1423,-40.8468,24.3071],[172.1339,-40.8503,1.8151],[172.1358,-40.853,54.7409],[172.1358,-40.8579,110.6414],[172.1309,-40.8722,21.1959],[172.127,-40.8757,0.0],[172.1103,-40.8823,0.0],[172.1035,-40.8934,8.9607],[172.0998,-40.8963,0.0],[172.1013,-40.8996,12.0385],[172.0982,-40.913,5.963],[172.0929,-40.9147,1.7506],[172.0969,-40.9218,10.1766],[172.0961,-40.9266,0.0],[172.0989,-40.9362,8.8707],[172.0965,-40.9423,0.9621],[172.1008,-40.9556,87.0272],[172.1009,-40.9714,0.0],[172.105,-40.9829,104.7489],[172.1033,-40.9845,42.3921],[172.1081,-40.9856,16.6185],[172.1067,-40.9879,2.4725],[172.1106,-41.0098,11.0479],[172.1086,-41.0182,0.0],[172.1117,-41.0269,30.2258],[172.1113,-41.0367,92.592],[172.1045,-41.0431,3.7588],[172.1071,-41.0471,4.7414],[172.106,-41.0575,0.0],[172.1032,-41.0596,17.3731],[172.105,-41.0658,17.2902],[172.1025,-41.0722,20.8606],[172.1046,-41.0944,31.8694],[172.1002,-41.0967,0.0],[172.0997,-41.1003,0.0],[172.1,-41.1065,4.7624],[172.1028,-41.1094,8.9594],[172.104,-41.1358,4.048],[172.1057,-41.1402,4.8498],[172.1049,-41.1494,5.7063],[172.1062,-41.152,4.4158],[172.1048,-41.1555,5.9378],[172.1045,-41.1675,0.0],[172.1056,-41.1687,2.4205],[172.1043,-41.171,2.4299],[172.1029,-41.1996,1.3165],[172.0981,-41.2399,0.0],[172.0991,-41.2427,1.9119],[172.1034,-41.2458,1.3664],[172.1085,-41.245,1.1086],[172.1067,-41.2471,0.7614],[172.1113,-41.2447,1.0492],[172.112,-41.2462,1.0492],[172.1043,-41.2495,1.2896],[172.1065,-41.2537,1.257],[172.1109,-41.2542,1.267],[172.1138,-41.2516,0.5],[172.1211,-41.25,3.6357],[172.1211,-41.2513,2.0749],[172.1274,-41.2538,3.5605],[172.1316,-41.2607,5.1173],[172.1283,-41.2605,5.3455],[172.1266,-41.2558,2.0406],[172.1205,-41.2531,3.9491],[172.1146,-41.2541,2.7582],[172.1136,-41.256,2.2899],[172.1168,-41.2556,1.9052],[172.1163,-41.2573,19.357],[172.113,-41.2565,24.7243],[172.1098,-41.2583,3.0812],[172.1049,-41.2581,5.6446],[172.1065,-41.2653,1.7702],[172.1084,-41.2659,2.1476],[172.1077,-41.2758,1.5479],[172.106,-41.2709,0.0],[172.1056,-41.276,1.3653],[172.1031,-41.2801,1.0258],[172.1038,-41.2855,3.2328],[172.1005,-41.2897,2.5949],[172.0934,-41.2901,1.6359],[172.0957,-41.2854,0.0],[172.0927,-41.283,0.423],[172.0934,-41.2784,0.5317],[172.0925,-41.2751,3.7557],[172.0916,-41.2761,0.0],[172.0797,-41.3378,0.0],[172.0702,-41.3684,0.0],[172.0607,-41.3883,0.0],[172.0581,-41.391,0.0],[172.0535,-41.3905,9.2537],[172.0442,-41.3977,0.0],[172.0335,-41.4118,32.5447],[172.0307,-41.4131,43.3681],[172.0268,-41.4122,20.3302],[172.0257,-41.415,47.4739],[172.014,-41.4254,88.7965],[172.012,-41.4298,236.4076],[171.9988,-41.4414,44.318],[171.9865,-41.4456,0.0],[171.9812,-41.4574,24.2007],[171.9756,-41.4645,5.5751],[171.9558,-41.4979,2.7289],[171.9467,-41.5057,21.7573],[171.9421,-41.5164,13.58],[171.9324,-41.5259,0.0],[171.9208,-41.5489,0.6175],[171.9105,-41.565,2.5865],[171.9016,-41.5745,6.9669],[171.8821,-41.6007,0.0],[171.8645,-41.6163,4.3203],[171.8582,-41.6243,5.6941],[171.8256,-41.6488,0.6379],[171.7874,-41.6693,0.0],[171.7511,-41.6913,0.0],[171.7476,-41.6942,0.0],[171.7477,-41.6958,0.0],[171.7396,-41.6996,0.0],[171.7054,-41.7247,7.7107],[171.6976,-41.7249,0.0],[171.6907,-41.7277,0.0],[171.692,-41.7294,0.0],[171.6818,-41.7341,0.0],[171.6812,-41.7332,0.0],[171.6547,-41.742,0.0],[171.6508,-41.7395,0.0],[171.634,-41.7422,3.1059],[171.6215,-41.7421,3.2906],[171.5917,-41.7324,0.0],[171.5894,-41.727,0.0],[171.5935,-41.7375,3.1293],[171.5914,-41.7367,0.0],[171.5939,-41.7441,1.594],[171.596,-41.7448,0.5],[171.5995,-41.7409,3.039],[171.601,-41.742,2.7001],[171.5975,-41.746,0.5],[171.5958,-41.7468,1.9581],[171.5946,-41.7456,0.5],[171.597,-41.753,2.4244],[171.5983,-41.7656,7.9788],[171.5951,-41.7664,0.5],[171.5928,-41.752,2.744],[171.5896,-41.7505,2.0098],[171.5812,-41.7516,3.2734],[171.5769,-41.7494,1.2887],[171.5829,-41.7491,1.4527],[171.5832,-41.747,2.6197],[171.5855,-41.7466,0.6293],[171.5836,-41.7444,1.8171],[171.5856,-41.7445,0.5986],[171.5818,-41.7427,1.8618],[171.59,-41.7434,2.085],[171.5869,-41.7411,1.2799],[171.5885,-41.7346,0.0],[171.5871,-41.7274,0.0],[171.5875,-41.7316,3.0922],[171.5559,-41.7484,4.3346],[171.5474,-41.7506,2.1215],[171.526,-41.7522,0.5889],[171.5057,-41.7453,0.0],[171.4862,-41.7456,0.0],[171.4862,-41.7467,13.3495],[171.4745,-41.7491,7.0585],[171.4706,-41.748,24.8365],[171.4695,-41.7452,2.3773],[171.4623,-41.7498,9.4811],[171.4593,-41.753,0.0],[171.4634,-41.7536,17.4734],[171.4643,-41.7582,34.5499],[171.4594,-41.7602,4.1114],[171.4557,-41.7649,1.0771],[171.4586,-41.7647,1.7505],[171.4602,-41.7671,0.0],[171.4604,-41.7726,0.0],[171.4572,-41.7749,9.0235],[171.4526,-41.7731,8.8006],[171.4506,-41.7748,2.0442],[171.4551,-41.776,8.3491],[171.4566,-41.779,11.4691],[171.4592,-41.8207,0.0],[171.4613,-41.8332,0.5357],[171.4582,-41.8682,0.0],[171.4538,-41.8893,0.0],[171.4456,-41.8912,0.0],[171.4476,-41.892,2.8161],[171.4442,-41.8972,8.9333],[171.4377,-41.8957,0.0],[171.4361,-41.8966,23.9183],[171.4335,-41.9005,0.0],[171.4371,-41.9024,3.7188],[171.4343,-41.902,1.3388],[171.4332,-41.9028,0.0],[171.4353,-41.9035,4.2554],[171.4347,-41.9046,18.1865],[171.4324,-41.9035,7.1442],[171.4288,-41.9057,5.8315],[171.4247,-41.9112,0.0],[171.4253,-41.9123,0.0],[171.4175,-41.9183,67.5338],[171.4157,-41.922,12.041],[171.4178,-41.9253,61.2659],[171.4133,-41.9327,22.7466],[171.4143,-41.9407,3.1803],[171.4098,-41.9507,26.112],[171.4113,-41.9554,35.7839],[171.4087,-41.9586,6.1663],[171.4085,-41.9659,24.0825],[171.4047,-41.9746,3.7236],[171.4034,-41.9746,3.7236],[171.4047,-41.9756,3.7236],[171.4031,-41.9777,10.562],[171.4031,-41.9816,38.3746],[171.4007,-41.9821,0.0],[171.4044,-41.9838,6.6303],[171.4056,-41.9865,10.01],[171.4033,-41.9919,13.451],[171.3975,-41.9958,0.9092],[171.3966,-42.0001,2.5129],[171.3946,-42.0014,1.9959],[171.3971,-42.0029,32.5765],[171.3965,-42.0094,0.0],[171.3916,-42.0213,10.989],[171.3835,-42.0306,0.7623],[171.3686,-42.0356,9.3848],[171.3656,-42.0349,1.8787],[171.3644,-42.0402,5.3865],[171.3667,-42.0402,14.7709],[171.3675,-42.0419,0.0],[171.3651,-42.0486,8.764],[171.3658,-42.057,43.6011],[171.3652,-42.0597,40.1128],[171.3628,-42.0609,0.0],[171.3643,-42.0636,77.0207],[171.3607,-42.0677,0.0],[171.3605,-42.0722,6.9282],[171.3524,-42.0747,7.1064],[171.3529,-42.0787,1.9287],[171.3479,-42.0845,31.5158],[171.3415,-42.0838,6.2691],[171.3421,-42.0855,10.1622],[171.3403,-42.0856,4.6882],[171.338,-42.089,9.4116],[171.3394,-42.0968,33.3293],[171.3378,-42.0978,2.9965],[171.3412,-42.0995,35.0042],[171.3392,-42.1041,29.7223],[171.3357,-42.1056,2.102],[171.334,-42.1107,4.5462],[171.3258,-42.1142,2.3319],[171.3301,-42.1186,8.1081],[171.3295,-42.1224,3.2756],[171.3358,-42.1264,72.9094],[171.3449,-42.1238,21.2229],[171.3472,-42.1299,97.2058],[171.3521,-42.1359,15.1548],[171.3579,-42.1347,16.1017],[171.3593,-42.1365,21.5353],[171.3637,-42.1373,18.5345],[171.3632,-42.1392,24.1821],[171.3651,-42.1412,23.2808],[171.3622,-42.1487,33.1175],[171.3713,-42.1533,31.5693],[171.3688,-42.1569,50.9309],[171.3759,-42.164,89.9992],[171.3862,-42.1669,83.9759],[171.3871,-42.1689,97.6908],[171.3944,-42.1721,94.9157],[171.3952,-42.1757,108.8484],[171.3933,-42.1816,118.9533],[171.3956,-42.1835,141.9706],[171.3987,-42.1834,138.5992],[171.3964,-42.1849,195.0082],[171.3989,-42.188,186.831],[171.404,-42.1872,192.6121],[171.4007,-42.183,138.5992],[171.4038,-42.182,145.043],[171.4041,-42.1801,161.3033],[171.4057,-42.1811,137.196],[171.4084,-42.1801,191.2044],[171.4108,-42.1754,174.2982],[171.4125,-42.1765,172.0565],[171.4135,-42.1808,162.2433],[171.4118,-42.189,177.1239],[171.4036,-42.1946,192.7581],[171.4055,-42.2017,233.5411],[171.4081,-42.2025,249.2732],[171.4107,-42.2089,248.0636],[171.4122,-42.2088,250.1559],[171.415,-42.2132,288.7824],[171.4127,-42.2209,337.5305],[171.4163,-42.2242,348.4893],[171.4177,-42.2278,421.6253],[171.4262,-42.2317,479.7802],[171.429,-42.2372,644.2876],[171.4385,-42.2399,1052.2279],[171.4445,-42.2287,991.4417],[171.4417,-42.2242,912.1949],[171.4414,-42.2165,951.5475],[171.4393,-42.214,944.9504],[171.4404,-42.206,885.6368],[171.4509,-42.1973,899.3474],[171.4606,-42.1984,1106.8335],[171.4637,-42.1971,1162.4205],[171.4665,-42.1898,1085.97],[171.4715,-42.1862,1052.0938],[171.4887,-42.1813,1199.1447],[171.4992,-42.1677,1093.3834],[171.501,-42.1613,1078.0637],[171.5094,-42.1583,1073.7112],[171.511,-42.1459,1088.3868],[171.5231,-42.1346,1071.975],[171.5233,-42.1271,1030.3278],[171.526,-42.1203,1149.8988],[171.5345,-42.1187,1043.6376],[171.5392,-42.1161,1136.9486],[171.5394,-42.1086,1082.4902],[171.5365,-42.1013,1274.4542],[171.5473,-42.0894,1234.5966],[171.5434,-42.079,1193.1289],[171.5452,-42.0723,1321.8583],[171.5525,-42.0663,1285.9683],[171.5573,-42.0647,1297.8937],[171.563,-42.0664,1189.9231],[171.5667,-42.0653,1271.8929],[171.583,-42.0669,1151.4053],[171.584,-42.0623,1200.4525],[171.5817,-42.058,1057.5671],[171.5856,-42.0563,1140.8684],[171.5934,-42.062,795.1182],[171.6139,-42.0698,595.051],[171.6183,-42.0745,559.2137],[171.6263,-42.0795,493.6189],[171.6258,-42.0831,433.2605],[171.6189,-42.0903,422.718],[171.6136,-42.1002,407.6298],[171.6062,-42.1038,419.0411],[171.6064,-42.1061,403.8483],[171.6028,-42.1072,385.5266],[171.5963,-42.1139,367.702],[171.5936,-42.1138,371.8654],[171.5926,-42.1163,378.9337],[171.5808,-42.1218,350.6013],[171.5797,-42.1276,336.1034],[171.5765,-42.1326,311.3452],[171.5777,-42.1416,325.8094],[171.581,-42.1474,282.8216],[171.5848,-42.1493,323.5498],[171.5859,-42.1535,307.6684],[171.5994,-42.175,262.6001],[171.6024,-42.1832,215.1956],[171.6084,-42.1828,213.9406],[171.6124,-42.185,191.6318],[171.6175,-42.185,196.0787],[171.6209,-42.1892,183.9317],[171.6384,-42.1976,169.4597],[171.6435,-42.2037,161.2384],[171.6427,-42.2112,155.2374],[171.6463,-42.2204,147.7738],[171.6535,-42.2269,145.5295],[171.6571,-42.2481,122.2679],[171.6561,-42.2525,115.6711],[171.6581,-42.2567,113.3499],[171.6551,-42.265,103.7842],[171.6543,-42.2736,99.8247],[171.6502,-42.2783,94.5958],[171.6422,-42.2836,90.1778],[171.6562,-42.2836,93.8741],[171.6631,-42.2862,96.0599],[171.6797,-42.2885,99.86],[171.6882,-42.2962,104.6441],[171.7178,-42.3133,116.7525],[171.725,-42.3148,119.788],[171.7388,-42.3249,126.0983],[171.7598,-42.3314,134.2911],[171.7667,-42.3386,140.4724],[171.7701,-42.3449,143.0449],[171.7825,-42.3492,156.2708],[171.782,-42.352,149.6507],[171.7878,-42.3548,161.9589],[171.7842,-42.3588,153.9462],[171.786,-42.3613,194.9871],[171.8032,-42.36,180.6143],[171.808,-42.3625,169.5786],[171.8141,-42.3593,177.1165],[171.8418,-42.3691,180.1363],[171.8451,-42.3614,220.1411],[171.8531,-42.36,191.7915],[171.8592,-42.3543,202.9846],[171.8602,-42.3512,202.1436],[171.8578,-42.3474,223.4654],[171.8586,-42.346,250.1777],[171.866,-42.3449,247.6556],[171.867,-42.3474,218.4198],[171.8742,-42.3499,220.8459],[171.8794,-42.3465,209.0266],[171.8883,-42.345,215.7426],[171.9058,-42.375,1358.8116],[171.9054,-42.3793,1248.6333],[171.9107,-42.381,1090.851],[171.9118,-42.3829,993.8665],[171.9105,-42.3858,938.2468],[171.9187,-42.3935,583.4105],[171.9187,-42.3982,380.4931],[171.924,-42.4034,416.4465],[171.9441,-42.4044,889.6907],[171.9571,-42.4103,691.7418],[171.9614,-42.4143,575.1491],[171.9581,-42.421,693.4678],[171.958,-42.4259,866.7145],[171.9539,-42.4293,1101.2327],[171.9484,-42.4407,1426.0586],[171.9419,-42.4387,1250.2909],[171.9367,-42.4389,1318.2158],[171.9211,-42.4547,1299.8438],[171.9255,-42.4577,1247.002],[171.9258,-42.4612,1267.0292],[171.9176,-42.4655,1398.2129],[171.9213,-42.4682,1212.1509],[171.9244,-42.4734,1124.8318],[171.9236,-42.4791,1189.3544],[171.9272,-42.4844,1150.0269],[171.9335,-42.4891,995.8278],[171.9387,-42.4903,775.7925],[171.9451,-42.4964,486.3883],[171.9573,-42.5015,643.2342],[171.9588,-42.5055,798.4038],[171.9655,-42.5092,1130.9084],[171.9703,-42.5086,1245.5828],[171.9824,-42.5113,1455.553],[171.983,-42.5072,1437.3993],[171.993,-42.5034,1433.2716],[171.9961,-42.5072,1381.4414],[172.002,-42.5092,1398.5824],[172.0228,-42.5125,1537.2919],[172.0295,-42.5162,1429.2334],[172.034,-42.5229,1404.7863],[172.039,-42.524,1474.3853],[172.0456,-42.5229,1335.7587],[172.0557,-42.5239,1425.8447],[172.065,-42.5189,1357.064],[172.0724,-42.5176,1316.3688],[172.0788,-42.5185,1400.554],[172.0858,-42.5133,1371.0961],[172.1094,-42.5074,1462.9503],[172.1212,-42.5086,1541.0055],[172.1289,-42.505,1464.2623],[172.1342,-42.5047,1560.3531],[172.1457,-42.4987,1512.2405],[172.1493,-42.4983,1506.6691],[172.1539,-42.5,1615.1172],[172.1588,-42.499,1642.6438],[172.1646,-42.4953,1596.1655],[172.1792,-42.4927,1576.087],[172.1894,-42.493,1618.6472],[172.1958,-42.4963,1725.9802],[172.1989,-42.4956,1711.2925],[172.2083,-42.4913,1538.0027],[172.2111,-42.4886,1581.0317],[172.2199,-42.4863,1493.9396],[172.2271,-42.4795,1587.9352],[172.2316,-42.473,1695.949],[172.2315,-42.4654,1482.8511],[172.2359,-42.4564,1653.0264],[172.2411,-42.457,1593.8372],[172.2548,-42.4513,1577.6024],[172.2572,-42.4535,1460.7534],[172.2617,-42.452,1572.144],[172.2655,-42.4551,1632.006],[172.2728,-42.451,1468.0785],[172.2788,-42.4499,1548.0636],[172.2933,-42.4404,1635.8342],[172.296,-42.4339,1596.4465],[172.3007,-42.4285,1624.4482],[172.2998,-42.4217,1597.354],[172.3175,-42.4198,1374.3489],[172.3248,-42.4164,1569.8566],[172.3287,-42.4106,1482.1312],[172.3337,-42.4083,1604.5701],[172.3372,-42.3997,1607.0895],[172.3446,-42.3972,1444.8848],[172.3451,-42.3936,1458.1897],[172.3472,-42.3918,1528.6868],[172.3562,-42.3906,1478.7103],[172.3687,-42.385,1515.8123],[172.3932,-42.3779,1061.3933],[172.417,-42.3837,1422.4355],[172.4292,-42.3721,1698.1926],[172.4381,-42.3701,1718.6226],[172.4455,-42.364,1495.7373],[172.4495,-42.3549,1457.4115],[172.4431,-42.3447,1668.3176],[172.4487,-42.3286,1653.8135],[172.4542,-42.3229,1587.0874],[172.461,-42.3236,1650.1128],[172.4662,-42.3195,1560.9424],[172.4631,-42.3174,1451.6467],[172.4645,-42.3138,1253.9326],[172.462,-42.3114,1140.3632],[172.4617,-42.3075,1029.3346],[172.4652,-42.3016,1197.3846],[172.4764,-42.2946,1634.4897],[172.4785,-42.2901,1752.0022],[172.4776,-42.2881,1772.2346],[172.4798,-42.2857,1821.3375],[172.4792,-42.2774,1908.3873]]],
[[[172.1032,-41.2609,0.6611],[172.1044,-41.2591,0.7324],[172.1041,-41.2567,0.0],[172.1027,-41.2578,0.0],[172.1032,-41.2609,0.6611]]],
[[[172.0951,-41.2663,1.912],[172.0961,-41.2603,0.0],[172.0997,-41.256,0.0],[172.0994,-41.2493,0.0],[172.0976,-41.2482,1.8605],[172.0951,-41.2562,0.0],[172.0951,-41.2663,1.912]]]]}}