{"type": "Feature","bbox": [174.8479,-41.4366,175.087,-41.1328],"geometry": {"type": "MultiPolygon","coordinates": [[[[174.9792,-41.1376,157.9381],[174.9743,-41.1328,153.317],[174.9724,-41.1365,274.6016],[174.9737,-41.141,247.8953],[174.9646,-41.1475,274.5652],[174.9517,-41.145,272.8883],[174.9487,-41.1531,253.5008],[174.9389,-41.1509,406.1544],[174.9367,-41.1523,435.3535],[174.9329,-41.1505,358.9248],[174.9278,-41.1515,339.2356],[174.9272,-41.1492,322.7964],[174.916,-41.147,198.9395],[174.9155,-41.1409,121.5385],[174.911,-41.14,137.2771],[174.9077,-41.1496,282.8387],[174.8992,-41.1479,318.4],[174.8793,-41.1735,273.0724],[174.8803,-41.1737,273.0724],[174.8789,-41.1779,337.4371],[174.8757,-41.1765,378.5896],[174.8753,-41.1785,364.4211],[174.8655,-41.1891,148.6425],[174.8673,-41.1894,200.8525],[174.8664,-41.1961,186.616],[174.8645,-41.1958,134.9426],[174.8608,-41.2026,144.6259],[174.8633,-41.2028,116.5898],[174.8625,-41.206,87.7659],[174.8603,-41.2058,109.6373],[174.859,-41.2099,93.859],[174.8618,-41.2143,101.9194],[174.8568,-41.2231,43.7996],[174.8575,-41.224,43.7996],[174.8498,-41.2266,8.7078],[174.8576,-41.2248,0.834],[174.8673,-41.2261,3.8869],[174.872,-41.2274,1.1215],[174.8702,-41.23,0.0],[174.8721,-41.2275,1.1215],[174.8883,-41.2317,0.1616],[174.8951,-41.2356,2.1905],[174.8978,-41.2389,0.6522],[174.8991,-41.2377,0.0],[174.8986,-41.2356,3.5928],[174.901,-41.2367,1.9754],[174.901,-41.2418,3.362],[174.899,-41.246,3.0161],[174.9009,-41.2471,0.906],[174.9006,-41.2499,0.0],[174.902,-41.2514,0.0],[174.9007,-41.2498,0.0],[174.9014,-41.2478,2.1398],[174.903,-41.2479,2.1398],[174.9031,-41.2501,0.0],[174.9055,-41.2489,0.8508],[174.9058,-41.2506,6.2664],[174.9032,-41.2518,12.7726],[174.8989,-41.2576,0.0],[174.8985,-41.2562,0.0],[174.8987,-41.2589,0.0],[174.9025,-41.2533,0.0],[174.9041,-41.2531,0.0],[174.9104,-41.2556,7.547],[174.9124,-41.2579,1.1065],[174.912,-41.2598,31.8267],[174.9078,-41.2606,0.0],[174.91,-41.2644,13.0275],[174.9065,-41.2672,0.0],[174.9079,-41.2704,28.1853],[174.9063,-41.2713,0.0],[174.9061,-41.2747,20.2773],[174.9031,-41.2768,5.0555],[174.9055,-41.2782,0.0],[174.9063,-41.2819,0.3537],[174.9002,-41.2869,1.4726],[174.8959,-41.2885,0.0],[174.8968,-41.2894,0.0],[174.8929,-41.2924,3.4369],[174.8922,-41.299,1.2899],[174.8885,-41.3044,0.0],[174.8846,-41.3067,21.0635],[174.8838,-41.3106,4.5928],[174.879,-41.3162,1.5261],[174.8719,-41.3184,0.0],[174.8712,-41.3253,5.9386],[174.8646,-41.3316,51.9753],[174.8625,-41.3317,5.351],[174.8589,-41.3368,40.2666],[174.8588,-41.3408,39.6563],[174.852,-41.3492,2.7469],[174.8526,-41.3533,6.3271],[174.8479,-41.3595,24.9801],[174.8504,-41.361,29.0469],[174.8507,-41.364,8.8882],[174.8567,-41.366,9.4586],[174.86,-41.3722,10.6283],[174.8683,-41.3772,17.0278],[174.8746,-41.384,28.146],[174.8764,-41.3886,2.7836],[174.8748,-41.3927,1.643],[174.8659,-41.4008,0.0],[174.8685,-41.4096,0.0],[174.9014,-41.418,2.8269],[174.9159,-41.4366,3.0923],[174.9242,-41.4347,0.3663],[174.9569,-41.4128,28.6737],[174.9778,-41.4048,0.0],[174.9788,-41.4028,63.0215],[174.9829,-41.4024,21.259],[174.9861,-41.396,7.2852],[174.9586,-41.3829,655.0492],[174.9709,-41.3704,832.2034],[174.9809,-41.3647,739.8349],[174.9846,-41.3566,742.5848],[174.9891,-41.3529,662.0676],[174.9933,-41.3451,670.9883],[175.0039,-41.3446,732.5068],[175.0144,-41.3506,797.3322],[175.0224,-41.3482,668.7987],[175.024,-41.3461,617.7316],[175.0228,-41.3409,786.1066],[175.0298,-41.3361,755.9799],[175.0332,-41.3317,718.9134],[175.0442,-41.3298,716.0042],[175.0409,-41.3249,678.4982],[175.0422,-41.3227,685.7889],[175.0454,-41.3224,745.4979],[175.0481,-41.3189,873.483],[175.0477,-41.3133,877.6427],[175.0551,-41.3096,832.4631],[175.0563,-41.3058,805.7582],[175.0621,-41.3021,837.0082],[175.0653,-41.2967,767.7046],[175.0732,-41.2944,808.3293],[175.0726,-41.2913,808.5524],[175.075,-41.2878,791.3103],[175.078,-41.2853,775.5367],[175.0829,-41.2845,771.6928],[175.0824,-41.281,673.2866],[175.0858,-41.2802,639.0343],[175.087,-41.2783,672.2842],[175.0808,-41.2691,451.143],[175.087,-41.2625,453.2299],[175.0761,-41.2524,792.7603],[175.0742,-41.2448,781.075],[175.0802,-41.2409,792.6891],[175.0796,-41.2374,748.3572],[175.0835,-41.2281,753.5217],[175.0798,-41.2206,575.8881],[175.0819,-41.2179,552.3381],[175.0773,-41.2128,652.922],[175.075,-41.2124,646.7237],[175.0688,-41.2157,621.3574],[175.0674,-41.2185,616.2867],[175.0525,-41.2156,528.0254],[175.0481,-41.2168,556.6343],[175.0421,-41.2222,600.222],[175.0394,-41.2216,606.2438],[175.0369,-41.2186,601.3809],[175.0312,-41.2187,487.3434],[175.0287,-41.217,490.7971],[175.02,-41.2177,540.6744],[175.0154,-41.2131,542.2721],[175.0065,-41.2152,487.6279],[174.9994,-41.2146,502.4831],[174.9982,-41.2118,418.4514],[174.9924,-41.2075,481.7054],[174.9911,-41.2038,418.0153],[174.9932,-41.2006,333.1953],[174.9986,-41.2001,424.9993],[175.0009,-41.198,424.0403],[175.0043,-41.1884,418.9727],[175.0159,-41.1891,308.6288],[175.0182,-41.1784,290.7382],[175.0085,-41.1773,348.3751],[174.999,-41.1667,261.3796],[175.0051,-41.1636,268.5902],[174.9918,-41.1488,31.8794],[174.999,-41.1444,36.1403],[174.9849,-41.1432,185.8507],[174.9794,-41.14,149.2538],[174.9792,-41.1376,157.9381]]],
[[[174.9006,-41.2534,0.0],[174.9004,-41.2538,0.0],[174.9006,-41.2538,0.0],[174.9006,-41.2534,0.0]]],
[[[174.901,-41.2529,0.0],[174.9009,-41.2529,0.0],[174.9008,-41.253,0.0],[174.901,-41.253,0.0],[174.901,-41.2529,0.0]]],
[[[174.9018,-41.252,0.0],[174.902,-41.252,0.0],[174.9015,-41.2514,0.0],[174.9014,-41.2515,0.0],[174.9018,-41.252,0.0]]],
[[[174.8718,-41.293,0.0],[174.871,-41.2931,0.0],[174.8709,-41.2948,0.0],[174.8725,-41.2936,0.0],[174.8718,-41.293,0.0]]],
[[[174.8622,-41.2597,0.0],[174.8622,-41.2595,0.0],[174.8622,-41.2595,0.0],[174.8621,-41.2596,0.0],[174.8622,-41.2597,0.0]]],
[[[174.8623,-41.2593,0.0],[174.866,-41.2619,0.0],[174.8679,-41.26,19.3424],[174.8678,-41.2561,4.2495],[174.8653,-41.2526,0.0],[174.8621,-41.2585,0.0],[174.8623,-41.2593,0.0]]],
[[[174.8647,-41.2519,0.0],[174.8654,-41.251,0.0],[174.865,-41.2507,0.0],[174.8644,-41.2512,0.0],[174.8647,-41.2519,0.0]]]]}
,"properties": {"GID_2": "NZL.18.3_1","GID_0": "NZL","country": "NewZealand","GID_1": "NZL.18_1","province": "Wellington","NL_NAME_1": "NA","county": "LowerHutt","VARNAME_2": "NA","NL_NAME_2": "NA","TYPE_2": "City","ENGTYPE_2": "City","CC_2": "046","HASC_2": "NZ.WG.LH","name": "Lower_Hutt.county","area_km2": 375.9837,"hist_schema_id": "Elevation0-9000","hist_area_km2": {"0": 25.7382,"25": 22.0063,"50": 15.5787,"75": 17.2997,"100": 22.9446,"125": 20.7619,"150": 21.1626,"175": 21.3869,"200": 21.0843,"225": 19.124,"250": 16.5412,"275": 16.3492,"300": 14.9793,"325": 14.4057,"350": 12.4928,"375": 10.0532,"400": 9.0319,"425": 8.157,"450": 7.9968,"475": 7.4238,"500": 7.1053,"525": 6.4683,"550": 6.2444,"575": 6.117,"600": 4.6511,"625": 4.4123,"650": 3.8544,"675": 2.6915,"700": 2.7233,"725": 2.3728,"750": 1.7677,"775": 1.3696,"800": 0.8918,"825": 0.4458,"850": 0.1752,"875": 0.1433,"900": 0.0318}}}