{"type":"Feature","properties":{"GID_2":"NZL.12.2_1","GID_0":"NZL","country":"NewZealand","GID_1":"NZL.12_1","province":"Otago","NL_NAME_1":"NA","county":"Clutha","VARNAME_2":"NA","NL_NAME_2":"NA","TYPE_2":"District","ENGTYPE_2":"District","CC_2":"072","HASC_2":"NZ.OT.CL","name":"Clutha.county"},
"geometry":{"type": "MultiPolygon","coordinates": [[[[169.720195,-46.48589,0.9005],[169.72024090909093,-46.4859,0.9005],[169.7203,-46.4859,0.9005],[169.7204,-46.4859,0.9005],[169.7201,-46.4857,0.9005],[169.720195,-46.48589,0.9005]]],
[[[169.72024090909093,-46.4859,0.9005],[169.7202,-46.4859,0.9005],[169.720195,-46.48589,0.9005],[169.7106,-46.4838,0.9251],[169.7074,-46.4793,0.0],[169.7073,-46.4768,0.0],[169.7058,-46.4775,0.0],[169.7068,-46.479,0.0],[169.7049,-46.4791,0.3793],[169.7044,-46.4783,0.3793],[169.7058,-46.4745,0.0],[169.7054,-46.4735,0.0],[169.7035,-46.4737,0.0],[169.7054,-46.4743,0.0],[169.704,-46.4774,0.0],[169.6986,-46.4793,0.0],[169.696,-46.4815,0.0],[169.6968,-46.4836,0.0],[169.6953,-46.4845,0.0],[169.683,-46.4849,1.3829],[169.678,-46.4789,1.0166],[169.6747,-46.4774,2.2739],[169.6776,-46.4776,1.0576],[169.6773,-46.4749,1.6023],[169.6635,-46.4713,1.5713],[169.6568,-46.4763,2.3055],[169.6295,-46.4902,3.4785],[169.6224,-46.4892,0.3287],[169.6143,-46.4812,1.0204],[169.6154,-46.4797,0.3083],[169.6274,-46.4758,8.5437],[169.6339,-46.4764,0.0],[169.6385,-46.4688,4.8115],[169.6496,-46.4705,9.8519],[169.6542,-46.4668,6.0602],[169.6575,-46.4674,11.2099],[169.6575,-46.47,0.0],[169.664,-46.4692,32.8574],[169.6802,-46.4717,0.0],[169.6837,-46.477,0.0],[169.6875,-46.479,0.1185],[169.6907,-46.4776,11.7728],[169.6919,-46.479,0.0],[169.6934,-46.4764,0.0],[169.7009,-46.473,0.0],[169.7072,-46.4725,0.0],[169.7174,-46.4739,2.9111],[169.7177,-46.4786,0.6383],[169.7194,-46.4792,0.6383],[169.7408,-46.4758,7.1569],[169.7478,-46.4763,0.0],[169.7502,-46.4781,0.0],[169.7489,-46.4818,0.0],[169.7534,-46.4832,0.0],[169.7506,-46.4803,8.3803],[169.7548,-46.4811,1.3917],[169.7537,-46.4788,32.2873],[169.7581,-46.4803,2.2947],[169.7561,-46.4788,29.9458],[169.7575,-46.4774,72.2047],[169.7596,-46.478,0.0],[169.7577,-46.4766,72.2047],[169.76,-46.4771,0.0],[169.7524,-46.474,5.1202],[169.7539,-46.4699,3.426],[169.7585,-46.466,4.6067],[169.7603,-46.4678,27.5279],[169.7635,-46.467,44.8907],[169.7711,-46.469,5.1527],[169.7724,-46.4675,123.262],[169.7769,-46.4692,4.6902],[169.7748,-46.465,37.7254],[169.7771,-46.4664,20.5535],[169.7762,-46.465,14.4094],[169.7817,-46.4651,1.3945],[169.7823,-46.4629,6.173],[169.7803,-46.46,11.5773],[169.782,-46.4597,2.0507],[169.7789,-46.4556,21.9079],[169.7811,-46.4525,22.0528],[169.7826,-46.454,4.1155],[169.7864,-46.4527,45.4293],[169.7898,-46.4536,0.9353],[169.7931,-46.4519,11.4404],[169.7927,-46.4505,75.9425],[169.7974,-46.4521,2.0931],[169.7971,-46.4496,42.7254],[169.8012,-46.4458,45.401],[169.8037,-46.4463,0.0],[169.8049,-46.4486,1.1082],[169.811,-46.4495,24.8738],[169.8153,-46.4483,40.7136],[169.8191,-46.4497,0.2906],[169.8166,-46.4473,5.8112],[169.7989,-46.4406,8.2984],[169.7972,-46.4366,10.5627],[169.7942,-46.4347,2.6613],[169.7935,-46.4277,25.8993],[169.7956,-46.4243,0.8446],[169.7941,-46.4232,0.8446],[169.7951,-46.4187,2.8429],[169.7999,-46.4122,0.1095],[169.7916,-46.4075,0.0],[169.7908,-46.4032,11.5555],[169.7857,-46.4025,0.0],[169.7803,-46.3976,2.7149],[169.7815,-46.3884,1.2254],[169.786,-46.3843,0.0],[169.7828,-46.3827,7.9733],[169.7847,-46.376,9.0099],[169.7833,-46.3736,10.765],[169.7981,-46.3547,0.0],[169.8086,-46.349,0.0],[169.8177,-46.3415,0.0],[169.8407,-46.3292,0.0],[169.8772,-46.3169,18.1709],[169.8911,-46.3151,1.208],[169.8973,-46.3094,23.501],[169.9086,-46.3057,20.9338],[169.9143,-46.301,22.112],[169.9239,-46.2984,3.0434],[169.9238,-46.295,11.8836],[169.9269,-46.2905,6.3168],[169.9337,-46.2848,0.0],[169.956,-46.2751,4.6943],[169.9729,-46.2719,0.0],[169.9839,-46.2597,3.8103],[169.9991,-46.2517,5.0477],[170.0031,-46.2432,0.6614],[170.0096,-46.238,0.8376],[170.0401,-46.2252,3.1532],[170.0536,-46.2151,0.0],[170.0776,-46.2027,7.6938],[170.0983,-46.194,8.682],[170.1115,-46.1911,8.1246],[170.1265,-46.1838,7.2216],[170.1281,-46.1804,5.5562],[170.1306,-46.1802,2.8678],[170.1318,-46.1782,0.2786],[170.1307,-46.1775,13.4914],[170.1346,-46.1774,9.4854],[170.1411,-46.1723,5.8579],[170.1404,-46.1713,5.8579],[170.1473,-46.1676,7.2736],[170.1503,-46.1631,3.6905],[170.1527,-46.1628,6.371],[170.1556,-46.1576,13.5663],[170.1589,-46.1586,1.2936],[170.1646,-46.1549,3.0327],[170.1685,-46.1546,0.9711],[170.1738,-46.1498,0.664],[170.175,-46.1465,0.3946],[170.1785,-46.1451,0.8508],[170.1792,-46.1403,5.2065],[170.1832,-46.1375,2.6576],[170.1853,-46.1302,4.6044],[170.1824,-46.1268,8.9939],[170.1821,-46.1237,8.4555],[170.1835,-46.1231,1.6932],[170.1824,-46.1221,9.5371],[170.1853,-46.121,2.0287],[170.183,-46.1194,14.8791],[170.1927,-46.1118,5.4774],[170.1932,-46.1088,5.9293],[170.1954,-46.1076,5.9941],[170.1978,-46.1016,0.1479],[170.1972,-46.0963,1.5738],[170.2003,-46.0919,3.9944],[170.1972,-46.0862,0.0],[170.2001,-46.0827,2.2612],[170.1994,-46.0797,1.2042],[170.2012,-46.073,0.0906],[170.198,-46.0695,2.2854],[170.1969,-46.0626,2.9537],[170.1994,-46.0556,0.0],[170.194,-46.0546,6.484],[170.1922,-46.0528,0.7177],[170.1986,-46.0511,18.4718],[170.2035,-46.0519,2.3473],[170.1707,-46.0118,0.0],[170.1679,-46.0044,1.8479],[170.1594,-45.9962,5.807],[170.1498,-45.9917,0.7286],[170.141,-45.9926,0.2094],[170.1361,-45.9947,3.8878],[170.1266,-45.993899999999996,0.1497],[170.1189,-45.9902,0.7831],[170.1125,-45.9848,0.5315],[170.1074,-45.9859,0.6018],[170.107,-45.9818,0.8069],[170.1033,-45.9778,0.6667],[170.1063,-45.9764,0.7876],[170.1082,-45.9769,0.835],[170.1068,-45.9779,0.835],[170.1083,-45.9785,0.9483],[170.1172,-45.9775,1.0575],[170.1223,-45.9752,0.5619],[170.1243,-45.9718,1.1231],[170.1294,-45.9691,0.108],[170.1263,-45.9632,2.3935],[170.1273,-45.9602,-0.0704],[170.1234,-45.9539,1.2452],[170.1145,-45.9503,0.943],[170.1064,-45.952,1.3495],[170.1034,-45.9496,2.1914],[170.1,-45.9513,1.8321],[170.0994,-45.9496,1.9433],[170.1008,-45.9495,2.366],[170.1021,-45.9454,3.3746],[170.1002,-45.9456,5.9797],[170.099,-45.944,3.5839],[170.0972,-45.9449,6.5884],[170.0913,-45.9414,6.4118],[170.0942,-45.942,4.1851],[170.0963,-45.9394,4.8776],[170.0946,-45.938,4.824],[170.0963,-45.9368,5.3667],[170.0938,-45.9368,5.5477],[170.0919,-45.9336,6.2656],[170.0947,-45.9317,6.2757],[170.0862,-45.9305,6.9159],[170.0838,-45.9265,8.3392],[170.0746,-45.927,24.9523],[170.0701,-45.9298,60.8897],[170.0669,-45.9292,40.6872],[170.0662,-45.9306,37.6881],[170.0551,-45.9278,50.7171],[170.0475,-45.9313,71.0612],[170.0427,-45.9288,52.1774],[170.0393,-45.9295,60.1583],[170.0399,-45.9276,54.0013],[170.0297,-45.9277,49.1416],[170.0306,-45.9256,48.7059],[170.0228,-45.9268,56.004],[170.0207,-45.924,60.4143],[170.024,-45.9224,57.2847],[170.0229,-45.9185,96.5712],[170.0213,-45.919,78.9809],[170.0218,-45.8545,434.3805],[170.0503,-45.8546,595.5482],[170.0506,-45.7788,326.5731],[170.0459,-45.7812,338.3873],[170.0417,-45.7796,331.2995],[170.0423,-45.7784,338.2899],[170.0377,-45.7783,331.7333],[170.0354,-45.776,342.4822],[170.0302,-45.7771,334.2655],[170.0222,-45.7745,365.1655],[170.0214,-45.7729,361.643],[170.0152,-45.7721,340.5217],[170.0142,-45.77,350.7723],[170.0108,-45.7707,343.9349],[170.0069,-45.7668,342.3968],[170.0076,-45.7636,364.8567],[170.0058,-45.7628,381.3019],[170.0061,-45.7601,389.8353],[170.0022,-45.7592,404.8651],[169.9968,-45.7539,427.3846],[169.9979,-45.7528,453.0056],[169.9951,-45.7533,459.3891],[169.994,-45.751,450.1069],[169.976,-45.7557,463.8799],[169.9759,-45.754,464.6093],[169.9732,-45.7542,460.855],[169.9735,-45.7529,478.3252],[169.968,-45.7496,495.7443],[169.9684,-45.7475,488.5604],[169.9645,-45.7483,482.5181],[169.9624,-45.743899999999996,498.7737],[169.9579,-45.744,494.4355],[169.9567,-45.7381,483.6903],[169.9523,-45.7356,499.4944],[169.9525,-45.7328,504.3423],[169.9497,-45.7315,523.3748],[169.9515,-45.7283,521.5538],[169.9483,-45.7278,523.718],[169.9496,-45.7239,537.5452],[169.9459,-45.7207,558.6744],[169.9407,-45.7176,653.3809],[169.9331,-45.716,675.0491],[169.9241,-45.7171,701.4788],[169.9193,-45.7144,716.9763],[169.9146,-45.7178,721.8463],[169.9104,-45.7255,699.9324],[169.9035,-45.7311,731.4848],[169.907,-45.7353,718.8666],[169.9044,-45.7462,714.9932],[169.8976,-45.7496,704.319],[169.8908,-45.7581,705.4473],[169.8838,-45.759,712.2305],[169.8791,-45.763,728.4246],[169.875,-45.7622,741.8996],[169.8719,-45.7592,741.6588],[169.8707,-45.7564,740.3458],[169.8716,-45.7544,728.2816],[169.8568,-45.7533,713.5816],[169.8388,-45.7619,906.9185],[169.8271,-45.7632,916.8789],[169.8244,-45.768,932.9607],[169.8198,-45.7709,930.3516],[169.8181,-45.7755,917.0624],[169.7966,-45.7781,947.8658],[169.7847,-45.7704,901.4264],[169.7757,-45.7689,910.5311],[169.7586,-45.7611,973.1724],[169.761,-45.7576,1007.6039],[169.7603,-45.7412,1077.6759],[169.7534,-45.7352,1073.0767],[169.744,-45.7334,1116.6821],[169.7394,-45.7198,1154.8853],[169.7322,-45.721,1140.0251],[169.7309,-45.7182,1130.666],[169.7179,-45.7148,1129.9646],[169.7146,-45.7083,1130.2157],[169.6944,-45.7108,1107.5983],[169.6925,-45.7067,1100.6628],[169.688,-45.7084,1085.8164],[169.6831,-45.7073,1088.5291],[169.6741,-45.6975,1067.5221],[169.6754,-45.6927,1082.9659],[169.6669,-45.6993,1047.9352],[169.6639,-45.7051,957.8311],[169.666,-45.7127,889.0569],[169.6632,-45.7186,851.7248],[169.6641,-45.7203,873.3064],[169.6617,-45.725,836.5831],[169.662,-45.7295,819.1764],[169.6598,-45.7348,755.3479],[169.6565,-45.7368,738.4863],[169.6562,-45.7394,744.5282],[169.6526,-45.7426,716.731],[169.6537,-45.7455,705.8245],[169.6503,-45.7468,684.8057],[169.6514,-45.7486,677.3353],[169.649,-45.749,682.8302],[169.651,-45.7503,673.5196],[169.6479,-45.7563,664.4376],[169.6487,-45.7572,664.4376],[169.6468,-45.7583,650.0952],[169.6485,-45.7587,659.6857],[169.6465,-45.7659,623.2456],[169.6427,-45.7694,582.7143],[169.6343,-45.7694,551.877],[169.6331,-45.7709,523.5003],[169.6258,-45.772,476.4804],[169.6216,-45.7686,444.847],[169.62,-45.7709,437.3472],[169.6208,-45.7722,454.3951],[169.6131,-45.77,417.327],[169.6093,-45.7737,399.4377],[169.6031,-45.7744,384.0299],[169.5996,-45.7771,331.8309],[169.595,-45.7753,322.9014],[169.5939,-45.7784,315.7898],[169.5867,-45.781,295.1637],[169.59,-45.7838,298.2844],[169.5874,-45.7843,298.5905],[169.5865,-45.7893,284.1128],[169.5812,-45.7943,315.7952],[169.5779,-45.7953,292.1722],[169.5777,-45.7968,320.2861],[169.5748,-45.7968,327.5186],[169.5767,-45.7984,304.2157],[169.5734,-45.8001,259.8459],[169.5627,-45.8033,169.1669],[169.5577,-45.803,136.342],[169.5574,-45.8052,153.6768],[169.5497,-45.8058,135.3803],[169.5475,-45.8087,123.5985],[169.5345,-45.8093,111.7914],[169.5315,-45.8123,92.8149],[169.5245,-45.8131,40.0],[169.5026,-45.7969,43.3438],[169.4843,-45.7968,200.5027],[169.4801,-45.7931,172.8877],[169.4801,-45.7901,143.582],[169.4773,-45.7874,131.2169],[169.4678,-45.7858,127.2437],[169.4516,-45.7907,153.7696],[169.4474,-45.7903,161.483],[169.4476,-45.7747,302.2745],[169.4424,-45.7748,348.0483],[169.4382,-45.773,490.94],[169.4355,-45.7667,471.5056],[169.4351,-45.7605,588.5609],[169.437,-45.7576,583.8211],[169.4179,-45.737,641.5775],[169.4119,-45.7413,570.3732],[169.4001,-45.7443,414.7191],[169.3945,-45.7417,397.5551],[169.4002,-45.7342,578.1385],[169.4019,-45.7255,515.6576],[169.3989,-45.723,518.1437],[169.4021,-45.7196,475.3656],[169.4046,-45.713,463.5191],[169.4,-45.701,301.7638],[169.4005,-45.6979,211.7052],[169.4034,-45.6954,251.0503],[169.402,-45.6901,295.3453],[169.403,-45.6866,346.9569],[169.3793,-45.6915,376.3887],[169.374,-45.6898,348.0349],[169.3678,-45.6909,308.824],[169.3549,-45.6873,169.323],[169.3491,-45.6895,179.4051],[169.3261,-45.6911,277.2014],[169.2901,-45.6882,488.2448],[169.2885,-45.6901,498.7749],[169.2879,-45.701,487.9178],[169.2789,-45.7026,462.9086],[169.2744,-45.6995,466.8486],[169.273,-45.6932,429.9131],[169.2695,-45.6905,347.5407],[169.2659,-45.6899,430.8192],[169.248,-45.695,585.8152],[169.2403,-45.6951,629.9997],[169.2356,-45.6925,676.9852],[169.2285,-45.6833,681.5524],[169.2235,-45.6795,621.3971],[169.2221,-45.6726,573.1846],[169.2115,-45.6715,596.1104],[169.1964,-45.661,540.1008],[169.1777,-45.6567,348.1119],[169.1757,-45.6528,349.894],[169.1769,-45.6475,359.1556],[169.1731,-45.6428,359.839],[169.1757,-45.6408,357.9031],[169.1773,-45.6349,361.4844],[169.1751,-45.6306,367.9082],[169.1814,-45.6261,403.8383],[169.1767,-45.621,379.405],[169.181,-45.6163,470.4597],[169.1791,-45.6136,419.2347],[169.1794,-45.6109,468.5842],[169.1825,-45.6096,458.6066],[169.1832,-45.6075,461.3931],[169.1778,-45.6026,460.8034],[169.1741,-45.5906,504.1846],[169.1776,-45.5888,503.7079],[169.1843,-45.5814,503.1137],[169.1951,-45.5787,549.8683],[169.1979,-45.5743,574.2155],[169.1958,-45.5726,572.4424],[169.198,-45.5686,605.7687],[169.1964,-45.567,598.4825],[169.1884,-45.5655,640.8884],[169.1812,-45.5574,732.579],[169.1738,-45.555,691.1198],[169.1729,-45.5512,762.6149],[169.1673,-45.5498,704.7501],[169.1697,-45.5465,711.7767],[169.173,-45.5453,749.9532],[169.1735,-45.5432,735.8048],[169.1717,-45.5416,747.5946],[169.174,-45.5402,729.3337],[169.1694,-45.5372,733.0361],[169.171,-45.5357,735.9546],[169.1685,-45.5344,741.8884],[169.1714,-45.533,741.7636],[169.1693,-45.5318,747.6695],[169.1724,-45.5307,802.6765],[169.1712,-45.529,744.2822],[169.1727,-45.5281,807.4818],[169.1727,-45.5251,768.286],[169.1803,-45.5199,768.1212],[169.1823,-45.5132,769.4394],[169.1844,-45.5117,760.788],[169.1798,-45.5099,819.2006],[169.1768,-45.5057,808.0781],[169.1766,-45.5031,800.9369],[169.1787,-45.5027,810.3455],[169.1782,-45.4996,834.9917],[169.1801,-45.4978,823.0493],[169.1736,-45.4934,836.4161],[169.1737,-45.4916,836.0427],[169.1698,-45.4909,877.6003],[169.1683,-45.4871,884.4728],[169.1644,-45.4854,887.3507],[169.1634,-45.4765,912.2786],[169.1535,-45.469,998.2807],[169.1557,-45.4641,1021.4723],[169.1681,-45.4586,1059.8943],[169.171,-45.4557,1112.7538],[169.1731,-45.4525,1170.157],[169.1732,-45.4453,1222.0245],[169.1722,-45.4401,1348.7036],[169.1604,-45.4396,1352.2301],[169.1472,-45.4506,1253.8606],[169.1461,-45.4556,1232.476],[169.1402,-45.4643,1164.8181],[169.1419,-45.4711,1197.6062],[169.1365,-45.4834,1164.5754],[169.129,-45.5208,1021.4966],[169.1303,-45.5247,1046.8921],[169.1231,-45.5297,1057.1904],[169.1119,-45.5418,1184.4132],[169.099,-45.5807,1380.7903],[169.0935,-45.5869,1408.6711],[169.0808,-45.5956,1393.3635],[169.0777,-45.6014,1376.5151],[169.0736,-45.6044,1322.7991],[169.0655,-45.6221,1285.4629],[169.0658,-45.6275,1212.2972],[169.0635,-45.6296,1250.5696],[169.0587,-45.6411,1187.6075],[169.044,-45.6525,1157.3945],[169.0353,-45.6526,1067.4207],[169.0247,-45.6596,1000.0057],[169.0249,-45.6637,1033.2784],[169.0219,-45.6674,1091.5149],[169.0187,-45.6776,1127.2894],[169.0201,-45.681,1121.8093],[169.018,-45.6883,1086.1691],[169.0188,-45.6898,1068.592],[169.0054,-45.6984,919.1024],[169.0076,-45.711,967.2315],[169.0037,-45.7182,1065.9558],[169.0031,-45.7271,974.3352],[169.0001,-45.726,943.1401],[168.9934,-45.7285,991.2549],[168.9945,-45.7372,967.11],[169.0019,-45.7387,1071.6598],[169.0045,-45.7496,1069.6261],[169.0035,-45.7958,388.6144],[169.0135,-45.8036,338.4838],[169.024,-45.8052,301.882],[169.0289,-45.8089,283.4366],[169.0254,-45.8219,606.9692],[169.0198,-45.8248,642.2549],[169.0178,-45.8299,651.3665],[169.012,-45.8341,621.4807],[169.0088,-45.8443,563.3881],[169.0055,-45.8479,596.0731],[169.0052,-45.8635,542.4889],[169.0504,-45.864,245.9367],[169.0497,-45.8585,254.0482],[169.0566,-45.8501,287.7047],[169.0805,-45.8582,483.8943],[169.0732,-45.865,431.8925],[169.0745,-45.8711,410.1269],[169.0822,-45.873,357.9109],[169.0915,-45.8826,299.9299],[169.0965,-45.8826,265.7965],[169.0991,-45.8844,273.0596],[169.0935,-45.892,251.1366],[169.0914,-45.8913,227.7656],[169.0894,-45.8955,204.8526],[169.0888,-45.9,185.9175],[169.0849,-45.9059,169.674],[169.0847,-45.9167,213.3213],[169.0765,-45.9196,221.7022],[169.0752,-45.9216,214.6983],[169.0769,-45.9226,227.5427],[169.0734,-45.9247,228.8122],[169.0822,-45.9295,206.6476],[169.0846,-45.9338,193.4053],[169.0904,-45.9376,179.0639],[169.0972,-45.9386,174.6642],[169.0997,-45.948,169.8455],[169.0944,-45.9595,159.5838],[169.0881,-45.9639,162.7545],[169.0811,-45.9653,175.2079],[169.0748,-45.9703,174.9336],[169.0751,-45.9729,177.1054],[169.0706,-45.9754,184.7475],[169.0713,-45.9765,188.7077],[169.0672,-45.9804,185.1343],[169.0664,-45.983,194.7682],[169.0681,-45.9836,203.2658],[169.0666,-45.9853,193.0708],[169.0714,-45.9885,199.4045],[169.0708,-45.997,192.7019],[169.0725,-45.9977,200.8488],[169.0727,-46.0016,210.3621],[169.0887,-46.0012,170.3497],[169.1082,-45.9951,150.8899],[169.1172,-46.0003,142.6808],[169.1264,-46.0018,133.7652],[169.1278,-46.0031,134.3245],[169.0797,-46.0027,205.4268],[169.0813,-46.0043,201.4356],[169.0798,-46.0052,204.0226],[169.0797,-46.0083,187.4652],[169.083,-46.0114,201.2718],[169.0818,-46.0144,194.0338],[169.0888,-46.0178,196.3811],[169.0882,-46.0216,189.923],[169.0896,-46.0242,178.674],[169.0983,-46.0291,192.6639],[169.1001,-46.0334,176.3703],[169.1026,-46.0336,182.6793],[169.1035,-46.036,184.0175],[169.1098,-46.0375,195.2049],[169.119,-46.037,184.4603],[169.1285,-46.0417,165.6828],[169.1362,-46.0481,224.0418],[169.1533,-46.0487,269.3171],[169.158,-46.0622,329.1165],[169.1579,-46.0684,344.5895],[169.1531,-46.0735,309.0271],[169.138,-46.0781,275.077],[169.1356,-46.0854,251.6409],[169.1484,-46.0855,207.9972],[169.1483,-46.0923,197.147],[169.1581,-46.0924,178.9381],[169.1633,-46.0958,169.5764],[169.1579,-46.1067,142.1548],[169.1622,-46.1119,133.6698],[169.1601,-46.1161,125.847],[169.1632,-46.1171,127.8907],[169.1559,-46.1222,157.7891],[169.1553,-46.1242,187.6483],[169.1485,-46.1242,224.0303],[169.1376,-46.1273,216.3022],[169.1376,-46.1304,250.3074],[169.1334,-46.1315,254.5137],[169.1327,-46.1337,247.5483],[169.1348,-46.1368,237.3072],[169.1289,-46.1386,235.1107],[169.1301,-46.1401,230.3999],[169.1298,-46.1477,147.8197],[169.1316,-46.1476,148.3376],[169.1334,-46.1511,143.9876],[169.1436,-46.1499,144.9491],[169.1511,-46.1546,171.2112],[169.1609,-46.1521,155.0368],[169.1622,-46.1576,162.8803],[169.1693,-46.161,151.7627],[169.1596,-46.1756,152.9453],[169.1621,-46.1812,156.4651],[169.1704,-46.1828,159.8954],[169.1669,-46.1918,158.0299],[169.1698,-46.1925,159.5349],[169.1715,-46.1905,164.6117],[169.174,-46.1906,160.2336],[169.1751,-46.1885,160.2156],[169.1858,-46.1893,164.2611],[169.1873,-46.1903,164.1015],[169.1838,-46.1924,166.1096],[169.1819,-46.1957,164.7405],[169.1896,-46.1956,166.649],[169.1983,-46.2004,168.3408],[169.1981,-46.2126,174.4657],[169.1863,-46.2233,225.1596],[169.1863,-46.2305,234.91309999999999],[169.1962,-46.2376,215.8835],[169.1918,-46.2472,235.666],[169.1857,-46.2548,307.3644],[169.1883,-46.2588,332.5656],[169.1886,-46.2618,282.1465],[169.1859,-46.2665,292.3685],[169.1892,-46.266,274.9339],[169.189,-46.2799,422.4928],[169.1768,-46.2857,530.6704],[169.1839,-46.2914,469.7347],[169.185,-46.2991,564.8247],[169.1894,-46.3013,588.6456],[169.1886,-46.3024,634.8403],[169.1969,-46.3043,399.0864],[169.1884,-46.3135,304.1647],[169.1774,-46.3219,317.8254],[169.1908,-46.3264,185.9555],[169.1736,-46.3359,197.1452],[169.1613,-46.3449,182.9472],[169.1603,-46.3479,171.2912],[169.1556,-46.3482,174.3524],[169.1424,-46.3535,170.2324],[169.1466,-46.356,147.8807],[169.1463,-46.3591,133.0294],[169.1374,-46.3662,125.5728],[169.1362,-46.3741,273.0034],[169.1341,-46.3754,312.632],[169.1442,-46.3824,364.3744],[169.1611,-46.3818,256.7331],[169.175,-46.3864,364.6404],[169.1787,-46.3884,376.6653],[169.1778,-46.3918,379.2059],[169.1868,-46.3956,366.5151],[169.1889,-46.399,476.9018],[169.1913,-46.3993,492.5197],[169.1959,-46.4042,530.6329],[169.194,-46.4084,503.1206],[169.1995,-46.4164,387.4493],[169.1993,-46.4199,394.31],[169.1882,-46.4276,608.113],[169.1908,-46.4341,645.4475],[169.1968,-46.4388,706.9724],[169.1859,-46.4431,662.5754],[169.1832,-46.4488,395.5346],[169.1799,-46.4515,462.1622],[169.1648,-46.4559,315.0125],[169.1631,-46.4589,282.4024],[169.1639,-46.4625,316.3793],[169.1615,-46.465,286.5089],[169.1619,-46.4678,275.7101],[169.1659,-46.4724,327.0178],[169.178,-46.4776,292.9237],[169.1786,-46.4808,295.3008],[169.173,-46.4861,318.2109],[169.1777,-46.4898,332.0858],[169.2025,-46.4949,443.7983],[169.2054,-46.4993,472.7097],[169.2148,-46.5023,473.7498],[169.2348,-46.5123,485.9127],[169.247,-46.5101,452.0997],[169.2507,-46.5147,437.6699],[169.2457,-46.5215,377.3259],[169.2448,-46.5296,263.7037],[169.2363,-46.5361,309.6893],[169.2253,-46.5501,277.9922],[169.2162,-46.5542,271.6721],[169.1937,-46.5551,328.3358],[169.1905,-46.5569,339.3837],[169.1961,-46.5605,377.5734],[169.2009,-46.5607,364.0387],[169.2303,-46.573,324.2001],[169.2345,-46.5731,353.8779],[169.2379,-46.5752,317.3778],[169.2451,-46.5752,227.7302],[169.2511,-46.581,204.9616],[169.2542,-46.5806,207.4458],[169.2649,-46.5859,170.3046],[169.2643,-46.594,83.3576],[169.2665,-46.5936,68.886],[169.2672,-46.5959,94.2795],[169.2616,-46.5986,103.1828],[169.2741,-46.6113,263.4099],[169.2653,-46.6155,44.0104],[169.2666,-46.6165,43.769],[169.2756,-46.6217,63.2137],[169.3047,-46.6247,22.973],[169.3056,-46.6262,22.973],[169.3042,-46.6269,1.6897],[169.3066,-46.6286,14.1578],[169.3045,-46.6293,0.0],[169.3123,-46.6319,11.3572],[169.3109,-46.6342,0.7891],[169.3134,-46.6342,1.9876],[169.3126,-46.632,11.3572],[169.3151,-46.6304,2.5804],[169.3156,-46.6281,0.0],[169.3212,-46.6273,30.1159],[169.3309,-46.6344,0.0],[169.3342,-46.6322,15.5075],[169.3396,-46.632,69.3383],[169.3426,-46.6367,0.0],[169.3461,-46.6345,77.146],[169.3534,-46.6381,5.7266],[169.3569,-46.636,85.8122],[169.36,-46.6374,45.6609],[169.3653,-46.6314,12.5847],[169.3555,-46.6216,8.0788],[169.356,-46.6199,0.0],[169.3634,-46.6139,19.1951],[169.3793,-46.607,21.3076],[169.383,-46.6087,16.5574],[169.3914,-46.6076,38.3761],[169.3968,-46.6092,29.9669],[169.3989,-46.6135,0.0],[169.4027,-46.6107,46.4865],[169.4048,-46.6124,9.7227],[169.4104,-46.6076,68.4413],[169.4123,-46.6088,15.6732],[169.4167,-46.6029,80.5487],[169.4204,-46.6028,28.3593],[169.4222,-46.6047,1.8181],[169.426,-46.6048,12.713],[169.4249,-46.6062,2.9553],[169.4258,-46.607,4.1131],[169.4275,-46.6059,12.7058],[169.4284,-46.6075,12.2285],[169.4326,-46.6067,7.6916],[169.4356,-46.6079,13.3002],[169.4347,-46.6146,0.0],[169.4381,-46.6128,3.8965],[169.4395,-46.6113,3.8965],[169.4389,-46.6085,16.1525],[169.4419,-46.6052,7.3697],[169.4474,-46.6059,0.767],[169.4407,-46.6003,8.8853],[169.4309,-46.6001,0.0],[169.43,-46.5978,1.0019],[169.4333,-46.5914,4.2787],[169.4416,-46.5831,0.0],[169.4563,-46.5775,3.6137],[169.4548,-46.5765,0.0],[169.4638,-46.578,8.5623],[169.4641,-46.5807,10.8371],[169.4677,-46.5807,24.5545],[169.4717,-46.5732,2.3904],[169.4763,-46.5716,6.8728],[169.4753,-46.5706,22.7958],[169.4772,-46.5706,3.8209],[169.4793,-46.5678,0.0],[169.4769,-46.5657,3.0394],[169.477,-46.5611,2.6133],[169.5073,-46.5565,0.0],[169.5305,-46.5583,54.2608],[169.5362,-46.5599,33.9496],[169.5357,-46.5618,13.3678],[169.5399,-46.5627,36.6953],[169.5407,-46.5648,5.3211],[169.544,-46.5646,0.0],[169.5444,-46.5629,6.4567],[169.546,-46.5632,0.0],[169.5444,-46.5619,6.4567],[169.548,-46.5607,0.6797],[169.5619,-46.5611,5.5212],[169.563,-46.5615,0.0],[169.562,-46.5643,2.1574],[169.5646,-46.5643,19.552],[169.5657,-46.562,3.3381],[169.5696,-46.5636,24.2364],[169.5692,-46.5655,6.9137],[169.5734,-46.5635,24.9219],[169.5753,-46.5646,0.0],[169.5799,-46.5697,9.8908],[169.5779,-46.5756,16.3795],[169.5803,-46.5757,27.2041],[169.5836,-46.5786,0.0],[169.5839,-46.5773,2.9488],[169.5867,-46.5775,0.0],[169.5848,-46.5758,32.3896],[169.5888,-46.5734,0.3769],[169.5863,-46.5708,11.5146],[169.5878,-46.5709,11.5146],[169.5865,-46.5677,13.5444],[169.5876,-46.5657,37.6433],[169.5951,-46.5668,0.0],[169.5947,-46.5646,18.2339],[169.5977,-46.5648,0.0],[169.5977,-46.5629,107.1067],[169.6007,-46.5603,22.8143],[169.6026,-46.5609,1.6373],[169.6028,-46.5589,73.2018],[169.612,-46.558,3.5348],[169.6098,-46.5545,45.5226],[169.6126,-46.553,0.0],[169.6122,-46.5505,19.2092],[169.6183,-46.5481,3.1674],[169.6147,-46.5442,0.0],[169.617,-46.5402,18.8683],[169.6286,-46.5379,102.5081],[169.6524,-46.539,7.3687],[169.6609,-46.5338,4.3397],[169.657,-46.5318,19.2554],[169.6599,-46.5283,13.0321],[169.6646,-46.5265,69.3242],[169.6665,-46.5283,0.0],[169.6682,-46.5271,36.7921],[169.6699,-46.5279,36.7921],[169.6699,-46.5266,36.7921],[169.674,-46.5276,5.3973],[169.673,-46.5261,118.9218],[169.6767,-46.5244,113.6408],[169.6757,-46.5228,155.6804],[169.6796,-46.5249,13.2648],[169.6833,-46.5241,56.6412],[169.6827,-46.5254,8.6079],[169.6936,-46.5206,49.1056],[169.6979,-46.5203,0.0],[169.699,-46.519,0.0],[169.6939,-46.5158,6.495],[169.6933,-46.5142,8.9623],[169.6951,-46.5129,0.0],[169.693,-46.5121,12.0142],[169.6942,-46.5113,12.0142],[169.6928,-46.51,47.2742],[169.6956,-46.5093,7.335],[169.6958,-46.5075,19.3604],[169.699,-46.5083,0.0],[169.7029,-46.5064,14.3666],[169.7031,-46.5073,14.3666],[169.7053,-46.5046,9.9956],[169.7089,-46.5062,39.3152],[169.7113,-46.5013,21.2252],[169.7092,-46.4993,2.1024],[169.709,-46.493899999999996,9.5607],[169.7134,-46.4917,4.2463],[169.722,-46.4916,0.0],[169.7229,-46.4903,11.8714],[169.7207,-46.486,0.9005],[169.72024090909093,-46.4859,0.9005]]],
[[[169.6836,-46.4835,0.1339],[169.6853,-46.4825,0.0],[169.6821,-46.482,0.0],[169.682,-46.4823,0.0],[169.6836,-46.4835,0.1339]]],
[[[170.2188,-46.0557,0.6933],[170.2164,-46.0577,7.1078],[170.2165,-46.0601,0.1946],[170.2188,-46.0581,0.8099],[170.2188,-46.0557,0.6933]]]]}}