{"type": "Feature","bbox": [176.0938,-40.4313,178.0011,-38.5839],"geometry": {"type": "MultiPolygon","coordinates": [[[[176.6074,-40.4255,173.8515],[176.6226,-40.428,23.9028],[176.6263,-40.4201,5.0782],[176.6355,-40.4078,21.6026],[176.6353,-40.4044,5.5673],[176.6326,-40.4021,6.0948],[176.6356,-40.3968,3.6254],[176.6367,-40.3872,2.4388],[176.6499,-40.3667,20.0911],[176.6496,-40.36,45.01],[176.6531,-40.3514,0.0],[176.6729,-40.3221,0.0],[176.6668,-40.3152,5.6956],[176.6669,-40.3011,3.2234],[176.6721,-40.2904,0.0],[176.686,-40.2703,0.0],[176.6856,-40.2689,0.0],[176.6782,-40.2656,1.5937],[176.687,-40.2564,1.6159],[176.6964,-40.25,0.8342],[176.7017,-40.2491,0.849],[176.7179,-40.2383,2.0276],[176.7226,-40.2369,0.0],[176.7238,-40.2347,1.7157],[176.7324,-40.2322,0.4831],[176.7403,-40.2275,2.6632],[176.7677,-40.2181,1.9946],[176.782,-40.2171,7.5133],[176.787,-40.2183,4.8325],[176.7945,-40.2053,36.6864],[176.8143,-40.191,78.7611],[176.8226,-40.1833,22.639],[176.8275,-40.1726,0.3198],[176.826,-40.1708,4.4649],[176.8274,-40.1681,0.0],[176.8373,-40.162,11.4545],[176.8453,-40.1547,38.6883],[176.8464,-40.1507,0.0703],[176.8448,-40.1465,3.8396],[176.8457,-40.143,0.0],[176.8616,-40.1368,12.648],[176.8697,-40.1305,35.6709],[176.8712,-40.1235,0.5504],[176.8737,-40.1196,2.325],[176.8699,-40.1059,13.8208],[176.8705,-40.0984,0.0],[176.8874,-40.0874,2.9001],[176.8947,-40.0773,8.2743],[176.8939,-40.074,1.5989],[176.888,-40.072,49.9003],[176.8809,-40.065,30.0595],[176.879,-40.059,25.3781],[176.8793,-40.0498,33.6375],[176.8882,-40.0255,32.5043],[176.9042,-40.0028,10.5681],[176.9035,-40.0009,6.0325],[176.9082,-39.9873,0.2412],[176.9077,-39.9821,1.5038],[176.9138,-39.9755,2.8083],[176.9155,-39.9708,-0.2135],[176.9271,-39.9585,5.7094],[176.9321,-39.9353,0.0],[176.9406,-39.9248,3.0538],[176.9499,-39.9214,8.6346],[176.9589,-39.9121,0.0],[176.9629,-39.9039,0.0],[176.9614,-39.8969,0.0],[176.9647,-39.8863,34.7517],[176.9673,-39.8844,0.0],[176.9668,-39.882,61.2538],[176.9749,-39.8722,42.2402],[176.9812,-39.8675,47.8539],[176.9813,-39.8611,39.2492],[176.9871,-39.8575,1.874],[176.9865,-39.8559,2.3834],[176.9905,-39.8529,14.4164],[176.992,-39.8478,24.1785],[176.9953,-39.8481,0.0],[176.9965,-39.8422,1.5054],[177.0053,-39.8412,0.0],[177.0051,-39.8359,0.0],[176.9983,-39.8268,0.0],[176.9953,-39.8178,0.3836],[176.9935,-39.8107,2.0251],[176.9942,-39.7977,0.0],[176.998,-39.7861,0.0],[177.0046,-39.7782,0.0],[177.0076,-39.7707,34.9655],[177.0067,-39.7617,12.4729],[177.0148,-39.7322,1.4778],[177.0399,-39.7006,1.4836],[177.0491,-39.6928,6.0377],[177.0648,-39.683,0.0],[177.0661,-39.6805,6.535],[177.0755,-39.6733,1.4627],[177.0788,-39.6679,2.065],[177.079,-39.6637,68.2562],[177.0854,-39.6582,1.2068],[177.0929,-39.6449,11.0774],[177.096,-39.6426,0.0],[177.0858,-39.643,34.6226],[177.081,-39.6405,18.0365],[177.0764,-39.6355,3.4555],[177.0633,-39.6432,62.2728],[177.0538,-39.6435,31.0584],[177.0318,-39.6498,88.8881],[177.0166,-39.6448,38.6125],[177.0095,-39.6401,34.3392],[177.0001,-39.6386,1.19],[176.9873,-39.6319,1.1211],[176.9791,-39.6318,2.7817],[176.9664,-39.6235,3.2356],[176.9533,-39.6093,0.0],[176.94,-39.5882,1.4576],[176.9232,-39.5535,5.8023],[176.92,-39.5346,1.9269],[176.9191,-39.5141,4.1037],[176.9209,-39.4861,9.0705],[176.9234,-39.4803,4.1554],[176.9223,-39.4788,4.5681],[176.9242,-39.4762,0.0],[176.9237,-39.4727,2.9319],[176.92,-39.4693,0.0],[176.9174,-39.4699,0.0],[176.9154,-39.4707,0.0],[176.9182,-39.4703,2.7436],[176.9218,-39.4726,2.9319],[176.9215,-39.4772,2.1153],[176.9203,-39.4775,2.1153],[176.9199,-39.4756,0.483],[176.92,-39.4777,2.1153],[176.9188,-39.4774,3.4376],[176.9189,-39.4751,0.54],[176.9173,-39.4771,4.3454],[176.9174,-39.4734,1.0408],[176.9131,-39.4742,0.0],[176.9103,-39.4776,0.8373],[176.8999,-39.4789,2.4469],[176.896,-39.4772,0.0],[176.8935,-39.4818,0.0],[176.8891,-39.4828,1.8229],[176.893,-39.4813,0.0],[176.894,-39.4791,0.0],[176.8893,-39.48,2.6419],[176.8846,-39.4772,3.4359],[176.8769,-39.4661,0.0],[176.8731,-39.456,0.0],[176.8724,-39.4433,0.0],[176.8775,-39.4188,3.8708],[176.893,-39.38,0.0],[176.9,-39.3667,1.3158],[176.92,-39.3393,3.7619],[176.9303,-39.3353,18.0789],[176.9361,-39.3393,1.1636],[176.936,-39.3365,11.849],[176.9408,-39.3359,34.1406],[176.9456,-39.3274,26.9577],[176.9539,-39.3184,31.4229],[176.9587,-39.3151,73.6655],[176.9661,-39.3137,30.0524],[176.9709,-39.307,47.134],[176.9742,-39.3059,44.8266],[176.9777,-39.3002,8.7544],[176.9827,-39.2988,82.9779],[176.9894,-39.2941,66.4494],[176.992,-39.2904,15.2505],[176.9933,-39.2841,72.6102],[176.9974,-39.2784,3.2449],[177.0062,-39.2741,0.9841],[177.0107,-39.27,0.9692],[177.0106,-39.2653,16.0052],[177.0152,-39.2649,1.3431],[177.0187,-39.261,6.1371],[177.0218,-39.246,4.6077],[177.0308,-39.2408,3.5],[177.0351,-39.2352,0.0],[177.036,-39.2322,12.1894],[177.0346,-39.2217,60.2692],[177.0376,-39.219,0.0],[177.0363,-39.218,11.731],[177.0375,-39.2132,0.0],[177.0365,-39.2119,24.1545],[177.039,-39.2093,0.0],[177.0396,-39.2012,0.0],[177.0458,-39.1942,61.0524],[177.088,-39.1683,10.1131],[177.1291,-39.1488,43.5045],[177.1952,-39.1234,0.0],[177.253,-39.1045,16.4471],[177.2592,-39.1007,88.2123],[177.3325,-39.0812,33.973],[177.4186,-39.063,0.0],[177.4734,-39.056399999999996,0.0],[177.5626,-39.0546,0.0],[177.6368,-39.0504,5.1787],[177.6608,-39.0507,4.3319],[177.71,-39.0534,1.761],[177.756,-39.0587,0.0],[177.8044,-39.0686,7.988],[177.8131,-39.0737,24.0908],[177.8217,-39.0742,30.3122],[177.8232,-39.0768,6.5785],[177.8282,-39.0744,2.3505],[177.8275,-39.0709,2.6015],[177.8339,-39.0597,7.0236],[177.843,-39.0595,9.9479],[177.8546,-39.063,3.0194],[177.8674,-39.0721,3.6149],[177.8718,-39.0787,3.5041],[177.8718,-39.0864,2.3759],[177.8709,-39.0877,2.3759],[177.8666,-39.0865,45.7194],[177.8647,-39.0877,29.6451],[177.8676,-39.093,0.0],[177.8675,-39.0984,8.1523],[177.8636,-39.1018,31.2561],[177.8583,-39.1032,15.3642],[177.8605,-39.1121,6.8524],[177.8545,-39.1166,89.3355],[177.8538,-39.1246,0.0],[177.8503,-39.1316,37.8422],[177.8481,-39.1323,2.4197],[177.8445,-39.1379,1.1402],[177.8392,-39.1399,0.4633],[177.8416,-39.1436,19.5369],[177.8391,-39.1462,2.1097],[177.8392,-39.1524,33.0484],[177.8279,-39.1613,46.1342],[177.8224,-39.16,7.2652],[177.8255,-39.1632,26.962],[177.8246,-39.1649,7.2908],[177.8286,-39.1658,43.619],[177.8288,-39.1689,31.4504],[177.8329,-39.1733,16.1534],[177.8377,-39.1745,56.0398],[177.8375,-39.1764,50.7726],[177.8434,-39.1849,3.2036],[177.8442,-39.1964,1.0379],[177.8473,-39.1991,20.2732],[177.847,-39.204,14.5403],[177.8512,-39.2098,11.3307],[177.852,-39.2158,51.698],[177.852,-39.2298,15.2474],[177.8495,-39.2325,0.0],[177.8463,-39.2326,0.0],[177.8585,-39.2349,42.0384],[177.8594,-39.2422,0.0],[177.8634,-39.2462,26.438],[177.8614,-39.2574,0.0],[177.8647,-39.2649,0.0],[177.871,-39.2605,0.0],[177.8765,-39.2514,0.0],[177.8843,-39.2489,9.4473],[177.8841,-39.245,42.773],[177.892,-39.2366,0.0],[177.8972,-39.2345,0.5564],[177.9062,-39.2263,0.0],[177.9246,-39.1878,1.5253],[177.9239,-39.174,0.0],[177.9252,-39.169,2.9846],[177.9364,-39.1585,0.5498],[177.9456,-39.1546,0.7189],[177.9544,-39.1381,9.8529],[177.9718,-39.1314,0.0],[177.9773,-39.1269,1.1525],[177.9949,-39.118,0.0],[178.0007,-39.1122,4.1891],[178.0011,-39.1025,0.0],[177.9962,-39.1029,0.0],[177.9789,-39.0974,0.9506],[177.9661,-39.0982,17.2073],[177.9617,-39.0942,14.7122],[177.9631,-39.0923,0.0768],[177.9624,-39.0902,3.6518],[177.9586,-39.0886,1.265],[177.9529,-39.0932,53.0499],[177.9438,-39.0954,7.7077],[177.9142,-39.0848,24.2631],[177.908,-39.0756,0.0],[177.9018,-39.073,28.471],[177.8915,-39.0485,0.0],[177.8864,-39.0241,3.2432],[177.8867,-39.0154,3.2694],[177.8925,-39.0094,15.1135],[177.8948,-38.9953,28.8074],[177.897,-38.9932,25.6301],[177.899,-38.9718,18.5389],[177.8968,-38.9728,149.3775],[177.8609,-38.9652,113.7603],[177.8629,-38.9636,137.4749],[177.8424,-38.9593,380.918],[177.843,-38.9575,378.7527],[177.8366,-38.9557,453.0872],[177.837,-38.9542,449.593],[177.8348,-38.9528,462.666],[177.8349,-38.9461,453.627],[177.8389,-38.9437,478.4166],[177.8394,-38.9354,515.9031],[177.8453,-38.9284,535.4941],[177.8456,-38.9237,525.9063],[177.8445,-38.9215,551.91],[177.8377,-38.9179,494.0203],[177.8338,-38.9128,485.2156],[177.8319,-38.9134,498.4443],[177.8301,-38.9119,512.5117],[177.8309,-38.915,478.8861],[177.8214,-38.9198,473.2411],[177.8219,-38.9217,450.4848],[177.8047,-38.9118,363.0152],[177.8062,-38.9114,363.0152],[177.8067,-38.9067,403.3495],[177.8037,-38.905,406.6859],[177.8039,-38.9007,422.5929],[177.7998,-38.8969,378.1344],[177.8046,-38.8971,357.0748],[177.799,-38.8944,301.7284],[177.7886,-38.8979,298.2144],[177.7921,-38.9022,340.1507],[177.7894,-38.9024,289.5809],[177.7888,-38.9042,260.2564],[177.785,-38.9057,270.2026],[177.7855,-38.9082,286.7314],[177.7801,-38.9073,258.0812],[177.7803,-38.9105,266.7816],[177.7761,-38.9128,252.1627],[177.7492,-38.8967,585.1953],[177.7451,-38.9013,585.2927],[177.7385,-38.9046,566.2964],[177.7352,-38.9137,604.1812],[177.7289,-38.9188,638.7859],[177.7249,-38.9132,637.5634],[177.7294,-38.9034,632.0114],[177.7217,-38.8983,573.0217],[177.7124,-38.8993,457.7111],[177.7136,-38.906,595.7781],[177.7106,-38.9065,596.629],[177.7089,-38.9042,581.2463],[177.6991,-38.9016,621.2426],[177.6871,-38.9036,599.1675],[177.674,-38.899,573.7974],[177.6707,-38.9026,517.3054],[177.6628,-38.9028,603.2781],[177.6602,-38.9047,544.7393],[177.6604,-38.8524,349.0369],[177.6621,-38.8524,309.942],[177.6624,-38.8459,264.6221],[177.6602,-38.8494,249.0378],[177.6577,-38.8487,246.4228],[177.6527,-38.8519,239.7498],[177.6533,-38.8542,224.0826],[177.6507,-38.856,226.2142],[177.6514,-38.8583,222.0876],[177.6479,-38.8628,203.7188],[177.6457,-38.8621,191.3757],[177.6449,-38.8584,187.7954],[177.6395,-38.8611,212.7431],[177.6403,-38.8635,173.6488],[177.6367,-38.8652,161.1218],[177.6406,-38.8682,167.1716],[177.6371,-38.8711,184.9574],[177.6343,-38.8698,170.2612],[177.6356,-38.8668,163.2551],[177.6313,-38.8628,178.8221],[177.6309,-38.861,186.1087],[177.6328,-38.8589,167.8623],[177.6291,-38.8525,179.4453],[177.6298,-38.8511,197.0011],[177.6244,-38.8452,210.6923],[177.6261,-38.8434,209.6529],[177.5998,-38.8519,488.5037],[177.5945,-38.827,907.5136],[177.5905,-38.8284,874.8168],[177.5975,-38.807,945.2767],[177.5931,-38.8031,836.4136],[177.5758,-38.802,586.0162],[177.5678,-38.8052,537.9341],[177.561,-38.8016,385.7489],[177.5576,-38.8058,421.8809],[177.5494,-38.8057,305.0638],[177.5456,-38.8081,275.298],[177.5463,-38.8113,309.2812],[177.543,-38.8125,179.4555],[177.5389,-38.8185,258.4734],[177.5306,-38.8197,205.6916],[177.5308,-38.818,118.5206],[177.5375,-38.8149,109.3048],[177.5389,-38.8126,72.1493],[177.5352,-38.8095,70.965],[177.5378,-38.8071,102.0958],[177.5353,-38.8038,76.7303],[177.5371,-38.8003,102.2422],[177.5273,-38.7948,94.4293],[177.5313,-38.7915,100.5895],[177.5216,-38.7817,98.7026],[177.5166,-38.7792,135.439],[177.5144,-38.7744,110.9658],[177.4942,-38.778,351.1999],[177.4835,-38.7551,250.5901],[177.4735,-38.7578,480.8283],[177.4699,-38.7554,550.859],[177.4709,-38.7467,486.5294],[177.4675,-38.7443,495.4121],[177.4708,-38.7401,484.861],[177.4722,-38.7408,454.1581],[177.4759,-38.7381,375.0247],[177.4748,-38.7338,441.7217],[177.4759,-38.7318,491.019],[177.4694,-38.7272,425.1416],[177.4719,-38.7226,382.5719],[177.4716,-38.7193,370.1986],[177.4691,-38.7175,451.7086],[177.4691,-38.7139,501.4411],[177.4651,-38.7133,542.729],[177.4629,-38.7094,578.4479],[177.4662,-38.7056,528.2975],[177.4397,-38.7041,725.1672],[177.4356,-38.7012,758.6726],[177.4344,-38.6985,773.2327],[177.4365,-38.6968,763.2209],[177.4348,-38.6941,756.3246],[177.4293,-38.6922,771.3523],[177.4248,-38.6958,767.7771],[177.4143,-38.6964,736.2164],[177.4107,-38.6998,717.2178],[177.4088,-38.6994,738.1509],[177.4152,-38.6822,694.2527],[177.4212,-38.6783,574.0134],[177.4188,-38.6766,523.5253],[177.4187,-38.6739,481.0943],[177.4229,-38.6712,485.4367],[177.431,-38.6692,428.9356],[177.436,-38.663,397.0272],[177.4361,-38.6594,376.4168],[177.4425,-38.6512,369.8445],[177.4432,-38.6496,369.8445],[177.4419,-38.6493,347.6558],[177.4438,-38.6487,349.4277],[177.4431,-38.6466,339.2566],[177.4446,-38.646,374.4016],[177.4432,-38.645,336.934],[177.4466,-38.6434,352.5303],[177.4471,-38.6414,325.7767],[177.4515,-38.64,318.1719],[177.4476,-38.6358,343.0192],[177.4415,-38.6351,368.4249],[177.4397,-38.6327,353.853],[177.4359,-38.6321,374.1572],[177.4159,-38.6325,693.9539],[177.3924,-38.6221,902.386],[177.3624,-38.6219,897.3727],[177.3534,-38.6246,902.7695],[177.309,-38.5969,879.829],[177.3076,-38.6597,537.507],[177.1222,-38.5839,1280.1147],[177.1189,-38.5867,1233.8094],[177.1163,-38.5932,1223.5521],[177.106,-38.6041,1150.6923],[177.1035,-38.6095,1207.0193],[177.102,-38.6233,1237.3098],[177.1003,-38.627,1272.9948],[177.0971,-38.6271,1254.3571],[177.0973,-38.6207,1053.5927],[177.0955,-38.6189,988.0508],[177.0927,-38.6183,972.5942],[177.0859,-38.6205,923.7337],[177.0779,-38.6106,1089.572],[177.0717,-38.6123,1131.5072],[177.0655,-38.6192,1153.1249],[177.0608,-38.6221,1143.6406],[177.0511,-38.6201,1134.537],[177.046,-38.6208,1046.6235],[177.0418,-38.6266,1080.9954],[177.035,-38.6291,921.7439],[177.027,-38.6395,1054.6738],[177.0255,-38.6458,1012.8971],[177.022,-38.6497,975.7407],[177.0209,-38.6608,1087.4885],[177.017,-38.6672,1028.0358],[177.0064,-38.6759,1066.0066],[176.9915,-38.6937,1121.2229],[176.9856,-38.6942,1163.488],[176.9716,-38.7047,1168.4307],[176.9655,-38.7036,1114.7837],[176.9642,-38.6983,1130.5553],[176.9619,-38.6968,1085.7053],[176.9542,-38.6975,994.9546],[176.9434,-38.6949,1111.6555],[176.9327,-38.6984,1078.312],[176.9292,-38.6982,1034.0575],[176.9243,-38.691,894.5404],[176.914,-38.6893,865.3766],[176.8998,-38.6828,650.8414],[176.8934,-38.6702,812.6846],[176.8868,-38.6665,807.6359],[176.8765,-38.668,851.387],[176.8614,-38.6801,994.8835],[176.8596,-38.6794,957.8066],[176.8565,-38.6725,859.4335],[176.8456,-38.6725,1002.3582],[176.84,-38.6782,917.2237],[176.8329,-38.6799,940.7109],[176.8225,-38.6914,1110.4418],[176.8196,-38.6908,1078.547],[176.8158,-38.6869,888.6868],[176.8096,-38.6864,734.7411],[176.8036,-38.6816,809.9088],[176.7994,-38.6805,951.9833],[176.7944,-38.6822,982.8448],[176.7858,-38.6809,987.0397],[176.778,-38.6841,978.0741],[176.7736,-38.6843,935.3917],[176.7668,-38.6893,920.8222],[176.7654,-38.6961,840.6708],[176.7672,-38.7003,957.6346],[176.7592,-38.7089,1011.7403],[176.7525,-38.7108,1059.5699],[176.748,-38.7097,1042.2185],[176.7442,-38.7119,1034.0972],[176.7448,-38.7155,1033.0262],[176.7428,-38.719,956.4304],[176.7445,-38.7244,933.836],[176.7429,-38.7278,986.265],[176.7343,-38.7282,949.6057],[176.7271,-38.7218,954.2789],[176.7173,-38.7245,898.1897],[176.7141,-38.7279,868.5709],[176.714,-38.736,917.7017],[176.7103,-38.742,940.0208],[176.7111,-38.7482,991.3754],[176.7071,-38.7554,988.0886],[176.7104,-38.7586,976.2261],[176.7097,-38.769,902.6657],[176.707,-38.7723,920.6908],[176.7036,-38.7838,1142.6351],[176.7046,-38.787,979.8342],[176.7079,-38.789,1059.9905],[176.7,-38.7941,974.5677],[176.7017,-38.8006,955.6808],[176.7002,-38.8035,933.9163],[176.692,-38.8063,1138.5454],[176.6965,-38.8109,1050.3915],[176.696,-38.8216,1170.8392],[176.7017,-38.8237,1097.8521],[176.7041,-38.8271,1147.8018],[176.7002,-38.8379,1084.6842],[176.7042,-38.8451,1214.5172],[176.7,-38.8538,1142.0244],[176.5985,-38.9333,655.0954],[176.5995,-38.9342,641.3221],[176.5971,-38.9414,616.833],[176.5981,-38.9467,606.7536],[176.5964,-38.9534,624.0516],[176.598,-38.9577,593.5818],[176.5967,-38.9592,580.1324],[176.6026,-38.965,582.6323],[176.5988,-38.9694,570.0859],[176.601,-38.9723,590.3811],[176.5999,-38.976,557.7524],[176.603,-38.9769,563.3835],[176.6019,-38.9794,542.1248],[176.6061,-38.9806,536.1375],[176.6058,-38.9857,541.7943],[176.6092,-38.9875,543.2383],[176.6119,-38.9871,543.6363],[176.6129,-38.9891,533.2886],[176.6081,-38.996,586.7518],[176.6103,-38.9983,540.8556],[176.541,-38.9977,569.2781],[176.541,-38.9992,508.7729],[176.547,-39.0018,532.0581],[176.4492,-39.0016,936.1613],[176.4202,-39.0619,987.8561],[176.4435,-39.1208,1082.4011],[176.4168,-39.1163,1200.6016],[176.3696,-39.1326,605.8109],[176.3702,-39.134,561.3735],[176.3759,-39.134,582.8184],[176.3783,-39.1384,612.5994],[176.3822,-39.1341,579.6921],[176.3872,-39.137,592.8894],[176.3869,-39.1409,575.8367],[176.3894,-39.1422,670.7438],[176.3863,-39.1445,658.1096],[176.3862,-39.1466,566.9275],[176.3899,-39.1513,554.4342],[176.3969,-39.1509,594.244],[176.3909,-39.1561,558.2778],[176.3953,-39.1619,543.2344],[176.3404,-39.1731,1111.1655],[176.2332,-39.0979,686.9826],[176.2318,-39.1044,695.8262],[176.2284,-39.1084,708.377],[176.2265,-39.1083,700.3959],[176.2258,-39.1107,709.9167],[176.2215,-39.1104,753.1556],[176.2118,-39.1172,735.6388],[176.1974,-39.1215,769.6335],[176.1964,-39.1236,783.9205],[176.1886,-39.1266,798.0934],[176.1849,-39.1265,809.0809],[176.1827,-39.1288,866.4316],[176.1847,-39.1336,1029.2507],[176.1761,-39.1439,947.9336],[176.1755,-39.1493,944.389],[176.1809,-39.1691,965.6642],[176.1782,-39.1699,956.0559],[176.1822,-39.1739,953.9642],[176.1801,-39.1768,928.3033],[176.1824,-39.1794,926.7314],[176.18,-39.1806,925.8295],[176.1798,-39.1851,923.051],[176.1865,-39.1894,968.3309],[176.1905,-39.1949,926.8108],[176.1947,-39.1964,928.2437],[176.1955,-39.1987,970.4667],[176.1932,-39.2018,989.1946],[176.1958,-39.2083,940.8711],[176.1929,-39.2114,974.7588],[176.1961,-39.2149,909.7067],[176.1961,-39.2214,925.4075],[176.2004,-39.2259,901.5233],[176.2041,-39.2253,927.1172],[176.2085,-39.2277,901.5107],[176.2095,-39.2315,996.6273],[176.2115,-39.2324,901.4849],[176.2151,-39.2309,933.5281],[176.2195,-39.2313,897.4513],[176.2232,-39.2357,892.145],[176.2308,-39.2322,875.5985],[176.2397,-39.2329,973.0358],[176.2421,-39.236,881.7535],[176.2445,-39.2344,1001.3862],[176.2489,-39.2346,839.4495],[176.2513,-39.2388,856.0383],[176.2554,-39.2367,892.3411],[176.2552,-39.24,861.4116],[176.258,-39.2406,885.8287],[176.2573,-39.2446,853.3383],[176.2766,-39.24,851.5883],[176.2785,-39.2425,863.5081],[176.2897,-39.2464,811.3525],[176.2923,-39.251,801.1542],[176.2873,-39.2514,795.3651],[176.2881,-39.2548,770.0323],[176.2917,-39.2554,790.089],[176.288,-39.2591,808.4805],[176.293,-39.2586,806.523],[176.2928,-39.2638,763.8204],[176.2954,-39.2669,755.5656],[176.2933,-39.2772,780.6706],[176.2993,-39.276,765.0973],[176.301,-39.2838,788.5106],[176.2992,-39.2851,734.3964],[176.3042,-39.2856,735.562],[176.3051,-39.2919,719.6469],[176.3017,-39.2976,715.2758],[176.3026,-39.3006,756.6783],[176.2987,-39.3054,706.3793],[176.2935,-39.3079,716.2379],[176.2913,-39.3069,725.8615],[176.2865,-39.3103,679.3109],[176.2815,-39.3093,709.3771],[176.2799,-39.3126,672.4417],[176.2823,-39.3145,677.1993],[176.2816,-39.3186,660.7286],[176.2775,-39.3194,699.5338],[176.2774,-39.327,641.6017],[176.2725,-39.3288,639.3645],[176.2763,-39.3299,651.8503],[176.271,-39.3346,649.1432],[176.2728,-39.3377,619.1945],[176.2638,-39.3373,610.1398],[176.2664,-39.3415,626.7614],[176.266,-39.3444,636.3089],[176.2701,-39.3461,607.9766],[176.2654,-39.3493,613.0416],[176.2715,-39.3525,612.5453],[176.2708,-39.3584,607.8881],[176.2732,-39.3596,653.6738],[176.2756,-39.3585,609.2233],[176.2759,-39.3623,583.7108],[176.2784,-39.3616,581.1694],[176.2784,-39.3595,573.1688],[176.2804,-39.3585,578.8947],[176.2829,-39.3602,612.6606],[176.285,-39.3597,573.5693],[176.2865,-39.3623,574.1677],[176.2916,-39.363,631.9652],[176.2936,-39.3579,559.9333],[176.2984,-39.3587,553.8875],[176.3024,-39.3566,559.4931],[176.3033,-39.3598,557.8891],[176.3067,-39.3612,548.3812],[176.305,-39.3654,543.5633],[176.3115,-39.3665,541.312],[176.3109,-39.3703,526.731],[176.3216,-39.3706,525.1079],[176.3284,-39.3686,551.9773],[176.3292,-39.3731,516.9537],[176.3321,-39.375,511.7323],[176.3315,-39.3771,538.9539],[176.3276,-39.3785,511.7745],[176.3285,-39.3799,541.8513],[176.3306,-39.3783,499.4308],[176.3319,-39.379,507.1915],[176.3328,-39.3838,490.4114],[176.3313,-39.3867,505.7822],[176.327,-39.388,500.2491],[176.3234,-39.3868,495.4812],[176.3208,-39.3902,498.2224],[176.3222,-39.3937,489.2742],[176.3257,-39.3919,505.2863],[176.3282,-39.3934,489.1333],[176.3276,-39.3966,485.6306],[176.324,-39.3986,475.2448],[176.3258,-39.4001,469.1153],[176.3239,-39.403,515.7125],[176.3267,-39.4061,474.0894],[176.3211,-39.4054,489.7469],[176.3196,-39.4066,478.2602],[176.3246,-39.4094,470.1601],[176.324,-39.4109,469.8669],[176.3207,-39.4106,486.8644],[176.3219,-39.4147,533.5346],[176.3176,-39.415,538.2586],[176.3143,-39.4134,459.0319],[176.3092,-39.4181,499.5219],[176.3161,-39.4198,458.0746],[176.3058,-39.429,471.7375],[176.3084,-39.4317,452.4553],[176.3023,-39.4372,425.9676],[176.3083,-39.4409,435.2225],[176.3058,-39.4415,404.1103],[176.3051,-39.4439,418.8515],[176.3104,-39.4452,451.5662],[176.3139,-39.4533,397.6668],[176.31,-39.4551,456.3809],[176.3132,-39.4588,411.1017],[176.3098,-39.4598,425.67],[176.3073,-39.4628,430.728],[176.3115,-39.4688,403.9439],[176.3088,-39.4706,379.2148],[176.3143,-39.472,367.1873],[176.3127,-39.4748,372.7194],[176.3184,-39.4748,413.8866],[176.3215,-39.4791,403.1436],[176.3182,-39.4809,376.0716],[176.3165,-39.4792,423.2712],[176.3135,-39.4828,360.2572],[176.3192,-39.4877,422.3318],[176.3154,-39.4928,363.2979],[176.3177,-39.4938,341.5202],[176.3158,-39.4973,344.5467],[176.3206,-39.4976,337.8125],[176.3219,-39.4934,347.8194],[176.3253,-39.4936,345.1919],[176.3255,-39.488,316.5582],[176.334,-39.4893,314.1392],[176.3372,-39.4883,298.2815],[176.3375,-39.4906,322.3771],[176.3352,-39.4913,369.6842],[176.336,-39.4934,294.9899],[176.3322,-39.4984,294.2157],[176.3337,-39.4991,281.252],[176.3396,-39.4966,288.0506],[176.338,-39.5011,253.0747],[176.3407,-39.5024,255.3613],[176.3327,-39.5044,299.836],[176.3241,-39.5014,296.4824],[176.3236,-39.5059,291.18],[176.3185,-39.5081,390.2252],[176.313,-39.5076,317.5155],[176.3128,-39.5061,340.1366],[176.3162,-39.5039,336.837],[176.31,-39.5021,352.6368],[176.3066,-39.504,330.3173],[176.302,-39.5022,333.6995],[176.2989,-39.5042,377.4123],[176.3013,-39.505,345.6964],[176.3,-39.5071,364.7869],[176.2918,-39.5016,348.7675],[176.285,-39.5049,367.2817],[176.2812,-39.5025,366.4472],[176.278,-39.5033,387.3543],[176.2784,-39.5068,370.0864],[176.2717,-39.5071,366.4768],[176.2695,-39.5115,409.7486],[176.2651,-39.5149,417.1466],[176.2574,-39.5123,376.6133],[176.2568,-39.515,384.2797],[176.2514,-39.5183,405.7552],[176.2477,-39.5231,402.6511],[176.2389,-39.5255,414.3094],[176.2353,-39.5304,420.923],[176.2279,-39.533,442.5219],[176.225,-39.5321,427.291],[176.223,-39.5339,433.8435],[176.2198,-39.5319,440.8829],[176.2105,-39.5334,527.2289],[176.2065,-39.5407,651.6698],[176.2,-39.5464,663.7599],[176.2001,-39.5535,695.4926],[176.1982,-39.5545,743.2811],[176.1992,-39.5571,764.509],[176.1897,-39.5596,777.2983],[176.1868,-39.5646,777.4915],[176.1835,-39.5665,785.4435],[176.1823,-39.5717,811.3108],[176.1741,-39.5766,846.7755],[176.1744,-39.5787,845.5504],[176.1703,-39.5815,903.8464],[176.1664,-39.5828,919.0334],[176.1603,-39.5807,991.1279],[176.1547,-39.5836,991.5348],[176.1448,-39.5824,1090.6636],[176.1427,-39.5847,1150.2744],[176.1472,-39.5925,1172.645],[176.1527,-39.5983,1211.9982],[176.1576,-39.5968,1241.7139],[176.1614,-39.6029,1142.6921],[176.1735,-39.6021,1141.9983],[176.179,-39.6053,1164.1738],[176.1813,-39.6169,1193.8955],[176.1651,-39.6487,1280.1003],[176.1959,-39.6636,1496.7365],[176.2009,-39.673,1444.4922],[176.1927,-39.6798,1424.4695],[176.1842,-39.6838,1433.8448],[176.1805,-39.7111,1488.4424],[176.1691,-39.7179,1433.1196],[176.1768,-39.744,1452.4878],[176.138,-39.8239,1615.0607],[176.135,-39.8506,1585.2273],[176.1268,-39.8615,1642.213],[176.1172,-39.8868,1587.574],[176.1231,-39.888,1493.766],[176.1269,-39.8916,1342.3115],[176.1261,-39.9048,1309.9368],[176.1203,-39.9097,1289.626],[176.1068,-39.9171,1382.7356],[176.1136,-39.9247,1371.3639],[176.1154,-39.9294,1385.1807],[176.1117,-39.938,1430.3173],[176.1096,-39.9392,1477.0881],[176.1097,-39.9419,1422.2426],[176.1245,-39.9478,1208.9747],[176.1171,-39.9577,1162.5088],[176.1211,-39.9624,1204.1355],[176.1161,-39.9696,1152.196],[176.1121,-39.9705,1186.9558],[176.1032,-39.9772,1136.537],[176.1016,-39.9843,1097.2793],[176.0938,-39.9955,1055.0044],[176.1255,-40.0136,936.1838],[176.1245,-40.0188,770.21],[176.1334,-40.0247,576.5519],[176.1365,-40.0285,532.7667],[176.1543,-40.0122,627.1406],[176.1652,-40.0176,503.7752],[176.1806,-40.0162,466.9393],[176.1813,-40.0182,462.373],[176.205,-40.019,424.5818],[176.2135,-40.0178,418.3765],[176.2135,-40.0256,401.2104],[176.2175,-40.0263,392.2475],[176.2178,-40.0288,392.0168],[176.2388,-40.0273,364.7381],[176.2387,-40.0384,375.5722],[176.2487,-40.0402,362.0514],[176.2511,-40.0437,357.5963],[176.2622,-40.0451,353.0672],[176.2611,-40.0517,359.6219],[176.2641,-40.0522,356.7618],[176.2652,-40.0543,357.9771],[176.2638,-40.0627,355.5026],[176.2672,-40.0648,331.2858],[176.2801,-40.0677,312.1677],[176.2834,-40.0667,309.5343],[176.2932,-40.0687,328.0091],[176.2972,-40.0681,308.6935],[176.2989,-40.0711,304.111],[176.3027,-40.0723,296.7221],[176.2998,-40.0761,302.2262],[176.3079,-40.0789,305.506],[176.3106,-40.0814,330.1836],[176.3169,-40.0825,326.5451],[176.3209,-40.0856,380.2929],[176.3198,-40.0891,399.6453],[176.3229,-40.0897,397.8122],[176.3232,-40.0937,427.9469],[176.3204,-40.0946,447.8852],[176.3198,-40.0982,463.9532],[176.3162,-40.1026,402.4434],[176.318,-40.1064,377.0499],[176.3162,-40.1081,351.1762],[176.3171,-40.1091,366.2628],[176.3121,-40.1127,339.4316],[176.3093,-40.1178,303.7669],[176.3132,-40.1239,312.6422],[176.322,-40.1198,315.2098],[176.3215,-40.1213,314.6022],[176.3244,-40.1231,323.7217],[176.3296,-40.1225,318.9855],[176.3345,-40.1276,327.1511],[176.3365,-40.1279,324.6363],[176.3338,-40.1386,344.9366],[176.3371,-40.1388,343.9319],[176.3366,-40.1397,355.9572],[176.3432,-40.1455,399.473],[176.3697,-40.1516,280.0714],[176.3721,-40.1548,237.4938],[176.3788,-40.1581,205.729],[176.3783,-40.1632,234.8477],[176.3711,-40.1662,274.4194],[176.366,-40.1732,353.2385],[176.3656,-40.1797,344.0563],[176.3635,-40.181,345.8812],[176.367,-40.1863,331.639],[176.3659,-40.1864,330.6808],[176.3658,-40.1891,326.9144],[176.3613,-40.1921,320.2764],[176.3639,-40.1928,337.0885],[176.3622,-40.1965,311.6628],[176.3587,-40.1979,310.2494],[176.3611,-40.2012,303.4423],[176.3617,-40.2153,384.7009],[176.3645,-40.2137,389.8584],[176.3702,-40.2144,441.6459],[176.3703,-40.2342,449.2724],[176.3803,-40.2374,441.2177],[176.3803,-40.2463,375.9751],[176.3785,-40.2465,375.9751],[176.3812,-40.2491,377.919],[176.3792,-40.2539,409.9683],[176.3797,-40.2585,409.4965],[176.3817,-40.2628,436.7972],[176.3863,-40.2657,480.1342],[176.3795,-40.2676,482.2337],[176.3781,-40.2725,476.5348],[176.3809,-40.2726,445.4737],[176.3814,-40.2744,458.2465],[176.3833,-40.2748,425.1246],[176.3807,-40.2772,426.012],[176.3861,-40.2793,412.7299],[176.3926,-40.277,411.3715],[176.3992,-40.2849,465.9595],[176.3891,-40.3125,463.1919],[176.39,-40.3201,444.3965],[176.3889,-40.323,429.4728],[176.392,-40.3293,405.4901],[176.3971,-40.329,287.6739],[176.4059,-40.333,228.0662],[176.3707,-40.3586,327.4722],[176.3919,-40.3617,283.3641],[176.3869,-40.3722,293.6974],[176.3915,-40.3778,277.386],[176.4033,-40.3767,325.2243],[176.407,-40.3786,368.0509],[176.4178,-40.3923,350.8689],[176.4282,-40.3911,376.2527],[176.4305,-40.3893,367.3939],[176.4322,-40.392,411.2601],[176.4364,-40.3915,442.909],[176.4371,-40.3952,457.2724],[176.4349,-40.396,441.5951],[176.4361,-40.3995,412.6405],[176.4339,-40.4029,418.634],[176.4403,-40.4067,378.2087],[176.4589,-40.4098,250.9046],[176.4603,-40.4116,246.5667],[176.4617,-40.4117,230.7242],[176.4616,-40.409,209.9824],[176.4682,-40.4112,205.3468],[176.4805,-40.4088,192.472],[176.4829,-40.4098,192.1255],[176.4834,-40.412,233.6063],[176.4916,-40.4119,278.317],[176.4929,-40.4001,136.0143],[176.55,-40.4212,197.8806],[176.5587,-40.4072,108.0952],[176.5786,-40.4146,252.4847],[176.5793,-40.4182,239.9899],[176.5831,-40.4198,217.1427],[176.5873,-40.4313,259.1971],[176.5897,-40.4226,158.8152],[176.6074,-40.4255,173.8515]]],
[[[176.9886,-39.8582,4.0735],[176.989,-39.8581,4.0735],[176.9873,-39.8575,1.874],[176.9881,-39.8581,4.0735],[176.9886,-39.8582,4.0735]]],
[[[177.0972,-39.6421,0.0],[177.0976,-39.6421,0.0],[177.0975,-39.6417,0.0],[177.0972,-39.6419,0.0],[177.0972,-39.6421,0.0]]],
[[[177.8676,-39.3042,37.8068],[177.8723,-39.2884,4.8685],[177.8709,-39.2763,0.0],[177.8683,-39.2822,4.1293],[177.864,-39.2855,0.0],[177.8625,-39.2959,23.5148],[177.8637,-39.3041,17.2548],[177.8652,-39.3053,6.5148],[177.8676,-39.3042,37.8068]]],
[[[177.8213,-39.1594,0.0],[177.8215,-39.1596,7.2652],[177.8226,-39.1593,0.0],[177.8217,-39.1587,0.0],[177.8213,-39.1594,0.0]]]]}
,"properties": {"GID_1": "NZL.6_1","GID_0": "NZL","country": "NewZealand","province": "Hawke'sBay","VARNAME_1": "NA","NL_NAME_1": "NA","TYPE_1": "Region","ENGTYPE_1": "Region","CC_1": "06","HASC_1": "NZ.HB","ISO_1": "NZ-HKB","name": "Hawke's_Bay.province","area_km2": 12761.401,"hist_schema_id": "Elevation0-9000","hist_area_km2": {"0": 432.662,"25": 435.963,"50": 402.823,"75": 504.343,"100": 539.836,"125": 591.926,"150": 644.659,"175": 707.751,"200": 641.963,"225": 584.277,"250": 539.814,"275": 504.765,"300": 459.018,"325": 417.622,"350": 368.172,"375": 313.445,"400": 275.347,"425": 253.917,"450": 237.469,"475": 222.606,"500": 200.593,"525": 189.2,"550": 177.182,"575": 219.148,"600": 170.997,"625": 165.423,"650": 159.298,"675": 154.531,"700": 149.444,"725": 147.709,"750": 139.446,"775": 135.972,"800": 128.395,"825": 128.678,"850": 127.42,"875": 129.917,"900": 126.372,"925": 116.408,"950": 111.193,"975": 105.185,"1000": 93.381,"1025": 80.239,"1050": 73.315,"1075": 65.105,"1100": 55.542,"1125": 50.948,"1150": 43.744,"1175": 38.907,"1200": 32.14,"1225": 28.513,"1250": 25.356,"1275": 20.783,"1300": 18.565,"1325": 15.921,"1350": 13.233,"1375": 10.665,"1400": 7.781,"1425": 6.339,"1450": 4.701,"1475": 3.913,"1500": 2.769,"1525": 2.145,"1550": 1.705,"1575": 1.475,"1600": 1.114,"1625": 0.852,"1650": 0.622,"1675": 0.41,"1700": 0.312}}}