{"type": "Feature","id": "3397","bbox": [176.10349,-40.45407,177.99887,-38.5238],"geometry": {"type": "Polygon","coordinates": [[[177.45129,-38.6238,579.174],[177.238,-38.5238,1050.8966],[177.22012,-38.53067,1047.9681],[177.19542,-38.53729,1104.0125],[177.18229,-38.56044,953.549],[177.17278,-38.56984,902.8925],[177.16555,-38.58044,938.0653],[177.11842,-38.59434,1171.6051],[177.10426,-38.61284,1192.9962],[177.08504,-38.62038,923.7337],[177.07759,-38.61687,978.339],[177.0654,-38.62048,1114.4564],[177.04545,-38.63216,983.2736],[177.02912,-38.64699,875.5457],[177.02168,-38.66286,1089.8007],[177.01352,-38.6764,1066.0574],[177.00091,-38.69061,1094.7751],[176.98396,-38.70456,1053.668],[176.95843,-38.70374,1050.1213],[176.93073,-38.69934,1067.8284],[176.87285,-38.67263,910.4548],[176.78759,-38.69066,951.7705],[176.76237,-38.70162,881.3086],[176.73302,-38.71764,843.7549],[176.71235,-38.74141,936.3363],[176.71462,-38.7921,1130.6755],[176.7079,-38.80125,964.9778],[176.7018,-38.81174,1105.6753],[176.70604,-38.8443,1067.3879],[176.66811,-38.88471,774.1768],[176.6186,-38.92527,1037.8307],[176.60372,-38.94858,764.2336],[176.60672,-38.97509,626.6655],[176.6153,-38.99199,690.399],[176.60031,-38.997,731.4971],[176.5506,-39.00212,494.717],[176.47753,-39.00186,876.1776],[176.42782,-39.05033,846.4823],[176.43608,-39.08433,969.2662],[176.43815,-39.11151,703.2899],[176.40911,-39.11756,1033.3336],[176.38544,-39.13146,717.3946],[176.39691,-39.15203,554.4996],[176.381,-39.16655,779.1536],[176.30359,-39.14681,836.7299],[176.2362,-39.09668,713.8848],[176.18628,-39.14464,1111.7251],[176.19145,-39.19203,1046.4873],[176.22132,-39.22851,1032.8126],[176.28881,-39.24298,1057.9244],[176.29966,-39.26334,956.577],[176.3041,-39.28225,903.2687],[176.30948,-39.28876,885.1356],[176.30886,-39.29714,836.0835],[176.28777,-39.31062,679.3109],[176.28343,-39.32592,650.5816],[176.27547,-39.34008,742.225],[176.28043,-39.35264,871.8932],[176.30348,-39.36049,557.8891],[176.33087,-39.37837,499.4308],[176.31805,-39.404,748.2179],[176.31392,-39.43454,741.04],[176.31816,-39.49134,372.2522],[176.29676,-39.50317,373.9012],[176.26431,-39.51025,518.8113],[176.23351,-39.52203,528.2941],[176.18721,-39.56921,876.1214],[176.16695,-39.57924,979.721],[176.15279,-39.58993,1045.7759],[176.16396,-39.59624,1105.3673],[176.17605,-39.59872,1019.8262],[176.18173,-39.61154,1125.0909],[176.17574,-39.62678,1197.5609],[176.18649,-39.65246,1137.4946],[176.20168,-39.67401,1388.1085],[176.19765,-39.68037,1356.4927],[176.18938,-39.68244,1322.5479],[176.18432,-39.6938,1374.3328],[176.18339,-39.70714,1256.3892],[176.13708,-39.83571,1554.3164],[176.12634,-39.90253,1324.9518],[176.10453,-39.97906,1093.0327],[176.10349,-39.9865,988.5546],[176.10711,-39.99808,742.8652],[176.1254,-40.01632,876.6599],[176.14556,-40.0205,646.8831],[176.21077,-40.01849,421.5856],[176.27051,-40.05833,334.1011],[176.28498,-40.06587,312.3238],[176.30131,-40.06758,310.5702],[176.30937,-40.07001,301.6222],[176.31671,-40.07363,288.0286],[176.32291,-40.08572,402.9023],[176.32012,-40.099,463.9532],[176.32436,-40.11388,365.8688],[176.33583,-40.12499,330.3801],[176.36942,-40.15124,287.3033],[176.37242,-40.17005,313.4833],[176.3657,-40.18649,330.6808],[176.36591,-40.21341,389.8584],[176.39361,-40.26695,324.1058],[176.39712,-40.2978,350.8149],[176.39071,-40.33211,403.0352],[176.38906,-40.36214,298.2546],[176.41862,-40.38766,325.721],[176.45355,-40.40632,253.6224],[176.56011,-40.41355,199.1856],[176.58956,-40.4257,191.8012],[176.62967,-40.45407,127.3338],[176.63941,-40.39088,0.0],[176.70362,-40.29022,0.0],[176.69313,-40.29144,0.0],[176.68409,-40.29567,0.0],[176.67604,-40.3025,0.0],[176.66944,-40.31129,0.0],[176.67302,-40.29119,0.0],[176.68181,-40.27459,0.0],[176.70704,-40.24676,0.0],[176.71795,-40.24082,0.3215],[176.72706,-40.24529,0.0],[176.73552,-40.25311,0.0],[176.74513,-40.25677,0.0],[176.75343,-40.25384,0.0],[176.79705,-40.22283,0.0],[176.83725,-40.17791,0.0],[176.86183,-40.14072,0.0],[176.87761,-40.10638,0.0],[176.88054,-40.10174,0.0],[176.8934,-40.08652,0.0],[176.89536,-40.0818,0.0],[176.89601,-40.07513,0.0],[176.89422,-40.0499,0.0],[176.89503,-40.03672,0.0],[176.89942,-40.02744,0.0],[176.9131,-40.01067,0.0],[176.93458,-39.97015,0.0],[176.96778,-39.88201,0.0],[176.98121,-39.86256,12.8479],[176.9865,-39.8598,0.0],[177.00196,-39.85475,0.0],[177.00587,-39.85263,0.0],[177.00766,-39.84588,0.0],[177.00709,-39.84002,0.0],[177.00587,-39.83522,0.0],[177.00587,-39.83148,0.0],[177.02858,-39.76474,0.0],[177.03639,-39.75359,0.0],[177.05934,-39.74668,0.0],[177.07179,-39.74082,0.0],[177.08253,-39.73309,0.0],[177.08717,-39.72536,0.0],[177.09767,-39.70078,0.0],[177.11524,-39.68092,0.0],[177.11891,-39.66725,0.0],[177.08717,-39.66082,0.0],[177.05307,-39.66424,179.4637],[177.03566,-39.66383,185.5502],[177.02263,-39.6574,168.2475],[177.01547,-39.65203,129.5526],[176.98959,-39.63665,4.571],[176.97316,-39.62998,3.8467],[176.96713,-39.6242,0.0],[176.9607,-39.62444,5.3526],[176.95371,-39.60751,0.0],[176.95053,-39.58815,0.0],[176.94467,-39.49505,0.0],[176.93751,-39.4747,0.0],[176.92612,-39.46356,0.0],[176.91489,-39.45648,0.0],[176.90626,-39.44752,0.0],[176.90284,-39.43084,0.0],[176.90358,-39.41334,0.0],[176.90691,-39.40032,0.0],[176.91391,-39.38893,0.0],[176.92644,-39.37623,0.0],[176.93751,-39.34873,0.0],[176.94093,-39.34547,0.0],[176.9642,-39.33123,0.0],[177.00025,-39.30088,0.0],[177.02459,-39.27516,0.0],[177.0381,-39.25555,0.0],[177.04868,-39.23358,0.0],[177.05291,-39.21152,0.0],[177.06495,-39.1994,0.0],[177.20216,-39.14813,0.0],[177.38738,-39.07741,0.0],[177.41326,-39.05901,13.9749],[177.42262,-39.06129,0.0],[177.43165,-39.06805,0.0],[177.44402,-39.07187,0.0],[177.60597,-39.07529,0.0],[177.76393,-39.08099,0.0],[177.77914,-39.08554,0.0],[177.80958,-39.10198,0.0],[177.82016,-39.10589,0.0],[177.83326,-39.09043,0.0],[177.85206,-39.08929,0.0],[177.86622,-39.09734,0.0],[177.86541,-39.10906,63.2216],[177.85621,-39.12021,112.1297],[177.84734,-39.1347,28.556],[177.83961,-39.15097,55.5509],[177.83448,-39.16741,101.2945],[177.83367,-39.19687,0.0],[177.84116,-39.22894,0.0],[177.8685,-39.29022,93.9656],[177.8838,-39.27728,0.0],[177.89959,-39.26727,0.0],[177.91196,-39.25595,0.0],[177.92066,-39.22389,0.0],[177.94435,-39.17352,0.0],[177.99887,-39.12982,0.0],[177.98487,-39.10459,116.5444],[177.95191,-39.0914,0.3091],[177.88282,-39.08554,42.4527],[177.89015,-39.06552,0.9125],[177.90333,-39.05088,0.0],[177.91139,-39.03631,0.0],[177.90268,-39.01653,0.0],[177.90984,-38.99993,0.0],[177.91245,-38.96071,0.0],[177.88081,-38.9214,462.3625],[177.83479,-38.91526,459.3329],[177.72741,-38.84163,641.8344],[177.56174,-38.69437,487.2305],[177.55867,-38.61767,445.6174],[177.4697,-38.57165,592.9924],[177.45129,-38.6238,579.174]]]}
,"properties": {"ISO3166-1-Alpha-3": "NZL","country": "New Zealand","fill": "#00F","name": "Hawke's Bay","area_km2": 13681.51,"hist_schema_id": "Elevation0-9000","hist_area_km2": {"0": 873.71,"25": 435.12,"50": 399.97,"75": 501.2,"100": 537.98,"125": 592.48,"150": 647.33,"175": 713.6,"200": 650.93,"225": 596.04,"250": 554.64,"275": 525.29,"300": 479.91,"325": 436.6,"350": 391.91,"375": 340.54,"400": 302.29,"425": 281.74,"450": 267.87,"475": 251.31,"500": 229.11,"525": 215.64,"550": 200.25,"575": 237.32,"600": 185.37,"625": 175.47,"650": 167.68,"675": 163.6,"700": 158.96,"725": 157.26,"750": 149.93,"775": 146.51,"800": 137.36,"825": 138.07,"850": 136.04,"875": 138.18,"900": 132.72,"925": 120.82,"950": 112.34,"975": 105.09,"1000": 92.94,"1025": 80.17,"1050": 72.7,"1075": 64.24,"1100": 54.71,"1125": 49.91,"1150": 43.7,"1175": 38.83,"1200": 32.89,"1225": 28.87,"1250": 25.32,"1275": 20.67,"1300": 18.11,"1325": 15.69,"1350": 12.76,"1375": 10.21,"1400": 7.54,"1425": 5.93,"1450": 4.16,"1475": 3.54,"1500": 2.57,"1525": 1.93,"1550": 1.54,"1575": 1.39,"1600": 1.02,"1625": 0.72,"1650": 0.52,"1675": 0.38,"1700": 0.31}}}