{"type": "Feature","bbox": [173.4772,-36.3963,174.6166,-35.5946],"geometry": {"type": "MultiPolygon","coordinates": [[[[174.2003,-36.1262,6.4557],[174.2002,-36.1263,4.6222],[174.2002,-36.1265,4.6222],[174.2004,-36.1263,4.6222],[174.2003,-36.1262,6.4557]]],
[[[174.2384,-36.1273,1.334],[174.2384,-36.1272,1.334],[174.2382,-36.1273,8.8893],[174.2383,-36.1274,8.8893],[174.2384,-36.1273,1.334]]],
[[[174.2461,-36.2003,5.526],[174.2462,-36.2004,5.526],[174.2463,-36.2004,5.526],[174.2462,-36.2003,5.526],[174.2461,-36.2003,5.526]]],
[[[174.233,-36.1834,0.0],[174.2332,-36.1833,0.0],[174.2326,-36.1834,0.0],[174.2327,-36.1835,0.0],[174.233,-36.1834,0.0]]],
[[[174.2136,-36.1303,16.3886],[174.2135,-36.1304,16.3886],[174.2136,-36.1304,16.3886],[174.2136,-36.1303,16.3886]]],
[[[174.2145,-36.1296,0.4341],[174.2144,-36.1297,0.4341],[174.2142,-36.13,0.4341],[174.2145,-36.1299,0.4341],[174.2145,-36.1296,0.4341]]],
[[[174.3147,-36.2118,0.6945],[174.3145,-36.2121,0.4489],[174.3145,-36.2123,0.4489],[174.3147,-36.212,0.6945],[174.3147,-36.2118,0.6945]]],
[[[174.3163,-36.2064,0.0],[174.3162,-36.2063,0.0],[174.3162,-36.2061,0.0],[174.3161,-36.2062,0.0],[174.3163,-36.2064,0.0]]],
[[[174.3515,-36.2068,0.8387],[174.3518,-36.2067,0.0],[174.3515,-36.2067,0.8387],[174.3515,-36.2068,0.8387]]],
[[[174.3525,-36.2066,0.0],[174.352,-36.2067,0.0],[174.3518,-36.2067,0.0],[174.352,-36.2068,0.0],[174.3525,-36.2066,0.0]]],
[[[174.2738,-36.2894,0.0],[174.2733,-36.2892,0.0],[174.2727,-36.29,0.0],[174.2736,-36.29,0.0],[174.2738,-36.2894,0.0]]],
[[[174.2723,-36.2868,1.8931],[174.2728,-36.2862,2.842],[174.2712,-36.2852,0.0],[174.2715,-36.2861,2.842],[174.2723,-36.2868,1.8931]]],
[[[174.4599,-36.2585,0.0],[174.46,-36.2585,0.0],[174.46,-36.2584,0.0],[174.4599,-36.2585,0.0]]],
[[[174.1887,-36.2409,2.3966],[174.1901,-36.2404,0.0],[174.1894,-36.239,0.0],[174.1879,-36.2398,2.3966],[174.1887,-36.2409,2.3966]]],
[[[174.3365,-36.2258,0.0],[174.3363,-36.2264,0.921],[174.3373,-36.2255,0.6881],[174.3369,-36.2255,0.0],[174.3365,-36.2258,0.0]]],
[[[174.3478,-36.2254,3.7297],[174.3479,-36.2256,3.7297],[174.3483,-36.2254,3.7297],[174.3479,-36.2253,3.7297],[174.3478,-36.2254,3.7297]]],
[[[174.1627,-36.2253,0.78],[174.1632,-36.2253,0.78],[174.1647,-36.2235,0.0],[174.1625,-36.2241,2.1246],[174.1627,-36.2253,0.78]]],
[[[174.167,-36.2221,1.7085],[174.1676,-36.2213,1.7085],[174.1676,-36.2211,0.0],[174.1662,-36.222,0.0],[174.167,-36.2221,1.7085]]],
[[[174.2859,-36.2204,0.0],[174.2862,-36.2206,0.0],[174.28571428571425,-36.21975,0.0],[174.2859,-36.2204,0.0]]],
[[[174.28571428571425,-36.21975,0.0],[174.2857,-36.2197,2.9748],[174.2854,-36.2192,11.4402],[174.28571428571425,-36.21975,0.0]]],
[[[174.2739,-36.2184,4.2959],[174.2743,-36.2182,4.2959],[174.2738,-36.2183,4.2959],[174.2731,-36.2187,4.2699],[174.2737,-36.2186,4.2959],[174.2739,-36.2184,4.2959]]],
[[[174.3125,-36.2136,1.5323],[174.3123,-36.2138,0.8117],[174.3143,-36.2124,0.4489],[174.3135,-36.2127,0.4489],[174.3125,-36.2136,1.5323]]],
[[[174.6068,-36.1213,20.3153],[174.6166,-36.1175,5.5812],[174.6,-36.0864,3.4534],[174.5976,-36.0835,0.7823],[174.5941,-36.0836,0.0],[174.5926,-36.0863,2.9613],[174.5943,-36.0917,0.0],[174.6016,-36.0942,2.0289],[174.6034,-36.0974,2.1831],[174.6031,-36.1019,2.9566],[174.6012,-36.1024,2.1875],[174.6017,-36.1139,7.7439],[174.5942,-36.1219,0.8352],[174.5829,-36.126,0.6717],[174.5821,-36.1274,1.4158],[174.5841,-36.1313,4.0392],[174.5784,-36.137,3.7455],[174.569,-36.1415,1.2069],[174.5679,-36.1407,1.6789],[174.5719,-36.1384,0.8841],[174.5753,-36.1336,1.2072],[174.5712,-36.1313,1.5943],[174.5781,-36.1296,1.2783],[174.5787,-36.1258,4.1148],[174.5807,-36.1241,2.5379],[174.5763,-36.1194,0.0],[174.5728,-36.1221,7.2077],[174.5737,-36.1177,5.0502],[174.5766,-36.1155,0.8186],[174.5773,-36.1088,2.7799],[174.5731,-36.1022,1.7042],[174.5669,-36.1037,3.1856],[174.5726,-36.1003,1.4013],[174.5698,-36.0974,2.7094],[174.5647,-36.0973,3.2943],[174.565,-36.0962,2.3199],[174.5694,-36.0956,0.9303],[174.5649,-36.0934,1.5939],[174.5724,-36.0948,0.9291],[174.5766,-36.1006,4.1564],[174.5776,-36.1058,0.7828],[174.5821,-36.1099,13.7683],[174.584,-36.1155,1.0747],[174.5905,-36.118,0.0],[174.5967,-36.1085,0.2556],[174.5906,-36.0984,0.0],[174.5922,-36.0943,7.0649],[174.5897,-36.0894,7.1492],[174.5893,-36.0842,13.6285],[174.5899,-36.0822,16.0861],[174.5992,-36.0818,3.6304],[174.5936,-36.0726,1.2564],[174.5911,-36.0609,0.0],[174.5895,-36.0592,79.1956],[174.5912,-36.0546,0.0],[174.5897,-36.0481,58.4238],[174.584,-36.0435,34.0628],[174.5804,-36.0532,111.8018],[174.5732,-36.0611,74.2967],[174.5701,-36.0591,86.8813],[174.5686,-36.0609,99.5156],[174.5655,-36.0612,110.7915],[174.5558,-36.0555,37.4296],[174.5573,-36.0575,52.29],[174.5642,-36.0614,127.3826],[174.5653,-36.0652,187.5797],[174.5641,-36.0666,212.9133],[174.5562,-36.0662,203.6973],[174.5422,-36.0696,278.3917],[174.5363,-36.0664,248.6046],[174.5304,-36.0673,244.5894],[174.5245,-36.0635,219.5438],[174.5102,-36.0726,329.9673],[174.5055,-36.0712,329.1508],[174.502,-36.0741,377.8321],[174.4955,-36.0741,309.8818],[174.493,-36.072,296.3304],[174.4847,-36.073,295.3677],[174.4816,-36.0705,333.2147],[174.4774,-36.0708,327.4029],[174.4729,-36.072,316.9578],[174.4728,-36.0752,236.5646],[174.4702,-36.0773,234.5522],[174.4546,-36.0822,208.3157],[174.4517,-36.0857,207.9724],[174.447,-36.0866,160.5712],[174.4404,-36.086,163.6483],[174.4355,-36.084,135.4431],[174.4338,-36.0816,126.9014],[174.4171,-36.0773,121.1523],[174.4081,-36.0787,99.658],[174.408,-36.0768,115.3295],[174.4041,-36.0759,133.2668],[174.4003,-36.0772,93.2382],[174.4005,-36.0758,101.0492],[174.3957,-36.0718,93.6431],[174.3871,-36.0695,108.0309],[174.385,-36.0671,99.9912],[174.388,-36.0678,103.8198],[174.3905,-36.0653,99.856],[174.3909,-36.0582,106.7186],[174.3875,-36.056,67.8571],[174.3905,-36.0552,73.7046],[174.3863,-36.047,117.1741],[174.3834,-36.045,133.9679],[174.3813,-36.051,185.6445],[174.3783,-36.0521,200.4223],[174.3732,-36.0486,160.7279],[174.3682,-36.0536,221.9834],[174.3588,-36.0536,175.3721],[174.3591,-36.0435,244.7231],[174.3443,-36.0345,219.8687],[174.3461,-36.0295,161.7767],[174.3424,-36.0275,168.5668],[174.3426,-36.0245,141.0439],[174.3404,-36.0214,134.1547],[174.3307,-36.0251,83.041],[174.3314,-36.0262,93.3697],[174.3245,-36.0268,69.0143],[174.3202,-36.0067,147.8535],[174.3152,-36.0007,61.2241],[174.3178,-35.9965,114.9287],[174.3171,-35.9931,84.1844],[174.3134,-35.9907,108.717],[174.3129,-35.9877,126.6524],[174.3105,-35.9862,120.7571],[174.3112,-35.9842,130.0322],[174.3182,-35.9849,159.1524],[174.3271,-35.9817,169.7861],[174.3272,-35.9576,143.2254],[174.3097,-35.9531,109.8186],[174.2951,-35.9404,112.7625],[174.2028,-35.9884,24.8711],[174.1987,-35.9846,24.6514],[174.1952,-35.9859,25.3598],[174.1933,-35.9841,38.8937],[174.1938,-35.9851,27.1668],[174.1918,-35.9858,24.2796],[174.1871,-35.9857,24.3303],[174.1859,-35.9882,22.7104],[174.187,-35.9883,46.9085],[174.1851,-35.9888,22.7104],[174.1864,-35.9919,21.547],[174.1845,-35.9935,21.3102],[174.1814,-35.993,25.5087],[174.1824,-35.9945,25.5087],[174.1787,-35.9971,45.5452],[174.1768,-35.9934,24.237],[174.1727,-35.9945,29.1076],[174.1714,-35.9925,33.3893],[174.1665,-35.9945,19.959],[174.167,-35.9932,19.959],[174.1652,-35.9934,23.5281],[174.1643,-35.9898,32.9532],[174.1654,-35.9898,32.9532],[174.1592,-35.9878,30.3072],[174.1608,-35.987,26.1036],[174.1606,-35.9839,23.7651],[174.1594,-35.9837,24.177],[174.1606,-35.9829,40.5877],[174.1577,-35.9815,26.0516],[174.1562,-35.9835,26.9813],[174.1579,-35.9834,26.9813],[174.1578,-35.9846,28.5972],[174.1562,-35.985,28.5972],[174.1555,-35.9877,31.3915],[174.151,-35.9887,40.8606],[174.1494,-35.9845,41.3611],[174.1481,-35.9875,26.5315],[174.1452,-35.9879,25.5723],[174.1458,-35.9906,25.7391],[174.1426,-35.9913,19.1013],[174.1442,-35.9917,21.2326],[174.1436,-35.9942,16.0435],[174.1457,-35.9943,17.912],[174.1425,-35.9968,19.5513],[174.1441,-35.9982,39.7353],[174.1407,-35.9995,16.1481],[174.1391,-35.9983,16.6611],[174.1379,-36.0001,14.9802],[174.1389,-36.0011,14.9802],[174.1355,-36.0017,14.1891],[174.1372,-36.0016,14.1891],[174.1369,-36.0032,13.6438],[174.1321,-36.0027,17.3775],[174.1318,-36.0045,13.7825],[174.1297,-36.0047,15.5419],[174.128,-36.0018,13.9142],[174.1247,-36.0063,15.0893],[174.1225,-36.0043,17.9545],[174.1218,-36.0053,13.9321],[174.1216,-36.0043,17.9545],[174.1228,-36.0033,17.9545],[174.1215,-36.0031,17.9545],[174.1215,-36.0001,15.9654],[174.1192,-36.0005,14.8167],[174.1201,-35.9987,16.3321],[174.1184,-35.9973,16.6708],[174.117,-35.9984,13.7877],[174.1165,-35.9943,14.82],[174.1144,-35.9953,13.2081],[174.113,-35.9941,14.7901],[174.1161,-35.9935,14.82],[174.116,-35.9907,11.7037],[174.1107,-35.9896,16.8641],[174.1129,-35.9873,11.369],[174.1147,-35.9866,11.369],[174.1138,-35.9878,11.369],[174.1149,-35.9879,11.369],[174.1176,-35.9826,10.6156],[174.1162,-35.9818,10.6486],[174.1177,-35.9791,15.4039],[174.1161,-35.98,10.381],[174.1165,-35.9781,10.7989],[174.1151,-35.9777,10.764],[174.1151,-35.9761,11.2575],[174.1168,-35.9757,11.2575],[174.1154,-35.9746,11.2575],[174.1174,-35.9749,18.3903],[174.1154,-35.9712,18.0781],[174.1176,-35.9708,15.5881],[174.1173,-35.9686,13.1787],[174.1189,-35.9675,16.4302],[174.1179,-35.9652,33.1027],[174.115,-35.9643,12.6729],[174.1145,-35.9607,13.7817],[174.113,-35.9614,11.971],[174.1082,-35.9563,32.0652],[174.1115,-35.9522,13.359],[174.1154,-35.9502,16.2095],[174.1127,-35.9468,15.1097],[174.1055,-35.9472,18.6085],[174.1077,-35.9438,15.6805],[174.1093,-35.9446,24.998],[174.1084,-35.9393,14.9194],[174.1019,-35.9385,10.0207],[174.102,-35.9369,15.9358],[174.1003,-35.9365,19.4133],[174.0977,-35.9389,12.8843],[174.0888,-35.9363,8.8332],[174.0869,-35.9378,12.2306],[174.0856,-35.9364,16.5019],[174.086,-35.9327,9.8009],[174.0885,-35.9297,12.0848],[174.0888,-35.9328,12.8219],[174.0928,-35.9304,12.7646],[174.0957,-35.932,17.2239],[174.0972,-35.928,11.6839],[174.1002,-35.9275,12.6205],[174.0974,-35.9257,15.2714],[174.1008,-35.9258,13.7924],[174.1024,-35.9247,13.7924],[174.1007,-35.9236,13.3764],[174.1078,-35.9221,14.4506],[174.1068,-35.9197,14.2412],[174.1083,-35.9187,14.1954],[174.1071,-35.9178,13.9141],[174.1144,-35.9174,32.5167],[174.1127,-35.9184,21.0487],[174.1205,-35.92,20.5603],[174.1214,-35.9191,19.9995],[174.1197,-35.9182,18.8453],[174.1234,-35.9181,17.2479],[174.1231,-35.9167,17.3647],[174.1263,-35.9152,20.7506],[174.1248,-35.9138,16.9302],[174.1275,-35.9118,18.7304],[174.1321,-35.9144,19.9722],[174.1307,-35.9093,23.0806],[174.1362,-35.9092,26.2136],[174.1352,-35.9064,31.4347],[174.1384,-35.9082,24.775],[174.1394,-35.9063,23.1842],[174.1435,-35.9051,22.1927],[174.1433,-35.9035,25.5528],[174.1451,-35.9037,21.6509],[174.1438,-35.903,21.6509],[174.1451,-35.9017,21.1964],[174.149,-35.9034,31.9268],[174.1516,-35.9022,24.4921],[174.1509,-35.8729,230.7544],[174.1351,-35.8701,489.8382],[174.1353,-35.8536,80.7695],[174.1144,-35.8437,268.1101],[174.0972,-35.839,68.522],[174.0979,-35.8371,74.956],[174.0949,-35.8363,45.5574],[174.0932,-35.8307,29.7875],[174.0895,-35.8291,70.1737],[174.0855,-35.83,85.9107],[174.0842,-35.8279,68.5613],[174.1037,-35.8219,31.6119],[174.1049,-35.82,17.8944],[174.101,-35.8203,17.2374],[174.1009,-35.8181,15.256],[174.0983,-35.8172,17.9778],[174.0974,-35.8145,14.5794],[174.0994,-35.8118,13.1131],[174.0896,-35.8118,12.3401],[174.0896,-35.7892,56.2123],[174.0788,-35.7892,102.0073],[174.0789,-35.7879,94.0489],[174.0742,-35.7872,59.3704],[174.058,-35.7899,15.9536],[174.0531,-35.7878,11.7186],[174.0522,-35.7894,4.6458],[174.0553,-35.7919,6.426],[174.0534,-35.793,4.2246],[174.0498,-35.7885,10.4564],[174.0522,-35.7812,7.3946],[174.0513,-35.7798,7.3946],[174.0491,-35.7827,8.539],[174.0433,-35.7853,10.1761],[174.0295,-35.7864,110.1482],[173.9793,-35.7677,161.9524],[173.9827,-35.7672,175.7101],[173.9804,-35.7607,158.6026],[173.9814,-35.7531,113.5597],[173.9765,-35.7471,57.203],[173.9671,-35.743,97.8373],[173.9611,-35.7437,115.0739],[173.9444,-35.7339,122.8183],[173.9321,-35.7344,132.3754],[173.9226,-35.7252,75.6287],[173.9084,-35.7351,80.4902],[173.9068,-35.735,147.2803],[173.9054,-35.731,123.1109],[173.8972,-35.735,298.3688],[173.8894,-35.7284,333.8037],[173.8857,-35.7181,347.6797],[173.8809,-35.7105,317.1205],[173.8836,-35.7091,351.2297],[173.8825,-35.7059,247.3831],[173.8786,-35.701,170.3808],[173.8658,-35.7071,173.4391],[173.8536,-35.7237,166.3555],[173.82,-35.7267,315.6299],[173.8187,-35.7363,168.8208],[173.815,-35.7379,159.4611],[173.8105,-35.7341,179.6028],[173.8029,-35.7345,241.9401],[173.7981,-35.7445,396.6522],[173.7878,-35.7446,498.8658],[173.784,-35.7407,517.8796],[173.7705,-35.734,658.3726],[173.7703,-35.7324,645.7322],[173.7636,-35.7327,557.8683],[173.7643,-35.6732,442.2276],[173.7588,-35.6711,501.0671],[173.752,-35.6727,550.7704],[173.7501,-35.6699,565.3073],[173.7548,-35.6653,569.0712],[173.7644,-35.6625,546.6023],[173.7704,-35.6513,471.3132],[173.7694,-35.6498,468.1674],[173.7704,-35.644,459.3008],[173.766,-35.6488,460.3973],[173.765,-35.6342,225.7429],[173.756,-35.6355,418.1666],[173.7591,-35.6282,296.1299],[173.759,-35.6092,164.7772],[173.7631,-35.6065,152.4899],[173.7646,-35.6071,152.4899],[173.7653,-35.6042,105.7846],[173.7621,-35.6021,112.6652],[173.7623,-35.5982,108.0088],[173.759,-35.5954,114.9041],[173.7564,-35.5946,118.6288],[173.7547,-35.5963,136.1025],[173.7508,-35.5959,130.0367],[173.7473,-35.5978,135.2855],[173.7418,-35.596,141.7207],[173.7384,-35.5991,144.1525],[173.7399,-35.6005,149.729],[173.7368,-35.6006,161.9899],[173.7357,-35.6047,178.233],[173.733,-35.6029,175.9168],[173.7341,-35.6008,177.4581],[173.7313,-35.6007,217.0406],[173.7308,-35.5981,200.7472],[173.7249,-35.596,205.9275],[173.7206,-35.5993,199.5954],[173.689,-35.6036,274.5013],[173.6788,-35.6021,302.8707],[173.6761,-35.6,335.8985],[173.6723,-35.6005,350.9812],[173.6688,-35.5982,374.342],[173.6644,-35.5996,460.387],[173.6644,-35.604,524.817],[173.5986,-35.6036,572.3561],[173.5978,-35.6535,191.4013],[173.5933,-35.6504,199.2437],[173.5888,-35.6513,165.5792],[173.5849,-35.6486,149.4308],[173.5856,-35.646,162.0274],[173.5832,-35.6453,145.8776],[173.5751,-35.6463,134.8847],[173.5757,-35.6497,139.3444],[173.5722,-35.65,118.8038],[173.5725,-35.6519,110.4779],[173.5702,-35.6527,118.8114],[173.5632,-35.6511,135.4587],[173.564,-35.6523,96.0571],[173.562,-35.6535,121.0559],[173.5528,-35.6507,98.8919],[173.5482,-35.6522,91.0487],[173.54,-35.6516,88.7992],[173.5401,-35.6493,102.9568],[173.5375,-35.6494,79.8535],[173.5352,-35.6464,71.6678],[173.5318,-35.6474,68.0262],[173.5312,-35.6457,65.5695],[173.5333,-35.645,85.3828],[173.5296,-35.6435,66.0498],[173.528,-35.6445,88.8944],[173.5288,-35.6389,72.1101],[173.5251,-35.6378,66.0189],[173.5233,-35.6356,62.6976],[173.5221,-35.6374,48.8816],[173.5184,-35.6385,62.6887],[173.5137,-35.6371,49.7863],[173.5122,-35.6386,53.2971],[173.5113,-35.6367,40.3848],[173.5084,-35.6373,33.5857],[173.5065,-35.6354,37.6793],[173.5068,-35.6373,32.6852],[173.5018,-35.6422,31.2051],[173.4991,-35.6487,15.5536],[173.4973,-35.6482,19.0395],[173.4977,-35.6459,30.3874],[173.4949,-35.6465,34.2681],[173.4943,-35.6501,14.6349],[173.4911,-35.6535,38.1562],[173.4899,-35.6601,4.6252],[173.4856,-35.6628,19.5982],[173.4772,-35.6647,17.5326],[173.4976,-35.6903,3.2536],[173.547,-35.7419,228.6317],[173.5562,-35.7613,0.0],[173.5732,-35.77,0.0],[173.5805,-35.7771,7.1728],[173.5857,-35.7782,21.956],[173.5832,-35.7798,14.7224],[173.5903,-35.7881,0.0],[173.6256,-35.8259,3.946],[173.6321,-35.8315,0.0],[173.6347,-35.8312,41.6302],[173.6329,-35.8324,0.0],[173.6339,-35.8342,16.3385],[173.6639,-35.8665,0.0],[173.6663,-35.8683,0.0],[173.6666,-35.8671,16.2015],[173.6694,-35.8726,6.1562],[173.7424,-35.9527,8.0808],[173.7459,-35.9548,6.9727],[173.7466,-35.9577,23.6744],[173.8507,-36.0735,13.064],[173.8764,-36.1055,6.3354],[173.8941,-36.1237,5.9709],[173.9072,-36.1409,9.7692],[173.9201,-36.1547,7.4928],[173.932,-36.1724,6.8457],[173.9457,-36.1875,9.66],[173.9507,-36.1953,9.3346],[173.955,-36.1988,10.1454],[173.9568,-36.198,7.3443],[173.9667,-36.2092,6.7713],[173.9656,-36.2089,6.7713],[173.9895,-36.2427,8.608],[173.9928,-36.2532,10.5691],[174.0032,-36.2701,7.4627],[174.0136,-36.2949,8.5832],[174.0353,-36.3585,3.643],[174.0294,-36.3626,3.1857],[174.0314,-36.3809,0.0],[174.0359,-36.3894,0.0],[174.0405,-36.3929,0.0],[174.0639,-36.3963,0.0],[174.0883,-36.394,0.0],[174.1106,-36.3953,0.0],[174.1422,-36.3899,6.4845],[174.1646,-36.379,5.8677],[174.1813,-36.3647,0.0],[174.1819,-36.3629,0.0],[174.18,-36.3612,4.3814],[174.1778,-36.3529,6.5169],[174.1789,-36.3493,0.0],[174.177,-36.3501,0.5203],[174.1782,-36.3462,2.0018],[174.1814,-36.3433,0.0],[174.1805,-36.3376,0.802],[174.1765,-36.3381,0.6437],[174.1798,-36.3421,0.0],[174.1775,-36.3458,2.0018],[174.1765,-36.3449,1.3696],[174.1785,-36.3414,1.9238],[174.1753,-36.3397,2.9637],[174.1737,-36.3364,1.116],[174.1809,-36.3359,0.0],[174.1766,-36.3262,7.0101],[174.1694,-36.3177,38.1586],[174.1691,-36.3149,25.6075],[174.1629,-36.3109,0.0],[174.1613,-36.3123,4.541],[174.1572,-36.3115,3.3404],[174.155,-36.3131,2.2659],[174.155,-36.3098,1.3648],[174.1578,-36.3095,3.0901],[174.1615,-36.3117,4.541],[174.1589,-36.3074,3.6993],[174.1584,-36.3009,0.0],[174.1472,-36.2999,4.9297],[174.138,-36.3024,2.2982],[174.1343,-36.3071,2.6312],[174.1332,-36.3031,4.4969],[174.1265,-36.3037,24.6411],[174.1216,-36.3013,3.1315],[174.1321,-36.3005,6.9405],[174.1382,-36.2971,6.2066],[174.1423,-36.2972,7.7534],[174.1372,-36.2951,20.9634],[174.1366,-36.2926,4.6627],[174.1394,-36.2946,3.285],[174.146,-36.2933,1.3853],[174.1504,-36.2943,0.0],[174.1528,-36.2914,0.0],[174.1571,-36.2914,0.0],[174.1579,-36.2871,30.0084],[174.1541,-36.2835,0.0],[174.1561,-36.2815,0.0],[174.1553,-36.276,0.0],[174.1507,-36.2746,19.1109],[174.1497,-36.2723,8.372],[174.1427,-36.2673,7.1654],[174.1362,-36.2682,7.9329],[174.1364,-36.2657,0.0],[174.133,-36.2629,25.1769],[174.1327,-36.2606,8.3114],[174.1262,-36.2622,0.0],[174.1246,-36.2644,0.9554],[174.1262,-36.2672,2.8801],[174.125,-36.2674,22.8664],[174.123,-36.2659,20.6485],[174.1234,-36.2611,0.0],[174.122,-36.2584,4.3172],[174.1171,-36.2597,30.7196],[174.1092,-36.2573,10.8054],[174.1069,-36.2599,3.2595],[174.1087,-36.2626,2.4857],[174.1048,-36.2635,10.9719],[174.1053,-36.2706,2.9507],[174.103,-36.2698,7.0088],[174.1016,-36.2655,3.4426],[174.0966,-36.2686,12.2957],[174.0965,-36.2669,1.8573],[174.1003,-36.263,4.5426],[174.0983,-36.2626,2.131],[174.0984,-36.2613,2.131],[174.1041,-36.2604,1.5183],[174.1035,-36.2559,1.9314],[174.1086,-36.2521,41.7169],[174.1026,-36.2471,0.0],[174.1,-36.248,16.483],[174.0966,-36.2465,1.976],[174.0961,-36.2431,30.4179],[174.0975,-36.2419,10.9734],[174.0955,-36.2364,4.8724],[174.0935,-36.2368,5.1727],[174.0914,-36.2349,28.8622],[174.0788,-36.2363,2.5534],[174.0797,-36.2326,2.2949],[174.0861,-36.2271,23.5804],[174.0783,-36.216,0.0],[174.0745,-36.2152,1.6227],[174.07,-36.2166,2.5649],[174.0679,-36.2155,1.7528],[174.0685,-36.2129,19.379],[174.0728,-36.2097,0.9424],[174.0719,-36.2074,1.0852],[174.074,-36.2054,0.0],[174.0713,-36.202,0.8908],[174.0657,-36.2035,3.8691],[174.0618,-36.2,1.6269],[174.0616,-36.1961,0.0],[174.0599,-36.1948,10.5684],[174.0548,-36.1944,10.8574],[174.054,-36.1924,4.9158],[174.0488,-36.1908,5.3825],[174.039,-36.1903,1.9004],[174.0233,-36.1692,3.5795],[174.0208,-36.1623,0.0],[174.0012,-36.144,2.0779],[173.9849,-36.1321,3.9433],[173.9831,-36.1284,28.3796],[173.9856,-36.1255,0.0],[173.99,-36.1235,0.5692],[174.0033,-36.1271,3.2958],[174.0213,-36.1372,2.3919],[174.0345,-36.1531,0.0],[174.0458,-36.1701,0.0],[174.0612,-36.1701,3.3181],[174.0664,-36.1669,3.5893],[174.0746,-36.1656,2.7943],[174.0843,-36.1603,2.5177],[174.0947,-36.1594,1.8855],[174.1076,-36.1603,2.041],[174.1126,-36.1657,7.461],[174.1207,-36.1675,25.5716],[174.1288,-36.1736,10.8284],[174.1287,-36.1767,14.4976],[174.1308,-36.1781,1.89],[174.1346,-36.1873,0.0],[174.1339,-36.1897,1.2647],[174.1368,-36.1888,17.5855],[174.1394,-36.1898,0.0],[174.1417,-36.1975,22.7863],[174.145,-36.2012,37.7079],[174.1483,-36.2017,32.7396],[174.1492,-36.2049,7.2464],[174.148,-36.2077,26.362],[174.1503,-36.2085,3.8151],[174.1566,-36.207,10.5911],[174.1531,-36.2113,40.5975],[174.1538,-36.2143,14.1849],[174.1559,-36.2134,10.0212],[174.1624,-36.2162,39.9493],[174.1685,-36.2149,2.1878],[174.1687,-36.2208,14.7088],[174.1712,-36.2223,1.9405],[174.1754,-36.2217,5.6439],[174.1763,-36.2253,0.0],[174.178,-36.2255,8.0663],[174.1799,-36.2286,4.9791],[174.1827,-36.2285,6.1699],[174.1815,-36.2292,6.1699],[174.1831,-36.2307,41.6298],[174.1823,-36.2334,3.4472],[174.1858,-36.2339,11.3886],[174.184,-36.236,0.0],[174.187,-36.2354,22.3232],[174.1878,-36.2368,0.0],[174.195,-36.2326,36.2029],[174.1983,-36.2324,6.834],[174.2009,-36.2367,13.0859],[174.1989,-36.2394,5.0541],[174.2025,-36.2389,16.9444],[174.2026,-36.2412,1.0971],[174.2052,-36.2406,14.4108],[174.2069,-36.2428,8.7078],[174.2038,-36.2475,0.7453],[174.2093,-36.2481,0.0],[174.2094,-36.2532,0.0],[174.2131,-36.2542,12.0648],[174.2146,-36.2587,19.1466],[174.2242,-36.2586,9.9477],[174.2278,-36.2609,4.4914],[174.2273,-36.2635,0.0],[174.2403,-36.2629,42.9624],[174.2449,-36.2613,0.0],[174.2457,-36.2595,26.7293],[174.25,-36.259,8.5193],[174.2515,-36.2569,0.0],[174.2455,-36.2539,3.3223],[174.2481,-36.2515,14.1544],[174.2484,-36.2494,5.7092],[174.2468,-36.2483,5.7092],[174.2528,-36.245,0.654],[174.2513,-36.2451,1.5313],[174.2507,-36.2461,4.1042],[174.2505,-36.2448,4.1042],[174.2546,-36.2439,12.3628],[174.2589,-36.2468,0.9794],[174.2624,-36.2425,19.8285],[174.2686,-36.2422,0.1102],[174.2655,-36.2397,15.4655],[174.2735,-36.2339,9.1431],[174.2839,-36.2337,17.6602],[174.2933,-36.2382,0.0],[174.2895,-36.2239,19.1125],[174.2857,-36.2208,2.9748],[174.2852,-36.2192,11.4402],[174.2838,-36.2196,2.9748],[174.2876,-36.2155,0.4967],[174.2811,-36.2166,37.8695],[174.2772,-36.2155,4.9326],[174.2737,-36.2193,4.2959],[174.2665,-36.2192,15.2167],[174.2659,-36.2108,7.2954],[174.2615,-36.21,1.6113],[174.2625,-36.2108,1.6113],[174.2638,-36.2108,3.3484],[174.2642,-36.2119,9.8062],[174.2608,-36.2129,11.5545],[174.2588,-36.2103,16.0178],[174.2602,-36.2081,7.1419],[174.263,-36.2079,17.034],[174.2631,-36.2028,0.0],[174.2611,-36.2006,1.9388],[174.2627,-36.1936,2.3386],[174.2592,-36.1936,9.705],[174.255,-36.1963,16.9579],[174.256,-36.1991,1.3221],[174.2501,-36.2043,6.4204],[174.2491,-36.2124,24.9594],[174.2461,-36.2094,25.4836],[174.2466,-36.2082,25.4836],[174.2433,-36.2072,6.3771],[174.2435,-36.2028,7.834],[174.2461,-36.2003,5.526],[174.2451,-36.1963,13.1235],[174.2381,-36.1987,1.8702],[174.2357,-36.2028,3.3571],[174.2322,-36.203,1.5043],[174.2304,-36.2126,8.652],[174.2325,-36.2138,22.6644],[174.2319,-36.2148,40.5741],[174.2286,-36.2146,20.0121],[174.2275,-36.2076,7.8833],[174.2256,-36.2055,10.7477],[174.2205,-36.2045,1.7729],[174.2177,-36.2083,13.9556],[174.219,-36.2041,4.2097],[174.216,-36.2027,21.0949],[174.2212,-36.2004,12.5262],[174.2199,-36.1974,9.1981],[174.2253,-36.1982,1.7591],[174.2255,-36.1947,3.5779],[174.2314,-36.1936,4.7031],[174.2332,-36.1914,0.0],[174.2363,-36.1919,0.8079],[174.2397,-36.1854,5.6801],[174.2326,-36.1904,11.8276],[174.2283,-36.1893,0.0],[174.222,-36.1917,24.1905],[174.2203,-36.1866,2.947],[174.2176,-36.1882,11.756],[174.2169,-36.1836,3.7513],[174.2145,-36.1829,0.0],[174.2076,-36.1865,15.1765],[174.2086,-36.194,8.6849],[174.2071,-36.1927,2.108],[174.2046,-36.1972,5.0394],[174.2031,-36.1973,11.8965],[174.2057,-36.194,5.7842],[174.2055,-36.1907,1.9083],[174.2024,-36.1894,1.912],[174.1977,-36.1914,12.2986],[174.1948,-36.1961,9.7432],[174.1968,-36.1899,18.741],[174.1956,-36.1884,10.7264],[174.2012,-36.186,12.1343],[174.2044,-36.1807,5.7882],[174.2013,-36.1789,9.7158],[174.205,-36.1764,7.5048],[174.2157,-36.1752,5.4223],[174.2292,-36.1838,5.948],[174.2359,-36.1824,0.9234],[174.2187,-36.1761,4.7623],[174.2195,-36.1737,14.012],[174.2228,-36.1737,3.5603],[174.2259,-36.1709,5.3888],[174.2228,-36.1679,0.0],[174.22,-36.1688,8.846],[174.2213,-36.1661,0.0],[174.2175,-36.1667,12.008],[174.2125,-36.165,6.743],[174.2113,-36.1674,2.0189],[174.2131,-36.1707,8.3827],[174.2079,-36.1706,4.1841],[174.2092,-36.1679,2.3341],[174.207,-36.1685,11.1462],[174.2067,-36.166,19.8699],[174.2085,-36.1662,12.6355],[174.2118,-36.1626,3.371],[174.2094,-36.1615,10.9132],[174.2099,-36.1594,1.1239],[174.211,-36.1601,2.5392],[174.2099,-36.1591,1.1239],[174.2032,-36.1612,0.0],[174.2,-36.1649,7.5486],[174.1986,-36.17,6.4811],[174.1944,-36.1685,5.2475],[174.1923,-36.172,13.0138],[174.189,-36.1727,8.3271],[174.1874,-36.175,24.3694],[174.1879,-36.1704,3.7341],[174.1905,-36.1677,6.4191],[174.1898,-36.165,2.5152],[174.1935,-36.1611,0.6495],[174.1924,-36.1596,13.8113],[174.1881,-36.1589,1.8568],[174.189,-36.1596,21.6411],[174.1863,-36.1618,6.9771],[174.1808,-36.1632,18.7723],[174.1808,-36.1658,17.747],[174.1756,-36.1596,11.7998],[174.1726,-36.1603,13.3625],[174.171,-36.16,7.9667],[174.1728,-36.1592,11.2583],[174.1696,-36.159,8.9044],[174.1696,-36.1586,8.9044],[174.1703,-36.1581,8.9044],[174.1758,-36.1585,9.992],[174.1773,-36.1602,4.8339],[174.1828,-36.1601,4.1994],[174.1839,-36.1593,4.0473],[174.1822,-36.1576,11.8804],[174.1828,-36.1546,19.9953],[174.1848,-36.1557,7.0369],[174.1879,-36.153,0.6526],[174.199,-36.1508,2.89],[174.1975,-36.1483,0.0],[174.1991,-36.1469,1.3088],[174.1972,-36.1452,0.0],[174.1903,-36.1478,2.6948],[174.1843,-36.1473,9.1311],[174.1822,-36.1455,4.5632],[174.1771,-36.1474,7.0776],[174.1733,-36.1465,10.9907],[174.1719,-36.1482,14.8115],[174.1726,-36.1451,2.1847],[174.17,-36.1426,3.1437],[174.1675,-36.1445,4.8094],[174.1655,-36.1422,5.7189],[174.1622,-36.142,8.4519],[174.1683,-36.1413,5.8085],[174.1761,-36.1444,14.551],[174.1775,-36.1434,7.7909],[174.1748,-36.1404,15.1406],[174.1803,-36.1423,10.0342],[174.1899,-36.1417,2.1285],[174.1907,-36.1395,5.143],[174.1855,-36.1375,16.0928],[174.1867,-36.1352,21.534],[174.1899,-36.1377,12.6613],[174.194,-36.1362,10.4716],[174.1936,-36.1299,3.2846],[174.1915,-36.128,5.8077],[174.1944,-36.1268,10.0039],[174.1933,-36.125,5.6],[174.1865,-36.1244,8.7322],[174.1857,-36.1229,13.6173],[174.1926,-36.1227,15.1559],[174.2005,-36.1247,6.4557],[174.2014,-36.126,13.8636],[174.2,-36.1277,4.6222],[174.2038,-36.1299,10.847],[174.2014,-36.1353,9.3049],[174.206,-36.1371,1.1753],[174.2155,-36.1276,2.2043],[174.2132,-36.1253,20.2709],[174.2161,-36.1241,1.5412],[174.2157,-36.123,7.1486],[174.2129,-36.1228,18.4086],[174.2167,-36.1209,4.8545],[174.2163,-36.1167,4.9797],[174.2177,-36.115,9.3275],[174.2249,-36.1169,4.9032],[174.2276,-36.1142,18.7077],[174.228,-36.1089,9.193],[174.2304,-36.1112,10.9982],[174.2322,-36.1081,13.9551],[174.2306,-36.1059,13.9915],[174.2334,-36.1058,11.979],[174.2317,-36.1068,13.9421],[174.2333,-36.1099,17.4527],[174.2312,-36.1124,2.8915],[174.2347,-36.1155,13.8732],[174.2331,-36.1165,11.1854],[174.2303,-36.1146,11.6047],[174.2231,-36.1188,11.6226],[174.2251,-36.1197,16.4386],[174.2179,-36.1207,11.8994],[174.2205,-36.1227,13.4212],[174.2193,-36.1226,11.2206],[174.2207,-36.1242,2.4468],[174.2196,-36.1246,0.6067],[174.2232,-36.1299,12.8927],[174.2235,-36.1335,6.8997],[174.2215,-36.1377,0.0],[174.2172,-36.1409,1.1564],[174.2193,-36.1453,13.496],[174.2166,-36.1471,10.9482],[174.2169,-36.1489,6.8721],[174.2264,-36.1596,0.0],[174.23,-36.1569,3.9273],[174.2282,-36.1558,0.508],[174.2274,-36.1518,9.5277],[174.2246,-36.1529,6.8448],[174.2237,-36.1517,10.5882],[174.228,-36.1492,15.6361],[174.2283,-36.1448,2.5616],[174.2269,-36.1432,16.8868],[174.2301,-36.1414,23.1387],[174.2289,-36.1345,11.5425],[174.2373,-36.1286,3.3115],[174.2369,-36.1257,6.8006],[174.2396,-36.1246,2.4721],[174.2395,-36.122,15.6079],[174.2446,-36.1246,0.0],[174.2488,-36.1215,1.7322],[174.2514,-36.1215,1.0145],[174.2522,-36.1132,7.5109],[174.2561,-36.1116,3.6081],[174.2585,-36.1142,8.6721],[174.2565,-36.1191,18.206],[174.2585,-36.1225,9.6463],[174.2619,-36.1185,11.0231],[174.2646,-36.121,2.8618],[174.2682,-36.1196,3.3044],[174.27,-36.117,4.5768],[174.2691,-36.1211,3.3044],[174.2621,-36.1227,9.5656],[174.2612,-36.1212,3.7829],[174.2577,-36.1234,17.3608],[174.2547,-36.1176,3.125],[174.2527,-36.1211,0.0],[174.2542,-36.1252,3.6244],[174.2567,-36.127,8.9033],[174.2499,-36.1282,10.123],[174.2516,-36.1313,11.129],[174.2474,-36.1302,5.0595],[174.2457,-36.1318,1.5203],[174.246,-36.1342,2.8738],[174.2439,-36.1341,1.3746],[174.2389,-36.1381,10.7871],[174.2395,-36.1402,4.724],[174.246,-36.1402,8.9182],[174.2375,-36.1418,4.7755],[174.2367,-36.1462,25.8111],[174.2349,-36.1468,8.8112],[174.238,-36.1493,19.6308],[174.2371,-36.1514,20.3959],[174.2335,-36.1522,5.7348],[174.2348,-36.1544,24.8186],[174.2371,-36.1542,19.5578],[174.2334,-36.1556,3.4652],[174.2378,-36.1599,0.0],[174.2358,-36.1712,0.8509],[174.2409,-36.1748,13.7832],[174.2419,-36.1788,10.6402],[174.2483,-36.18,0.0],[174.2542,-36.1836,10.7654],[174.2559,-36.1829,12.2463],[174.2543,-36.1788,1.9796],[174.2512,-36.1757,0.8631],[174.2517,-36.1772,1.6043],[174.2496,-36.1773,4.3126],[174.2507,-36.1745,3.4339],[174.2473,-36.1732,24.0276],[174.2469,-36.1694,2.1524],[174.2436,-36.1657,6.4494],[174.247,-36.1677,9.5496],[174.2492,-36.1671,13.1254],[174.2493,-36.1718,16.7009],[174.2567,-36.1773,0.0],[174.2613,-36.1714,1.0961],[174.2599,-36.17,9.4491],[174.2674,-36.1709,2.1172],[174.2674,-36.1693,15.3362],[174.272,-36.1705,13.0326],[174.2702,-36.1704,3.1201],[174.269,-36.1733,9.24],[174.2659,-36.1725,1.5959],[174.2643,-36.1742,0.0],[174.2655,-36.1763,0.0],[174.269,-36.1772,12.4776],[174.2755,-36.174,4.7586],[174.2833,-36.1733,1.8144],[174.2825,-36.1718,8.7062],[174.284,-36.1703,4.5831],[174.2886,-36.1683,2.8139],[174.2919,-36.1648,3.4194],[174.2964,-36.1635,7.5051],[174.2963,-36.1642,7.5051],[174.2961,-36.1644,7.5051],[174.2953,-36.1642,6.2497],[174.2951,-36.1654,8.043],[174.2923,-36.166,3.4194],[174.2909,-36.1706,6.6892],[174.2861,-36.1714,14.1374],[174.2835,-36.1777,0.0],[174.2896,-36.1795,42.5834],[174.2925,-36.1759,12.8646],[174.2994,-36.1744,29.9707],[174.3016,-36.176,9.2669],[174.3051,-36.1743,9.7928],[174.3084,-36.1768,2.4304],[174.3129,-36.1723,17.2809],[174.3122,-36.1748,10.4526],[174.3103,-36.1767,2.4304],[174.3134,-36.1773,7.7429],[174.3106,-36.1795,17.2562],[174.3069,-36.1777,2.8046],[174.3051,-36.18,15.2782],[174.3031,-36.1784,4.577],[174.2976,-36.1781,3.8634],[174.3012,-36.1834,8.3024],[174.2958,-36.1795,1.6674],[174.2929,-36.1806,1.0803],[174.2925,-36.1826,5.936],[174.2913,-36.1814,19.3796],[174.2841,-36.1827,0.9264],[174.2823,-36.1815,13.7858],[174.2805,-36.1831,14.8639],[174.2778,-36.1804,2.3884],[174.2713,-36.1831,33.0732],[174.2695,-36.1821,3.839],[174.266,-36.1853,0.0],[174.2675,-36.187,0.0],[174.2743,-36.1875,10.2763],[174.277,-36.1937,5.2446],[174.2825,-36.1951,2.599],[174.283,-36.1982,0.0],[174.2887,-36.1972,2.6584],[174.2891,-36.1988,0.3679],[174.2863,-36.2014,4.8727],[174.2918,-36.2046,0.0],[174.2946,-36.2109,25.1825],[174.297,-36.2119,0.0],[174.3011,-36.2107,12.3087],[174.3003,-36.2085,10.9038],[174.3081,-36.2062,18.6036],[174.3133,-36.2028,1.0297],[174.3108,-36.2034,0.4767],[174.3117,-36.2008,2.2452],[174.3095,-36.2038,2.2844],[174.3068,-36.2036,4.5248],[174.3073,-36.1999,11.8339],[174.3106,-36.2007,2.2452],[174.314,-36.198,4.4997],[174.3121,-36.1972,7.2503],[174.3121,-36.195,4.8566],[174.3187,-36.1961,4.6428],[174.3215,-36.1945,3.03],[174.3215,-36.1915,3.1718],[174.3253,-36.1941,6.7162],[174.3296,-36.1927,6.4682],[174.3277,-36.196,3.5935],[174.3223,-36.1964,1.9669],[174.3227,-36.1975,1.9669],[174.3184,-36.1979,1.5227],[174.3174,-36.1999,12.9203],[174.3144,-36.2009,1.2725],[174.3138,-36.2024,1.0297],[174.3164,-36.2045,0.661],[174.3164,-36.2126,0.6945],[174.3095,-36.2159,0.0],[174.3129,-36.2222,19.6659],[174.3119,-36.2249,6.3642],[174.3145,-36.2259,20.7942],[174.3171,-36.2235,2.521],[174.3215,-36.2235,0.0],[174.3208,-36.221,0.0],[174.3242,-36.2156,5.6678],[174.3344,-36.2106,27.0562],[174.3475,-36.2074,2.9052],[174.3455,-36.2073,1.7492],[174.3575,-36.2059,4.5256],[174.3591,-36.2044,6.7399],[174.3574,-36.2045,15.7786],[174.3603,-36.2035,1.3097],[174.3622,-36.2004,4.6487],[174.36,-36.1991,8.1267],[174.3635,-36.1978,37.4324],[174.3649,-36.1949,0.0],[174.3627,-36.1929,1.3799],[174.3564,-36.1931,5.0676],[174.3642,-36.1899,0.0],[174.3643,-36.1842,6.5147],[174.3671,-36.1818,3.2882],[174.3613,-36.1767,15.5839],[174.3627,-36.175,3.7624],[174.3669,-36.1779,15.436],[174.3684,-36.1773,2.3362],[174.3696,-36.1724,14.5128],[174.3665,-36.1693,14.2323],[174.3695,-36.1681,7.4584],[174.3701,-36.165,4.5021],[174.3673,-36.1605,12.285],[174.3695,-36.1608,7.3337],[174.3725,-36.1643,15.0363],[174.3771,-36.164,10.0397],[174.3849,-36.1558,4.9348],[174.3849,-36.1503,1.5521],[174.3796,-36.1492,7.8854],[174.3848,-36.1461,0.8169],[174.3823,-36.1421,14.3682],[174.3822,-36.1384,11.159],[174.372,-36.1365,13.1609],[174.3744,-36.1346,3.0646],[174.3736,-36.1337,10.4446],[174.3754,-36.131,2.1119],[174.3701,-36.1269,3.289],[174.3653,-36.1285,8.3094],[174.3676,-36.1258,13.1082],[174.3656,-36.1233,5.7597],[174.3613,-36.1226,8.9199],[174.3616,-36.1209,19.6044],[174.3642,-36.1202,6.0224],[174.3636,-36.1181,26.4302],[174.3653,-36.1203,6.0224],[174.3678,-36.12,6.1705],[174.3684,-36.1117,4.582],[174.3713,-36.1118,7.3705],[174.3697,-36.1138,6.806],[174.371,-36.1171,3.7831],[174.3676,-36.1238,3.0833],[174.3707,-36.1249,0.0],[174.3737,-36.1217,5.5973],[174.3761,-36.1233,4.0899],[174.3759,-36.1263,0.0],[174.378,-36.1261,16.3806],[174.3779,-36.1314,0.0],[174.3801,-36.1346,0.0],[174.3833,-36.1349,0.4441],[174.3847,-36.1329,11.7999],[174.3884,-36.1349,0.4499],[174.3917,-36.134,4.4379],[174.3954,-36.137,5.0093],[174.395,-36.1373,5.0093],[174.3945,-36.1372,7.3207],[174.3936,-36.1362,3.8813],[174.3856,-36.1385,6.1961],[174.3862,-36.1424,0.0],[174.3886,-36.1447,2.6127],[174.4043,-36.1463,0.0],[174.4131,-36.1415,7.3445],[174.416,-36.1366,12.2734],[174.4242,-36.138,14.5973],[174.4242,-36.1381,14.5973],[174.421,-36.138,10.4938],[174.4178,-36.1389,8.5152],[174.4226,-36.1439,6.5777],[174.4226,-36.1458,4.9776],[174.4192,-36.1489,3.6117],[174.4265,-36.1498,10.7143],[174.4265,-36.1534,7.606],[174.4313,-36.1558,4.6034],[174.4317,-36.1575,4.0331],[174.4293,-36.156,3.3446],[174.4269,-36.1575,6.5389],[174.4244,-36.1563,9.6672],[174.4234,-36.1518,5.2127],[174.4179,-36.1521,7.0814],[174.417,-36.1447,14.3213],[174.4145,-36.1465,7.5957],[174.4161,-36.1491,14.2704],[174.4104,-36.1465,15.9889],[174.4081,-36.1474,6.0602],[174.4092,-36.1492,18.9005],[174.4009,-36.1504,13.0639],[174.3976,-36.1481,17.1537],[174.3889,-36.1477,0.0],[174.388,-36.1519,0.0],[174.3915,-36.1557,12.3431],[174.3935,-36.1568,1.2274],[174.3986,-36.1551,5.4484],[174.401,-36.1574,20.2165],[174.3978,-36.1569,6.2922],[174.3935,-36.1602,12.6884],[174.3935,-36.1584,5.6174],[174.3916,-36.1582,18.9741],[174.3878,-36.1622,5.4904],[174.3857,-36.1608,0.0],[174.3837,-36.1616,14.7624],[174.3834,-36.1632,10.1546],[174.3861,-36.1651,15.9741],[174.3801,-36.168,15.1378],[174.3755,-36.1673,6.5918],[174.3722,-36.169,26.8117],[174.3727,-36.1765,16.1671],[174.3748,-36.1777,24.2761],[174.3776,-36.1775,16.8864],[174.3805,-36.1741,3.7505],[174.3906,-36.1695,13.2067],[174.4015,-36.1688,12.3748],[174.4038,-36.1707,2.9002],[174.3971,-36.1717,5.0818],[174.3988,-36.175,21.9571],[174.3948,-36.1736,8.1662],[174.3905,-36.1748,1.5656],[174.3972,-36.1794,8.8267],[174.3938,-36.1804,3.9486],[174.3935,-36.1863,8.5033],[174.392,-36.183,10.4753],[174.3924,-36.1794,3.2669],[174.3895,-36.178,8.0036],[174.3881,-36.1812,6.7798],[174.3868,-36.1775,1.9156],[174.3842,-36.1767,5.1287],[174.38,-36.1797,14.0701],[174.3733,-36.1812,0.6947],[174.3773,-36.1806,4.1703],[174.3792,-36.1829,6.0604],[174.3825,-36.1833,15.1893],[174.3843,-36.1862,4.7032],[174.3831,-36.1899,13.3776],[174.3842,-36.191,13.3776],[174.3813,-36.1905,7.1046],[174.3822,-36.1881,10.2398],[174.3802,-36.1859,4.3834],[174.3728,-36.1839,4.1986],[174.3764,-36.1929,16.5027],[174.3753,-36.1947,28.9021],[174.3697,-36.1963,0.0],[174.3693,-36.2006,0.0],[174.3712,-36.202,0.7943],[174.3725,-36.2004,26.4904],[174.3729,-36.2019,5.3604],[174.3765,-36.2006,22.4741],[174.3794,-36.2021,3.5454],[174.3777,-36.2056,2.9037],[174.3814,-36.2094,11.1713],[174.3765,-36.2067,6.3759],[174.3753,-36.2087,8.5697],[174.3761,-36.2123,6.3029],[174.375,-36.2119,6.3029],[174.3742,-36.2047,0.0],[174.3707,-36.2053,9.2864],[174.3719,-36.2043,1.6091],[174.3685,-36.2039,1.8931],[174.3647,-36.2061,0.0],[174.3627,-36.2101,0.0],[174.3631,-36.2136,2.1925],[174.3639,-36.2146,5.4747],[174.3649,-36.2131,8.0436],[174.3663,-36.2157,7.5682],[174.3635,-36.2157,14.8677],[174.3596,-36.2124,0.8216],[174.3567,-36.2134,14.1938],[174.3532,-36.2117,4.5888],[174.3403,-36.2192,3.0237],[174.3412,-36.2217,0.0],[174.3451,-36.2241,1.0501],[174.3561,-36.2266,8.6589],[174.3516,-36.2284,8.5213],[174.3446,-36.2248,13.2599],[174.3394,-36.2259,14.3476],[174.3386,-36.2313,3.5566],[174.3434,-36.2326,11.8997],[174.3451,-36.2353,10.4588],[174.3397,-36.2322,4.4815],[174.3392,-36.2342,8.3873],[174.3369,-36.2304,3.5834],[174.3339,-36.2324,12.6981],[174.3356,-36.2301,3.5834],[174.3333,-36.2283,2.7183],[174.3362,-36.2264,0.921],[174.3285,-36.2276,0.0],[174.328,-36.23,4.2151],[174.3224,-36.234,0.0],[174.3215,-36.2383,13.0259],[174.3235,-36.2491,0.0],[174.3288,-36.244,20.5063],[174.3345,-36.2449,1.6423],[174.3351,-36.2471,4.4408],[174.3365,-36.247,4.4408],[174.3336,-36.2477,1.6563],[174.3307,-36.2512,0.0],[174.3349,-36.2536,0.0],[174.3346,-36.2581,0.0],[174.3385,-36.259,4.0463],[174.34,-36.257,7.728],[174.3488,-36.2547,2.595],[174.3474,-36.2589,6.1294],[174.35,-36.2606,9.2573],[174.3516,-36.2646,0.0],[174.355,-36.2657,4.0626],[174.3532,-36.2681,0.0],[174.3616,-36.2731,2.8512],[174.3625,-36.2718,8.4441],[174.3669,-36.272,10.983],[174.3677,-36.2731,11.2272],[174.3635,-36.2734,2.301],[174.3624,-36.2767,10.2899],[174.359,-36.276,1.0269],[174.3611,-36.2809,5.7305],[174.3586,-36.28,7.852],[174.3564,-36.2757,1.7263],[174.3538,-36.2752,5.9553],[174.3505,-36.2773,2.3784],[174.3507,-36.2805,4.5672],[174.3482,-36.28,7.7986],[174.3449,-36.2828,3.2147],[174.3419,-36.2823,7.0044],[174.3418,-36.282,7.0044],[174.344,-36.2805,6.0675],[174.3423,-36.2795,15.7586],[174.3485,-36.2746,0.9992],[174.3489,-36.2672,2.5807],[174.345,-36.2688,16.1177],[174.3454,-36.2666,3.5118],[174.3466,-36.2666,3.5118],[174.3461,-36.2663,3.5118],[174.3444,-36.2662,0.0],[174.3421,-36.2669,6.6515],[174.3365,-36.2642,0.0],[174.3349,-36.2724,7.7534],[174.333,-36.2688,14.0681],[174.3339,-36.2662,2.6961],[174.3324,-36.263,22.6276],[174.3281,-36.2633,1.714],[174.3249,-36.2671,12.0358],[174.3259,-36.2698,14.1482],[174.3209,-36.2684,16.1117],[174.3182,-36.2725,14.7375],[174.318,-36.2682,12.1666],[174.3148,-36.2678,9.1339],[174.3193,-36.2645,1.9714],[174.3218,-36.2576,0.7988],[174.3156,-36.2594,4.4978],[174.3146,-36.2573,2.2881],[174.3155,-36.2516,9.125],[174.3121,-36.2462,0.0],[174.3075,-36.2437,14.6157],[174.3006,-36.2444,0.0],[174.2995,-36.2494,16.9828],[174.2984,-36.2478,0.5859],[174.2912,-36.2484,4.4143],[174.2856,-36.2541,2.5474],[174.281,-36.2538,3.0958],[174.2706,-36.2622,3.6674],[174.2729,-36.2686,0.0],[174.2693,-36.2701,15.8089],[174.269,-36.2717,3.9945],[174.2729,-36.2734,3.3739],[174.2759,-36.2821,32.0514],[174.2752,-36.2856,0.0],[174.2785,-36.2857,19.7126],[174.2829,-36.2887,2.3162],[174.2849,-36.293,15.0749],[174.2841,-36.2954,11.23],[174.2864,-36.2951,0.0],[174.2862,-36.2927,3.63],[174.2887,-36.2892,3.5158],[174.2866,-36.2861,14.0703],[174.2889,-36.2867,4.0764],[174.2919,-36.29,0.0],[174.2959,-36.2892,18.4054],[174.2987,-36.2918,0.3847],[174.3023,-36.2901,20.4675],[174.3021,-36.2959,0.0],[174.3083,-36.3013,1.369],[174.3095,-36.3081,0.0],[174.3125,-36.3136,3.2831],[174.3196,-36.3134,0.0],[174.3242,-36.3051,7.4325],[174.3279,-36.3058,15.6723],[174.3299,-36.3119,21.1137],[174.3333,-36.3147,7.8408],[174.3398,-36.3169,3.8778],[174.3416,-36.3161,0.9609],[174.3407,-36.3138,6.3668],[174.3428,-36.3145,0.9997],[174.3462,-36.3127,0.4044],[174.3464,-36.306399999999996,0.8446],[174.3438,-36.3042,1.8279],[174.3468,-36.306399999999996,0.8446],[174.347,-36.3104,0.9568],[174.3505,-36.308,2.6431],[174.3533,-36.3101,0.0],[174.3561,-36.3086,0.0],[174.3536,-36.2999,9.4598],[174.3547,-36.2943,2.9225],[174.3589,-36.2885,4.3469],[174.3627,-36.2873,7.9934],[174.3737,-36.2756,8.9781],[174.3846,-36.276,1.3941],[174.3855,-36.28,18.6755],[174.3822,-36.2783,3.8451],[174.3835,-36.2772,0.7707],[174.3824,-36.2778,0.2751],[174.3803,-36.2805,0.0],[174.3819,-36.2848,2.6693],[174.3912,-36.288,0.0],[174.3977,-36.2881,0.0],[174.4021,-36.2811,14.795],[174.4158,-36.2725,7.7585],[174.4143,-36.2729,7.4068],[174.4139,-36.2716,7.4068],[174.4258,-36.2713,0.0],[174.4283,-36.2647,2.205],[174.4256,-36.2642,15.9867],[174.4296,-36.2621,7.2393],[174.4269,-36.2607,9.5057],[174.4263,-36.2583,7.491],[174.4279,-36.2579,3.7859],[174.4249,-36.2528,13.2875],[174.4323,-36.2603,5.9625],[174.4315,-36.2622,1.6335],[174.4329,-36.2628,1.7453],[174.4379,-36.262,1.9651],[174.4395,-36.2611,1.7701],[174.4393,-36.259,5.2705],[174.4405,-36.2605,2.3536],[174.4445,-36.2578,4.6139],[174.4428,-36.2571,2.5074],[174.4473,-36.2563,0.6971],[174.455,-36.2488,7.5658],[174.457,-36.2504,7.1292],[174.4583,-36.2496,7.1292],[174.4593,-36.2581,0.0],[174.4648,-36.2603,3.6532],[174.4674,-36.2587,4.1203],[174.4702,-36.2523,2.2808],[174.4662,-36.2517,13.3749],[174.4694,-36.2503,2.4977],[174.4681,-36.2488,14.857],[174.47,-36.2482,2.5775],[174.4724,-36.2433,6.6094],[174.4694,-36.2404,10.1642],[174.4708,-36.2387,8.1771],[174.4676,-36.2324,4.4568],[174.4649,-36.2313,10.067],[174.4636,-36.2331,13.3007],[174.4619,-36.2324,8.28],[174.4671,-36.2288,10.9394],[174.4718,-36.2339,2.4618],[174.4756,-36.2324,3.3905],[174.4729,-36.2291,11.3993],[174.475,-36.2248,15.3273],[174.4736,-36.2238,8.501],[174.474,-36.221,6.2658],[174.4717,-36.2168,2.5974],[174.4696,-36.2172,13.1992],[174.4715,-36.2162,5.7715],[174.4712,-36.2161,5.7715],[174.4687,-36.2164,19.7235],[174.466,-36.2174,10.0883],[174.4663,-36.217,10.0883],[174.4695,-36.2157,7.1197],[174.4703,-36.2157,7.1197],[174.4699,-36.2142,6.9473],[174.472,-36.2156,5.7715],[174.4725,-36.2134,5.8868],[174.4701,-36.2123,4.361],[174.4747,-36.2125,4.8571],[174.4727,-36.2183,10.3732],[174.4757,-36.22,7.6009],[174.4742,-36.2224,4.961],[174.4759,-36.2246,7.2681],[174.4743,-36.2286,2.3338],[174.4832,-36.228,17.3141],[174.4835,-36.2302,27.9467],[174.4857,-36.2291,31.6243],[174.4858,-36.2258,55.1773],[174.4886,-36.2231,74.6496],[174.4985,-36.2243,71.0384],[174.5185,-36.2105,152.5069],[174.523,-36.2101,175.1827],[174.5254,-36.2079,169.1274],[174.5232,-36.2047,167.9897],[174.5245,-36.2028,173.926],[174.5223,-36.1972,168.4272],[174.5303,-36.1896,176.3326],[174.5329,-36.1847,144.9936],[174.5459,-36.1795,143.6466],[174.548,-36.1802,165.5238],[174.5518,-36.1774,144.3854],[174.5628,-36.1791,155.4621],[174.5641,-36.1738,107.057],[174.5658,-36.1741,102.6586],[174.5657,-36.1714,104.1833],[174.5703,-36.172,103.4461],[174.5712,-36.1662,34.4789],[174.5799,-36.167,81.0863],[174.5826,-36.1646,98.414],[174.5827,-36.162,109.6998],[174.5852,-36.1608,76.033],[174.5867,-36.1577,62.3705],[174.5839,-36.1561,54.2793],[174.5824,-36.1483,46.2981],[174.5833,-36.1454,48.0616],[174.5884,-36.1405,59.353],[174.5937,-36.1418,54.2785],[174.5986,-36.1403,53.1219],[174.6017,-36.1367,37.4248],[174.6008,-36.1332,17.3503],[174.6068,-36.1328,18.7675],[174.6069,-36.1302,17.5281],[174.6045,-36.1271,25.7901],[174.6068,-36.1213,20.3153]]]]}
,"properties": {"GID_2": "NZL.11.2_1","GID_0": "NZL","country": "NewZealand","GID_1": "NZL.11_1","province": "Northland","NL_NAME_1": "NA","county": "Kaipara","VARNAME_2": "NA","NL_NAME_2": "NA","TYPE_2": "District","ENGTYPE_2": "District","CC_2": "003","HASC_2": "NZ.NO.KP","name": "Kaipara.county","area_km2": 3107.172,"hist_schema_id": "Elevation0-9000","hist_area_km2": {"0": 469.7,"25": 544.58,"50": 593.246,"75": 485.732,"100": 299.413,"125": 154.983,"150": 96.655,"175": 59.078,"200": 46.929,"225": 40.148,"250": 32.997,"275": 28.268,"300": 24.867,"325": 20.911,"350": 20.278,"375": 17.592,"400": 16.442,"425": 18.183,"450": 20.907,"475": 21.356,"500": 20.754,"525": 17.637,"550": 15.174,"575": 12.867,"600": 8.404,"625": 8.831,"650": 6.094,"675": 3.133,"700": 1.428,"725": 0.447,"750": 0.138}}}