{"type": "Feature","bbox": [175.29279141380664,-39.637327574653909,176.02447567309946,-38.866977074016347],"geometry": {"type": "Polygon","coordinates": [[[175.7210943948561,-38.866977074016347,445.7251],[175.55750645070543,-38.899694662846514,656.6112],[175.41295419460084,-39.0210471741442,627.2948],[175.29279141380664,-39.247690834949196,654.065],[175.32848332889409,-39.494559914304091,591.5209],[175.67647950099695,-39.637327574653909,650.8621],[175.91442560157975,-39.506457219333242,797.1609],[176.02447567309946,-39.194152962318014,1197.1469],[175.97986077924031,-38.956206861734984,583.3352],[175.7210943948561,-38.866977074016347,445.7251]]]}
,"properties": {"featurecla": "Plateau","name": "N.I. Volcanic Plateau","namealt": null,"region": "Oceania","subregion": "New Zealand","min_label": 5.4,"max_label": 10.0,"scalerank": 5,"area_km2": 3954.782,"hist_schema_id": "Elevation0-9000","hist_area_km2": {"325": 0.28,"350": 72.765,"375": 29.838,"400": 24.856,"425": 29.268,"450": 35.931,"475": 46.194,"500": 52.13,"525": 63.88,"550": 80.361,"575": 135.756,"600": 137.418,"625": 151.96,"650": 153.086,"675": 144.705,"700": 147.564,"725": 143.294,"750": 132.642,"775": 124.474,"800": 133.195,"825": 137.188,"850": 124.214,"875": 116.263,"900": 110.25,"925": 100.869,"950": 91.849,"975": 90.4,"1000": 90.76,"1025": 88.279,"1050": 85.057,"1075": 92.45,"1100": 80.246,"1125": 75.462,"1150": 71.163,"1175": 69.835,"1200": 63.95,"1225": 60.471,"1250": 57.582,"1275": 52.375,"1300": 51.356,"1325": 50.52,"1350": 43.872,"1375": 38.917,"1400": 34.142,"1425": 31.008,"1450": 26.098,"1475": 20.267,"1500": 16.853,"1525": 15.473,"1550": 13.124,"1575": 12.006,"1600": 9.788,"1625": 8.375,"1650": 7.013,"1675": 6.011,"1700": 6.225,"1725": 5.42,"1750": 4.697,"1775": 4.368,"1800": 3.711,"1825": 3.875,"1850": 3.844,"1875": 2.627,"1900": 2.266,"1925": 2.282,"1950": 2.298,"1975": 1.871,"2000": 1.773,"2025": 1.789,"2050": 1.576,"2075": 1.707,"2100": 1.395,"2125": 1.576,"2150": 0.968,"2175": 1.28,"2200": 1.133,"2225": 1.247,"2250": 1.067,"2275": 0.919,"2300": 0.739,"2325": 0.952,"2350": 0.804,"2375": 0.624,"2400": 0.771,"2425": 0.739,"2450": 0.853,"2475": 0.591,"2500": 0.739,"2525": 0.968,"2550": 0.706,"2575": 0.804,"2600": 1.247,"2625": 0.525,"2650": 0.312,"2675": 0.164,"2700": 0.181,"2750": 0.049}}}