{"type":"Feature","properties":{"ISO3166-1-Alpha-3":"NZL","country":"New Zealand","fill":"#FF0","id":"5469","name":"Wellington"},
"geometry":{"type": "MultiPolygon","coordinates": [[[[174.89617,-40.88795,0.0],[174.93409,-40.85499,0.0],[174.9511,-40.8305,3.9809],[174.9489,-40.82529,3.9385],[174.94003,-40.82187,76.7159],[174.93442,-40.82277,20.7667],[174.92677,-40.82358,80.6644],[174.9214,-40.82627,0.0],[174.91204,-40.84385,51.3921],[174.90675,-40.85019,55.027],[174.87607,-40.87444,37.523],[174.87241,-40.87933,90.4968],[174.87013,-40.88486,69.8658],[174.87355,-40.89007,0.0],[174.88006,-40.8921,0.0],[174.89617,-40.88795,0.0]]],
[[[176.22184,-40.75336,320.7825],[176.1299,-40.73701,218.3456],[175.99504,-40.73292,317.7877],[175.80093,-40.75336,182.1527],[175.64564,-40.77175,313.0897],[175.48773,-40.78503,527.3804],[175.45984,-40.77762,1202.348],[175.40873,-40.76404,1145.319],[175.40404,-40.7628,988.0324],[175.3295,-40.77849,716.5414],[175.20004,-40.77587,170.6537],[175.09542,-40.79287,2.0747],[175.06462,-40.79218,0.0],[175.03826,-40.82586,0.0],[174.97918,-40.87493,0.0],[174.96998,-40.89007,0.0],[174.9489,-40.93572,0.0],[174.94557,-40.96071,0.0],[174.94272,-40.97064,0.0],[174.93523,-40.98301,0.0],[174.92661,-40.99212,0.0],[174.91505,-41.00123,0.0],[174.90235,-41.00807,0.0],[174.89088,-41.01084,0.0],[174.87892,-41.01507,0.0],[174.86134,-41.0333,0.0],[174.84986,-41.03753,0.0],[174.84197,-41.04372,0.0],[174.84946,-41.0569,189.2745],[174.8615,-41.06902,29.7804],[174.86687,-41.07171,103.1801],[174.87086,-41.08506,10.0804],[174.87127,-41.09531,22.3226],[174.86598,-41.10418,0.0],[174.85328,-41.11321,0.0],[174.8401,-41.08717,0.0],[174.82993,-41.08758,0.0],[174.81691,-41.09922,0.0],[174.79526,-41.10638,0.0],[174.78004,-41.11614,0.0],[174.75554,-41.15879,0.0],[174.73024,-41.1762,0.0],[174.69166,-41.21201,0.0],[174.67514,-41.22308,0.0],[174.62973,-41.22991,0.0],[174.6115,-41.2374,0.0],[174.59995,-41.25726,0.0],[174.60939,-41.29192,0.0],[174.64601,-41.32041,210.806],[174.69483,-41.33953,264.7407],[174.74057,-41.34661,21.1895],[174.75375,-41.34197,134.2265],[174.76612,-41.33294,107.72],[174.7776,-41.32635,69.9856],[174.7881,-41.32928,58.2799],[174.79933,-41.33554,0.0],[174.81007,-41.33375,5.3484],[174.81935,-41.32733,7.4851],[174.82594,-41.31943,97.0938],[174.83229,-41.29648,30.0496],[174.81813,-41.28672,0.0],[174.77133,-41.27776,50.9513],[174.77703,-41.26165,112.1211],[174.78541,-41.24944,138.3648],[174.79721,-41.23943,183.7023],[174.813,-41.22991,186.8945],[174.83375,-41.22259,205.406],[174.86329,-41.21868,51.3027],[174.88966,-41.22454,2.6449],[174.90113,-41.247,2.1398],[174.89649,-41.27256,0.0],[174.87452,-41.31178,0.0],[174.86687,-41.33294,155.8712],[174.86817,-41.35735,60.9483],[174.87477,-41.37566,117.6637],[174.87664,-41.39219,33.4463],[174.86354,-41.41123,0.0],[174.86557,-41.41953,0.0],[174.87908,-41.42986,0.0],[174.90113,-41.44215,0.0],[174.91717,-41.445,0.0],[174.92791,-41.44362,0.0],[174.93751,-41.43808,0.0],[174.98658,-41.39788,0.0],[175.00953,-41.38567,17.3281],[175.03517,-41.38079,0.0],[175.06227,-41.38307,0.0],[175.18181,-41.4179,0.0],[175.19272,-41.4249,0.0],[175.19744,-41.43564,0.0],[175.18133,-41.51002,0.0],[175.18214,-41.5241,0.0],[175.18873,-41.53639,0.0],[175.19728,-41.54656,0.0],[175.20191,-41.55755,0.0],[175.19654,-41.57252,0.0],[175.21241,-41.58245,0.0],[175.22169,-41.6137,0.0],[175.23748,-41.62029,0.0],[175.31414,-41.61484,0.0],[175.33033,-41.6098,0.0],[175.36345,-41.58164,0.0],[175.37989,-41.57244,0.0],[175.44842,-41.55185,228.0988],[175.66871,-41.42164,0.0],[175.72722,-41.39886,0.0],[175.77735,-41.37151,0.0],[175.81422,-41.34189,149.1104],[175.96681,-41.247,0.0],[176.06813,-41.13983,0.0],[176.08937,-41.10198,0.0],[176.12135,-41.01084,0.0],[176.1325,-40.98992,0.0],[176.14975,-40.96705,0.0],[176.17091,-40.94891,0.0],[176.22039,-40.93328,0.0],[176.23561,-40.914,0.0],[176.25172,-40.86679,0.0],[176.28663,-40.80023,0.0],[176.25249,-40.78605,177.2842],[176.22184,-40.75336,320.7825]]]]}}