{"type":"Feature","properties":{"featurecla":"River","scalerank":10,"rivernum":2010,"dissolve":"2010River","name":"Hutt","name_alt":null,"note":null,"min_zoom":7.2,"strokeweig":0.2,"name_en":"Hutt","min_label":8.2},
"geometry":{"type": "LineString","coordinates": [[175.131674321646,-41.085303021680659,103.2321],[175.12455699396619,-41.089862559725525,91.0147],[175.11646453971403,-41.094133147437951,88.3932],[175.10312668968464,-41.090821894646432,93.8301],[175.09695290527432,-41.091781229567339,79.472],[175.09076364772008,-41.10081754559652,83.7236],[175.09218717695757,-41.108430332388224,73.1743],[175.09218717695757,-41.114619589942457,70.5599],[175.07648193591368,-41.115083784259028,59.9241],[175.05697030147397,-41.115083784259028,53.4765],[175.042224395351,-41.117930842733976,54.9058],[175.00700751986741,-41.138386338950717,42.9679],[174.96798425098797,-41.165526233326027,22.2312],[174.93134384626694,-41.189819069226388,16.972],[174.89801469433738,-41.207891701284751,33.1915],[174.89612697078334,-41.2173922116305,4.4401],[174.89897402925828,-41.22645947394745,0.0],[174.89813847948847,-41.241128014350977,0.0]]}}