{"type":"Feature","properties":{"featurecla":"River","scalerank":10,"rivernum":2010,"dissolve":"2010River","name":"Hutt1","name_alt":null,"note":null,"min_zoom":7.2,"strokeweig":0.15,"name_en":"Hutt","min_label":8.2},
"geometry":{"type": "LineString","coordinates": [[175.20877731613541,-41.051303485162656,493.1265],[175.20164419680415,-41.045609368212766,553.7745],[175.19545493924994,-41.049415761608614,503.5055],[175.19116887839363,-41.057028548400325,195.787],[175.18784215245822,-41.057028548400325,218.8037],[175.18117322744354,-41.056069213479418,206.5041],[175.17071338217687,-41.055605019162847,212.761],[175.16594765386012,-41.062753611637987,213.4603],[175.15691133783093,-41.063217805954558,167.3758],[175.14501249018292,-41.067024199350406,214.3899],[175.14214995856409,-41.074636986142117,123.7797],[175.13644036847032,-41.082249772933821,136.3911],[175.131674321646,-41.085303021680659,103.2321]]}}