{"type": "Feature","bbox": [174.6133,-41.6135,176.2716,-40.6729],"geometry": {"type": "MultiPolygon","coordinates": [[[[174.7827,-41.0778,1.1633],[174.7809,-41.0778,0.6218],[174.7711,-41.0918,13.9647],[174.7726,-41.0974,14.9296],[174.7839,-41.0947,0.0],[174.7896,-41.0904,2.1304],[174.7882,-41.0863,0.0],[174.79,-41.0794,0.0],[174.7827,-41.0778,1.1633]]],
[[[174.9036,-40.8892,0.0],[174.9023,-40.8893,1.3918],[174.9023,-40.89,1.1705],[174.903,-40.8902,1.1705],[174.9036,-40.8892,0.0]]],
[[[174.9013,-40.8883,1.3918],[174.9016,-40.8879,0.0],[174.9014,-40.8855,0.0],[174.9009,-40.8873,0.0],[174.9013,-40.8883,1.3918]]],
[[[174.9264,-40.8811,0.0],[174.9273,-40.8809,0.0],[174.9275,-40.8803,0.0],[174.9265,-40.8802,0.0],[174.9264,-40.8811,0.0]]],
[[[174.9436,-40.8222,2.145],[174.9387,-40.8202,9.7426],[174.9324,-40.8227,0.9389],[174.9238,-40.8227,0.0],[174.9226,-40.821,0.0],[174.9201,-40.8222,0.0],[174.9192,-40.8235,0.0],[174.921,-40.8257,0.0],[174.9208,-40.8281,18.1873],[174.9153,-40.8309,0.0],[174.9154,-40.8379,135.4305],[174.9121,-40.843,51.3921],[174.9096,-40.8456,43.0225],[174.9073,-40.8458,3.6627],[174.9072,-40.8482,155.0914],[174.9008,-40.855,48.4595],[174.891,-40.8572,6.3662],[174.8907,-40.8611,109.8657],[174.8877,-40.8645,0.0],[174.8851,-40.8652,6.3891],[174.8845,-40.8676,1.9848],[174.8797,-40.8686,0.0],[174.8804,-40.8701,144.0528],[174.873,-40.8755,68.3013],[174.869,-40.876,0.7111],[174.8708,-40.8812,7.9583],[174.8688,-40.8862,5.5124],[174.8757,-40.8905,0.0],[174.8792,-40.8887,8.1614],[174.8827,-40.8904,0.0],[174.8841,-40.8884,1.7762],[174.8866,-40.8902,0.0],[174.9024,-40.8806,11.4142],[174.9113,-40.8707,5.7094],[174.9181,-40.8683,0.0],[174.9259,-40.8598,0.0],[174.9351,-40.8533,0.0],[174.9335,-40.8498,72.3797],[174.9441,-40.8324,6.7319],[174.9512,-40.8315,0.0],[174.9544,-40.8288,2.1627],[174.9515,-40.8256,0.0],[174.9436,-40.8222,2.145]]],
[[[174.9008,-41.253,0.0],[174.901,-41.253,0.0],[174.901,-41.2529,0.0],[174.9009,-41.2529,0.0],[174.9008,-41.253,0.0]]],
[[[174.9016,-41.2518,0.0],[174.9019,-41.2521,0.0],[174.902,-41.252,0.0],[174.9015,-41.2514,0.0],[174.9016,-41.2518,0.0]]],
[[[174.8647,-41.252,0.0],[174.8654,-41.251,0.0],[174.865,-41.2507,0.0],[174.8644,-41.2512,0.0],[174.8647,-41.252,0.0]]],
[[[174.7734,-41.3489,2.0057],[174.7715,-41.3479,0.0],[174.7721,-41.3499,0.3978],[174.7747,-41.3489,2.0057],[174.7734,-41.3489,2.0057]]],
[[[174.8093,-41.3453,0.3911],[174.811,-41.3446,0.0],[174.8096,-41.3425,0.0],[174.8093,-41.3435,0.1459],[174.8093,-41.3453,0.3911]]],
[[[174.8304,-41.3186,0.0],[174.8304,-41.3187,0.0],[174.8305,-41.3186,0.0],[174.8304,-41.3186,0.0]]],
[[[174.7975,-41.312,0.8358],[174.7995,-41.312,0.0],[174.7975,-41.3119,0.8358],[174.7975,-41.312,0.8358]]],
[[[174.8719,-41.2931,0.0],[174.871,-41.2931,0.0],[174.8709,-41.2948,0.0],[174.8725,-41.2936,0.0],[174.8719,-41.2931,0.0]]],
[[[174.8621,-41.2596,0.0],[174.8622,-41.2597,0.0],[174.8622,-41.2595,0.0],[174.8621,-41.2596,0.0]]],
[[[174.8623,-41.2592,0.0],[174.866,-41.2619,0.0],[174.8679,-41.26,19.3424],[174.8678,-41.2561,4.2495],[174.8653,-41.2526,0.0],[174.8644,-41.2555,31.0622],[174.8623,-41.2592,0.0]]],
[[[174.9006,-41.2538,0.0],[174.9006,-41.2537,0.0],[174.9006,-41.2534,0.0],[174.9004,-41.2538,0.0],[174.9006,-41.2538,0.0]]],
[[[174.7873,-41.2658,2.029],[174.7874,-41.2658,2.029],[174.7874,-41.2657,2.029],[174.7873,-41.2658,2.029]]],
[[[174.7874,-41.2656,2.029],[174.7872,-41.2656,2.029],[174.7874,-41.2657,2.029],[174.7874,-41.2656,2.029]]],
[[[174.7868,-41.265,2.029],[174.7871,-41.2661,2.029],[174.7872,-41.2661,2.029],[174.7868,-41.2647,2.029],[174.7868,-41.265,2.029]]],
[[[174.8503,-41.2273,8.7078],[174.8576,-41.2248,0.834],[174.8673,-41.2261,3.8869],[174.872,-41.2274,1.1215],[174.8702,-41.23,0.0],[174.8721,-41.2275,1.1215],[174.8883,-41.2317,0.1616],[174.8951,-41.2356,2.1905],[174.8978,-41.2389,0.6522],[174.8991,-41.2377,0.0],[174.8986,-41.2356,3.5928],[174.901,-41.2367,1.9754],[174.901,-41.2418,3.362],[174.899,-41.246,3.0161],[174.9009,-41.2471,0.906],[174.9006,-41.2499,0.0],[174.902,-41.2514,0.0],[174.9007,-41.2498,0.0],[174.9014,-41.2478,2.1398],[174.903,-41.2479,2.1398],[174.9031,-41.2501,0.0],[174.9055,-41.2489,0.8508],[174.9058,-41.2506,6.2664],[174.9032,-41.2518,12.7726],[174.8989,-41.2576,0.0],[174.8985,-41.2562,0.0],[174.8987,-41.2589,0.0],[174.9025,-41.2533,0.0],[174.9041,-41.2531,0.0],[174.9104,-41.2556,7.547],[174.9125,-41.2581,0.0],[174.912,-41.2598,31.8267],[174.9078,-41.2606,0.0],[174.91,-41.2644,13.0275],[174.9065,-41.2672,0.0],[174.9079,-41.2704,28.1853],[174.9063,-41.2713,0.0],[174.9061,-41.2747,20.2773],[174.9031,-41.2768,5.0555],[174.9055,-41.2782,0.0],[174.9063,-41.2819,0.3537],[174.9002,-41.2869,1.4726],[174.8959,-41.2885,0.0],[174.8968,-41.2894,0.0],[174.8929,-41.2924,3.4369],[174.8922,-41.299,1.2899],[174.8885,-41.3044,0.0],[174.8846,-41.3067,21.0635],[174.8838,-41.3106,4.5928],[174.879,-41.3162,1.5261],[174.8719,-41.3184,0.0],[174.8712,-41.3253,5.9386],[174.8646,-41.3316,51.9753],[174.8625,-41.3317,5.351],[174.8589,-41.3368,40.2666],[174.8588,-41.3408,39.6563],[174.852,-41.3492,2.7469],[174.8526,-41.3533,6.3271],[174.8479,-41.3593,24.9801],[174.8504,-41.361,29.0469],[174.8507,-41.364,8.8882],[174.8567,-41.366,9.4586],[174.86,-41.3722,10.6283],[174.8683,-41.3772,17.0278],[174.8746,-41.384,28.146],[174.8764,-41.3886,2.7836],[174.8748,-41.3927,1.643],[174.8659,-41.4008,0.0],[174.8688,-41.4099,0.0],[174.9014,-41.418,2.8269],[174.915,-41.436,2.4774],[174.9187,-41.4368,4.3825],[174.9395,-41.4253,4.6632999999999996],[174.9569,-41.4128,28.6737],[174.9778,-41.4048,0.0],[174.9788,-41.4028,63.0215],[174.9827,-41.4026,21.259],[174.9861,-41.396,7.2852],[174.9934,-41.3908,82.4796],[175.0052,-41.3891,9.6313],[175.0147,-41.3898,0.0],[175.0182,-41.3866,22.549],[175.0339,-41.3798,0.335],[175.042,-41.3735,1.498],[175.0485,-41.3737,2.1516],[175.1207,-41.3893,4.7831],[175.1514,-41.4013,0.0],[175.1496,-41.3983,4.3046],[175.1558,-41.4026,18.717],[175.1965,-41.4189,35.8349],[175.2166,-41.4313,12.1579],[175.2154,-41.4406,0.0],[175.2213,-41.453,0.0],[175.2182,-41.4624,7.8373],[175.211,-41.4678,0.0],[175.2111,-41.4709,0.0],[175.2077,-41.4749,3.7014],[175.2086,-41.4999,3.3204],[175.1949,-41.5265,0.0],[175.207,-41.5316,3.0413],[175.2175,-41.5402,0.0],[175.2179,-41.5469,3.3033],[175.2223,-41.5518,3.4211],[175.2209,-41.5602,0.0],[175.2222,-41.5708,3.4013],[175.2247,-41.5739,3.4741],[175.2266,-41.5814,1.2806],[175.2339,-41.5848,1.7061],[175.2319,-41.5911,0.0],[175.2367,-41.6077,1.0967],[175.2419,-41.6034,0.0],[175.2557,-41.6029,25.9597],[175.2699,-41.6071,21.9132],[175.2737,-41.6096,4.0433],[175.2735,-41.6116,2.777],[175.2856,-41.6107,9.4885],[175.2909,-41.6135,2.0602],[175.3095,-41.6076,6.967],[175.3248,-41.6064,1.8192],[175.3364,-41.5956,14.8833],[175.3479,-41.5926,2.6934],[175.3474,-41.5908,60.1177],[175.3491,-41.5922,2.6934],[175.3556,-41.5849,0.0],[175.3609,-41.586,0.0],[175.3582,-41.5825,1.6258],[175.3624,-41.5738,2.2376],[175.3661,-41.5716,2.2399],[175.3837,-41.5678,3.6904],[175.3909,-41.5675,4.7653],[175.3957,-41.5692,0.552],[175.3968,-41.5669,4.9653],[175.4075,-41.5659,4.0324],[175.4249,-41.5672,0.0],[175.4295,-41.5722,2.2516],[175.4317,-41.5723,3.7696],[175.4333,-41.5689,8.3862],[175.4415,-41.5663,1.1847],[175.4448,-41.5626,3.0853],[175.4525,-41.558,0.0],[175.4563,-41.5526,7.5389],[175.4648,-41.5519,0.418],[175.4761,-41.5422,5.138],[175.4799,-41.5367,0.2742],[175.4976,-41.5279,4.7748],[175.5075,-41.5106,4.1954],[175.5125,-41.5095,0.0],[175.5196,-41.5046,0.0],[175.5276,-41.5043,4.0209],[175.5311,-41.5058,0.0],[175.5327,-41.4975,0.0],[175.5344,-41.4955,14.8782],[175.544,-41.4975,0.6543],[175.5495,-41.4952,1.996],[175.5508,-41.4961,1.996],[175.5529,-41.493899999999996,5.3771],[175.5668,-41.4916,0.622],[175.5724,-41.4884,2.4605],[175.5729,-41.4855,46.3848],[175.5758,-41.4842,2.0383],[175.5795,-41.4868,0.0],[175.5852,-41.4874,1.955],[175.5934,-41.4789,2.3959],[175.5972,-41.4786,2.1085],[175.6036,-41.4748,0.7417],[175.6079,-41.4665,6.2487],[175.6132,-41.4621,1.6417],[175.6221,-41.4598,0.9487],[175.6343,-41.4533,1.7709],[175.639,-41.4482,0.6942],[175.6397,-41.4453,0.9848],[175.649,-41.4417,1.743],[175.6537,-41.4374,1.8228],[175.6578,-41.4304,5.0692],[175.6639,-41.4286,0.0],[175.6639,-41.4256,4.2398],[175.6744,-41.4143,24.8351],[175.6844,-41.4145,61.4532],[175.6902,-41.4081,0.0],[175.702,-41.4053,2.5315],[175.7102,-41.4054,0.2189],[175.711,-41.4016,2.0524],[175.7166,-41.401,2.8071],[175.7234,-41.3954,3.4333],[175.7398,-41.3911,13.1786],[175.7443,-41.3913,0.468],[175.7608,-41.3808,16.1188],[175.767,-41.3788,5.0427],[175.7704,-41.3702,4.6619],[175.8108,-41.3605,0.0],[175.8136,-41.3552,1.1025],[175.8172,-41.3549,0.3993],[175.8209,-41.3482,0.0],[175.8252,-41.3479,1.3522],[175.8274,-41.3459,4.8687],[175.8313,-41.3466,0.2159],[175.8304,-41.3432,1.3679],[175.8316,-41.3408,4.618],[175.8374,-41.3367,1.0009],[175.8401,-41.3378,1.0738],[175.8398,-41.3328,1.3761],[175.8418,-41.3297,0.0],[175.8457,-41.3294,0.0],[175.8484,-41.3246,0.0],[175.857,-41.3212,1.6827],[175.8629,-41.317,0.0],[175.8669,-41.3019,0.9961],[175.8664,-41.2926,2.3893],[175.8689,-41.2872,0.6198],[175.8827,-41.2742,1.9635],[175.8887,-41.2717,0.0],[175.8993,-41.2633,0.0],[175.9145,-41.2565,2.0603],[175.9446,-41.2471,2.2207],[175.9513,-41.2474,1.7274],[175.9629,-41.2448,0.0],[175.9718,-41.2272,1.7447],[175.9843,-41.2164,8.7364],[175.9874,-41.2074,0.0],[175.9865,-41.2055,1.627],[175.9924,-41.2018,0.0],[175.9919,-41.1925,0.0],[175.9946,-41.1869,0.0],[175.9947,-41.1824,6.8074],[176.0037,-41.1712,9.697],[176.016,-41.1622,9.7729],[176.0179,-41.1589,3.837],[176.0456,-41.1436,0.0],[176.0526,-41.1352,0.0],[176.0632,-41.13,1.861],[176.0638,-41.1259,0.852],[176.0661,-41.1253,0.0],[176.0673,-41.1218,1.6106],[176.0655,-41.1191,1.0568],[176.066,-41.1154,0.0],[176.0701,-41.1111,0.0],[176.0689,-41.1038,1.3086],[176.0714,-41.0941,5.5433],[176.0767,-41.0839,1.3914],[176.0835,-41.0804,3.1383],[176.0856,-41.0776,6.7126],[176.0852,-41.0725,2.4026],[176.088,-41.0695,6.2452],[176.089,-41.0651,2.2169],[176.0944,-41.0583,2.7577],[176.0986,-41.0565,0.0],[176.0965,-41.0521,6.9041],[176.0972,-41.0446,3.3971],[176.0989,-41.0414,0.0],[176.1045,-41.0383,2.8519],[176.1029,-41.0313,0.2361],[176.1062,-41.0268,1.3343],[176.1049,-41.0227,0.5979],[176.1069,-41.0153,0.0],[176.1139,-41.0119,1.7977],[176.1285,-40.9983,0.5258],[176.1293,-40.9933,16.2177],[176.133,-40.9867,31.3165],[176.132,-40.9852,19.9014],[176.1333,-40.9781,13.5311],[176.1459,-40.9572,17.5107],[176.1557,-40.9475,2.2929],[176.1722,-40.9386,0.0],[176.1834,-40.9284,0.0],[176.1968,-40.9218,0.0],[176.2071,-40.9126,19.4777],[176.2132,-40.9104,9.4851],[176.2161,-40.9125,39.1315],[176.2197,-40.9118,11.346],[176.2216,-40.9098,16.8583],[176.2196,-40.9086,15.6567],[176.2202,-40.9072,0.0],[176.2286,-40.9043,0.0],[176.2238,-40.9081,0.0],[176.2266,-40.9073,0.0],[176.2325,-40.8999,0.0],[176.2324,-40.8993,0.0],[176.231,-40.8994,0.0],[176.229,-40.9023,0.0],[176.2251,-40.9014,9.6378],[176.2207,-40.898,7.814],[176.219,-40.8908,24.0003],[176.2198,-40.8863,36.7886],[176.2262,-40.873,0.0],[176.2249,-40.8715,4.4183],[176.2405,-40.8603,47.0573],[176.2448,-40.8515,0.0],[176.2448,-40.8443,6.1308],[176.2537,-40.8318,4.1618],[176.2574,-40.824,0.0],[176.2559,-40.8165,6.8485],[176.2588,-40.8122,3.2437],[176.2575,-40.8109,0.0],[176.2583,-40.806,2.3131],[176.2654,-40.795,0.0],[176.2641,-40.7918,5.919],[176.2674,-40.7895,0.0],[176.2672,-40.785,0.0],[176.2705,-40.7808,1.421],[176.2668,-40.7825,1.3227],[176.2641,-40.7808,1.4195],[176.2641,-40.7769,3.3733],[176.2621,-40.7751,10.2159],[176.2654,-40.7722,36.3346],[176.2629,-40.7665,12.5873],[176.2664,-40.7636,26.8406],[176.2593,-40.7616,16.953],[176.2582,-40.7598,11.0423],[176.2603,-40.7564,12.017],[176.2655,-40.7572,76.6289],[176.2636,-40.7533,9.8801],[176.2698,-40.7497,50.7005],[176.264,-40.7484,28.4416],[176.2637,-40.7465,17.1945],[176.2716,-40.7446,53.2103],[176.2661,-40.7401,12.8361],[176.2613,-40.7405,14.8261],[176.2604,-40.7384,16.7164],[176.2586,-40.74,14.8177],[176.2593,-40.7441,65.1986],[176.2551,-40.743,16.4539],[176.2525,-40.7455,20.1726],[176.2508,-40.744,19.6798],[176.2527,-40.7415,20.2797],[176.2497,-40.7401,22.1895],[176.2501,-40.7431,19.6798],[176.2466,-40.7409,26.5502],[176.2445,-40.734,47.1424],[176.2466,-40.7332,26.0091],[176.2506,-40.7349,29.1053],[176.2513,-40.7336,25.5127],[176.248,-40.7307,38.2393],[176.2376,-40.729,47.4339],[176.2413,-40.7259,70.9369],[176.2382,-40.7252,88.2073],[176.2365,-40.7211,43.8487],[176.2398,-40.7201,39.1156],[176.2413,-40.7176,45.7968],[176.2344,-40.7157,39.723],[176.2343,-40.7124,52.3605],[176.2315,-40.7109,50.577],[176.2342,-40.7076,49.7489],[176.2258,-40.7083,72.4283],[176.2252,-40.707,55.6677],[176.228,-40.7054,63.2058],[176.2225,-40.7032,65.4914],[176.2191,-40.7056,58.3957],[176.2167,-40.7034,69.7379],[176.2119,-40.7028,115.6824],[176.2092,-40.7052,80.812],[176.2082,-40.7024,95.8999],[176.2039,-40.7039,73.779],[176.2006,-40.7007,73.9131],[176.198,-40.7019,77.6693],[176.1976,-40.7004,77.1816],[176.1936,-40.6992,87.6049],[176.1908,-40.7007,82.6171],[176.1852,-40.6973,91.5469],[176.1756,-40.7009,89.6124],[176.1572,-40.6922,306.4017],[176.1625,-40.6822,392.8969],[176.1532,-40.677,232.7222],[176.1434,-40.6803,149.3038],[176.144,-40.6826,129.4761],[176.1414,-40.6807,145.2749],[176.1331,-40.6846,179.5746],[176.1299,-40.6824,165.7667],[176.1226,-40.6821,184.8128],[176.1181,-40.6788,213.6286],[176.1175,-40.6804,206.0562],[176.1116,-40.6794,198.0697],[176.1082,-40.6778,205.1395],[176.1072,-40.6742,206.1544],[176.1032,-40.6729,245.4813],[176.1,-40.6755,263.1501],[176.0939,-40.6751,301.199],[176.0823,-40.7082,339.3108],[176.0791,-40.7074,323.6015],[176.082,-40.7157,418.0546],[176.0748,-40.7132,412.8906],[176.062,-40.7146,375.2533],[176.0569,-40.713,331.5475],[176.0556,-40.7168,351.8371],[176.0475,-40.7146,331.9992],[176.0437,-40.7164,349.696],[176.0224,-40.7115,343.6885],[176.0242,-40.7073,284.5872],[176.0172,-40.7056,328.0068],[176.0125,-40.717,343.4741],[176.0106,-40.7132,419.3069],[175.9954,-40.725,431.6507],[175.9934,-40.7238,402.7497],[175.9888,-40.7259,362.2037],[175.9797,-40.7222,352.0916],[175.974,-40.7229,270.3559],[175.9776,-40.7269,296.403],[175.9775,-40.7295,308.0989],[175.9753,-40.7305,332.5601],[175.9777,-40.7305,311.4254],[175.9785,-40.7326,331.8205],[175.9714,-40.7367,416.9793],[175.9755,-40.7383,415.7008],[175.965,-40.7392,490.8006],[175.9606,-40.7364,478.8738],[175.9555,-40.7433,484.7231],[175.9516,-40.7435,493.3812],[175.9434,-40.7407,489.9603],[175.935,-40.7668,362.1676],[175.9099,-40.7509,301.4549],[175.8855,-40.7733,468.0127],[175.8716,-40.7779,331.2809],[175.8666,-40.7696,303.1491],[175.8628,-40.7698,336.8206],[175.8497,-40.7614,313.525],[175.8423,-40.7691,286.7023],[175.8363,-40.7656,316.4004],[175.8328,-40.7661,307.2752],[175.8304,-40.7645,263.3907],[175.8282,-40.7661,272.6003],[175.8272,-40.7655,272.6003],[175.8285,-40.7615,239.8218],[175.8269,-40.7609,281.1105],[175.8109,-40.7796,378.8237],[175.8033,-40.7758,274.5844],[175.8016,-40.7771,342.6661],[175.7974,-40.7758,331.213],[175.796,-40.7731,330.5561],[175.7886,-40.768,215.6608],[175.7855,-40.7723,215.9254],[175.7647,-40.7681,221.4926],[175.767,-40.7592,300.8836],[175.7664,-40.755,318.3445],[175.7677,-40.7531,308.0222],[175.7753,-40.7508,330.0583],[175.7762,-40.7453,352.3453],[175.7806,-40.7441,377.5765],[175.7816,-40.7395,399.4821],[175.7907,-40.7256,218.4236],[175.7781,-40.7239,275.762],[175.7765,-40.7197,323.1074],[175.774,-40.719,325.8386],[175.7771,-40.714,331.3656],[175.7807,-40.7114,351.6589],[175.7814,-40.7082,336.7241],[175.7701,-40.6989,346.0203],[175.7542,-40.7093,322.4484],[175.7572,-40.7057,308.9028],[175.7559,-40.7005,296.6376],[175.7524,-40.6974,288.5534],[175.6906,-40.6966,364.6342],[175.6905,-40.7049,454.8445],[175.6939,-40.705,459.1207],[175.6937,-40.7163,274.7621],[175.6823,-40.7161,293.6129],[175.6835,-40.7229,286.0045],[175.6759,-40.7294,295.0126],[175.6615,-40.7254,475.9409],[175.6583,-40.7282,400.4701],[175.6532,-40.7425,429.054],[175.628,-40.7427,488.2077],[175.6278,-40.7455,441.4408],[175.6321,-40.7463,506.5466],[175.6277,-40.7528,473.6859],[175.6085,-40.743899999999996,433.7854],[175.6053,-40.7447,448.1747],[175.5977,-40.7387,549.6598],[175.5905,-40.737,545.8588],[175.5874,-40.7342,639.6829],[175.5863,-40.7357,589.3043],[175.576,-40.7331,782.7725],[175.5678,-40.7366,789.2047],[175.5608,-40.7349,843.5503],[175.5591,-40.7326,832.9996],[175.5605,-40.7288,961.6417],[175.4734,-40.6934,1006.372],[175.4471,-40.7261,1458.5176],[175.4416,-40.742,1367.5535],[175.4343,-40.7464,1423.9028],[175.4227,-40.7454,1308.2762],[175.4074,-40.7358,937.717],[175.3967,-40.7372,850.716],[175.3888,-40.731,751.3478],[175.3775,-40.7325,833.1192],[175.3715,-40.7268,942.8621],[175.3676,-40.7277,828.3019],[175.3604,-40.7328,1061.6942],[175.3557,-40.7302,1070.0557],[175.3519,-40.7348,936.2517],[175.3529,-40.7462,967.181],[175.3468,-40.7521,1061.6687],[175.3411,-40.7493,817.8148],[175.3361,-40.7517,905.9896],[175.3316,-40.7459,850.0039],[175.3283,-40.7442,890.6603],[175.3266,-40.7494,870.7469],[175.3093,-40.7497,901.2489],[175.3051,-40.7524,932.0558],[175.3,-40.7533,906.2437],[175.2977,-40.7521,879.111],[175.2914,-40.7541,724.8915],[175.2768,-40.7663,654.6027],[175.2682,-40.7687,678.7131],[175.2614,-40.7656,655.6059],[175.2531,-40.7644,640.9024],[175.2438,-40.7584,583.0796],[175.2355,-40.756,417.5068],[175.2281,-40.7566,374.99],[175.219,-40.7625,290.0633],[175.2132,-40.7632,217.3926],[175.2079,-40.761,200.4282],[175.2011,-40.7612,102.4656],[175.2014,-40.7593,101.3046],[175.193,-40.7573,171.5747],[175.1931,-40.7526,188.1779],[175.1883,-40.7452,183.5805],[175.1887,-40.743,193.7872],[175.1898,-40.7418,199.2764],[175.1987,-40.7434,125.1095],[175.202,-40.739,131.6773],[175.2043,-40.7394,124.6876],[175.2065,-40.7321,51.3898],[175.2029,-40.7315,58.6575],[175.2044,-40.7303,54.8304],[175.1838,-40.7179,18.0928],[175.1784,-40.7214,20.2885],[175.1694,-40.7183,23.6735],[175.1707,-40.7107,20.7132],[175.1365,-40.7003,5.4651],[175.1233,-40.7255,0.516],[175.1239,-40.7282,1.5855],[175.1207,-40.7298,0.0],[175.0981,-40.7644,0.0],[175.0846,-40.7895,2.5367],[175.0633,-40.8204,0.0],[175.0631,-40.8243,4.049],[175.0589,-40.8268,3.3317],[175.0478,-40.8399,3.9985],[175.0308,-40.8555,5.5455],[175.03,-40.8585,2.7459],[175.0262,-40.8589,0.0],[175.0071,-40.8707,1.5731],[174.9906,-40.8782,3.6405],[174.9834,-40.8848,4.6841],[174.9782,-40.8959,4.14],[174.9779,-40.9185,6.7776],[174.974,-40.939,1.0143],[174.9687,-40.9559,0.0],[174.9598,-40.9729,3.3177],[174.9479,-40.9899,3.2195],[174.9387,-41.0004,8.8457],[174.9276,-41.0053,4.1668],[174.9148,-41.0175,0.3812],[174.9017,-41.025,7.5783],[174.8981,-41.0292,1.6131],[174.8866,-41.0279,0.0],[174.8822,-41.0299,38.7068],[174.8707,-41.0307,2.3809],[174.8705,-41.0343,7.3174],[174.8635,-41.0421,0.0],[174.856,-41.0465,84.7306],[174.8486,-41.0475,0.4634],[174.8463,-41.0499,57.5541],[174.8394,-41.0612,16.3103],[174.8393,-41.0642,74.4833],[174.8433,-41.0663,0.0],[174.8514,-41.066,28.5636],[174.8554,-41.0747,0.0],[174.859,-41.0744,4.4083],[174.8633,-41.0792,0.7325],[174.863,-41.0828,0.0],[174.8654,-41.0832,0.6293],[174.8672,-41.0867,2.4632],[174.8661,-41.0911,15.04],[174.8674,-41.0931,2.8678],[174.8648,-41.0983,1.7485],[174.8681,-41.1001,2.6444],[174.8688,-41.1033,0.0],[174.8617,-41.1098,0.0],[174.8587,-41.1157,1.7062],[174.8439,-41.1284,1.501],[174.8435,-41.1326,5.3841],[174.8408,-41.1296,3.6825],[174.8404,-41.1252,0.6275],[174.8373,-41.1247,3.8972],[174.8407,-41.1176,2.1279],[174.8441,-41.1141,3.5641],[174.851,-41.1133,8.1601],[174.855,-41.1101,0.0],[174.8537,-41.1071,21.5726],[174.8572,-41.1078,19.6935],[174.86,-41.1042,14.9756],[174.8629,-41.1031,3.9745],[174.8619,-41.0946,2.8307],[174.8544,-41.0934,1.2787],[174.8539,-41.0892,0.0],[174.8521,-41.0903,4.2481],[174.8495,-41.0887,0.0],[174.8488,-41.0905,7.6848],[174.8385,-41.0947,36.3512],[174.8353,-41.0995,3.2327],[174.833,-41.1002,0.9645],[174.8327,-41.1017,0.3231],[174.8362,-41.1037,0.0],[174.8339,-41.1076,1.3356],[174.8238,-41.1056,2.4438],[174.8218,-41.1073,10.7851],[174.8161,-41.1075,0.5892],[174.8121,-41.1119,26.4362],[174.8047,-41.1112,0.0],[174.8035,-41.1172,13.7495],[174.8053,-41.1191,14.9478],[174.8032,-41.1226,22.5901],[174.8005,-41.1241,3.9364],[174.7957,-41.1237,8.0382],[174.7927,-41.1281,74.0937],[174.7882,-41.1295,0.0],[174.7891,-41.1317,6.7573],[174.787,-41.1367,54.3266],[174.7797,-41.1421,38.2347],[174.7719,-41.1516,72.0397],[174.7682,-41.1531,58.0962],[174.7603,-41.1666,50.0976],[174.7513,-41.1714,84.9829],[174.7401,-41.1723,0.0],[174.7391,-41.1807,2.9718],[174.7286,-41.1875,0.0],[174.7278,-41.1935,2.0253],[174.7228,-41.1991,60.9899],[174.7182,-41.2128,21.4769],[174.7157,-41.2142,4.4176],[174.7142,-41.2192,35.0289],[174.7107,-41.2199,53.6543],[174.7059,-41.2184,13.1731],[174.7041,-41.2154,5.1676],[174.7007,-41.2186,28.0829],[174.6934,-41.2207,13.088],[174.6932,-41.2257,56.0833],[174.6892,-41.2325,39.5988],[174.6813,-41.2353,52.4893],[174.6759,-41.2352,7.1844],[174.6755,-41.2385,52.8429],[174.6696,-41.2412,0.0],[174.6645,-41.2468,14.871],[174.6595,-41.2452,52.2547],[174.6599,-41.2419,36.4083],[174.6574,-41.2388,25.4485],[174.6557,-41.2382,7.3389],[174.6546,-41.2418,69.032],[174.6509,-41.2449,8.0365],[174.649,-41.2437,20.7108],[174.647,-41.2383,20.7308],[174.6448,-41.2381,78.0991],[174.6425,-41.2424,15.8416],[174.623,-41.2603,1.4162],[174.62,-41.27,48.9893],[174.615,-41.2735,11.4031],[174.6155,-41.2779,34.4543],[174.6133,-41.2855,24.7034],[174.619,-41.2958,14.6612],[174.6274,-41.2946,0.6039],[174.631,-41.2963,0.0],[174.6329,-41.2993,14.2372],[174.6299,-41.3033,28.4811],[174.6316,-41.3053,38.3938],[174.6313,-41.3155,0.0],[174.6409,-41.3229,7.7976],[174.6473,-41.3254,3.703],[174.6485,-41.3301,0.9231],[174.655,-41.3319,9.6433],[174.6565,-41.3367,6.9945],[174.6598,-41.338,0.73],[174.6599,-41.3408,0.103],[174.6771,-41.34,4.0738],[174.678,-41.3424,0.0],[174.6819,-41.3441,36.8339],[174.6826,-41.3468,0.0],[174.6943,-41.3463,0.8473],[174.6962,-41.3473,8.5084],[174.6974,-41.3506,34.2911],[174.7016,-41.3523,41.9071],[174.704,-41.3567,1.5166],[174.7132,-41.3582,0.0],[174.7156,-41.3624,5.4949],[174.7203,-41.3584,3.0251],[174.7271,-41.3574,7.8507],[174.7279,-41.3544,71.1733],[174.7326,-41.3494,23.4316],[174.7406,-41.3489,0.0],[174.7434,-41.3468,9.0047],[174.7525,-41.349,7.1865],[174.7586,-41.3446,0.0],[174.7603,-41.3464,9.8871],[174.7594,-41.3484,0.4665],[174.7658,-41.349,1.9158],[174.7688,-41.348,0.0625],[174.7725,-41.3437,0.787],[174.7787,-41.3459,11.423],[174.7849,-41.3422,8.0662],[174.7873,-41.3432,3.0718],[174.788,-41.3458,5.1822],[174.7915,-41.3468,0.0],[174.7925,-41.345,0.0],[174.7912,-41.3413,23.9184],[174.7936,-41.3405,0.4559],[174.7938,-41.3384,1.2249],[174.7911,-41.3329,9.7087],[174.7986,-41.3286,1.1507],[174.8053,-41.3294,2.6948],[174.8051,-41.3348,4.4117],[174.8035,-41.3355,0.0],[174.81,-41.3369,0.8565],[174.8112,-41.3385,52.2735],[174.8097,-41.3422,0.0],[174.8149,-41.3427,29.3372],[174.816,-41.3442,0.4852],[174.8195,-41.3423,17.097],[174.8208,-41.3449,0.0],[174.8245,-41.34,8.0798],[174.8242,-41.3358,27.6733],[174.826,-41.335,1.0806],[174.8264,-41.3327,51.1451],[174.8286,-41.3329,19.8404],[174.8321,-41.3301,4.4048],[174.8379,-41.3316,0.0],[174.839,-41.3277,5.5267],[174.8378,-41.3236,0.0],[174.8293,-41.319,0.0],[174.8276,-41.3153,0.0],[174.8329,-41.3079,12.629],[174.8312,-41.3038,0.0],[174.8326,-41.2977,30.0496],[174.8369,-41.2955,21.7681],[174.8326,-41.2925,18.9611],[174.8342,-41.289,0.7557],[174.8298,-41.2886,19.1256],[174.8255,-41.2844,0.0],[174.821,-41.2917,5.999],[174.8222,-41.293,7.3085],[174.8204,-41.294,0.0],[174.8222,-41.2965,19.3322],[174.8173,-41.2989,0.0],[174.8183,-41.3017,0.0],[174.8119,-41.3102,2.2796],[174.8114,-41.3143,16.113],[174.8107,-41.3131,16.113],[174.8099,-41.3156,0.0],[174.803,-41.316,0.0],[174.797,-41.3123,0.8358],[174.7975,-41.3119,0.8358],[174.7988,-41.3109,0.0],[174.8001,-41.3115,0.0],[174.799,-41.3106,0.0],[174.7983,-41.3106,0.0],[174.7991,-41.306,24.8442],[174.8062,-41.3033,0.8299],[174.8045,-41.2974,0.0],[174.8055,-41.2956,2.3147],[174.8027,-41.2922,0.0],[174.804,-41.2917,0.0],[174.8041,-41.2861,0.0],[174.7962,-41.2908,9.5011],[174.7899,-41.2901,3.4477],[174.7864,-41.2915,15.2603],[174.7858,-41.2883,0.0],[174.7857,-41.2906,1.6845],[174.7806,-41.2897,5.516],[174.7793,-41.2822,2.7792],[174.7807,-41.2825,0.6961],[174.7809,-41.2811,7.5794],[174.7815,-41.2822,0.6961],[174.7817,-41.28,2.915],[174.7828,-41.2816,0.0],[174.7833,-41.2788,4.5116],[174.7846,-41.2819,1.0849],[174.7901,-41.281,0.0],[174.786,-41.2652,2.029],[174.7867,-41.2655,2.029],[174.7865,-41.2648,2.029],[174.7867,-41.2649,2.029],[174.7868,-41.2647,2.029],[174.7869,-41.2646,2.029],[174.7873,-41.2646,2.029],[174.7881,-41.2664,0.0],[174.7875,-41.2643,4.1278],[174.7904,-41.2627,2.3533],[174.7909,-41.2646,0.0],[174.7941,-41.264,0.0],[174.793,-41.2595,1.4813],[174.7944,-41.2582,0.0],[174.8125,-41.2495,2.3831],[174.8436,-41.2292,9.5939],[174.8503,-41.2273,8.7078]]]]}
,"properties": {"GID_1": "NZL.18_1","GID_0": "NZL","country": "NewZealand","province": "Wellington","VARNAME_1": "NA","NL_NAME_1": "NA","TYPE_1": "Region","ENGTYPE_1": "Region","CC_1": "09","HASC_1": "NZ.WG","ISO_1": "NZ-WGN","name": "Wellington.province","area_km2": 8044.199,"hist_schema_id": "Elevation0-9000","hist_area_km2": {"0": 491.06,"25": 393.946,"50": 410.179,"75": 411.267,"100": 450.961,"125": 438.623,"150": 451.378,"175": 455.991,"200": 499.502,"225": 492.258,"250": 454.518,"275": 404.867,"300": 346.83,"325": 296.113,"350": 249.058,"375": 205.064,"400": 172.84,"425": 149.441,"450": 129.007,"475": 115.162,"500": 102.877,"525": 92.058,"550": 79.35,"575": 71.716,"600": 65.575,"625": 58.404,"650": 53.871,"675": 46.237,"700": 44.159,"725": 39.918,"750": 35.883,"775": 33.261,"800": 28.118,"825": 26.67,"850": 21.904,"875": 21.303,"900": 18.915,"925": 17.507,"950": 16.627,"975": 14.688,"1000": 13.646,"1025": 13.855,"1050": 12.107,"1075": 11.724,"1100": 9.768,"1125": 8.805,"1150": 8.598,"1175": 8.148,"1200": 7.652,"1225": 7.155,"1250": 6.449,"1275": 6.048,"1300": 5.76,"1325": 4.749,"1350": 3.867,"1375": 2.663,"1400": 2.631,"1425": 1.524,"1450": 1.059,"1475": 0.546,"1500": 0.209,"1525": 0.112}}}