{"type":"Feature","properties":{"GID_2":"NZL.3.9_1","GID_0":"NZL","country":"NewZealand","GID_1":"NZL.3_1","province":"Canterbury","NL_NAME_1":"NA","county":"Waimate","VARNAME_2":"NA","NL_NAME_2":"NA","TYPE_2":"District","ENGTYPE_2":"District","CC_2":"066","HASC_2":"NZ.CA.WM","name":"Waimate.county"},
"geometry":{"type": "MultiPolygon","coordinates": [[[[170.2205,-44.466,361.0],[170.207,-44.4758,361.0],[170.2085,-44.479,361.0],[170.2186,-44.4862,361.0],[170.2153,-44.4874,361.0],[170.2098,-44.4857,361.0],[170.2023,-44.4887,361.0],[170.1966,-44.4968,361.0],[170.1998,-44.504,361.0],[170.199,-44.5057,361.0],[170.2013,-44.5143,361.0],[170.2003,-44.5179,361.0],[170.2035,-44.5213,361.0],[170.2033,-44.5278,361.0],[170.1994,-44.5312,361.0],[170.2067,-44.5328,361.0],[170.2092,-44.5349,361.0],[170.208,-44.5376,361.0],[170.2048,-44.539,361.0],[170.1927,-44.5371,361.0],[170.1924,-44.5419,361.0],[170.1971,-44.547,361.0],[170.2058,-44.5492,361.0],[170.2088,-44.5518,361.0],[170.2041,-44.5653,361.0],[170.2012,-44.5669,361.0],[170.1928,-44.5676,269.5],[170.1852,-44.5761,269.5],[170.1909,-44.5877,269.5],[170.2003,-44.5909,269.5],[170.2242,-44.6082,269.5],[170.2375,-44.6148,269.5],[170.2744,-44.6122,269.5],[170.2951,-44.6233,269.5],[170.2996,-44.6272,269.5],[170.3311,-44.6377,269.5],[170.3406,-44.6442,269.5],[170.3438,-44.6484,269.5],[170.3545,-44.6543,269.5],[170.3605,-44.6663,239.2354],[170.3673,-44.6661,231.6578],[170.3726,-44.6622,230.0],[170.3778,-44.6621,230.0],[170.3872,-44.6689,230.0],[170.4001,-44.6737,230.0],[170.4272,-44.6876,230.0],[170.4376,-44.697,207.8084],[170.4437,-44.6973,206.9133],[170.4527,-44.7009,230.0819],[170.4605,-44.717,201.4],[170.4722,-44.725,200.418],[170.4804,-44.7357,197.6694],[170.4974,-44.7459,192.2736],[170.5188,-44.7622,183.1303],[170.5429,-44.7891,174.0087],[170.5532,-44.796,171.26],[170.5727,-44.8052,165.1278],[170.5794,-44.8108,162.296],[170.5806,-44.8138,159.0242],[170.5947,-44.8185,158.5772],[170.6131,-44.822,150.2756],[170.6331,-44.8293,144.0],[170.676,-44.8372,135.5978],[170.6995,-44.8448,130.8155],[170.7196,-44.8487,123.5643],[170.8159,-44.8815,94.8251],[170.8556,-44.8856,81.0],[170.8557,-44.8946,85.3717],[170.8638,-44.8908,85.4417],[170.8722,-44.8933,78.7334],[170.8845,-44.8913,73.6849],[170.8995,-44.8948,69.9413],[170.8982,-44.8956,70.8363],[170.9019,-44.8974,70.6348],[170.9072,-44.8967,67.9076],[170.9131,-44.9029,67.7325],[170.925,-44.9028,62.75],[170.9318,-44.9067,66.4079],[170.9409,-44.9069,63.1101],[170.9645,-44.912,57.1149],[170.9731,-44.9098,48.4307],[170.9826,-44.9149,48.1078],[170.9876,-44.9142,44.687],[171.0001,-44.9212,45.5757],[171.0238,-44.9197,35.4194],[171.0309,-44.9231,33.1581],[171.0632,-44.9257,27.4333],[171.0828,-44.9319,19.067],[171.0874,-44.9305,19.6348],[171.0984,-44.931,9.8819],[171.102,-44.9292,10.1046],[171.1107,-44.9306,4.5],[171.1158,-44.9295,11.3157],[171.1179,-44.9312,4.4439],[171.1148,-44.9311,4.0],[171.1196,-44.932,6.6934],[171.126,-44.9374,3.0059],[171.1442,-44.9404,0.0],[171.1485,-44.9323,3.0029],[171.1589,-44.9079,3.7192],[171.1679,-44.8763,6.0999],[171.1725,-44.8491,0.0],[171.1742,-44.8269,2.4106],[171.1717,-44.7726,0.5358],[171.1728,-44.7717,0.0],[171.1699,-44.7276,1.9269],[171.1644,-44.6703,0.0],[171.1603,-44.6435,1.2616],[171.1595,-44.6236,3.0558],[171.1634,-44.5996,0.5076],[171.1716,-44.5715,0.0],[171.1817,-44.5542,0.6307],[171.1883,-44.5386,12.1806],[171.1973,-44.5245,0.0],[171.1959,-44.5247,11.2591],[171.2021,-44.5178,4.3297],[171.2046,-44.5131,4.2736],[171.2036,-44.5125,4.13],[171.2057,-44.5124,0.0],[171.2112,-44.5033,3.8415],[171.2143,-44.501,2.5827],[171.1712,-44.4845,21.5296],[171.1432,-44.4705,42.0895],[171.1369,-44.4584,41.1311],[171.1167,-44.4408,56.8596],[171.0935,-44.4296,66.5478],[171.0702,-44.4206,76.7471],[171.0645,-44.4167,82.0123],[171.0597,-44.4096,87.2886],[171.0541,-44.41,87.7491],[171.044,-44.4063,90.6153],[171.043,-44.3997,103.5212],[171.0377,-44.3933,98.7375],[171.0355,-44.3934,99.3316],[171.0258,-44.4001,133.8752],[171.0252,-44.3965,116.2027],[171.0237,-44.3958,152.5961],[171.0131,-44.3984,134.2465],[171.0013,-44.3961,118.079],[170.9914,-44.3817,132.1228],[170.9851,-44.3763,138.167],[170.9625,-44.3707,154.085],[170.9464,-44.3634,165.0414],[170.9309,-44.3627,176.3308],[170.9285,-44.3609,177.0847],[170.9294,-44.3554,182.9873],[170.9252,-44.3493,193.5272],[170.9232,-44.3424,199.1966],[170.9132,-44.3365,207.1409],[170.9135,-44.3333,222.5927],[170.9118,-44.3322,215.9926],[170.8986,-44.3315,228.735],[170.8925,-44.3293,248.7184],[170.8898,-44.3303,236.1503],[170.8833,-44.3279,273.5918],[170.8746,-44.3314,256.768],[170.8613,-44.331,324.8784],[170.8412,-44.3396,313.0909],[170.8393,-44.3434,310.8961],[170.8415,-44.348,352.439],[170.8345,-44.3491,426.0575],[170.8341,-44.3528,457.5144],[170.8254,-44.3552,473.1325],[170.8155,-44.3555,495.0768],[170.8145,-44.3539,595.6715],[170.812,-44.354,586.2297],[170.8098,-44.3564,610.1427],[170.8099,-44.3599,539.1301],[170.8065,-44.3597,562.413],[170.8004,-44.3626,555.2697],[170.7993,-44.3659,551.916],[170.7967,-44.3657,572.2438],[170.7902,-44.3713,567.0333],[170.7874,-44.3749,606.051],[170.7896,-44.3766,633.9495],[170.7876,-44.3785,622.2252],[170.7892,-44.3814,636.0751],[170.7856,-44.3844,643.3498],[170.7871,-44.3876,653.0233],[170.7844,-44.3889,685.9944],[170.7853,-44.3919,702.0476],[170.7884,-44.3932,711.085],[170.7858,-44.3947,710.7966],[170.7877,-44.3955,749.2478],[170.7864,-44.4005,729.9028],[170.7879,-44.4027,783.1198],[170.7843,-44.405,778.0845],[170.7854,-44.4067,796.8155],[170.7804,-44.4108,823.8703],[170.7823,-44.4115,824.3384],[170.7807,-44.415,853.1377],[170.7822,-44.4185,884.8527],[170.7844,-44.4186,880.4083],[170.7887,-44.4241,1156.218],[170.7935,-44.4262,1270.3286],[170.8026,-44.4363,1478.2185],[170.7705,-44.4422,1428.8864],[170.763,-44.4351,1420.3529],[170.7572,-44.4215,1448.8593],[170.7518,-44.4178,1465.9266],[170.7484,-44.4092,1488.9088],[170.7428,-44.403,1527.2583],[170.7424,-44.3995,1533.7252],[170.7373,-44.3955,1565.7108],[170.7357,-44.3842,1519.8407],[170.6585,-44.3837,564.5685],[170.6493,-44.3748,581.4299],[170.6446,-44.3728,591.1157],[170.6436,-44.3644,600.4464],[170.6407,-44.36,605.9399],[170.6368,-44.3574,612.4111],[170.6357,-44.3501,624.6021],[170.6293,-44.3496,633.1854],[170.6268,-44.3514,666.3694],[170.6094,-44.3528,698.297],[170.6024,-44.351,707.3605],[170.5907,-44.3443,734.6835],[170.5882,-44.3336,798.0565],[170.582,-44.3247,836.1489],[170.5732,-44.318,921.577],[170.5727,-44.313,938.5755],[170.2268,-44.4644,378.4376],[170.2205,-44.466,361.0]]]]}}