{"type": "Feature","bbox": [175.3735,-37.9521,175.9718,-37.4188],"geometry": {"type": "MultiPolygon","coordinates": [[[[175.8117,-37.5643,787.4271],[175.7647,-37.5232,779.28],[175.7435,-37.5334,878.9709],[175.7533,-37.5266,654.0553],[175.7513,-37.523,612.7141],[175.7538,-37.5179,539.8895],[175.7526,-37.5031,397.6177],[175.7509,-37.4998,370.2488],[175.7522,-37.4965,345.6452],[175.7506,-37.4938,328.2687],[175.7551,-37.4867,325.0263],[175.7534,-37.482,255.9201],[175.7552,-37.479,244.3818],[175.7549,-37.4631,160.1102],[175.7121,-37.4625,181.7155],[175.7062,-37.4593,262.1603],[175.7076,-37.4687,134.7511],[175.7061,-37.4693,134.7511],[175.7017,-37.4586,291.6042],[175.6904,-37.4631,226.3301],[175.6847,-37.4571,187.0319],[175.6721,-37.4509,265.2301],[175.6462,-37.4547,5.8466],[175.6401,-37.4538,7.0791],[175.6386,-37.4499,4.7824],[175.6403,-37.4492,4.6726],[175.6401,-37.447,4.5622],[175.6372,-37.4439,5.1296],[175.64,-37.4419,5.2583],[175.6403,-37.4396,5.0638],[175.6348,-37.4351,4.23],[175.6295,-37.4332,4.1488],[175.6292,-37.4266,4.1383],[175.6326,-37.4249,3.1991],[175.6314,-37.4188,3.1987],[175.5981,-37.419,2.5213],[175.5877,-37.4241,3.0546],[175.5839,-37.4192,3.4756],[175.5207,-37.4198,4.2425],[175.5205,-37.423,4.7608],[175.5113,-37.429,1.7415],[175.5114,-37.4303,2.1748],[175.4692,-37.4361,50.1831],[175.437,-37.4501,269.4168],[175.438,-37.4406,310.1561],[175.4309,-37.4417,412.3585],[175.4087,-37.438,161.7585],[175.4125,-37.4286,214.1965],[175.4117,-37.4248,255.2658],[175.3959,-37.4392,301.7915],[175.3907,-37.4333,481.7344],[175.3883,-37.4367,414.7756],[175.3894,-37.4405,407.7036],[175.3838,-37.4446,365.2474],[175.3873,-37.4547,309.7755],[175.3817,-37.4571,303.4802],[175.3735,-37.4655,451.0173],[175.3772,-37.473,477.7652],[175.3815,-37.4751,488.1279],[175.457,-37.7258,104.9462],[175.471,-37.7354,175.8319],[175.4886,-37.739,144.8784],[175.4887,-37.7414,148.2176],[175.4945,-37.7465,147.3702],[175.4986,-37.7427,152.8934],[175.5016,-37.7429,157.483],[175.5024,-37.7449,214.1411],[175.5051,-37.7437,204.5166],[175.5059,-37.7392,196.3614],[175.5123,-37.7327,164.5667],[175.5275,-37.7643,96.4972],[175.5291,-37.7631,83.8021],[175.5374,-37.7674,200.0968],[175.5805,-37.7768,175.6087],[175.5734,-37.796,326.0509],[175.5787,-37.8021,180.787],[175.5836,-37.797,176.7853],[175.6034,-37.7964,281.5165],[175.6018,-37.8083,410.6941],[175.6,-37.8106,396.1169],[175.5954,-37.8106,337.5187],[175.5945,-37.8126,339.76],[175.5955,-37.8245,281.7287],[175.5994,-37.8301,292.0713],[175.6032,-37.8309,292.6725],[175.6072,-37.8297,267.4424],[175.6201,-37.8349,278.918],[175.6253,-37.8456,319.1449],[175.6408,-37.8508,225.7962],[175.6288,-37.8657,280.8404],[175.6304,-37.8676,260.92],[175.6323,-37.8784,260.1596],[175.6264,-37.8814,223.6532],[175.632,-37.8888,177.9513],[175.6349,-37.89,185.019],[175.6315,-37.8936,191.4906],[175.633,-37.8947,191.4659],[175.6327,-37.898,223.3984],[175.6472,-37.8988,111.8089],[175.6507,-37.9053,104.5663],[175.6554,-37.9072,102.218],[175.6578,-37.9109,105.6857],[175.6527,-37.9385,124.0805],[175.6483,-37.9416,138.4947],[175.6503,-37.9468,65.5013],[175.6561,-37.9489,61.5174],[175.6575,-37.9521,51.5],[175.6619,-37.9493,55.8094],[175.6627,-37.9463,57.803],[175.6669,-37.9452,62.6431],[175.6697,-37.9411,101.1165],[175.6742,-37.9441,102.227],[175.6757,-37.9422,102.1793],[175.6791,-37.9427,122.8202],[175.6815,-37.9409,142.8445],[175.6852,-37.9416,165.26],[175.6861,-37.9395,152.405],[175.6919,-37.941,195.0202],[175.7073,-37.9046,103.8907],[175.7141,-37.9005,96.9345],[175.7194,-37.9034,90.6907],[175.7222,-37.9016,99.7843],[175.7392,-37.9165,88.4263],[175.7462,-37.914,93.6421],[175.7599,-37.9044,93.8583],[175.7712,-37.905,81.3824],[175.7727,-37.9012,82.8788],[175.7935,-37.9016,78.4008],[175.7933,-37.8974,76.3275],[175.7998,-37.8961,75.2626],[175.7972,-37.9023,66.2],[175.8013,-37.902,73.4373],[175.7999,-37.903,80.1976],[175.8018,-37.9038,76.5752],[175.8018,-37.9059,74.112799999999993],[175.798,-37.9059,74.5349],[175.7964,-37.9079,68.9421],[175.8005,-37.9121,71.46],[175.7988,-37.9144,68.5414],[175.8008,-37.9146,72.7505],[175.801,-37.9177,77.1721],[175.8032,-37.9176,87.2779],[175.8025,-37.9187,78.7687],[175.825,-37.9184,93.3199],[175.8249,-37.9061,92.3719],[175.8356,-37.9059,75.7728],[175.8294,-37.9085,89.4108],[175.8345,-37.9197,96.3279],[175.8448,-37.9226,84.2757],[175.8485,-37.9271,80.3353],[175.8568,-37.9239,89.8125],[175.8564,-37.9152,76.3673],[175.8577,-37.9141,76.677],[175.8553,-37.9099,76.4538],[175.8727,-37.9148,102.3952],[175.8683,-37.9215,89.2029],[175.8742,-37.9233,102.6784],[175.8785,-37.9231,112.1734],[175.8813,-37.9212,100.8598],[175.8817,-37.9176,96.989],[175.8829,-37.9179,110.1726],[175.8849,-37.9136,98.3661],[175.884,-37.9128,95.7254],[175.8943,-37.9137,142.0683],[175.9014,-37.9114,152.2447],[175.9041,-37.9126,136.2015],[175.9046,-37.9093,182.9077],[175.9097,-37.909,167.7735],[175.9105,-37.9077,172.4231],[175.9157,-37.9116,305.3799],[175.9084,-37.9129,171.3671],[175.9101,-37.9163,229.6852],[175.9096,-37.919,246.9474],[175.908,-37.9188,207.8654],[175.9086,-37.9206,232.1317],[175.9202,-37.9235,359.5627],[175.9542,-37.9019,491.4176],[175.9718,-37.8828,389.7244],[175.9677,-37.8833,432.6346],[175.9609,-37.8894,479.6003],[175.9478,-37.8788,592.0181],[175.943,-37.8791,611.0831],[175.9396,-37.8826,615.1753],[175.9362,-37.8814,627.88],[175.9379,-37.8737,567.2107],[175.9365,-37.8701,514.6167],[175.9399,-37.868,499.9478],[175.9319,-37.8616,549.3895],[175.9279,-37.8521,560.5627],[175.9281,-37.8472,546.8506],[175.935,-37.8426,522.6218],[175.9059,-37.8286,727.9532],[175.9277,-37.776,544.4175],[175.8952,-37.7242,484.6845],[175.8996,-37.7222,511.3889],[175.8978,-37.7213,509.9882],[175.8981,-37.7194,510.4145],[175.9002,-37.7184,513.0096],[175.8957,-37.7167,503.6457],[175.898,-37.7142,490.1337],[175.8968,-37.7118,509.8231],[175.8921,-37.7112,532.2125],[175.8899,-37.7092,522.6252],[175.8897,-37.7011,490.3081],[175.8795,-37.6993,647.4583],[175.8725,-37.6872,760.0731],[175.8709,-37.6775,806.834],[175.8648,-37.6722,819.4907],[175.8652,-37.6681,819.6627],[175.8563,-37.6628,801.5032],[175.8521,-37.662,785.6152],[175.8481,-37.6519,510.9021],[175.8445,-37.6486,487.513],[175.8451,-37.6469,489.3423],[175.8432,-37.6432,512.0676],[175.8408,-37.6419,568.4228],[175.8415,-37.6388,518.1154],[175.8375,-37.6354,529.8456],[175.8371,-37.6322,617.5615],[175.8336,-37.6275,695.3596],[175.8358,-37.6267,644.4369],[175.8367,-37.6228,539.7688],[175.8408,-37.6206,578.3728],[175.8398,-37.6183,598.0917],[175.8415,-37.6133,601.6669],[175.8389,-37.6075,511.5215],[175.8369,-37.6066,451.1736],[175.8345,-37.5983,517.3342],[175.823,-37.5826,647.1131],[175.8217,-37.5716,736.5317],[175.8117,-37.5643,787.4271]]]]}
,"properties": {"GID_2": "NZL.17.3_1","GID_0": "NZL","country": "NewZealand","GID_1": "NZL.17_1","province": "Waikato","NL_NAME_1": "NA","county": "Matamata-Piako","VARNAME_2": "NA","NL_NAME_2": "NA","TYPE_2": "District","ENGTYPE_2": "District","CC_2": "015","HASC_2": "NZ.WK.MP","name": "Matamata-Piako.county","area_km2": 1753.569,"hist_schema_id": "Elevation0-9000","hist_area_km2": {"0": 233.75,"25": 469.451,"50": 356.935,"75": 229.497,"100": 105.167,"125": 59.166,"150": 45.771,"175": 31.419,"200": 21.419,"225": 18.649,"250": 16.213,"275": 16.733,"300": 14.55,"325": 12.401,"350": 11.746,"375": 9.395,"400": 8.155,"425": 9.379,"450": 11.073,"475": 11.858,"500": 11.874,"525": 9.492,"550": 8.316,"575": 9.27,"600": 5.418,"625": 3.993,"650": 2.385,"675": 2.251,"700": 2.033,"725": 1.697,"750": 1.21,"775": 1.075,"800": 0.722,"825": 0.605,"850": 0.336,"875": 0.101,"900": 0.05,"925": 0.017}}}