{"type":"Feature","properties":{"featurecla":"River","scalerank":10,"rivernum":2028,"dissolve":"2028River","name":"Pomahaka","name_alt":null,"note":null,"min_zoom":7.2,"strokeweig":0.2,"name_en":"Pomahaka","min_label":8.2},
"geometry":{"type": "LineString","coordinates": [[169.17160574952024,-45.536461871096748,741.8552],[169.1712803571323,-45.538329534254885,728.9337],[169.16950094558547,-45.55083183451444,710.4427],[169.18020836115429,-45.559156385924879,753.4441],[169.19151922933463,-45.5686878425584,730.7808],[169.19032779725546,-45.580571217062527,553.2621],[169.17901692907509,-45.592454591566657,611.0638],[169.17784097013978,-45.609134640675315,573.2911],[169.17901692907509,-45.634108294906639,409.1414],[169.17545810598142,-45.650169418259878,351.4612],[169.16830951350627,-45.658493969670317,363.5127],[169.15582268639059,-45.6608768338287,384.1859],[169.14392383874258,-45.672172228865172,359.4099],[169.12905414746854,-45.690616216376789,345.2915],[169.12786271538937,-45.701911611413266,388.0995],[169.12905414746854,-45.7078842449531,411.9046],[169.12667128331017,-45.716796775831192,298.1433],[169.13024557954773,-45.726297286176944,288.7771],[169.1326284437061,-45.738799586436492,269.6941],[169.12608330384251,-45.755448689257378,246.3843],[169.12547985123098,-45.764980145890895,237.4777],[169.13202499109457,-45.771540758898382,241.5733],[169.13202499109457,-45.782248174467206,230.6845],[169.13321642317376,-45.79769037206502,214.0052],[169.13559928733216,-45.812575536482946,198.5432],[169.13143701162693,-45.828048680368532,200.1752],[169.12547985123098,-45.844697783189417,259.8585],[169.12489187176334,-45.857788062916619,186.7164],[169.14273240666341,-45.868495478485443,174.2918],[169.17188380974383,-45.873849186269851,154.5321],[169.18616552155024,-45.880378852989573,150.6886],[169.20281462437111,-45.892293173781468,144.1663],[169.22661231966714,-45.910118235537659,138.6631],[169.23315745953073,-45.927974243581623,168.9081],[169.23017114276081,-45.93868165915044,135.3506],[169.22006717980355,-45.944623346402508,126.7949],[169.21649288356596,-45.960096490288088,121.6349],[169.22125861188272,-45.976157613641327,117.0816],[169.22839173121397,-45.985689070274844,114.8412],[169.22780375174634,-45.999955308937352,113.6436],[169.22958316329317,-46.014840473355278,111.4912],[169.23077459537237,-46.027311827327061,108.4576],[169.23077459537237,-46.037431263428232,109.8526],[169.23196602745156,-46.050521543155433,104.2741],[169.23851116731515,-46.06181693819191,106.8814],[169.24267344302038,-46.071348394825428,202.4178],[169.2509979944308,-46.071936374293081,107.7932],[169.25576372274759,-46.068965530667043,105.0731],[169.26586768570485,-46.067170645976319,165.2064],[169.28014939751125,-46.069553510134696,147.0853],[169.29679850033216,-46.068965530667043,95.9026],[169.3134630762969,-46.06181693819191,157.9349],[169.32833276757094,-46.056463230407495,128.9778],[169.34142304729815,-46.04696272006175,89.5295],[169.35986703480978,-46.0356363787375,87.0671],[169.37889900178905,-46.034460419802194,79.3188],[169.39912240084749,-46.0487266584647,72.2047],[169.40150526500588,-46.064199802350288,46.366],[169.40922636380478,-46.067170645976319,43.9236],[169.41934579990595,-46.077290082077489,41.1711],[169.42292009614351,-46.089792382337038,38.7986],[169.42589093976954,-46.101675756841168,36.7394],[169.44433492728118,-46.114766036568369,57.5883],[169.46397034687197,-46.127856316295571,31.6176],[169.49845998459293,-46.133210024079986,23.6873],[169.51809540418373,-46.134385983015285,42.3571],[169.53534795961616,-46.14391743964881,31.676],[169.56747020632264,-46.151035085836178,9.0],[169.57966304370447,-46.1532632185557,9.7945]]}}