{"type":"Feature","properties":{"featurecla":"River","scalerank":6,"rivernum":2033,"dissolve":"2033River","name":"Taieri1","name_alt":null,"note":null,"min_zoom":5.0,"strokeweig":0.15,"name_en":"Taieri","min_label":6.0},
"geometry":{"type": "LineString","coordinates": [[169.69368464099733,-45.695103428103607,1023.7543],[169.69783144355867,-45.68557197147009,967.7089],[169.70200919240779,-45.669510848116857,946.959],[169.71211315536505,-45.657596527324955,932.7599],[169.718070315761,-45.651066860605241,930.7565],[169.72580688770381,-45.636800621942733,870.0069],[169.74245599052469,-45.629652029467593,840.2162],[169.74784206424272,-45.622620887984993,868.8962]]}}