{"type":"Feature","properties":{"featurecla":"River","scalerank":6,"rivernum":2013,"dissolve":"2013River","name":"Kawarau","name_alt":null,"note":null,"min_zoom":5.0,"strokeweig":0.2,"name_en":"Kawarau","min_label":6.0},
"geometry":{"type": "LineString","coordinates": [[169.19077651842812,-45.06853393960084,211.513],[169.18430874428395,-45.075434961773809,207.7188],[169.1744059321972,-45.076425242982488,196.3165],[169.16252255769305,-45.068007852708732,224.797],[169.1451926365412,-45.060085603039312,228.4723],[169.13925094928913,-45.047707087930846,438.4017],[169.13330926203707,-45.036318854031059,584.7632],[169.12390159055465,-45.029882026174654,479.9298],[169.11034711651087,-45.022702487411742,533.684],[169.10013484154638,-45.010076402001111,630.1158],[169.09419315429432,-45.005620136562058,624.7726],[169.0872611858336,-45.004134714749043,460.8287],[169.08131949858154,-45.006610417770737,255.5883],[169.07983407676852,-45.014532667440157,499.8389],[169.07686323314249,-45.01948407348354,715.6389],[169.0654749992427,-45.02344519831825,585.4583],[169.06151387440798,-45.029386885570318,778.6074],[169.06101873380362,-45.03829941644841,677.2343],[169.064484718034,-45.04622166611783,852.2082],[169.06398957742968,-45.055629337600266,940.259],[169.05854303078195,-45.057114759413281,780.9708],[169.04864021869517,-45.0561244782046,261.4009],[169.04715479688215,-45.0496876503482,274.0055],[169.04715479688215,-45.043745963096136,355.4506],[169.03824226600406,-45.036813994635395,350.3414],[169.02536861029125,-45.036813994635395,412.7813],[169.01199981397411,-45.03136744798767,507.1223],[168.9991261582613,-45.023940338922593,773.2848],[168.970903143814,-45.017998651670524,396.4252],[168.95901976930989,-45.017503511066188,321.0348],[168.94020442634502,-45.013047245627142,364.9958],[168.92089394277582,-45.011561823814127,353.822],[168.90009803739358,-45.009581261396768,325.7817],[168.88474867865909,-45.0061152771664,436.5391],[168.86395277327688,-45.0061152771664,396.5231],[168.85058397695971,-45.004629855353386,306.4349],[168.83672004003824,-45.006610417770737,320.4438],[168.8297880715775,-45.011561823814127,566.6564],[168.81295329103,-45.0125521050228,393.7342],[168.80057477592152,-45.01948407348354,714.7761],[168.78968168262605,-45.024930620131265,1059.0339],[168.78225457356098,-45.03037716677899,903.7422],[168.77136148026554,-45.029386885570318,666.9628],[168.76557452445235,-45.025363868160063,535.3611]]}}