{"type":"Feature","properties":{"featurecla":"River","scalerank":6,"rivernum":2008,"dissolve":"2008River","name":"Hawea","name_alt":null,"note":null,"min_zoom":5.0,"strokeweig":0.2,"name_en":"Hawea","min_label":6.0},
"geometry":{"type": "LineString","coordinates": [[169.2570325205462,-44.608579264458022,353.9854],[169.25461871010003,-44.617925043364913,347.6492],[169.2541235694957,-44.632779261495074,322.0331],[169.24422075740893,-44.649614042042586,330.3873],[169.24471589801328,-44.662487697755388,309.6085],[169.24025963257424,-44.670905088029144,363.4015],[169.21748316477465,-44.674371072259518,310.2179],[169.20361922785315,-44.670905088029144,293.0083],[169.19224646709728,-44.680807900115916,275.9007]]}}