{"type":"Feature","properties":{"featurecla":"River","scalerank":6,"rivernum":2033,"dissolve":"2033River","name":"Taieri","name_alt":null,"note":null,"min_zoom":5.0,"strokeweig":0.2,"name_en":"Taieri","min_label":6.0},
"geometry":{"type": "LineString","coordinates": [[169.74784206424272,-45.622620887984993,868.8962],[169.75613424971954,-45.611796021423629,824.3699],[169.77278335254042,-45.597529782761129,818.3629],[169.78112337709476,-45.580880679940236,788.6116],[169.77041596152594,-45.570173264371419,798.7694],[169.75078054193511,-45.563612651363933,810.2139],[169.73710228274027,-45.547551528010693,630.7926],[169.74364742260389,-45.530902425189808,567.2506],[169.75792913441026,-45.5166361865273,576.9928],[169.77815253346873,-45.510075573519813,562.4521],[169.80193475562086,-45.498780178483337,559.245],[169.80314166084395,-45.488660742382166,558.0383],[169.8144370558804,-45.48092417043938,557.6768],[169.82454101883769,-45.477953326813349,557.0237],[169.82930674715445,-45.472599619028934,556.7407],[169.8352639075504,-45.4696287754029,556.4586],[169.84179357427013,-45.464863047086141,556.2062],[169.84358845896085,-45.451803713646711,556.1464],[169.85667873868806,-45.448832870020681,555.2201],[169.86916556580371,-45.441096298077888,555.009],[169.89355124056738,-45.436330569761132,554.5652],[169.91615750378423,-45.425004228436883,553.6029],[169.94113115801557,-45.423240290033924,582.0126],[169.94947118256988,-45.411325969242029,551.5],[169.97028256109598,-45.396471751111868,607.4073],[169.97860711250644,-45.380998607226289,554.5363],[169.9976545526296,-45.368496306966733,493.2498],[170.00240480780246,-45.357788891397917,465.5876],[170.00240480780246,-45.350052319455123,486.3647],[169.9964631205504,-45.34946433998747,434.5946],[169.99110941276598,-45.34231574751233,455.2435],[169.97504828941277,-45.336374060260269,423.0204],[169.95005916203755,-45.324490685756139,380.3586],[169.94769177102305,-45.317930072748652,379.706],[169.95363345827511,-45.310812426561284,376.4976],[169.96314944176476,-45.302487875150845,374.4108],[169.96789969693762,-45.294751303208052,373.8217],[169.96672373800232,-45.291161533826596,372.9119],[169.97266542525438,-45.28283698241615,372.0811],[169.97504828941277,-45.276307315696435,370.9446],[169.9780191330388,-45.269746702688948,370.5399],[169.98278486135555,-45.260834171810856,369.9947],[169.98872654860762,-45.254892484558795,369.8226],[169.98991798068681,-45.247155912616,369.9624],[169.9964631205504,-45.237655402270256,368.7555],[170.01072935921292,-45.227535966169086,366.3995],[170.01906938376723,-45.213826760686459,366.3444],[170.02917334672452,-45.205502209276013,364.6693],[170.03988076229334,-45.200148501491604,365.8782],[170.05594188564658,-45.192411929548811,364.5917],[170.07796016939577,-45.193618834771883,358.7396],[170.09699213637504,-45.194794793707189,355.8948],[170.1136567123398,-45.191235970613505,354.3136],[170.13804238710347,-45.188265126987474,350.5043],[170.15351553098907,-45.194206814239536,349.5032],[170.15886923877346,-45.193030855304237,348.7083],[170.17016463380995,-45.1900600116782,348.0846],[170.18919660078922,-45.1900600116782,351.153],[170.19216744441525,-45.182911419203066,345.2703],[170.20406629206326,-45.1858822628291,344.0961],[170.2189359833373,-45.1900600116782,342.9904],[170.22846743997081,-45.19658967839792,343.7341],[170.24273367863333,-45.203119345117635,338.3323],[170.25879480198657,-45.206090188743666,330.7821],[170.26356053030332,-45.21503366590953,329.6862],[170.25879480198657,-45.226329060946007,331.2097],[170.26356053030332,-45.2382433817379,353.6823],[170.27426794587214,-45.244185068989971,338.6657],[170.27307651379294,-45.256656422961747,315.8866],[170.27843022157737,-45.267982764285996,319.3668],[170.28200451781493,-45.276895295164088,297.7777],[170.28497536144096,-45.285219846574535,322.2485],[170.28378392936179,-45.295339282675705,287.7422],[170.27426794587214,-45.30901754187056,288.8582],[170.26236909822413,-45.315578154878047,273.3993],[170.26117766614493,-45.3292564140729,300.2141],[170.25701539043973,-45.34649349636144,278.7676],[170.24511654279172,-45.354230068304233,254.1727],[170.23382114775524,-45.36376152493775,261.9168],[170.22489314373325,-45.379822648290983,236.449],[170.21537716024363,-45.391118043327459,230.0578],[170.20347831259562,-45.409562030839069,224.0915],[170.19335887649444,-45.427387092595261,217.8956],[170.1784891852204,-45.455362536740395,214.2139],[170.16184008239949,-45.466657931776872,208.0208],[170.15291207837754,-45.485101919288482,202.3984],[170.14042525126186,-45.504721865735405,197.0964],[170.14398407435556,-45.5166361865273,195.4283],[170.14636693851392,-45.524372758470093,191.9566],[170.14339609488789,-45.540433881823326,189.1954],[170.13863036657114,-45.552317256327456,185.4759],[170.14101323072953,-45.565407536054657,185.3946],[170.13507154347744,-45.580880679940236,187.3957],[170.1398217986503,-45.598705741696428,187.5761],[170.15291207837754,-45.610001136732905,209.7385],[170.1796806172996,-45.615973770272738,219.1935],[170.20466974467479,-45.624886301150838,219.387],[170.22905541943848,-45.625474280618484,266.6255],[170.25285311473451,-45.6290640499999,266.9582],[170.27010567016691,-45.64094742450407,325.5344],[170.28974108975774,-45.654625683698924,259.3837],[170.299845052715,-45.668303942893779,171.0298],[170.30519876049942,-45.686747930405396,303.9937],[170.31055246828384,-45.706398823140084,159.1947],[170.3230392953995,-45.7129284898598,124.7089],[170.34327816760185,-45.708781687298462,154.1202],[170.34742497016316,-45.713516469327452,203.3696],[170.34980783432155,-45.722459946493316,72.4178],[170.35338213055911,-45.730784497903763,84.6711],[170.35219069847994,-45.74505073656627,88.2208],[170.34624901122788,-45.753375287976709,59.8204],[170.3426747149903,-45.755758152135087,60.565],[170.33315873150067,-45.766465567703911,87.4164],[170.3230392953995,-45.77779190902816,51.2677],[170.31293533244221,-45.778967867963466,81.0023],[170.30877305673698,-45.787292419373905,47.6053],[170.30580221311095,-45.797999834942729,48.6887],[170.29627075647744,-45.806324386353175,131.1394],[170.29152050130457,-45.819414666080377,129.1977],[170.27665081003053,-45.822385509706407,41.6494],[170.26653137392935,-45.829534102181547,94.4408],[170.25701539043973,-45.843800340844055,21.5181],[170.2397628350073,-45.850948933319195,27.0854],[170.23798342346046,-45.8563026411036,9.5858],[170.23917485553966,-45.862832307823318,6.1267],[170.24867536588539,-45.868773995075379,6.0938],[170.2540445468137,-45.87474662861522,6.6668],[170.2582068225189,-45.883659159493313,5.8618],[170.26594339446171,-45.891395731436106,5.1992],[170.2593982545981,-45.902691126472575,4.7378],[170.2593982545981,-45.911603657350675,3.2817],[170.25047025057611,-45.915193426732131,4.872],[170.23798342346046,-45.919340229293468,2.4719],[170.22964339890612,-45.929459665394639,2.1269],[170.21655311917891,-45.934225393711394,6.6308],[170.20644915622165,-45.940755060431108,2.8749],[170.19513828804128,-45.946696747683177,1.4584],[170.19216744441525,-45.960405953165804,1.4641],[170.18622575716319,-45.968730504576243,4.2591],[170.1796806172996,-45.971113368734621,1.4177],[170.17194404535678,-45.976467076519036,1.5713],[170.15707435408274,-45.984203648461829,0.8185],[170.15172064629832,-45.988350451023159,2.3592],[170.15113266683068,-45.9913212946492,0.7286],[170.15826578616193,-45.9954990434983,5.807],[170.16361949394633,-46.00561847959947,0.5676],[170.17194404535678,-46.022855561888008,152.4064],[170.1772977531412,-46.037121800550516,127.3932],[170.19396232910597,-46.051418985500796,0.0],[170.21002345245921,-46.062126401069619,0.0],[170.23202626306451,-46.071038931947712,0.0],[170.25622626010156,-46.0764235860199,0.0]]}}