{"type":"Feature","properties":{"featurecla":"River","scalerank":6,"rivernum":2006,"dissolve":"2006River","name":"Clutha","name_alt":null,"note":null,"min_zoom":5.0,"strokeweig":0.2,"name_en":"Clutha","min_label":6.0},
"geometry":{"type": "LineString","coordinates": [[169.14191233003746,-44.658155217467424,278.0],[169.18466462659333,-44.676073118086933,280.2006],[169.21513124690404,-44.695105085066196,311.816],[169.24367919737293,-44.701789483224765,285.7674],[169.2636704992731,-44.710361604937383,268.6923],[169.27222714784185,-44.717974391729086,285.7924],[169.27603354123769,-44.73032196054978,265.5568],[169.28556499787121,-44.738894082262391,256.1405],[169.31316908656308,-44.749384873816823,265.1238],[169.3369667818591,-44.761732442637516,239.4664],[169.34456409550694,-44.78933653132939,254.2524],[169.35219235544253,-44.819787678496219,254.6309],[169.34171703703197,-44.850269771950813,226.3588],[169.33885450541317,-44.871189462484125,211.875],[169.30936269316723,-44.8921400993052,204.9802],[169.29602484313787,-44.931163368184642,194.1424],[169.2822382719358,-44.949112215091915,196.873],[169.24842945254582,-44.980646482330734,194.0],[169.2198815020769,-45.015863357814318,194.0],[169.21482178402633,-45.035142895095753,197.7666],[169.21607510868105,-45.0577336851687,303.6429],[169.2208563101417,-45.06785312126987,194.0],[169.23092932681121,-45.0749088748817,221.093],[169.25986410587726,-45.086297108781487,198.9198],[169.2822382719358,-45.095426263673978,194.0],[169.30086793717405,-45.108114241660161,196.4994],[169.30953289775,-45.117862322308078,194.0],[169.31545911185816,-45.144321398352417,194.0],[169.30793916392975,-45.178455153764013,182.9523],[169.31293698940482,-45.184087378138365,205.1756],[169.34266089880902,-45.210051313578376,150.6436],[169.37787777429259,-45.251921640932757,136.9605],[169.38358736438636,-45.270953607912027,184.4578],[169.35503941391747,-45.312823935266408,276.9779],[169.32172573513182,-45.372797840966932,212.4862],[169.30744402332542,-45.386104744708533,253.499],[169.31220975164217,-45.414668168321313,139.0504],[169.32362893182975,-45.447037985329949,167.483],[169.32933852192352,-45.465110617388312,130.0],[169.2988873747567,-45.5012868277928,89.7486],[169.3065001615484,-45.533625698513667,83.8109],[169.3207818733548,-45.566954850443217,154.0688],[169.34362023372992,-45.612631571193454,85.274],[169.39786907619276,-45.654501898547842,73.1048],[169.44165807338896,-45.699250230664944,90.0921],[169.49875397432675,-45.75065201465285,53.2641],[169.51155026432014,-45.7661561048262,84.5084],[169.5097708527733,-45.798897277288091,165.5328],[169.52522852351498,-45.825665816210147,46.5041],[169.49686625077271,-45.8553433061827,41.978],[169.48716458955647,-45.886320540241634,38.1137],[169.48338914244837,-45.924941507380048,28.5],[169.47764860606682,-45.973774749482942,29.5191],[169.50500512445655,-45.9993673294697,60.5213],[169.50441714498888,-46.043372950680293,25.3249],[169.51970461114783,-46.069491617559159,17.0],[169.537127371163,-46.109412328783961,16.8551],[169.57966304370447,-46.1532632185557,9.7945]]}}