{"type":"Feature","properties":{"featurecla":"River","scalerank":10,"rivernum":2028,"dissolve":"2028River","name":"Pomahaka1","name_alt":null,"note":null,"min_zoom":7.2,"strokeweig":0.15,"name_en":"Pomahaka","min_label":8.2},
"geometry":{"type": "LineString","coordinates": [[169.17712920552106,-45.443633893675127,1256.6538],[169.17211590690212,-45.449358956912789,1290.5341],[169.16962473073653,-45.456476603100157,1086.4702],[169.15676654816764,-45.465048724812767,1053.6932],[169.15676654816764,-45.471485552669172,945.6989],[169.16212025595203,-45.478262789691058,906.0469],[169.16818572835518,-45.488598849806628,872.7738],[169.178893143924,-45.500018029994187,812.3428],[169.18033214630537,-45.5085901517068,788.5878],[169.1810439109241,-45.5175026825849,762.7382],[169.17353943613961,-45.525363039678773,768.286],[169.17160574952024,-45.536461871096748,741.8552]]}}