{"type":"Feature","properties":{"featurecla":"River","scalerank":6,"rivernum":2006,"dissolve":"2006River","name":"Clutha1","name_alt":null,"note":null,"min_zoom":5.0,"strokeweig":0.2,"name_en":"Clutha","min_label":6.0},
"geometry":{"type": "LineString","coordinates": [[169.57966304370447,-46.1532632185557,9.7945],[169.66532236825506,-46.178948637405767,19.2918],[169.71290228570322,-46.208471395939455,10.2233],[169.74527210271185,-46.244616660056174,5.3835],[169.78619856828922,-46.2617609034814,5.411],[169.80999626358525,-46.285558598777428,3.5951],[169.84140674567297,-46.313162687469308,50.4329],[169.87685571831486,-46.366668819025648,0.0],[169.87684024517097,-46.36669976531342,0.0]]}}