{"type":"Feature","properties":{"featurecla":"River","scalerank":9,"rivernum":2042,"dissolve":"2042River","name":"Wairoa3","name_alt":null,"note":null,"min_zoom":7.1,"strokeweig":0.15,"name_en":"Wairoa","min_label":8.1},
"geometry":{"type": "LineString","coordinates": [[174.23517615656681,-35.540914645765788,90.336],[174.23160186032925,-35.550446102399306,90.1526],[174.22982244878239,-35.555799810183714,89.7703],[174.23220531294078,-35.5682711641555,89.3189],[174.23517615656681,-35.574831777162984,88.5628],[174.2440886874449,-35.586127172199461,87.9115],[174.24707500421482,-35.592656838919176,89.0093],[174.24291272850959,-35.599805431394316,87.9572],[174.23697104125753,-35.604571159711071,87.3417],[174.23220531294078,-35.61348369058917,87.3094]]}}