{"type":"Feature","properties":{"featurecla":"River","scalerank":9,"rivernum":2042,"dissolve":"2042River","name":"Wairoa","name_alt":null,"note":null,"min_zoom":7.1,"strokeweig":0.2,"name_en":"Wairoa","min_label":8.1},
"geometry":{"type": "LineString","coordinates": [[174.23220531294078,-35.61348369058917,87.3094],[174.21970301268124,-35.622396221467262,88.6071],[174.19828818154357,-35.630751719165474,89.7705],[174.182815037658,-35.635486501194464,90.7219],[174.16796081952782,-35.6414591347343,95.0351],[174.15428256033297,-35.648576780921665,88.5727],[174.13939739591507,-35.655137393929152,89.0474],[174.13761798436821,-35.661667060648874,88.1238],[174.1388094164474,-35.672374476217691,93.8541],[174.13048486503695,-35.677728184002106,80.4504],[174.12452770464103,-35.6854647559449,82.2251],[174.11204087752535,-35.700937899830478,56.3801],[174.10965801336695,-35.70985043070857,55.763],[174.10014202987733,-35.71699902318371,55.0661],[174.09418486948138,-35.726499533529463,53.4829],[174.08527233860329,-35.740177792724317,50.791],[174.07812374612814,-35.750916154580906,30.0689],[174.06385750746563,-35.762799529085036,28.0799],[174.05612093552284,-35.766977277934146,30.7211],[174.05612093552284,-35.779448631905922,8.1751],[174.05315009189681,-35.789568068007092,4.6458],[174.0555329560552,-35.795509755259154,9.7717],[174.05850379968123,-35.805041211892679,7.2988],[174.05670891499051,-35.817543512152227,4.9435],[174.05195865981761,-35.820514355778258,5.2292],[174.04600149942166,-35.8169245863968,4.1095],[174.042442676328,-35.82286627364887,3.8928],[174.0412512442488,-35.831221771347082,4.1725],[174.03291121969448,-35.831221771347082,3.3742],[174.01983641311116,-35.832985709750041,12.0557],[174.01983641311116,-35.836544532843725,12.8554],[174.01923296049961,-35.846075989477242,3.4181],[174.0204243925788,-35.856195425578413,8.9712],[174.02519012089556,-35.8639319975212,9.0574],[174.02339523620483,-35.870461664240921,14.0316],[174.01448270532674,-35.874639413090023,2.5823],[174.00258385767873,-35.882963964500469,1.6065],[174.000788972988,-35.88890565175253,2.4602],[174.00020099352037,-35.894847339004592,4.738],[173.99306787418911,-35.894847339004592,4.1948],[173.98413987016713,-35.89308340060164,6.1715],[173.97522733928903,-35.895466264760017,2.5042],[173.97046161097228,-35.900201046789007,21.6102],[173.95975419540343,-35.902583910947385,3.4307],[173.95839255874151,-35.902150662918594,4.6347]]}}