{"type":"Feature","properties":{"featurecla":"River","scalerank":9,"rivernum":2042,"dissolve":"2042River","name":"Wairoa2","name_alt":null,"note":null,"min_zoom":7.1,"strokeweig":0.2,"name_en":"Wairoa","min_label":8.1},
"geometry":{"type": "LineString","coordinates": [[173.95839255874151,-35.902150662918594,4.6347],[173.95082619138145,-35.899613067321354,41.197],[173.94547248359706,-35.88890565175253,69.8926],[173.94310509258256,-35.879405141406785,8.2752],[173.92821992816462,-35.869873684773268,0.5118],[173.91610445650221,-35.870399771665376,9.0027]]}}