{"type":"Feature","properties":{"featurecla":"River","scalerank":10,"rivernum":2015,"dissolve":"2015River","name":"Manganui","name_alt":null,"note":null,"min_zoom":7.2,"strokeweig":0.2,"name_en":"Manganui","min_label":8.2},
"geometry":{"type": "LineString","coordinates": [[174.22722152829164,-36.003393718184249,91.6274],[174.22279764145833,-36.002633259311558,41.2138],[174.20922769427068,-35.994772902217683,35.1482],[174.19852027870186,-35.988367020649058,28.7588],[174.182815037658,-35.988367020649058,50.1356],[174.17353115132664,-35.993349372980212,29.1076],[174.1585531480454,-35.989078785267793,36.6288],[174.15140455557025,-35.987655256030315,28.4806],[174.13927361076395,-35.996227377742933,21.8514],[174.12785443057641,-36.002633259311558,13.9142],[174.1192823088638,-36.001921494692823,21.3624],[174.11286095415127,-35.994061137598948,14.7901],[174.1157234857701,-35.981930192792653,10.6486],[174.11357271877,-35.963362420129954,14.2141],[174.11357271877,-35.951231475323659,18.0381],[174.1071513640575,-35.944113829136292,15.6805],[174.09215788763237,-35.938388765898623,12.1643],[174.07289382349484,-35.935541707423674,10.3367],[174.062186407926,-35.938388765898623,12.9392],[174.05005546311969,-35.939100530517358,11.4261],[174.047177458357,-35.941947588992306,9.3386],[174.04077157678836,-35.942659353611042,12.7418],[174.03577375131331,-35.946960887611233,5.6187],[174.02862515883817,-35.946960887611233,11.6434],[174.02577810036323,-35.949807946086182,7.2101],[174.01791774326935,-35.949807946086182,40.6267],[174.01078462393809,-35.945537358373763,22.979],[174.00578679846305,-35.948384416848711,12.1158],[174.000788972988,-35.949096181467446,5.849],[173.996054190959,-35.946991833899006,4.5424],[173.99436761827548,-35.951231475323659,5.0009],[173.98150943570658,-35.951231475323659,3.8228],[173.97080202013774,-35.949096181467446,7.9747],[173.96866672628153,-35.944113829136292,5.3318],[173.96151813380641,-35.942659353611042,3.4081],[173.95950662510126,-35.943061655352068,2.8906],[173.95740227753282,-35.940864468920317,49.8076],[173.95867107533144,-35.938388765898623,54.5589],[173.95882580677031,-35.933499252430778,9.7935],[173.95511225223777,-35.930528408804747,2.6091],[173.95713923408678,-35.924586721552686,25.5663],[173.95367324985642,-35.920532757854659,10.5265],[173.95263654921607,-35.913724574545007,48.0771],[173.9558240168565,-35.910537106904577,0.8815],[173.9566750397702,-35.90156268345094,4.6347],[173.95839255874151,-35.902150662918594,4.6347]]}}