{"type":"Feature","properties":{"featurecla":"River","scalerank":10,"rivernum":2015,"dissolve":"2015River","name":"Manganui1","name_alt":null,"note":null,"min_zoom":7.2,"strokeweig":0.15,"name_en":"Manganui","min_label":8.2},
"geometry":{"type": "LineString","coordinates": [[174.27918177777741,-35.999074436217875,35.1025],[174.27204865844615,-36.00693479331175,30.817],[174.26633906835235,-36.017642208880574,33.1925],[174.25634341740229,-36.015475968736595,44.6868],[174.24350070797726,-36.006192082405242,45.0646],[174.22722152829164,-36.003393718184249,91.6274]]}}