{"type": "Feature","bbox": [172.59667975127206,-41.912058517606965,172.68126959002939,-41.795702874421806],"geometry": {"type": "Polygon","coordinates": [[[172.59667975127206,-41.796416712723612,449.0],[172.59846434702661,-41.799628985081483,449.0015],[172.6056027300441,-41.811050397909469,456.54],[172.61167035560891,-41.823899487340896,460.8437],[172.62023641522978,-41.834607061867132,485.9849],[172.62987323230357,-41.853166857712665,449.0],[172.63986696852794,-41.870655896105461,449.0],[172.64843302814904,-41.880292713179131,449.0],[172.65057454305418,-41.891000287705367,449.0],[172.64843302814904,-41.900637104778923,456.3932],[172.64593459409275,-41.906704730343847,452.8105],[172.65307297711024,-41.910987760154342,460.181],[172.66163903673134,-41.912058517606965,449.0],[172.67341736871003,-41.910630841003467,460.0229],[172.67591580276633,-41.904563215438543,449.5599],[172.68126959002939,-41.899209428175425,461.4457],[172.68091267087846,-41.892071045157934,499.0709],[172.67448812616271,-41.887431096196622,449.0],[172.66770666229615,-41.874582006765138,449.0],[172.6580698452226,-41.8617329173336,456.6417],[172.64414999833855,-41.843530040638996,510.7117],[172.63308550466138,-41.826397921397074,449.0],[172.62130717268246,-41.812478074512967,449.0],[172.61167035560891,-41.798915146779677,500.2278],[172.60381813428955,-41.795702874421806,465.3798],[172.59667975127206,-41.796416712723612,449.0]]]}
,"properties": {"featurecla": "Lake","scalerank": 8,"name": "Lake Rotoroa","name_abb": "L. Rotoroa","name_alt": null,"note": null,"delta": null,"dam_name": null,"year": -99,"admin": null,"min_zoom": 6.0,"min_label": 7.0,"area_km2": 22.99118,"hist_schema_id": "Elevation0-9000","hist_area_km2": {"450": 22.65955,"475": 0.30003,"500": 0.03159}}}