{"type":"Feature","properties":{"featurecla":"Lake","scalerank":8,"name":"Lake Rotoiti","name_abb":"L. Rotoiti","name_alt":null,"note":null,"delta":null,"dam_name":null,"year":-99,"admin":null,"min_zoom":6.0,"min_label":7.0},
"geometry":{"type": "Polygon","coordinates": [[[172.82689260358632,-41.799985904232358,618.0],[172.82194812366356,-41.801950806681191,620.6051],[172.81796962481428,-41.806410448948043,642.8122],[172.81654194821078,-41.811764236211161,618.0],[172.82011113971953,-41.817831861776085,638.5504],[172.82867719934052,-41.822114891586523,655.0968],[172.83367406745288,-41.829610193754888,688.9107],[172.83367406745288,-41.83781933422506,699.4873],[172.82796336103877,-41.850311504505669,671.3787],[172.81975422056883,-41.86351751308797,642.9363],[172.81689886736172,-41.86922821950202,618.0],[172.82082497802128,-41.870298976954587,623.1914],[172.82296649292664,-41.868871300351088,660.1489],[172.82582184613364,-41.863160593937096,647.2014],[172.83081871424577,-41.861019079031905,618.0],[172.835815582358,-41.854951453467038,647.351],[172.84081245047037,-41.848883827902114,629.5557],[172.84402472282829,-41.842459283186429,623.3127],[172.84652315688425,-41.83781933422506,622.1831],[172.84723699518611,-41.826041002246143,618.0],[172.84723699518611,-41.819973376681332,618.0],[172.850092348393,-41.812121155362092,648.3771],[172.84759391433693,-41.806410448948043,626.7637],[172.84331088452643,-41.807838125551541,618.0],[172.83938477386675,-41.812121155362092,618.0],[172.83545866320719,-41.811764236211161,647.8802],[172.83224639084926,-41.807124287249849,618.0],[172.83296022915113,-41.800342823383232,649.458],[172.82689260358632,-41.799985904232358,618.0]]]}}