{"type":"Feature","properties":{"GID_2":"NZL.3.2_1","GID_0":"NZL","country":"NewZealand","GID_1":"NZL.3_1","province":"Canterbury","NL_NAME_1":"NA","county":"Christchurch","VARNAME_2":"NA","NL_NAME_2":"NA","TYPE_2":"City","ENGTYPE_2":"City","CC_2":"060","HASC_2":"NZ.CA.CC","name":"Christchurch.county"},
"geometry":{"type": "MultiPolygon","coordinates": [[[[173.017,-43.8796,17.3565],[173.0173,-43.8796,17.3565],[173.0171,-43.8795,0.0],[173.017,-43.8796,17.3565]]],
[[[172.7219,-43.6056,1.6754],[172.724,-43.6079,27.1985],[172.7211,-43.6097,0.0],[172.7179,-43.6094,0.0],[172.7222,-43.6101,0.0],[172.7327,-43.6084,0.0],[172.7336,-43.6105,0.0],[172.7331,-43.6076,0.0],[172.7354,-43.6039,18.6192],[172.7413,-43.6043,0.0],[172.741,-43.6029,40.433],[172.7514,-43.5975,25.2399],[172.7573,-43.5995,44.8027],[172.766,-43.5966,5.8088],[172.7723,-43.5986,10.9754],[172.7798,-43.5979,21.9099],[172.781,-43.5957,75.6432],[172.7859,-43.5945,65.8369],[172.7914,-43.596,45.195],[172.7992,-43.5923,51.977],[172.8042,-43.5929,39.9535],[172.8081,-43.5872,118.7223],[172.8029,-43.5827,0.0],[172.7979,-43.5812,0.0],[172.7908,-43.585,37.8304],[172.7842,-43.5864,49.0699],[172.785,-43.5833,11.803],[172.7781,-43.5847,47.2646],[172.7761,-43.5808,8.1997],[172.7797,-43.5784,0.0],[172.7771,-43.5783,62.6445],[172.7778,-43.5709,0.0],[172.7758,-43.569,0.0],[172.7693,-43.573,37.9452],[172.7647,-43.571,0.9128],[172.7604,-43.5666,1.2266],[172.757,-43.5665,4.8235],[172.754,-43.5644,0.0],[172.7498,-43.5635,10.6873],[172.7474,-43.566,0.0],[172.7442,-43.5661,0.0],[172.739,-43.5597,2.8246],[172.738,-43.555,0.0],[172.7327,-43.5556,0.0],[172.728,-43.5605,14.9171],[172.7184,-43.5555,2.3545],[172.7079,-43.5584,0.0],[172.7028,-43.5545,1.477],[172.7032,-43.5511,1.7556],[172.7056,-43.5485,0.0],[172.7109,-43.5469,0.7128],[172.7152,-43.5479,2.0524],[172.7212,-43.5397,3.2881],[172.7229,-43.5309,4.1556],[172.7257,-43.5291,1.9093],[172.7214,-43.5256,5.3572],[172.7243,-43.5251,1.3208],[172.7265,-43.527,0.0],[172.7272,-43.5252,1.8842],[172.7321,-43.5283,0.0],[172.7303,-43.5306,0.0],[172.7341,-43.5373,0.0],[172.7417,-43.5397,1.4682],[172.742,-43.5439,0.0],[172.747,-43.5523,1.5784],[172.7481,-43.5601,2.3654],[172.7512,-43.5617,0.0],[172.7564,-43.5614,0.0],[172.7344,-43.5132,0.0],[172.7226,-43.4802,3.597],[172.714,-43.4355,0.0],[172.7113,-43.3914,0.0],[172.7044,-43.3919,0.0],[172.7084,-43.4034,0.3409],[172.7088,-43.4193,0.0],[172.7105,-43.4213,0.3375],[172.7099,-43.4237,0.7377],[172.707,-43.4246,0.8556],[172.7079,-43.4264,1.4649],[172.7065,-43.4287,1.4412],[172.701,-43.4186,1.5061],[172.7017,-43.4074,0.6688],[172.7053,-43.4054,2.0288],[172.7042,-43.3935,0.1361],[172.7019,-43.3907,0.0],[172.6835,-43.3902,0.0],[172.679,-43.3913,0.2735],[172.6733,-43.3986,1.1709],[172.6551,-43.4112,1.0],[172.6098,-43.429,6.0],[172.5955,-43.4295,10.0],[172.5783,-43.4345,15.0],[172.5603,-43.4342,21.9588],[172.5503,-43.4357,24.7783],[172.5227,-43.4422,33.875],[172.4631,-43.4474,58.9355],[172.4324,-43.4476,71.6579],[172.4148,-43.4532,79.729],[172.3957,-43.4557,85.7357],[172.393,-43.463,96.2392],[172.3985,-43.4627,90.3816],[172.4104,-43.4669,87.6306],[172.439,-43.4685,76.2722],[172.424,-43.5127,73.7254],[172.4578,-43.5602,43.8345],[172.4711,-43.5552,40.6391],[172.4755,-43.556399999999996,38.6346],[172.4784,-43.5553,37.1189],[172.4782,-43.553,37.7941],[172.4868,-43.5503,38.4838],[172.4967,-43.5583,32.7404],[172.5219,-43.57,22.6658],[172.5186,-43.5741,22.7822],[172.5329,-43.5865,16.4065],[172.533,-43.5883,16.4259],[172.5374,-43.5865,15.9377],[172.5402,-43.5903,14.9998],[172.5488,-43.5936,15.1347],[172.5504,-43.5991,13.9317],[172.5544,-43.5964,12.5815],[172.5609,-43.5985,13.2119],[172.5525,-43.6049,10.6093],[172.5557,-43.6071,10.8921],[172.5683,-43.6069,16.4384],[172.5707,-43.6146,11.043],[172.5687,-43.6184,9.8098],[172.5698,-43.6215,15.8953],[172.582,-43.616,17.5892],[172.593,-43.6196,91.5288],[172.5976,-43.6196,72.1312],[172.601,-43.623,131.1685],[172.6132,-43.6286,216.4136],[172.6166,-43.6252,345.2789],[172.6217,-43.6231,443.4668],[172.6278,-43.6239,416.3531],[172.6227,-43.6379,480.9419],[172.6273,-43.6478,389.1997],[172.6234,-43.6503,473.9488],[172.6247,-43.6667,446.4241],[172.6186,-43.6864,403.4358],[172.6082,-43.6906,268.0808],[172.6057,-43.6948,255.3499],[172.6071,-43.6974,235.4273],[172.6052,-43.6993,203.7882],[172.6058,-43.7017,164.8433],[172.5966,-43.7133,89.3092],[172.5972,-43.716,64.1606],[172.5838,-43.7214,2.2448],[172.5843,-43.7234,3.8217],[172.5886,-43.7268,2.0517],[172.5968,-43.7266,1.6858],[172.6073,-43.7314,1.2934],[172.6072,-43.7357,1.2553],[172.6045,-43.7373,1.3347],[172.6049,-43.751,1.2407],[172.5915,-43.7556,1.2822],[172.5858,-43.7532,1.1034],[172.5803,-43.7539,1.2488],[172.573,-43.7577,1.1332],[172.5741,-43.7636,0.0],[172.573,-43.7702,0.0],[172.3616,-43.8597,0.0],[172.4219,-43.8508,5.1612],[172.495,-43.8446,0.0],[172.5956,-43.8325,7.3005],[172.7007,-43.827,5.351],[172.7174,-43.8276,11.9807],[172.7228,-43.8301,8.4475],[172.7292,-43.827,19.1796],[172.7296,-43.8297,43.1992],[172.7274,-43.8318,8.5192],[172.7306,-43.8329,43.2621],[172.7324,-43.8356,4.7869],[172.7375,-43.8332,10.3762],[172.7385,-43.8313,3.8391],[172.7405,-43.832,97.6154],[172.7386,-43.8367,5.4227],[172.7433,-43.8371,11.493],[172.7429,-43.8394,18.6021],[172.7396,-43.8413,3.7066],[172.7413,-43.8462,27.322],[172.7451,-43.8483,50.0214],[172.7451,-43.8538,10.755],[172.7466,-43.8531,43.6819],[172.7493,-43.8547,0.0],[172.7524,-43.8535,5.2153],[172.7527,-43.8511,13.5508],[172.7564,-43.8477,31.4836],[172.7559,-43.8517,2.929],[172.7592,-43.8518,72.6076],[172.7645,-43.857,0.0],[172.7681,-43.8561,7.5252],[172.77,-43.8525,12.4328],[172.7716,-43.8568,44.0675],[172.7679,-43.8598,0.0],[172.7717,-43.86,2.9731],[172.7758,-43.8576,0.0],[172.7821,-43.8504,15.7142],[172.7854,-43.8505,0.421],[172.7816,-43.8606,44.3884],[172.7787,-43.8629,15.9234],[172.7785,-43.8658,35.2791],[172.7822,-43.8659,22.6298],[172.7821,-43.8681,1.7524],[172.79,-43.8653,58.8959],[172.7943,-43.867,0.2528],[172.7981,-43.8636,5.9643],[172.803,-43.8623,11.2811],[172.8005,-43.8719,9.5484],[172.8051,-43.8721,81.3778],[172.8066,-43.8737,0.8644],[172.8072,-43.8716,37.5605],[172.8113,-43.8714,0.0],[172.8175,-43.8684,22.9699],[172.8223,-43.8592,13.2802],[172.8217,-43.8608,2.6593],[172.8252,-43.8618,24.5384],[172.8242,-43.8691,7.4212],[172.8218,-43.8728,8.2968],[172.8123,-43.88,0.7082],[172.8163,-43.8782,24.437],[172.8217,-43.8789,11.5625],[172.8253,-43.8768,36.2028],[172.8241,-43.8795,0.0],[172.8252,-43.8805,17.4043],[172.8402,-43.8756,19.2396],[172.8293,-43.8834,60.1482],[172.8258,-43.8869,12.7871],[172.8266,-43.8885,2.2513],[172.832,-43.887,71.7463],[172.8366,-43.8898,5.9195],[172.8478,-43.8896,0.0],[172.8528,-43.8806,86.5448],[172.8571,-43.8765,2.9841],[172.8578,-43.8884,16.7808],[172.8623,-43.8895,91.5409],[172.8639,-43.892,0.0],[172.8658,-43.8889,48.6167],[172.8711,-43.8859,11.033],[172.8683,-43.8945,7.227],[172.8715,-43.8933,30.697],[172.8733,-43.8957,10.9325],[172.8811,-43.8953,17.4945],[172.8833,-43.898,4.7824],[172.8915,-43.8918,9.7638],[172.8988,-43.8923,55.5415],[172.9028,-43.8944,19.6738],[172.9041,-43.8903,34.3007],[172.9062,-43.8917,0.301],[172.9082,-43.8902,14.7311],[172.9203,-43.8966,33.2224],[172.9204,-43.8981,0.2182],[172.9228,-43.8963,32.514],[172.9304,-43.9017,2.0619],[172.9394,-43.8985,57.4986],[172.9435,-43.899,23.6073],[172.9455,-43.8968,32.6718],[172.949,-43.8971,50.7143],[172.9493,-43.8954,102.6352],[172.945,-43.8904,62.3579],[172.9423,-43.8825,0.0],[172.9336,-43.8781,49.6676],[172.927,-43.8778,39.0998],[172.9259,-43.8743,0.0],[172.9229,-43.8736,66.7998],[172.9223,-43.8706,8.904],[172.9186,-43.8706,17.5772],[172.9187,-43.8654,10.39],[172.9124,-43.8626,57.008],[172.914,-43.86,21.8214],[172.9091,-43.8574,6.5543],[172.9157,-43.8507,0.0],[172.9121,-43.8463,43.9845],[172.9103,-43.8398,34.0743],[172.9072,-43.8378,0.0],[172.9066,-43.831,66.7134],[172.9094,-43.8288,0.0],[172.9046,-43.8272,31.7162],[172.9032,-43.8226,3.1345],[172.9044,-43.8149,3.8456],[172.9082,-43.8126,28.712],[172.9118,-43.8132,0.0],[172.9155,-43.8103,7.2469],[172.9185,-43.8102,3.6327],[172.9198,-43.8082,0.0],[172.9188,-43.8066,12.102],[172.9218,-43.8021,2.5415],[172.9193,-43.8011,11.2301],[172.9168,-43.7961,45.5254],[172.9219,-43.7984,0.0],[172.9252,-43.7961,53.5826],[172.9242,-43.7901,20.2869],[172.9167,-43.7879,3.6256],[172.9217,-43.7845,0.0],[172.9148,-43.7808,0.0],[172.9102,-43.7817,18.2308],[172.9073,-43.7801,0.6761],[172.9138,-43.7733,4.3412],[172.9138,-43.77,15.6217],[172.9162,-43.7675,0.0],[172.9103,-43.7622,7.0105],[172.9126,-43.7616,0.5813],[172.9145,-43.7583,3.693],[172.9223,-43.7593,3.7991],[172.9223,-43.761,2.5798],[172.9267,-43.7635,1.5678],[172.9276,-43.7656,0.0],[172.9235,-43.7745,13.0503],[172.9278,-43.7766,0.0],[172.9289,-43.7735,13.4741],[172.9263,-43.752,0.4235],[172.9327,-43.7505,2.913],[172.9407,-43.7526,20.5143],[172.9436,-43.7557,4.4599],[172.9412,-43.7595,0.0],[172.9426,-43.7636,18.5382],[172.9473,-43.7628,50.2142],[172.9497,-43.7644,4.3194],[172.9508,-43.7628,32.7746],[172.9594,-43.7619,7.3951],[172.9629,-43.7649,12.7247],[172.9605,-43.7697,16.7306],[172.9487,-43.7744,0.0],[172.9533,-43.7737,8.7011],[172.9657,-43.7792,23.2418],[172.9672,-43.7813,1.2187],[172.9662,-43.7842,0.0],[172.9636,-43.7856,8.9163],[172.9468,-43.7841,0.0],[172.9425,-43.7877,34.8269],[172.9456,-43.7891,27.2059],[172.9434,-43.7933,5.3506],[172.9472,-43.7952,8.8612],[172.9484,-43.7979,29.2023],[172.9473,-43.7987,0.0],[172.949,-43.8002,5.2284],[172.9531,-43.7995,62.7426],[172.9582,-43.801,37.3677],[172.9596,-43.7987,27.4854],[172.9641,-43.7975,20.9448],[172.9675,-43.7995,13.3966],[172.9661,-43.7996,0.0],[172.9669,-43.8025,0.9234],[172.9646,-43.8071,0.0],[172.9583,-43.8119,5.3975],[172.9483,-43.8151,4.9427],[172.9487,-43.8177,5.2854],[172.9451,-43.8195,3.0358],[172.9433,-43.8284,20.5057],[172.9458,-43.8363,15.6659],[172.9423,-43.8386,39.684],[172.9408,-43.842,1.5204],[172.9406,-43.8522,27.1427],[172.9389,-43.8537,3.534],[172.9395,-43.8552,0.0],[172.9425,-43.8559,67.2434],[172.9423,-43.8606,55.6586],[172.945,-43.8641,53.8929],[172.9471,-43.8637,127.7902],[172.9487,-43.8679,53.398],[172.953,-43.8663,83.0146],[172.9552,-43.8693,27.2889],[172.9585,-43.8682,77.5937],[172.9598,-43.8704,0.0],[172.9683,-43.8741,12.6577],[172.9696,-43.8769,143.6785],[172.9686,-43.8869,0.0],[172.9757,-43.887,108.1394],[172.979,-43.8905,0.0],[172.9813,-43.8857,50.8559],[172.9832,-43.8894,0.0162],[172.9837,-43.8859,113.0939],[172.9886,-43.8866,3.0733],[172.9893,-43.8793,110.9671],[172.9932,-43.8716,62.5863],[172.9951,-43.8731,0.0],[172.9956,-43.8812,94.5164],[172.997,-43.8821,66.7014],[172.9958,-43.8871,30.5805],[173.0026,-43.8867,42.968],[173.0058,-43.8834,27.5076],[173.0116,-43.8833,14.3665],[173.0174,-43.8804,17.3565],[173.0056,-43.8735,38.8978],[173.0035,-43.8709,79.1092],[173.0042,-43.8684,0.0],[173.0076,-43.8684,2.3323],[173.0115,-43.8722,7.0186],[173.0218,-43.8759,34.8877],[173.024,-43.873,12.8421],[173.0269,-43.8742,52.6998],[173.0323,-43.8719,70.9795],[173.0374,-43.8727,16.2751],[173.0364,-43.8698,66.8596],[173.0385,-43.8698,18.1751],[173.0384,-43.8677,117.4419],[173.046,-43.8599,32.769],[173.04,-43.8569,22.0822],[173.0404,-43.8547,1.0398],[173.0509,-43.8568,8.2243],[173.0532,-43.854,90.4469],[173.0551,-43.8563,0.0],[173.0565,-43.8539,88.4014],[173.0584,-43.8539,0.0],[173.0533,-43.8482,1.9992],[173.0582,-43.8489,63.3106],[173.0608,-43.851,35.549],[173.0628,-43.8504,10.4937],[173.0607,-43.8483,53.0824],[173.0621,-43.846,3.7864],[173.0553,-43.8386,12.5901],[173.0573,-43.8376,49.669],[173.0667,-43.8421,31.6392],[173.0677,-43.8451,20.8775],[173.0737,-43.851,102.9212],[173.0767,-43.851,88.7316],[173.0785,-43.853,0.3036],[173.0793,-43.8495,112.3203],[173.0837,-43.8461,32.5731],[173.0849,-43.8415,7.287],[173.0834,-43.8369,4.4175],[173.0812,-43.8359,41.4058],[173.0837,-43.8359,21.9631],[173.0852,-43.8325,15.4756],[173.0875,-43.8359,25.7247],[173.0905,-43.8352,5.9753],[173.0889,-43.832,65.0471],[173.098,-43.8317,13.4826],[173.1026,-43.8333,0.0],[173.094,-43.8222,10.7643],[173.0991,-43.8208,73.4286],[173.1022,-43.8224,3.3538],[173.1027,-43.8193,27.3899],[173.1065,-43.8161,78.4655],[173.0966,-43.8111,0.0],[173.0961,-43.8076,3.4643],[173.1031,-43.8035,66.6173],[173.1089,-43.803,0.0],[173.1132,-43.7991,16.035],[173.1106,-43.796,77.0075],[173.11,-43.7904,136.6904],[173.1117,-43.7875,20.8986],[173.1069,-43.7838,75.5871],[173.1058,-43.7798,49.1407],[173.1085,-43.7746,3.4024],[173.112,-43.774,28.6597],[173.1273,-43.7765,0.1363],[173.1243,-43.773,141.5706],[173.1251,-43.7677,134.7011],[173.1285,-43.7664,0.0],[173.1302,-43.7638,27.753],[173.1287,-43.7605,79.548],[173.1296,-43.7566,20.0356],[173.1265,-43.7507,70.0729],[173.1294,-43.747,0.8131],[173.1253,-43.7415,90.7177],[173.124,-43.7381,109.4663],[173.125,-43.7368,69.4158],[173.1053,-43.7386,20.037],[173.1016,-43.7436,56.0294],[173.0982,-43.7454,8.96],[173.0925,-43.7394,15.5695],[173.0956,-43.7374,30.084],[173.0946,-43.7351,13.8258],[173.0965,-43.7345,0.0],[173.095,-43.7328,54.9516],[173.1038,-43.7298,2.0775],[173.106,-43.7311,16.4214],[173.1089,-43.7303,0.0],[173.1096,-43.7286,27.598],[173.1171,-43.7289,0.0],[173.1165,-43.7278,134.0715],[173.1183,-43.7271,2.9796],[173.117,-43.7235,1.6933],[173.1104,-43.7191,13.1333],[173.1077,-43.7188,8.0481],[173.1021,-43.7214,43.3487],[173.0988,-43.72,2.6471],[173.1072,-43.7136,20.7647],[173.1095,-43.7101,0.2253],[173.1094,-43.7087,1.148],[173.1053,-43.7082,17.8767],[173.1074,-43.7005,14.3547],[173.1025,-43.7018,67.7512],[173.101,-43.7009,2.6591],[173.103,-43.6978,1.9312],[173.1023,-43.6958,30.958],[173.0952,-43.6928,14.0295],[173.0923,-43.6899,5.2852],[173.0897,-43.6898,97.9299],[173.0868,-43.6829,0.0],[173.0833,-43.6919,36.7988],[173.0763,-43.6992,3.2404],[173.0755,-43.6969,15.4198],[173.0719,-43.6981,24.542],[173.0708,-43.6958,12.1779],[173.0638,-43.697,15.8195],[173.0564,-43.6917,10.7902],[173.0653,-43.6874,78.3524],[173.0642,-43.6868,78.3524],[173.065,-43.6809,46.0683],[173.0637,-43.6782,31.5393],[173.072,-43.6773,18.2458],[173.0731,-43.6753,53.7269],[173.0608,-43.6716,75.4802],[173.0539,-43.674,1.621],[173.0515,-43.6728,31.8888],[173.0543,-43.6682,13.105],[173.0495,-43.6662,3.7285],[173.05,-43.6653,3.7285],[173.0484,-43.6659,39.4735],[173.0499,-43.6641,0.0],[173.0437,-43.6638,6.2298],[173.0391,-43.6659,5.2485],[173.0373,-43.6621,5.9127],[173.0348,-43.6623,14.2221],[173.0347,-43.6601,3.5991],[173.0379,-43.6596,0.0],[173.0396,-43.6578,2.4811],[173.0386,-43.6574,67.0237],[173.0407,-43.6568,2.4811],[173.0401,-43.6552,36.166],[173.0473,-43.6537,0.0],[173.0473,-43.6514,0.5253],[173.0378,-43.6509,2.0452],[173.0296,-43.6557,21.5653],[173.0236,-43.6517,56.9414],[173.0201,-43.654,0.0],[173.003,-43.6737,5.3084],[172.9934,-43.6756,11.6581],[172.9915,-43.6734,1.669],[172.9993,-43.667,0.0],[173.0076,-43.654,16.7524],[173.0052,-43.6526,1.8299],[173.0012,-43.6572,22.7438],[172.99,-43.6597,30.0607],[172.9896,-43.6583,0.0],[172.9973,-43.6504,51.987],[172.9992,-43.6449,0.0],[172.9935,-43.6416,59.3759],[172.9872,-43.6399,17.7517],[172.9843,-43.6406,10.7965],[172.9825,-43.6346,11.4347],[172.9781,-43.6332,47.4156],[172.9708,-43.6383,5.3293],[172.9679,-43.6439,2.289],[172.9608,-43.6483,31.3809],[172.9594,-43.6461,50.6177],[172.9626,-43.6411,0.0],[172.9614,-43.6377,0.0],[172.9592,-43.6364,108.6298],[172.9604,-43.6341,0.0],[172.955,-43.6384,26.6422],[172.9536,-43.6382,14.932],[172.9529,-43.6356,2.3245],[172.9469,-43.6388,2.3965],[172.9458,-43.6373,28.2597],[172.9468,-43.6309,10.711],[172.9444,-43.6297,42.7953],[172.9428,-43.6327,25.5097],[172.9415,-43.6325,38.6566],[172.9339,-43.6261,8.4127],[172.935,-43.624,10.0938],[172.932,-43.6229,0.0],[172.9272,-43.6307,15.968],[172.9242,-43.6318,0.0],[172.9256,-43.6372,81.2729],[172.9214,-43.6378,0.0],[172.9163,-43.6431,0.0],[172.9143,-43.6485,0.0],[172.9146,-43.6568,3.5973],[172.9091,-43.6627,22.2272],[172.906,-43.6673,0.0],[172.9061,-43.6704,0.0],[172.9007,-43.6768,0.0],[172.9015,-43.681399999999996,17.5698],[172.8998,-43.684,3.0071],[172.9008,-43.6848,15.9825],[172.8949,-43.689,2.096],[172.891,-43.6858,0.0],[172.8914,-43.6756,0.0],[172.8866,-43.676,0.0],[172.8848,-43.6718,1.6488],[172.8907,-43.6686,0.0],[172.8959,-43.6626,12.9257],[172.8994,-43.6552,0.0],[172.897,-43.648,10.1599],[172.9075,-43.6331,0.0],[172.9075,-43.6278,24.0884],[172.9114,-43.624,0.3902],[172.9075,-43.6247,45.6629],[172.9036,-43.6325,7.1169],[172.9016,-43.6227,20.6076],[172.9037,-43.6203,6.5188],[172.9034,-43.6183,9.8221],[172.9005,-43.6171,12.8495],[172.8963,-43.6199,43.9916],[172.8965,-43.617,31.4772],[172.8929,-43.6136,2.797],[172.8868,-43.6171,15.151],[172.8827,-43.6246,67.2252],[172.8808,-43.6246,21.0077],[172.8794,-43.618899999999996,18.3444],[172.8725,-43.62,26.3481],[172.878,-43.6139,54.1927],[172.8794,-43.6091,22.781],[172.8735,-43.6086,18.3623],[172.8663,-43.6132,28.8769],[172.8656,-43.6074,11.2509],[172.8623,-43.607,6.9594],[172.8601,-43.6098,20.309],[172.8585,-43.6055,35.2571],[172.8605,-43.6026,0.1153],[172.8533,-43.6037,0.0],[172.8531,-43.6065,20.5029],[172.8494,-43.6083,23.552],[172.8506,-43.6097,36.0989],[172.8452,-43.6162,0.0],[172.8459,-43.6239,63.0884],[172.84,-43.629,11.6105],[172.8389,-43.6343,3.2999],[172.8342,-43.6363,0.0],[172.8343,-43.6404,0.0],[172.8386,-43.6453,11.5984],[172.8358,-43.6488,0.6851],[172.8363,-43.6516,5.5762],[172.8341,-43.6533,12.753],[172.8277,-43.6541,0.0],[172.8219,-43.6633,11.9177],[172.8187,-43.6608,0.0],[172.8158,-43.6623,1.8656],[172.8123,-43.6617,2.1906],[172.8109,-43.6586,0.0],[172.8189,-43.6536,9.6073],[172.8202,-43.6442,38.4261],[172.8234,-43.6411,4.7201],[172.8238,-43.6374,0.0],[172.8222,-43.638,18.2151],[172.821,-43.6366,0.0],[172.826,-43.6293,17.0174],[172.8249,-43.6265,5.0932],[172.827,-43.6222,10.6231],[172.8266,-43.6195,88.557],[172.8291,-43.6161,0.0],[172.8305,-43.6075,38.0535],[172.8289,-43.605,7.0666],[172.8254,-43.6041,16.9807],[172.8185,-43.6073,0.0],[172.8199,-43.6134,0.0],[172.8155,-43.6173,4.5197],[172.8141,-43.6168,26.4321],[172.8137,-43.6141,3.3116],[172.8044,-43.6116,42.8652],[172.7896,-43.6151,0.0],[172.7889,-43.6193,33.7929],[172.7819,-43.6227,3.2292],[172.7795,-43.6224,3.2003],[172.7795,-43.6194,0.0],[172.775,-43.6157,2.5377],[172.7679,-43.6193,24.0768],[172.7634,-43.6185,6.498],[172.7643,-43.6206,2.3463],[172.7615,-43.6229,3.3189],[172.7591,-43.6227,0.0],[172.7579,-43.6206,3.5669],[172.7547,-43.6212,1.0786],[172.7506,-43.6262,0.0],[172.7565,-43.628,0.0],[172.7549,-43.632,5.7152],[172.7561,-43.6339,2.6374],[172.7548,-43.6371,11.5799],[172.7497,-43.6386,2.6756],[172.7481,-43.6386,52.5017],[172.7447,-43.6339,2.191],[172.743,-43.6281,3.1557],[172.7435,-43.6221,6.4481],[172.7365,-43.6228,0.0],[172.7383,-43.6258,23.8348],[172.7343,-43.6271,57.6516],[172.7199,-43.6242,0.0],[172.7177,-43.626,0.0],[172.7175,-43.6283,0.0],[172.7208,-43.6333,28.1749],[172.7162,-43.6339,13.8306],[172.7138,-43.6319,0.0],[172.7115,-43.6336,0.0],[172.7105,-43.6356,3.6828],[172.7146,-43.6361,19.488],[172.7113,-43.6406,0.0],[172.712,-43.6433,14.5045],[172.7091,-43.6452,0.0],[172.7097,-43.6471,33.3848],[172.7064,-43.6483,16.4136],[172.7063,-43.6521,4.829],[172.7011,-43.6532,1.0381],[172.6993,-43.6561,4.2511],[172.6954,-43.6552,15.2586],[172.6925,-43.6565,13.9733],[172.688,-43.6535,8.9556],[172.6897,-43.6516,0.0],[172.6858,-43.6474,37.5085],[172.6881,-43.6462,15.4313],[172.6868,-43.6447,60.5991],[172.6883,-43.6439,14.6642],[172.6854,-43.643,43.4979],[172.6888,-43.6398,22.3755],[172.6853,-43.6364,33.8625],[172.6818,-43.6365,12.4469],[172.6813,-43.6399,0.0],[172.6839,-43.6405,17.9995],[172.6828,-43.6457,52.4943],[172.6804,-43.6465,10.4361],[172.6809,-43.6482,77.9495],[172.6778,-43.6539,0.0],[172.6728,-43.6598,9.0599],[172.6744,-43.6644,1.3029],[172.6718,-43.6643,0.0],[172.6704,-43.6664,2.6419],[172.6701,-43.6631,1.3543],[172.6674,-43.6624,1.2239],[172.669,-43.6619,0.3198],[172.6679,-43.6601,0.0],[172.6609,-43.6671,2.393],[172.6643,-43.6589,0.0],[172.6637,-43.6546,0.2928],[172.6577,-43.66,1.8357],[172.6607,-43.6538,0.3711],[172.659,-43.6536,1.0282],[172.6607,-43.6511,0.0],[172.6575,-43.6515,1.3009],[172.6609,-43.6479,5.0146],[172.6586,-43.6444,18.1695],[172.6662,-43.6408,12.039],[172.6641,-43.6379,39.9405],[172.6674,-43.6364,3.2633],[172.6683,-43.6309,0.0],[172.6615,-43.6339,0.0],[172.6575,-43.6399,33.5322],[172.6536,-43.6414,3.7053],[172.6501,-43.6407,0.8242],[172.6469,-43.6348,8.1547],[172.6525,-43.6318,8.5315],[172.651,-43.6281,38.8793],[172.6537,-43.6266,2.6728],[172.6515,-43.6213,31.0604],[172.6613,-43.6196,3.3868],[172.6653,-43.615,7.2912],[172.6724,-43.6134,0.0],[172.6769,-43.6084,12.4666],[172.6799,-43.6073,9.054],[172.6843,-43.6074,15.3875],[172.6876,-43.6094,37.7499],[172.6907,-43.6057,16.6591],[172.6935,-43.6055,19.2125],[172.697,-43.6089,0.0],[172.6996,-43.6076,28.6717],[172.701,-43.6105,3.8183],[172.7032,-43.6097,9.8059],[172.7068,-43.6114,0.0],[172.7158,-43.6086,0.0],[172.7116,-43.6064,2.4515],[172.7142,-43.6039,8.7593],[172.7163,-43.6039,4.2793],[172.7157,-43.6057,0.0],[172.7168,-43.604,4.2793],[172.7194,-43.6046,0.0],[172.7184,-43.6059,0.0],[172.7204,-43.6048,0.4357],[172.7188,-43.6064,0.0],[172.7206,-43.6051,0.4357],[172.7198,-43.6071,0.0],[172.7219,-43.6056,1.6754]],
[[172.7224,-43.6053,1.6754],[172.7221,-43.6057,1.6754],[172.722,-43.6057,1.6754],[172.7224,-43.6053,1.6754]]],
[[[172.6927,-43.6252,38.3863],[172.6914,-43.6227,0.0],[172.6852,-43.6254,10.7064],[172.683,-43.6273,13.6402],[172.6833,-43.6301,6.2777],[172.6892,-43.6333,2.9111],[172.6915,-43.6328,0.0],[172.6905,-43.631,24.6598],[172.6916,-43.6302,12.0358],[172.6968,-43.6317,0.0],[172.6999,-43.6304,5.0879],[172.7,-43.6277,0.0],[172.695,-43.6271,48.9199],[172.6927,-43.6252,38.3863]]],
[[[172.7549,-43.6197,0.4406],[172.754,-43.6198,1.0786],[172.7541,-43.6212,1.0786],[172.7553,-43.6203,0.4406],[172.7549,-43.6197,0.4406]]]]}}