{"type": "Feature","bbox": [175.9818,-38.5687,176.6152,-37.937],"geometry": {"type": "MultiPolygon","coordinates": [[[[176.603,-38.0113,372.8796],[176.6,-38.0114,336.528],[176.5987,-38.0088,357.3688],[176.5531,-38.0092,379.9405],[176.5539,-38.0073,383.7548],[176.5526,-38.0067,382.8215],[176.5543,-38.0043,380.1444],[176.5533,-38.0023,370.4406],[176.5419,-37.999,364.9325],[176.5362,-37.9921,338.1292],[176.5309,-37.9905,339.3316],[176.5283,-37.9918,328.2694],[176.5249,-37.9906,331.7298],[176.5136,-37.9954,330.3572],[176.5087,-37.9945,335.195],[176.509,-37.9931,335.195],[176.5035,-37.9881,287.2505],[176.505,-37.9838,277.6914],[176.5042,-37.9804,273.9949],[176.5015,-37.978,268.2591],[176.4981,-37.9625,198.1829],[176.5,-37.9588,172.7674],[176.4724,-37.9588,153.0215],[176.4717,-37.9646,183.4047],[176.4693,-37.9669,193.5079],[176.4403,-37.9578,237.7436],[176.3841,-37.9549,227.1247],[176.3843,-37.9492,183.2013],[176.371,-37.9492,236.1205],[176.3709,-37.9476,240.7469],[176.3516,-37.9402,144.9543],[176.351,-37.9372,158.2188],[176.2862,-37.937,239.4189],[176.2686,-37.9453,256.5235],[176.2537,-37.9555,272.0829],[176.2388,-37.9595,312.3656],[176.2308,-37.9583,315.9787],[176.2242,-37.9543,358.7011],[176.2213,-37.9542,351.0889],[176.2043,-37.9596,423.2007],[176.1953,-37.9605,377.3127],[176.191,-37.9546,393.8716],[176.1855,-37.9602,400.0176],[176.176,-37.9582,407.9302],[176.1706,-37.9609,402.6532],[176.1606,-37.9597,412.4254],[176.1594,-37.9613,416.2153],[176.1544,-37.9617,428.157],[176.1516,-37.9593,431.042],[176.1452,-37.9586,436.4601],[176.1433,-37.9607,434.1758],[176.1303,-37.9611,461.6145],[176.118,-37.9669,499.8091],[176.1169,-37.9692,513.8394],[176.0983,-37.9619,543.8293],[176.0568,-38.037,554.3366],[176.0051,-38.1229,532.4431],[175.9991,-38.1315,523.6631],[175.9818,-38.1386,404.1497],[175.9845,-38.142,345.8654],[176.0197,-38.1425,548.9321],[176.022,-38.1393,559.9472],[176.0307,-38.1392,574.532],[176.0307,-38.1666,553.9214],[176.0583,-38.1667,613.2113],[176.0583,-38.1642,600.2585],[176.0887,-38.1643,652.9938],[176.09,-38.167,657.3765],[176.1101,-38.1669,644.3419],[176.1503,-38.2182,479.1332],[176.1205,-38.2679,627.0029],[176.116,-38.2691,455.899],[176.1293,-38.2732,685.0859],[176.1087,-38.2758,358.4955],[176.1135,-38.2778,370.8731],[176.114,-38.2804,355.8837],[176.1197,-38.2802,362.6453],[176.122,-38.282,351.8658],[176.1233,-38.281,381.8755],[176.1301,-38.2829,355.7148],[176.1317,-38.2857,334.3265],[176.1325,-38.284,351.1355],[176.1347,-38.285,349.7452],[176.1355,-38.2878,342.2986],[176.1378,-38.2877,352.907],[176.1361,-38.2926,325.3558],[176.1379,-38.2941,340.1389],[176.1282,-38.2968,309.7462],[176.1301,-38.2978,310.9757],[176.1308,-38.2998,306.2992],[176.1292,-38.3016,318.2344],[176.1309,-38.3014,306.6091],[176.1311,-38.3036,313.5389],[176.1265,-38.3088,316.428],[176.1171,-38.3146,319.6454],[176.1097,-38.3134,351.8178],[176.0999,-38.3171,408.763],[176.0935,-38.3175,370.4984],[176.0886,-38.322,337.1993],[176.0735,-38.3269,290.657],[176.0642,-38.3348,274.2924],[176.0586,-38.3345,277.2111],[176.063,-38.3404,262.1225],[176.0606,-38.3429,266.1909],[176.0555,-38.3431,260.4291],[176.057,-38.3453,268.1797],[176.0488,-38.3498,264.062],[176.0501,-38.3544,267.8365],[176.0477,-38.3542,258.5597],[176.0465,-38.3564,260.7111],[176.0399,-38.3587,255.9586],[176.0376,-38.3582,253.5],[176.0311,-38.3636,286.631],[176.0238,-38.3651,253.5],[176.0248,-38.3686,255.2923],[176.0272,-38.3691,254.1252],[176.0275,-38.3733,268.6714],[176.0313,-38.3802,266.1775],[176.026,-38.3849,253.5],[176.0301,-38.3865,255.2417],[176.0427,-38.3852,253.5],[176.0529,-38.3895,258.4466],[176.0616,-38.3968,255.559],[176.0631,-38.3961,253.5],[176.0655,-38.398,278.6503],[176.0684,-38.4013,256.9691],[176.0689,-38.4056,261.0384],[176.0739,-38.4079,274.2216],[176.0829,-38.4086,270.108],[176.088,-38.4067,268.5618],[176.0967,-38.4123,286.0],[176.1058,-38.4134,286.0],[176.1117,-38.4112,286.0],[176.1188,-38.4133,286.0],[176.13,-38.4259,286.0],[176.132,-38.4327,286.0],[176.1392,-38.4389,286.0],[176.1376,-38.4419,286.0],[176.1423,-38.451,286.0],[176.1415,-38.4586,286.0],[176.1428,-38.4617,299.6558],[176.1465,-38.4636,286.0],[176.147,-38.4661,286.0],[176.1451,-38.4758,286.0],[176.1479,-38.4873,286.0],[176.1539,-38.4904,290.7363],[176.1546,-38.4931,289.7843],[176.1601,-38.4914,294.1621],[176.1723,-38.4981,289.3012],[176.1703,-38.5022,336.1316],[176.171,-38.5061,286.0],[176.1791,-38.5187,293.109],[176.1838,-38.5192,290.227],[176.1913,-38.5173,288.9369],[176.2025,-38.5234,286.7158],[176.2136,-38.5194,291.5515],[176.2239,-38.5191,290.625],[176.2266,-38.5219,290.5967],[176.2292,-38.5222,286.9898],[176.232,-38.5182,288.9441],[176.2405,-38.5138,291.724],[176.2461,-38.5086,291.5341],[176.2547,-38.5082,296.6453],[176.2601,-38.5037,293.0634],[176.2647,-38.5052,286.0],[176.2768,-38.489,289.7728],[176.29,-38.4854,289.9519],[176.2955,-38.4853,286.6388],[176.2994,-38.4881,287.9911],[176.3031,-38.4854,288.0],[176.3086,-38.4923,287.8311],[176.3092,-38.4977,288.2239],[176.3151,-38.4985,287.7869],[176.3164,-38.5046,293.4174],[176.3212,-38.5022,293.7177],[176.3232,-38.5072,292.692],[176.3179,-38.5081,288.2715],[176.3186,-38.513,289.1859],[176.311,-38.5229,287.5],[176.3113,-38.5271,290.4815],[176.3025,-38.5341,288.8203],[176.3041,-38.5362,287.7162],[176.2984,-38.5374,288.6057],[176.304,-38.547,289.8906],[176.2999,-38.551,293.569],[176.3022,-38.553,328.0992],[176.359,-38.5687,446.0095],[176.3868,-38.5065,373.713],[176.4549,-38.5275,541.9175],[176.4598,-38.5315,528.647],[176.4685,-38.5309,527.7029],[176.4764,-38.5333,554.7657],[176.4775,-38.5281,553.2451],[176.4748,-38.5159,552.1509],[176.4999,-38.4325,553.1685],[176.5053,-38.4022,521.2378],[176.5215,-38.4193,538.6995],[176.5781,-38.427,504.2117],[176.5816,-38.3229,457.36],[176.584,-38.1247,684.9747],[176.6036,-38.1206,349.6587],[176.6034,-38.0651,344.3014],[176.6077,-38.0669,392.3442],[176.6077,-38.064,389.2895],[176.6152,-38.0587,475.1949],[176.6031,-38.052,383.3894],[176.603,-38.0113,372.8796]]]]}
,"properties": {"GID_2": "NZL.2.4_1","GID_0": "NZL","country": "NewZealand","GID_1": "NZL.2_1","province": "BayofPlenty","NL_NAME_1": "NA","county": "Rotorua","VARNAME_2": "NA","NL_NAME_2": "NA","TYPE_2": "District","ENGTYPE_2": "District","CC_2": "024","HASC_2": "NZ.WK.RR","name": "Rotorua.county","area_km2": 2614.612,"hist_schema_id": "Elevation0-9000","hist_area_km2": {"100": 0.067,"125": 2.101,"150": 5.704,"175": 6.457,"200": 10.169,"225": 16.237,"250": 29.746,"275": 185.868,"300": 282.575,"325": 212.729,"350": 217.748,"375": 179.218,"400": 166.714,"425": 173.862,"450": 184.41,"475": 156.162,"500": 149.737,"525": 160.44,"550": 160.721,"575": 103.221,"600": 56.729,"625": 39.444,"650": 28.96,"675": 18.044,"700": 12.962,"725": 9.546,"750": 8.063,"775": 6.23,"800": 7.095,"825": 6.629,"850": 3.931,"875": 3.082,"900": 2.682,"925": 2.082,"950": 1.515,"975": 1.099,"1000": 1.216,"1025": 0.933,"1050": 0.3,"1075": 0.167}}}