{"type": "Feature","bbox": [169.5425,-45.5758,171.1442,-43.7889],"geometry": {"type": "MultiPolygon","coordinates": [[[[170.8681,-45.3971,0.9841],[170.8676,-45.3969,0.0],[170.8682,-45.3979,0.9841],[170.8687,-45.3975,0.9841],[170.8681,-45.3971,0.9841]]],
[[[169.9639,-43.7916,2495.4358],[169.9583,-43.7889,2348.8301],[169.9433,-43.7892,2534.5464],[169.9333,-43.8005,2173.2048],[169.9281,-43.8008,2130.1782],[169.913,-43.8088,2043.3928],[169.9,-43.813,2320.8716],[169.8982,-43.8197,2240.032],[169.893,-43.8231,2376.4019],[169.8961,-43.8296,2062.8357],[169.894,-43.8339,2177.6614],[169.8878,-43.8363,2413.9922],[169.8792,-43.8333,2170.9978],[169.8675,-43.8321,2204.2751],[169.8584,-43.837,2219.3994],[169.8533,-43.8431,2210.1611],[169.8454,-43.8473,2324.4126],[169.838,-43.8542,2291.1436],[169.8404,-43.8618,2295.3721],[169.8379,-43.8666,2444.1504],[169.8268,-43.8717,2161.292],[169.8138,-43.8728,2124.6541],[169.809,-43.8747,1906.9935],[169.7984,-43.8833,2212.4087],[169.7934,-43.8924,2247.3777],[169.7862,-43.8947,2108.8306],[169.7821,-43.8941,2109.0737],[169.7709,-43.8993,2161.2729],[169.7693,-43.905,1897.7719],[169.7651,-43.9084,2029.1381],[169.7611,-43.9202,2089.8953],[169.7581,-43.9221,2175.3799],[169.76,-43.9261,2005.0507],[169.7583,-43.9337,2137.9441],[169.7457,-43.931399999999996,2182.312],[169.7429,-43.9364,1849.5906],[169.7429,-43.9406,1920.069],[169.7365,-43.9438,2043.5022],[169.7342,-43.947,1977.689],[169.7276,-43.9484,2061.1704],[169.7251,-43.955,1748.2765],[169.72,-43.9599,1592.3866],[169.6993,-43.9635,2154.9326],[169.702,-43.9692,2014.8308],[169.7022,-43.9739,1919.0974],[169.6994,-43.977,2011.2349],[169.6991,-43.9797,2033.342],[169.7037,-43.9835,2017.4635],[169.7059,-43.9901,2001.6649],[169.7103,-43.9935,1980.6323],[169.7115,-43.9972,1923.3595],[169.7061,-44.0033,1916.6501],[169.7065,-44.0106,2217.0801],[169.7094,-44.0144,2028.5125],[169.7076,-44.0171,1971.8093],[169.7196,-44.0346,2011.0973],[169.7194,-44.0367,2010.0227],[169.699,-44.0428,2214.6924],[169.6942,-44.0411,2151.3718],[169.686,-44.0419,2168.4407],[169.6848,-44.0451,1925.9364],[169.6809,-44.0483,2150.8875],[169.6829,-44.0545,1951.6409],[169.6797,-44.0615,2297.252],[169.6821,-44.0683,2255.5457],[169.6786,-44.0705,2434.5723],[169.665,-44.0677,2256.9331],[169.6576,-44.0776,2074.678],[169.6624,-44.0847,2072.6306],[169.6612,-44.0915,2156.9641],[169.6544,-44.0927,2199.874],[169.6484,-44.098,1865.5699],[169.6391,-44.102,2061.7546],[169.6405,-44.1057,1999.8109],[169.6363,-44.1141,2044.6742],[169.6387,-44.1199,2059.7246],[169.6351,-44.1218,2108.634],[169.625,-44.1225,2122.8599],[169.6209,-44.1279,1915.0283],[169.6183,-44.1358,2287.1753],[169.6204,-44.14,2218.7317],[169.5989,-44.1503,2199.8274],[169.6058,-44.1585,2216.6155],[169.6039,-44.1603,2384.1125],[169.5984,-44.1601,2323.3997],[169.5963,-44.1624,2172.3789],[169.586,-44.1666,2100.0393],[169.5813,-44.1726,2093.6731],[169.5712,-44.1771,1922.7804],[169.571,-44.1823,1993.3483],[169.5664,-44.1851,1996.2041],[169.5659,-44.1883,1911.2976],[169.5619,-44.1938,2006.9358],[169.5608,-44.2054,2071.3591],[169.5489,-44.2047,1821.47],[169.5432,-44.2078,1847.5819],[169.5445,-44.2117,1985.2252],[169.5435,-44.2164,2098.6958],[169.5471,-44.2207,2218.2737],[169.5485,-44.2276,2171.9954],[169.5705,-44.2367,1841.6316],[169.5735,-44.2398,1738.1261],[169.5733,-44.2433,1670.2039],[169.5768,-44.2495,1541.8322],[169.5806,-44.2523,1485.7367],[169.5794,-44.2643,1465.5808],[169.573,-44.2792,1493.7539],[169.5748,-44.2842,1571.1772],[169.5711,-44.2962,1604.0234],[169.5748,-44.3001,1642.7126],[169.5723,-44.3056,1621.5723],[169.573,-44.3121,1805.96],[169.5684,-44.3193,1700.1223],[169.5712,-44.3332,1713.9371],[169.5787,-44.3376,1732.7816],[169.5788,-44.3401,1710.9351],[169.5772,-44.3456,1780.712],[169.5679,-44.3541,1708.8293],[169.5708,-44.3583,1782.5212],[169.5659,-44.3722,1697.5667],[169.5567,-44.381,1716.1155],[169.5594,-44.39,1728.5687],[169.5664,-44.3968,1645.5579],[169.5656,-44.4023,1629.4565],[169.5631,-44.4056,1591.3273],[169.5521,-44.4129,1640.614],[169.5459,-44.4227,1848.6252],[169.5489,-44.4289,1724.8857],[169.5545,-44.4325,1695.2236],[169.5562,-44.4376,1795.3136],[169.5478,-44.4428,1668.4668],[169.5425,-44.4486,1882.5431],[169.5535,-44.4552,1721.1726],[169.5544,-44.4572,1723.3896],[169.5623,-44.4602,1541.365],[169.5698,-44.4597,1449.3715],[169.5739,-44.4623,1341.6719],[169.5921,-44.4591,1343.1467],[169.6004,-44.4629,1359.0444],[169.6024,-44.4618,1415.2385],[169.6033,-44.4636,1374.5453],[169.615,-44.4606,1538.8499],[169.6337,-44.4624,1571.5394],[169.6419,-44.4664,1485.1097],[169.641,-44.4719,1232.55],[169.6441,-44.479,1366.5498],[169.6475,-44.4812,1539.123],[169.6436,-44.4867,1368.0515],[169.6412,-44.4951,1477.7208],[169.6349,-44.4989,1440.8857],[169.6343,-44.5018,1483.2152],[169.6373,-44.5063,1391.6274],[169.6377,-44.5116,1468.1754],[169.6432,-44.5154,1432.4333],[169.6456,-44.5192,1482.861],[169.6501,-44.521,1516.7263],[169.647,-44.5261,1489.6763],[169.6477,-44.5311,1497.0078],[169.6523,-44.5352,1460.6163],[169.6634,-44.5372,1490.7841],[169.653,-44.5459,1295.2422],[169.6521,-44.5486,1252.3977],[169.6455,-44.5551,1258.5446],[169.6452,-44.561,1328.1887],[169.6407,-44.5648,1246.0411],[169.6434,-44.5693,1129.356],[169.6408,-44.5747,1044.9691],[169.6427,-44.576,1055.3907],[169.6445,-44.5843,933.8235],[169.641,-44.596,1252.8372],[169.6578,-44.5936,1133.6548],[169.6818,-44.5979,1512.9064],[169.6885,-44.6011,1718.8091],[169.6886,-44.6029,1750.4705],[169.6853,-44.6061,1794.1304],[169.6969,-44.6014,1781.8092],[169.7085,-44.601,1712.9524],[169.7133,-44.598,1734.7322],[169.7187,-44.5794,1699.9926],[169.7186,-44.5735,1707.6293],[169.7306,-44.5651,1743.2168],[169.7366,-44.5705,1692.8391],[169.7463,-44.5861,1753.587],[169.7486,-44.5943,1781.7773],[169.7478,-44.6001,1704.8866],[169.7554,-44.6075,1755.4738],[169.7572,-44.6121,1781.0721],[169.7537,-44.6183,1811.8745],[169.7533,-44.631,1809.4429],[169.7549,-44.6389,1808.092],[169.8056,-44.6613,1338.4958],[169.822,-44.6636,1260.8767],[169.8171,-44.6655,1250.3088],[169.8362,-44.6689,1633.8119],[169.8416,-44.6654,1733.9659],[169.8913,-44.6443,1428.328],[169.9442,-44.654,1799.2866],[169.9634,-44.7088,1843.5397],[169.9702,-44.7441,1867.0317],[169.9811,-44.7545,1844.0947],[169.9822,-44.7671,1844.9064],[169.9841,-44.7725,1801.5167],[169.9937,-44.7865,1690.3711],[169.995,-44.7988,1666.7021],[169.9989,-44.8087,1694.515],[169.9966,-44.8204,1602.4318],[169.9978,-44.8247,1590.033],[170.0055,-44.8368,1605.468],[170.0126,-44.8435,1611.5427],[170.0185,-44.8556,1604.0197],[170.0267,-44.859,1614.1176],[170.0309,-44.8701,1550.2788],[170.0382,-44.8725,1537.181],[170.0431,-44.8768,1552.4231],[170.0503,-44.8774,1600.0742],[170.0638,-44.8836,1636.1012],[170.0695,-44.8998,1530.3447],[170.0819,-44.9121,1556.604],[170.0744,-44.916,1403.0928],[170.0687,-44.9232,1570.5271],[170.0848,-44.9274,1635.6956],[170.0914,-44.9342,1647.5364],[170.0913,-44.9375,1545.5784],[170.0941,-44.94,1477.2025],[170.1037,-44.9426,1428.7644],[170.1113,-44.9469,1481.1875],[170.1205,-44.9474,1512.4969],[170.1271,-44.9411,1546.7347],[170.1309,-44.9407,1553.3112],[170.1405,-44.9428,1477.6592],[170.1475,-44.9409,1544.1165],[170.1503,-44.9433,1496.5354],[170.1584,-44.9436,1501.9553],[170.1645,-44.946,1444.3042],[170.1757,-44.9418,1455.7413],[170.1793,-44.943,1428.0034],[170.1895,-44.94,1343.7729],[170.2001,-44.939,1379.3489],[170.2105,-44.9346,1347.0195],[170.2204,-44.9334,1308.4886],[170.2252,-44.9347,1307.0491],[170.2421,-44.9307,1207.7025],[170.2469,-44.9223,1222.2001],[170.252,-44.9188,1201.0447],[170.2596,-44.9216,1214.7156],[170.2652,-44.9199,1209.7266],[170.2726,-44.9216,1252.9161],[170.2818,-44.9166,1316.0562],[170.2907,-44.9141,1409.5474],[170.3017,-44.9195,1500.6444],[170.3047,-44.9105,1445.9879],[170.3194,-44.903,1544.8884],[170.3401,-44.9039,1468.0017],[170.3514,-44.9093,1441.4065],[170.354,-44.9281,1088.4071],[170.3506,-44.9317,1132.0593],[170.3491,-44.9431,1144.0168],[170.357,-44.939,1007.3088],[170.3656,-44.9401,1271.3323],[170.3666,-44.9444,1184.8218],[170.3721,-44.948,968.3668],[170.3734,-44.9524,918.2966],[170.3689,-44.9602,1039.0079],[170.3698,-44.9723,1280.1274],[170.3541,-44.9827,1332.7585],[170.3473,-44.9896,1342.447],[170.3519,-45.0078,1231.7615],[170.3494,-45.0217,1522.8204],[170.3533,-45.024,1487.2777],[170.3558,-45.0292,1299.9623],[170.3629,-45.0368,1305.0708],[170.3633,-45.0435,1309.6974],[170.3683,-45.0548,1515.082],[170.3805,-45.0608,1545.1095],[170.3792,-45.067,1526.8632],[170.3862,-45.0733,1526.5669],[170.3855,-45.0779,1545.666],[170.3978,-45.0809,1596.52],[170.3986,-45.0865,1400.9998],[170.3972,-45.0931,1389.9244],[170.4084,-45.1023,1346.7388],[170.4053,-45.1133,1316.7087],[170.3997,-45.1153,1353.0275],[170.4039,-45.1226,1354.4412],[170.4092,-45.1247,1226.2955],[170.4126,-45.124,1243.0079],[170.424,-45.1284,1244.5303],[170.4352,-45.1282,1382.4471],[170.4395,-45.1337,1495.9713],[170.4313,-45.1403,1171.5569],[170.4351,-45.1456,889.8725],[170.4289,-45.1505,815.7233],[170.428,-45.1539,774.5261],[170.4161,-45.1623,703.7163],[170.412,-45.1756,613.968],[170.4075,-45.1783,599.3694],[170.4007,-45.1785,583.53],[170.3916,-45.1773,586.2107],[170.3825,-45.1738,601.0103],[170.3772,-45.1768,627.6115],[170.3766,-45.181399999999996,653.2864],[170.3743,-45.1844,661.7668],[170.3642,-45.187,680.3461],[170.3814,-45.2016,663.3245],[170.3836,-45.2072,658.2229],[170.3831,-45.2125,652.4122],[170.3686,-45.223,721.6103],[170.3543,-45.2291,763.1819],[170.353,-45.2319,824.4833],[170.3545,-45.2363,811.1479],[170.347,-45.2363,815.7259],[170.3499,-45.2414,742.8158],[170.343,-45.2429,651.6343],[170.3396,-45.2392,638.4152],[170.3346,-45.2391,575.5264],[170.3284,-45.2367,526.9796],[170.3192,-45.2423,490.6414],[170.3137,-45.2425,463.0068],[170.3136,-45.2684,534.2307],[170.3941,-45.2686,745.3055],[170.411,-45.2803,711.2556],[170.4151,-45.2879,673.1639],[170.4234,-45.2954,703.8653],[170.4209,-45.3079,712.3099],[170.409,-45.3197,696.4444],[170.3949,-45.3279,702.8041],[170.3811,-45.3265,668.0114],[170.3755,-45.3309,666.6111],[170.3755,-45.3269,720.0844],[170.3251,-45.3241,541.1451],[170.3249,-45.3625,602.6507],[170.3034,-45.3563,480.3914],[170.2887,-45.3496,374.4468],[170.2843,-45.3496,380.0822],[170.2849,-45.4442,485.1848],[170.2657,-45.4441,661.342],[170.2608,-45.4488,681.449],[170.2596,-45.4529,674.0997],[170.2616,-45.4561,661.5337],[170.2572,-45.4621,668.0252],[170.2515,-45.4637,655.5057],[170.2268,-45.482,549.0757],[170.2092,-45.4819,438.8096],[170.2094,-45.5067,277.8361],[170.2639,-45.5067,531.9551],[170.2672,-45.5046,533.1034],[170.2737,-45.5056,544.8726],[170.2854,-45.4974,548.9296],[170.2853,-45.4946,534.3621],[170.3044,-45.4996,334.783],[170.3081,-45.4997,366.7086],[170.31,-45.4979,352.7607],[170.3593,-45.5212,508.2957],[170.3508,-45.5282,489.3742],[170.3417,-45.5458,500.413],[170.367,-45.5492,661.6785],[170.3713,-45.5542,603.0328],[170.3775,-45.5545,655.3575],[170.3877,-45.5541,689.6536],[170.4193,-45.5187,726.035],[170.4313,-45.5232,666.7369],[170.4558,-45.5286,639.9462],[170.4672,-45.5289,587.4745],[170.4764,-45.533,513.4197],[170.4816,-45.5092,519.4759],[170.5529,-45.5094,176.6292],[170.5558,-45.5104,169.7251],[170.5563,-45.5132,161.5961],[170.5554,-45.5143,161.5961],[170.5514,-45.5123,170.3081],[170.5558,-45.5155,193.0092],[170.5537,-45.5179,191.6695],[170.5546,-45.524,213.329],[170.5624,-45.5383,352.8713],[170.5603,-45.542,383.6051],[170.5628,-45.546,397.7855],[170.5632,-45.5511,411.9898],[170.5618,-45.5539,427.9094],[170.5729,-45.5546,376.1149],[170.5753,-45.557,375.9636],[170.5756,-45.5607,398.3422],[170.5801,-45.5635,422.1028],[170.5798,-45.5675,394.4288],[170.5842,-45.5706,338.3351],[170.5905,-45.5724,293.0662],[170.5977,-45.5694,262.7994],[170.6035,-45.5714,254.7971],[170.6048,-45.574,263.3064],[170.6131,-45.5758,229.7891],[170.6302,-45.5709,204.2342],[170.6272,-45.5692,172.571],[170.6281,-45.5671,178.5961],[170.6368,-45.5598,116.9899],[170.7156,-45.5595,13.6148],[170.7087,-45.5511,19.3511],[170.7152,-45.5488,3.5684],[170.7161,-45.5504,0.7119],[170.7225,-45.5528,0.1507],[170.7236,-45.5514,0.1507],[170.7214,-45.5508,1.7133],[170.7271,-45.5489,4.7199],[170.7257,-45.5539,2.7572],[170.7287,-45.5561,7.8742],[170.7283,-45.5577,6.8834],[170.726,-45.5569,0.2356],[170.7282,-45.5613,0.6101],[170.7268,-45.5693,0.0],[170.7311,-45.5627,12.0156],[170.7445,-45.5519,0.0],[170.7455,-45.5466,8.718],[170.7469,-45.5465,0.0],[170.7497,-45.5408,15.0613],[170.7514,-45.5403,0.0],[170.7545,-45.5338,8.4768],[170.7605,-45.5303,20.0871],[170.7661,-45.5319,9.064],[170.767,-45.5299,0.0],[170.7652,-45.5271,25.4169],[170.7783,-45.518,0.0],[170.7834,-45.509,1.6173],[170.7845,-45.5097,0.0],[170.7899,-45.5047,0.0],[170.7934,-45.5038,20.0379],[170.8115,-45.4878,31.8407],[170.8184,-45.4785,0.0],[170.82,-45.4793,16.339],[170.8275,-45.4773,4.1202],[170.8281,-45.4745,44.9114],[170.8313,-45.4734,0.6386],[170.8261,-45.4651,24.2969],[170.8108,-45.4586,14.0978],[170.8089,-45.4517,7.4123],[170.8118,-45.4397,31.2785],[170.8185,-45.4238,1.5699],[170.8255,-45.4128,3.2154],[170.8464,-45.3951,1.7795],[170.8563,-45.3909,2.8729],[170.8648,-45.3912,34.2548],[170.8688,-45.396,2.7988],[170.8674,-45.3866,20.2595],[170.8682,-45.3802,0.72],[170.8646,-45.3805,13.5218],[170.863,-45.377,57.0222],[170.865,-45.3748,0.0],[170.8644,-45.3731,0.0],[170.8677,-45.3714,6.995],[170.8645,-45.37,2.2132],[170.8654,-45.3671,0.2106],[170.8622,-45.364,15.0127],[170.8631,-45.3575,10.1246],[170.858,-45.3557,3.0793],[170.8546,-45.3578,0.0],[170.8557,-45.3585,33.6613],[170.8548,-45.3596,12.9191],[170.8493,-45.3596,14.0826],[170.8476,-45.3615,20.5201],[170.8359,-45.3593,2.0123],[170.828,-45.3504,6.1457],[170.8244,-45.3386,6.9307],[170.8246,-45.327,0.0],[170.8312,-45.3061,0.0],[170.8361,-45.2967,4.7709],[170.8472,-45.2819,9.6793],[170.8553,-45.2762,36.61],[170.8608,-45.2698,11.6366],[170.8584,-45.264,3.219],[170.8634,-45.2573,10.8682],[170.8619,-45.255,5.8906],[170.8626,-45.2501,1.76],[170.8613,-45.2466,5.308],[170.8643,-45.2382,0.0],[170.8758,-45.2243,7.9059],[170.8832,-45.2208,1.9451],[170.8851,-45.2174,3.5713],[170.8887,-45.2161,3.0311],[170.8879,-45.2139,5.2702],[170.8855,-45.2135,4.8882],[170.8845,-45.2104,0.0],[170.887,-45.2038,6.6977],[170.8943,-45.195,8.543],[170.9013,-45.1945,1.4996],[170.9026,-45.192,7.812],[170.9006,-45.1887,0.0],[170.904,-45.1844,0.3342],[170.9077,-45.1833,0.0],[170.9044,-45.1744,18.5659],[170.906,-45.1716,10.232],[170.9103,-45.1669,2.4408],[170.9148,-45.165,2.9315],[170.9191,-45.1572,3.4984],[170.9471,-45.135,0.0],[170.9631,-45.1266,0.0],[170.9758,-45.1259,23.8834],[170.9826,-45.1215,0.0],[170.9811,-45.1201,0.0],[170.9828,-45.1129,26.9059],[170.9808,-45.11,12.8197],[170.9807,-45.1057,0.0],[170.9799,-45.1097,12.8197],[170.9767,-45.1093,2.8213],[170.9779,-45.1081,0.0],[170.9762,-45.1091,2.8213],[170.9725,-45.1079,1.7996],[170.9728,-45.105,0.0],[170.978,-45.106,0.0],[170.9725,-45.1043,2.6441],[170.9738,-45.0991,5.6402],[170.9783,-45.0937,7.9837],[170.9913,-45.0833,0.0],[171.018,-45.0671,0.0],[171.0603,-45.0385,0.0],[171.0816,-45.0208,14.3744],[171.1022,-45.0013,0.0],[171.1165,-44.984,8.7193],[171.1187,-44.9804,16.2189],[171.1175,-44.9801,16.2189],[171.1192,-44.9798,0.0],[171.1198,-44.9788,0.0],[171.1186,-44.9787,17.9613],[171.1261,-44.9704,4.659],[171.1442,-44.9405,0.0],[171.126,-44.9374,3.0059],[171.1196,-44.932,6.6934],[171.1148,-44.9311,4.0],[171.1179,-44.9312,4.4439],[171.1158,-44.9295,11.3157],[171.1107,-44.9306,4.5],[171.102,-44.9292,10.1046],[171.0984,-44.931,9.8819],[171.0874,-44.9305,19.6348],[171.0828,-44.9319,19.067],[171.0632,-44.9257,27.4333],[171.0309,-44.9231,33.1581],[171.0238,-44.9197,35.4194],[171.0001,-44.9212,45.5757],[170.9876,-44.9142,44.687],[170.9826,-44.9149,48.1078],[170.9731,-44.9098,48.4307],[170.9645,-44.912,57.1149],[170.9409,-44.9069,63.1101],[170.9318,-44.9067,66.4079],[170.925,-44.9028,62.75],[170.9131,-44.9029,67.7325],[170.9072,-44.8967,67.9076],[170.9019,-44.8974,70.6348],[170.8982,-44.8956,70.8363],[170.8995,-44.8948,69.9413],[170.8845,-44.8913,73.6849],[170.8722,-44.8933,78.7334],[170.8638,-44.8908,85.4417],[170.8557,-44.8946,85.3717],[170.8556,-44.8856,81.0],[170.8159,-44.8815,94.8251],[170.7196,-44.8487,123.5643],[170.6995,-44.8448,130.8155],[170.676,-44.8372,135.5978],[170.6331,-44.8293,144.0],[170.6131,-44.822,150.2756],[170.5947,-44.8185,158.5772],[170.5817,-44.8143,159.0242],[170.5727,-44.8052,165.1278],[170.545,-44.7907,173.6673],[170.5188,-44.7622,183.1303],[170.4974,-44.7459,192.2736],[170.4804,-44.7357,197.6694],[170.4722,-44.725,200.418],[170.4605,-44.717,201.4],[170.4527,-44.7009,230.0819],[170.4437,-44.6973,206.9133],[170.4376,-44.697,207.8084],[170.4272,-44.6876,230.0],[170.4001,-44.6737,230.0],[170.3872,-44.6689,230.0],[170.3778,-44.6621,230.0],[170.3726,-44.6622,230.0],[170.3673,-44.6661,231.6578],[170.3605,-44.6663,239.2354],[170.3545,-44.6543,269.5],[170.3438,-44.6484,269.5],[170.3406,-44.6442,269.5],[170.3311,-44.6377,269.5],[170.2996,-44.6272,269.5],[170.2951,-44.6233,269.5],[170.2744,-44.6122,269.5],[170.2375,-44.6148,269.5],[170.2242,-44.6082,269.5],[170.2003,-44.5909,269.5],[170.1909,-44.5877,269.5],[170.1852,-44.5761,269.5],[170.1928,-44.5676,269.5],[170.2012,-44.5669,361.0],[170.2041,-44.5653,361.0],[170.2088,-44.5518,361.0],[170.2058,-44.5492,361.0],[170.1971,-44.547,361.0],[170.1924,-44.5419,361.0],[170.1927,-44.5371,361.0],[170.2048,-44.539,361.0],[170.208,-44.5376,361.0],[170.2092,-44.5349,361.0],[170.2067,-44.5328,361.0],[170.1994,-44.5312,361.0],[170.2033,-44.5278,361.0],[170.2035,-44.5213,361.0],[170.2003,-44.5179,361.0],[170.2013,-44.5143,361.0],[170.199,-44.5057,361.0],[170.1998,-44.504,361.0],[170.1966,-44.4968,361.0],[170.2023,-44.4887,361.0],[170.2098,-44.4857,361.0],[170.2153,-44.4874,361.0],[170.2186,-44.4862,361.0],[170.2085,-44.479,361.0],[170.207,-44.4758,361.0],[170.2205,-44.466,361.0],[170.2197,-44.461,361.0],[170.2173,-44.4577,361.0],[170.2152,-44.4432,361.0],[170.2216,-44.4384,361.0],[170.2235,-44.4332,361.0],[170.2218,-44.4299,361.0],[170.2226,-44.4168,361.0],[170.2157,-44.4074,361.0],[170.2112,-44.3968,361.0],[170.2078,-44.3947,361.0],[170.2027,-44.383,361.0],[170.2068,-44.3709,361.0],[170.2043,-44.3603,361.0],[170.2048,-44.351,361.0],[170.1912,-44.3446,361.0],[170.1801,-44.3347,373.0759],[170.1777,-44.3301,374.0078],[170.165,-44.3198,382.5086],[170.1534,-44.3147,397.8862],[170.1356,-44.303,401.123],[170.1144,-44.2953,413.3397],[170.1076,-44.2905,418.4599],[170.0932,-44.2881,427.2916],[170.0848,-44.2833,459.0],[170.075,-44.2831,459.0],[170.0677,-44.2802,459.0],[170.0592,-44.2799,459.0],[170.0536,-44.2746,459.0],[170.0449,-44.2743,459.0],[170.0289,-44.2681,471.9083],[170.0187,-44.2706,470.4721],[170.0076,-44.2682,479.0161],[170.002,-44.2705,482.4871],[169.9993,-44.2685,485.4637],[170.003,-44.2639,489.8719],[170.003,-44.2617,490.8444],[170.001,-44.2607,495.0424],[169.9984,-44.2612,502.7457],[169.9957,-44.2651,495.1766],[169.9856,-44.2629,500.061],[169.9822,-44.268,501.2827],[169.9774,-44.2716,501.1924],[169.978,-44.2759,505.2546],[169.9751,-44.277,521.2336],[169.9724,-44.2747,507.1913],[169.9668,-44.2775,508.842],[169.9606,-44.2782,512.3024],[169.9558,-44.2848,525.3676],[169.9387,-44.2844,520.0],[169.939,-44.2811,528.3387],[169.9354,-44.2765,523.5635],[169.9352,-44.2722,527.4213],[169.927,-44.2692,545.8344],[169.9068,-44.2749,524.6653],[169.9001,-44.2744,561.5993],[169.8905,-44.271,574.8242],[169.8778,-44.2569,520.8188],[169.8771,-44.2399,527.8031],[169.8798,-44.2248,541.1967],[169.8777,-44.2194,520.0],[169.879,-44.2154,524.8115],[169.8773,-44.2127,520.0],[169.879,-44.2069,529.2528],[169.877,-44.204,520.0],[169.8789,-44.2013,520.0],[169.8771,-44.1903,522.4777],[169.8703,-44.1829,520.6898],[169.8627,-44.1805,520.0],[169.8648,-44.1755,520.8738],[169.861,-44.1673,522.2567],[169.8551,-44.1615,523.0708],[169.845,-44.1554,525.5297],[169.8423,-44.1504,523.0673],[169.8437,-44.145,526.0865],[169.8636,-44.1291,530.7943],[169.8729,-44.1109,535.9852],[169.8746,-44.1033,537.4284],[169.871,-44.0963,541.7827],[169.8651,-44.0908,543.6277],[169.8467,-44.0785,553.7961],[169.8395,-44.0712,560.607],[169.8274,-44.0548,572.1506],[169.8163,-44.029,591.0189],[169.8163,-44.0168,601.4084],[169.8221,-44.0014,615.3478],[169.8259,-43.9811,637.6367],[169.827,-43.9595,660.1479],[169.8417,-43.9326,696.3626],[169.8578,-43.9156,725.2505],[169.8595,-43.9067,740.9233],[169.8631,-43.9013,771.7344],[169.8717,-43.8974,758.2574],[169.8796,-43.8891,776.6084],[169.895,-43.8798,822.7341],[169.8975,-43.8728,842.02],[169.9047,-43.8641,894.0812],[169.904,-43.8614,898.4459],[169.9066,-43.8548,912.6083],[169.9138,-43.8467,971.2004],[169.9142,-43.8431,997.2272],[169.9124,-43.8401,1025.4119],[169.9149,-43.838,1019.0919],[169.9147,-43.8335,1072.8157],[169.9191,-43.8248,1100.8718],[169.9233,-43.8245,1095.5215],[169.931,-43.8175,1120.582],[169.9447,-43.8096,1309.4474],[169.9514,-43.7975,1533.3721],[169.9639,-43.7916,2495.4358]]]]}
,"properties": {"GID_2": "NZL.3.10_1","GID_0": "NZL","country": "NewZealand","GID_1": "NZL.3_1","province": "Canterbury","NL_NAME_1": "NA","county": "Waitaki","VARNAME_2": "NA","NL_NAME_2": "NA","TYPE_2": "District","ENGTYPE_2": "District","CC_2": "068","HASC_2": "NZ.OT.WI","name": "Waitaki.county","area_km2": 7198.307,"hist_schema_id": "Elevation0-9000","hist_area_km2": {"0": 49.513,"25": 220.664,"50": 241.2,"75": 200.835,"100": 140.601,"125": 121.392,"150": 112.997,"175": 131.192,"200": 131.479,"225": 127.665,"250": 118.582,"275": 133.783,"300": 104.461,"325": 97.809,"350": 136.091,"375": 134.763,"400": 136.655,"425": 140.525,"450": 164.162,"475": 207.112,"500": 193.858,"525": 256.631,"550": 199.831,"575": 193.105,"600": 161.548,"625": 138.837,"650": 120.206,"675": 114.248,"700": 105.831,"725": 110.404,"750": 103.363,"775": 96.376,"800": 87.054,"825": 83.242,"850": 81.339,"875": 79.533,"900": 79.565,"925": 77.338,"950": 77.539,"975": 79.467,"1000": 79.757,"1025": 77.14,"1050": 78.458,"1075": 77.586,"1100": 78.986,"1125": 77.951,"1150": 75.722,"1175": 74.658,"1200": 73.914,"1225": 70.979,"1250": 70.363,"1275": 69.923,"1300": 69.729,"1325": 69.27,"1350": 67.368,"1375": 65.376,"1400": 56.602,"1425": 55.846,"1450": 51.458,"1475": 49.079,"1500": 46.612,"1525": 42.317,"1550": 39.663,"1575": 36.611,"1600": 34.624,"1625": 32.118,"1650": 32.642,"1675": 29.116,"1700": 27.769,"1725": 25.565,"1750": 23.52,"1775": 21.587,"1800": 17.575,"1825": 16.578,"1850": 14.993,"1875": 12.362,"1900": 9.934,"1925": 8.784,"1950": 7.218,"1975": 6.258,"2000": 5.956,"2025": 5.072,"2050": 4.571,"2075": 3.398,"2100": 2.789,"2125": 2.439,"2150": 1.708,"2175": 1.494,"2200": 0.93,"2225": 0.733,"2250": 0.641,"2275": 0.412,"2300": 0.382,"2325": 0.275,"2350": 0.198,"2375": 0.153,"2400": 0.122,"2450": 0.076}}}