{"type":"Feature","properties":{"featurecla":"Island","name":"SOUTH ISLAND","namealt":null,"region":"Oceania","subregion":"New Zealand","min_label":4.0,"max_label":7.0,"scalerank":2},
"geometry":{"type": "Polygon","coordinates": [[[172.91114367628484,-43.621360146305562,0.0],[172.89356530039652,-43.613457940630951,2.797],[172.89146679815295,-43.619461988716481,106.9854],[172.8847762378964,-43.638604425005894,280.3268],[172.88001549570902,-43.664361260943338,234.53],[172.8756209644589,-43.667779229693394,302.1704],[172.86634362070879,-43.659600518755838,471.9493],[172.85694420664652,-43.645318292193451,308.9253],[172.85267174570868,-43.630181573443394,327.3445],[172.83668053477129,-43.628106378130894,0.0],[172.80079186289618,-43.627740167193338,364.8923],[172.76343834727129,-43.634698175006008,153.2596],[172.74280846445868,-43.654351495318338,175.6772],[172.72071373789629,-43.649224542193451,208.8486],[172.69288170664629,-43.645806573443451,0.0],[172.68128502695902,-43.638116143755894,27.3562],[172.70801842539618,-43.620293878130894,0.0],[172.73768151133379,-43.612969659380838,0.0],[172.80384362070868,-43.609795831255894,0.0],[172.8320418628964,-43.600396417193451,0.0],[172.7710067066464,-43.588067315630838,60.0347],[172.75586998789652,-43.579888604693451,5.8778],[172.74756920664618,-43.565972589068451,0.0],[172.75245201914629,-43.559380792193451,1.0718],[172.76417076914618,-43.561211846880781,0.0],[172.77686608164629,-43.572442315630838,41.3225],[172.7788192066464,-43.556573175005894,0.0],[172.75025475352118,-43.497369073443394,0.0],[172.74747420757322,-43.487915217220291,0.0],[172.73194420664618,-43.435113214068338,0.0],[172.7221785816464,-43.414849542193394,0.0],[172.67603600352118,-43.440362237505951,3.6834],[172.62916100352129,-43.458184503130838,11.7987],[172.52369225352129,-43.476861260943394,37.7739],[172.38672936289629,-43.450372003130838,91.9342],[172.5180770191464,-43.452569268755951,37.6135],[172.58594811289618,-43.444512628130894,16.9132],[172.64661705820879,-43.428399346880894,7.3536],[172.6580916675839,-43.422295831255894,6.015],[172.68751061289629,-43.401177667193451,1.0879],[172.70215905039618,-43.399468682818281,2.3155],[172.7360945972714,-43.399956964068451,0.0],[172.74280846445868,-43.393731378130951,0.0],[172.74463951914618,-43.340752862505894,0.0],[172.74854576914629,-43.315484307818394,0.0],[172.75586998789652,-43.291314385943451,0.0],[172.63624108164629,-43.298150323443338,17.0438],[172.49878990977118,-43.267998956255894,88.3384],[172.7038680347714,-43.278252862505781,3.6884],[172.7221785816464,-43.276421807818338,0.0],[172.73792565195902,-43.270928643755951,0.0],[172.74537194102152,-43.264336846880951,0.0],[172.75037682383379,-43.256036065630781,0.0],[172.77393639414629,-43.229180596880894,0.0],[172.79676354258368,-43.187432550005838,0.0],[172.8110457691464,-43.167779229693394,0.0],[172.8878279957089,-43.126763604693394,0.0],[172.9148055347714,-43.101617120318451,0.0],[172.9480086597714,-43.090386651568451,0.0],[173.08301842539629,-43.065728448443394,0.0],[173.13135826914629,-43.038018487505951,0.0],[173.14002526133379,-43.031182550005894,0.0],[173.14429772227118,-43.022637628130838,0.0],[173.14783776133379,-43.011285089068338,0.0],[173.15357506602118,-43.001397393755951,0.0],[173.19495690195879,-42.985650323443451,0.0],[173.2232772144589,-42.982476495318394,0.0],[173.2341414722714,-42.979546807818451,0.0],[173.2778426441464,-42.959527276568451,0.0],[173.2871199878964,-42.952691339068394,0.0],[173.2907820972714,-42.945611260943281,0.0],[173.29334557383402,-42.931695245318451,0.0],[173.2999373707089,-42.926690362505894,0.0],[173.3087264332089,-42.923272393755838,0.0],[173.3181258472714,-42.914483331255894,0.0],[173.3253279957089,-42.902398370318451,0.0],[173.32593834727129,-42.896661065630838,0.0],[173.3247176441464,-42.891167901568451,0.0],[173.32496178477129,-42.879815362505951,0.0],[173.3203231128964,-42.860528253130951,0.0],[173.3223983082089,-42.850152276568281,0.0],[173.35364830820902,-42.838189385943394,0.0],[173.37269127695902,-42.820489190630781,0.0],[173.3878279957089,-42.799004815630838,0.0],[173.39881432383402,-42.764214776568451,0.0],[173.47645104258402,-42.640191339068394,0.0],[173.47107994883379,-42.637872003130951,0.0],[173.46692955820902,-42.635552667193338,0.0],[173.46229088633379,-42.633721612505894,0.0],[173.45533287852129,-42.633355401568338,10.057],[173.45533287852129,-42.625909112505838,9.217],[173.4994002613339,-42.608941339068338,0.0],[173.52295983164629,-42.572076104693451,0.0],[173.53858483164629,-42.528252862505838,0.0],[173.5583602222714,-42.489922784380838,0.0],[173.61097252695879,-42.442315362505894,0.0],[173.62354576914618,-42.434747003130951,0.0],[173.63404381602118,-42.431573175005951,0.0],[173.6552840503964,-42.417413018755894,0.0],[173.6682235035214,-42.414239190630951,1.9504],[173.68360436289652,-42.416192315630838,47.4458],[173.69483483164652,-42.421685479693394,85.7001],[173.7153426441464,-42.442193292193394,0.0],[173.72303307383379,-42.435601495318451,0.0],[173.7296248707089,-42.427911065630894,0.0],[173.72266686289629,-42.418511651568451,0.0],[173.7056990894589,-42.402886651568451,0.0],[173.70167076914629,-42.393853448443394,0.0],[173.70337975352129,-42.377373956255894,0.0],[173.7109481128964,-42.369195245318451,0.0],[173.72156823008402,-42.363702081255894,0.0],[173.7326766285214,-42.355889581255894,0.0],[173.73694908945879,-42.350274346880894,0.0],[173.7468367847714,-42.332330010943394,0.0],[173.76099694102129,-42.332940362505838,0.0],[173.7679549488339,-42.331963800005894,0.0],[173.7736922535214,-42.328667901568451,0.0],[173.8048201832089,-42.290704034380838,0.0],[173.8261824878964,-42.275567315630951,0.0],[173.87122643320879,-42.253960870318394,0.0],[173.89087975352129,-42.239556573443394,0.0],[173.9099227222714,-42.213311456255894,0.0],[173.9289656910214,-42.194390557818451,0.0],[173.9309188160214,-42.189629815630951,0.0],[173.89380944102152,-42.157891534380951,26.3795],[173.8763533863339,-42.146783135943338,38.3116],[173.86402428477152,-42.131524346880838,54.5576],[173.8593856128964,-42.102349542193338,214.2464],[173.8625594410214,-42.092705987505838,158.3868],[173.8696395191464,-42.094414971880894,284.0031],[173.8767195972714,-42.103448175005894,194.629],[173.87989342539618,-42.115411065630838,205.9577],[173.88172448008379,-42.132622979693451,89.5632],[173.88770592539652,-42.142266534380894,42.2757],[173.89820397227118,-42.148125909380838,36.3833],[173.9421492847714,-42.162652276568451,0.0],[173.9539901050839,-42.157525323443394,0.0],[173.95630944102129,-42.139580987505951,0.0],[173.95557701914652,-42.109185479693394,0.0],[173.9614363941464,-42.089043878130894,0.0],[173.97498619883379,-42.065972589068394,0.0],[174.00403893320902,-42.030083917193451,0.0],[174.19776451914629,-41.874810479693451,0.0],[174.2150985035214,-41.855645440630951,0.0],[174.28626549570879,-41.753350518755894,0.0],[174.29200280039629,-41.729058526568394,0.0],[174.27320397227129,-41.734551690630951,84.1737],[174.2480574878964,-41.732232354693338,52.5436],[174.22584069102152,-41.722222589068451,0.0],[174.21631920664652,-41.704766534380838,0.0],[174.21082604258368,-41.698174737505838,0.0],[174.1897078785214,-41.643365167193451,0.0],[174.1889754566464,-41.632745050005894,0.0],[174.17017662852152,-41.632500909380781,0.0],[174.1466170582089,-41.645196221880951,53.9301],[174.11329186289629,-41.670342706255951,133.8506],[174.1025496753964,-41.674248956255838,52.5463],[174.03553307383368,-41.685723565630951,114.246],[174.0252791675839,-41.686333917193394,123.925],[174.02462737456881,-41.683845252953574,124.2363],[174.04578698008402,-41.673760675005838,101.5838],[174.10584557383379,-41.654229425005951,133.4845],[174.1337996753964,-41.639580987505894,52.6731],[174.16199791758368,-41.617364190630894,19.4991],[174.17469323008379,-41.597832940630894,0.0],[174.1721297535214,-41.577080987505951,0.0],[174.11695397227152,-41.505913995318338,0.0],[174.10303795664652,-41.496758721880838,0.0],[174.10584557383379,-41.512383721880894,0.0],[174.11500084727129,-41.532525323443338,0.0],[174.1201278003964,-41.537163995318394,0.0],[174.11524498789652,-41.557305596880894,52.9216],[174.1042586597714,-41.559991143755838,41.904],[174.0933944019589,-41.554742120318338,0.0],[174.0897322925839,-41.550957940630951,0.0],[174.0930281910214,-41.544732354693338,0.0],[174.0886336597714,-41.531426690630951,0.236],[174.07667076914629,-41.519219659380951,0.0],[174.0578719410214,-41.516167901568451,0.9143],[174.0645858082089,-41.499566339068451,0.0],[174.0627547535214,-41.485039971880838,0.0],[174.0517684253964,-41.454644464068451,0.0],[174.0505477222714,-41.435723565630838,0.0],[174.05530846445879,-41.423394464068394,0.0],[174.07899010508402,-41.399468682818394,0.0],[174.09791100352118,-41.372613214068451,0.0],[174.10288813092311,-41.363507771689804,0.0],[174.11365807383379,-41.343804620318451,0.0],[174.13282311289629,-41.318902276568338,0.0],[174.1616317066464,-41.303887628130894,0.0],[174.1547957691464,-41.318169854693281,0.0],[174.16846764414652,-41.320977471880894,59.0504],[174.18921959727152,-41.305108331255951,350.8234],[174.1992293628964,-41.307549737505838,197.6705],[174.19739830820879,-41.313653253130838,0.0],[174.1801863941464,-41.335381768755894,0.0],[174.17530358164652,-41.345391534380894,0.0],[174.19019615977152,-41.342217706255951,0.0],[174.21387780039618,-41.327691339068451,0.0],[174.2450057300839,-41.321221612505781,0.0],[174.25184166758379,-41.313409112505951,0.0],[174.25538170664629,-41.303521417193394,0.0],[174.26038658945902,-41.293877862505894,0.0],[174.2702742847714,-41.284356378130894,0.0],[174.2900496753964,-41.270562432818451,0.0],[174.29761803477129,-41.263482354693394,0.0],[174.3131209644589,-41.240044854693451,0.0],[174.32557213633379,-41.215142510943338,0.0],[174.2843123707089,-41.239190362505951,98.4575],[174.26319420664629,-41.246514581255838,16.3167],[174.2364608082089,-41.249200128130951,0.0],[174.22608483164618,-41.251519464068451,36.2146],[174.2116805347714,-41.261285089068394,161.9599],[174.1992293628964,-41.263482354693394,103.8367],[174.1866561207089,-41.260918878130838,0.0],[174.1721297535214,-41.254205010943394,154.5155],[174.1584578785214,-41.245171807818394,0.0],[174.1479598316464,-41.235528253130894,0.0],[174.1388045582089,-41.238335870318451,127.8866],[174.11793053477118,-41.241875909380781,216.7548],[174.09839928477129,-41.251885675005951,230.8841],[174.0876570972714,-41.251153253130894,182.3483],[174.07691490977152,-41.248589776568394,0.0],[174.06544030039652,-41.249200128130951,0.0],[174.0476180347714,-41.258355401568451,0.0],[174.03394615977129,-41.267754815630894,54.1361],[174.01905358164629,-41.272149346880894,13.068],[173.99720299570868,-41.266656182818451,152.9109],[173.98670494883368,-41.271783135943338,297.3804],[173.9585067066464,-41.277886651568338,127.1888],[173.9350692066464,-41.278374932818338,306.5831],[173.93824303477152,-41.266656182818451,0.0],[173.95215905039652,-41.256768487505951,0.0],[173.9699813160214,-41.248223565630894,0.0],[173.98853600352129,-41.244561456255951,0.0],[174.00403893320902,-41.249200128130951,0.0],[174.0109969410214,-41.238824151568281,0.0],[174.0214949878964,-41.234673760943394,65.402],[174.03357994883402,-41.236016534380894,0.0],[174.0455428394589,-41.242364190630951,0.0],[174.06177819102129,-41.227959893755951,0.0],[174.0883895191464,-41.222100518755838,0.0],[174.1408797535214,-41.221978448443394,0.0],[174.1547957691464,-41.219781182818394,0.0],[174.16199791758368,-41.214532159380894,0.0],[174.16724694102129,-41.207818292193451,0.0],[174.17530358164652,-41.201470635943394,0.0],[174.19532311289652,-41.191949151568394,0.0],[174.19556725352118,-41.192437432818338,0.0],[174.19556725352118,-41.193413995318451,0.0],[174.1958113941464,-41.194024346880894,0.0],[174.19910729258379,-41.192681573443451,0.0],[174.2118026050839,-41.189507745318451,0.0],[174.21631920664652,-41.187798760943451,0.0],[174.21021569102152,-41.172417901568338,0.0],[174.2031356128964,-41.163628839068394,0.0],[174.18213951914629,-41.146172784380894,0.0],[174.17432701914629,-41.136163018755894,0.0],[174.16688073008379,-41.122979425005894,0.0],[174.16724694102129,-41.114800714068394,0.0],[174.18213951914629,-41.119561456255894,28.1529],[174.18555748789629,-41.109795831255951,93.9755],[174.19263756602129,-41.097588800005951,154.0239],[174.1995955738339,-41.090386651568394,276.4794],[174.2026473316464,-41.095025323443451,423.7828],[174.2026473316464,-41.135918878130951,64.3085],[174.2070418628964,-41.146172784380894,0.0],[174.2165633472714,-41.146172784380894,0.0],[174.22608483164618,-41.142022393755951,0.0],[174.22986901133402,-41.139336846880951,0.0],[174.2293807300839,-41.138726495318394,0.0],[174.22816002695902,-41.137505792193338,0.0],[174.2275496753964,-41.137017510943394,0.0],[174.2398787769589,-41.129327081255951,0.0],[174.25403893320879,-41.123223565630951,0.0],[174.2572127613339,-41.125664971880894,0.0],[174.2602645191464,-41.116997979693394,0.0],[174.26136315195868,-41.097588800005951,0.0],[174.26710045664629,-41.087823175005838,0.0],[174.3186141285214,-41.025445245318394,0.0],[174.3263045582089,-41.008111260943451,0.0],[174.31873619883402,-40.995415948443338,0.0],[174.30445397227152,-40.999444268755951,0.0],[174.2641707691464,-41.030205987505894,0.0],[174.24317467539629,-41.050957940630951,130.0129],[174.2263289722714,-41.064019464068451,81.4546],[174.2070418628964,-41.069390557818394,69.7416],[174.1889754566464,-41.057427667193451,0.0],[174.18445885508402,-41.048760675005951,0.0],[174.18409264414652,-41.042168878130951,0.0],[174.18885338633402,-41.037896417193451,23.4159],[174.21021569102152,-41.035332940630894,0.0],[174.21522057383379,-41.031792901568451,0.0],[174.2164412769589,-41.024468682818394,0.0],[174.21631920664652,-41.012749932818394,0.0],[174.21119225352152,-40.998345635943394,0.0],[174.19874108164629,-40.983330987505951,0.0],[174.1828719410214,-40.971856378130838,0.0],[174.16785729258402,-40.968072198443451,0.0],[174.17151940195902,-40.986748956255951,0.0],[174.1618758472714,-41.002618096880894,286.8377],[174.14503014414629,-41.008111260943451,0.0],[174.12818444102152,-40.995415948443338,0.0],[174.11292565195902,-41.013238214068394,535.1962],[174.09400475352129,-41.017876885943394,0.0],[174.0730086597714,-41.012994073443281,0.0],[174.0517684253964,-41.002251885943394,0.0],[174.01563561289629,-40.973321221880781,190.0532],[173.9984236988339,-40.967583917193451,0.0],[173.99659264414652,-40.988580010943281,0.0],[173.9812117847714,-40.982842706255951,0.0],[173.9742537769589,-40.986748956255951,0.0],[173.9754744800839,-40.996880792193451,189.9924],[173.9835311207089,-41.009698175005894,85.3456],[173.94874108164652,-41.009698175005894,0.0],[173.95618737070868,-41.021416925005894,41.0004],[173.9869490894589,-41.046929620318451,79.9434],[174.00001061289652,-41.051812432818451,0.0],[174.00635826914618,-41.041192315630838,0.0],[174.0106307300839,-41.025567315630951,0.0],[174.0171004566464,-41.015801690630894,34.7916],[174.0334578785214,-41.016045831255781,106.3365],[174.0418807300839,-41.027032159380894,0.0],[174.0411483082089,-41.041802667193451,0.0],[174.0241805347714,-41.062188409380951,133.1737],[174.0286971363339,-41.071954034380894,152.7365],[174.0455428394589,-41.091607354693394,525.9175],[174.01526940195902,-41.091729425005838,0.0],[174.0022078785214,-41.102959893755894,105.3264],[173.99354088633402,-41.122124932818394,118.0729],[173.9760848316464,-41.146172784380894,150.4632],[173.97046959727152,-41.115533135943394,0.0],[173.97291100352129,-41.100030206255838,0.0],[173.9835311207089,-41.084161065630894,0.0],[173.94874108164652,-41.077935479693451,0.0],[173.9503279957089,-41.088189385943394,316.7767],[173.94886315195879,-41.094414971880838,262.9852],[173.9438582691464,-41.097588800005951,275.5312],[173.9350692066464,-41.098443292193281,120.1766],[173.9278670582089,-41.100762628130894,0.0],[173.9282332691464,-41.106255792193451,0.0],[173.93018639414629,-41.113213800005951,14.292],[173.92835533945879,-41.119561456255894,129.9416],[173.9156600269589,-41.127862237505894,67.3037],[173.9028426441464,-41.134698175005951,182.2522],[173.8923445972714,-41.144097589068338,335.1622],[173.88733971445868,-41.159844659380951,355.5638],[173.89625084727152,-41.190606378130894,195.0814],[173.92261803477118,-41.191460870318394,223.9936],[173.9760848316464,-41.174126885943338,21.0677],[173.9692488941464,-41.187798760943451,65.6868],[173.97461998789629,-41.191216729693451,57.0888],[173.9787703785214,-41.193047784380781,0.0],[173.9834090503964,-41.193780206255838,0.0],[173.9900008472714,-41.194024346880894,0.0],[173.99927819102152,-41.192193292193451,63.077],[174.0012313160214,-41.188042901568394,0.0],[174.0012313160214,-41.183526300005951,0.0],[174.00403893320902,-41.180352471880951,0.0],[174.0211287769589,-41.176324151568338,0.0],[174.1337996753964,-41.174126885943338,281.2469],[174.1120711597714,-41.192315362505894,234.3647],[174.0832625660214,-41.198296807818451,286.77],[174.0239363941464,-41.194024346880894,0.0],[174.03931725352152,-41.205376885943394,394.1977],[174.0455428394589,-41.208306573443281,101.9651],[174.0300399097714,-41.214898370318451,11.0461],[174.00574791758402,-41.220879815630951,126.8415],[173.98170006602152,-41.222955010943338,223.3397],[173.96583092539629,-41.218560479693394,87.7804],[173.9503279957089,-41.211602471880894,0.0],[173.92920983164629,-41.211114190630894,67.5862],[173.88733971445868,-41.215142510943338,0.0],[173.89527428477129,-41.223809503130894,22.4864],[173.9062606128964,-41.225396417193394,6.1157],[173.9198104175839,-41.225152276568338,0.0],[173.93445885508379,-41.228692315630838,242.3161],[173.93445885508379,-41.235528253130894,409.0157],[173.8967391285214,-41.243218682818451,194.0383],[173.7911483082089,-41.290215753130951,316.5465],[173.7828475269589,-41.287530206255838,132.3082],[173.77418053477152,-41.282769464068451,0.1813],[173.76734459727152,-41.274834893755838,4.5675],[173.7638045582089,-41.263482354693394,0.0],[173.8186141285214,-41.251275323443394,0.0],[173.8469344410214,-41.240411065630838,57.0658],[173.8593856128964,-41.228692315630838,0.0],[173.86158287852118,-41.216607354693451,0.0],[173.87147057383402,-41.194390557818451,0.0],[173.8736678394589,-41.184014581255894,0.0],[173.86732018320879,-41.169976495318451,0.0],[173.85206139414629,-41.159600518755894,0.0],[173.8338729175839,-41.153863214068451,0.0],[173.8183699878964,-41.153619073443394,0.0],[173.8289901050839,-41.138848565630838,21.9875],[173.84461510508368,-41.135064385943281,0.0],[173.85901940195879,-41.128350518755838,0.0],[173.8662215503964,-41.105279229693338,331.3665],[173.87452233164652,-41.108819268755951,282.7422],[173.88135826914629,-41.109063409380894,155.0503],[173.8857528003964,-41.104668878130894,76.4551],[173.88733971445868,-41.095025323443451,0.0],[173.88599694102118,-41.090874932818338,0.0],[173.8811141285214,-41.085015557818394,3.813],[173.87989342539618,-41.080987237505951,24.8264],[173.8824569019589,-41.072808526568394,99.9764],[173.88868248789629,-41.073052667193338,128.8238],[173.8953963550839,-41.076592706255951,128.4727],[173.9004012378964,-41.077935479693451,197.7801],[173.90748131602129,-41.078912042193394,111.373],[173.9167586597714,-41.082818292193451,0.0],[173.9248153003964,-41.083428643755894,0.0],[173.92835533945879,-41.074151300005894,0.0],[173.9303084644589,-41.064263604693338,89.6809],[173.93592369883402,-41.058282159380951,0.0],[173.9445906910214,-41.056206964068451,0.0],[173.95557701914652,-41.057427667193451,0.0],[173.9296981128964,-41.047051690630951,0.0],[173.89454186289652,-41.048150323443338,0.0],[173.8286238941464,-41.057427667193451,123.4147],[173.82801354258368,-41.062188409380951,284.5087],[173.8048201832089,-41.087823175005838,0.0],[173.80054772227118,-41.103570245318338,302.6815],[173.79004967539652,-41.109063409380894,54.0121],[173.7784529957089,-41.106499932818394,52.1796],[173.77003014414618,-41.098443292193281,101.0556],[173.7794295582089,-41.091363214068338,0.0],[173.78797448008379,-41.081719659380838,0.0],[173.79456627695879,-41.070245050005894,22.9458],[173.79798424570879,-41.057427667193451,0.0],[173.78101647227129,-41.052666925005781,0.0],[173.78065026133379,-41.045342706255894,0.0],[173.7905379566464,-41.037286065630838,219.0724],[173.8048201832089,-41.030083917193394,117.7478],[173.7804061207089,-41.010308526568451,29.7726],[173.7956649097714,-41.000176690630838,300.9132],[173.8242293628964,-40.997124932818338,0.0],[173.8394881519589,-40.998833917193394,187.6952],[173.85377037852118,-41.009698175005894,255.0037],[173.88538658945902,-41.008965753130838,0.0],[173.9177352222714,-41.000664971880838,0.0],[173.93445885508379,-40.988580010943281,0.0],[173.9255477222714,-40.987237237505951,33.0415],[173.92225182383379,-40.984795831255894,131.1656],[173.9201766285214,-40.980767510943451,90.468],[173.91395104258379,-40.974908135943338,0.0],[173.9235945972714,-40.967583917193451,0.0],[173.93360436289629,-40.964288018755894,0.0],[173.9442244800839,-40.964776300005894,43.437],[173.95557701914652,-40.968072198443451,0.0],[173.96033776133402,-40.954034112505838,0.0],[173.96973717539618,-40.946709893755951,3.5297],[173.97559655039652,-40.939751885943281,0.0],[173.9692488941464,-40.926446221880894,90.3261],[174.01734459727129,-40.935967706255894,0.0],[174.0346785816464,-40.932427667193394,0.0],[174.0239363941464,-40.905938409380894,0.0],[174.01563561289629,-40.900811456255838,0.0],[174.00379479258379,-40.898736260943451,0.0],[173.9919539722714,-40.898736260943451,0.0],[173.9835311207089,-40.899834893755894,0.0],[173.93445885508379,-40.920342706255894,68.7341],[173.91956627695868,-40.923882745318338,81.2221],[173.91395104258379,-40.926446221880894,5.9324],[173.9137069019589,-40.927300714068394,5.9324],[173.9132186207089,-40.928887628130951,105.9368],[173.91285240977152,-40.929620050005838,145.7199],[173.91041100352118,-40.942559503130894,0.0],[173.90784752695879,-40.947564385943451,0.0],[173.87732994883379,-40.971123956255951,37.9359],[173.8736678394589,-40.974908135943338,106.6157],[173.8496199878964,-40.970635675005951,0.0],[173.8534041675839,-40.924615167193394,0.0],[173.8286238941464,-40.937310479693394,0.0],[173.80665123789618,-40.963677667193451,0.0],[173.80128014414652,-40.968072198443451,0.0],[173.75049889414629,-40.974419854693394,0.0],[173.73951256602118,-40.978326104693394,0.0],[173.7301131519589,-40.984063409380838,0.0],[173.70704186289652,-40.993096612505894,0.0],[173.69861901133379,-40.998833917193394,0.0],[173.68226158945902,-41.014458917193394,0.0],[173.6810408863339,-41.019830010943338,0.0],[173.6812850269589,-41.033257745318394,152.5834],[173.6875106128964,-41.036187432818394,138.4554],[173.7258406910214,-41.015801690630894,27.4315],[173.73853600352152,-41.018609307818451,340.6205],[173.74634850352152,-41.025933526568338,159.1877],[173.74744713633379,-41.035943292193338,0.0],[173.73951256602118,-41.046929620318451,0.0],[173.71583092539652,-41.056817315630894,0.0],[173.6888533863339,-41.063653253130894,0.0],[173.6746932300839,-41.074761651568338,0.0],[173.68873131602152,-41.098443292193281,262.0659],[173.6743270191464,-41.105279229693338,38.3564],[173.6695662769589,-41.095635675005894,19.1918],[173.66456139414618,-41.092583917193394,32.6227],[173.6594344410214,-41.095635675005894,0.0],[173.65455162852129,-41.105279229693338,5.9633],[173.6477156910214,-41.105279229693338,166.3732],[173.6464949878964,-41.085870050005951,0.0],[173.63648522227152,-41.068047784380894,0.0],[173.6207381519589,-41.054986260943394,0.0],[173.6030379566464,-41.049981378130951,0.0],[173.58838951914629,-41.055108331255838,0.0],[173.57105553477152,-41.066949151568338,38.7705],[173.56190026133402,-41.080743096880894,125.588],[173.57203209727152,-41.091607354693394,266.2126],[173.5637313160214,-41.102715753130951,213.4059],[173.5553084644589,-41.102105401568394,43.1009],[173.54664147227152,-41.097955010943451,147.4967],[173.5379744800839,-41.098443292193281,0.0],[173.5297957691464,-41.105157159380894,82.468],[173.51368248789618,-41.129082940630894,138.5105],[173.5000106128964,-41.140191339068338,5.7256],[173.48316490977118,-41.148736260943394,0.0],[173.47762835646219,-41.150510297391016,0.0],[173.4484969410214,-41.159844659380951,1.9854],[173.4524031910214,-41.152764581255838,0.0],[173.45533287852129,-41.143609307818338,0.0],[173.45472252695902,-41.135918878130951,0.0],[173.4484969410214,-41.132500909380951,0.0],[173.4382430347714,-41.135796807818338,0.0],[173.42701256602129,-41.150445245318394,374.6367],[173.40211022227118,-41.158379815630894,88.3042],[173.3399764332089,-41.204766534380951,1.8104],[173.30140221445868,-41.245782159380951,0.0],[173.28419030039652,-41.260308526568394,0.0],[173.24952233164618,-41.276299737505951,0.0],[173.21265709727152,-41.300591729693338,0.0],[173.19336998789629,-41.307915948443394,1.0078],[173.17225182383379,-41.310723565630951,0.0],[173.12574303477129,-41.310479425005894,6.1577],[173.1036483082089,-41.306573175005894,9.2945],[173.0861922535214,-41.298150323443451,40.2625],[173.0792342457089,-41.283379815630894,49.5288],[173.08301842539629,-41.275933526568451,8.6619],[173.10035240977129,-41.269830010943451,0.0],[173.10596764414618,-41.263482354693394,3.4881],[173.10523522227129,-41.255669854693338,6.5991],[173.09290612070879,-41.228692315630838,0.0],[173.08338463633368,-41.188042901568394,0.0],[173.07545006602118,-41.175225518755951,0.0],[173.0648299488339,-41.187798760943451,19.2999],[173.05811608164629,-41.187798760943451,26.517],[173.0551863941464,-41.176446221880951,50.7128],[173.04969323008368,-41.168999932818451,0.0],[173.03419030039629,-41.156792901568451,0.0],[173.0307723316464,-41.147881768755894,0.0],[173.03748619883368,-41.112115167193394,0.0],[173.04712975352129,-41.115777276568338,0.0],[173.05494225352152,-41.122002862505951,0.0],[173.06104576914652,-41.129937432818394,0.0],[173.0648299488339,-41.139336846880951,0.0],[173.0691024097714,-41.122979425005894,0.0],[173.0612899097714,-41.109429620318394,0.0],[173.05018151133379,-41.096246026568451,0.0],[173.04444420664652,-41.080987237505951,0.0],[173.0426131519589,-41.065606378130838,0.0],[173.0307723316464,-41.015801690630894,0.0],[173.02112877695879,-41.020562432818394,0.0],[173.01343834727118,-41.021905206255894,79.2713],[173.00611412852152,-41.020196221880894,46.5552],[172.99659264414629,-41.015801690630894,1.0708],[173.02198326914629,-41.000176690630838,0.0],[173.04444420664652,-40.981744073443394,0.0],[173.05579674570868,-40.968804620318338,0.0],[173.05811608164629,-40.961846612505838,70.131],[173.05543053477118,-40.953057550005894,0.0],[173.05189049570902,-40.934502862505951,38.6985],[173.06190026133368,-40.890313409380838,0.0],[173.0648299488339,-40.885552667193338,0.0],[173.05396569102152,-40.870538018755894,104.4828],[173.04114830820879,-40.867120050005894,95.0302],[173.0263778003964,-40.867852471880951,160.7291],[173.00965416758368,-40.865655206255951,0.0],[173.02186119883368,-40.855279229693394,101.0906],[173.0229598316464,-40.847100518755894,0.0],[173.01710045664629,-40.837701104693451,0.0],[173.02271569102129,-40.817925714068394,0.0],[173.02234948008368,-40.808648370318394,0.0],[173.01710045664629,-40.796075128130894,0.0],[173.00318444102129,-40.780816339068394,0.0],[172.98902428477118,-40.779717706255951,3.2205],[172.97498619883379,-40.788750909380838,14.9509],[172.9619246753964,-40.804131768755951,167.9761],[172.95154869883402,-40.792779229693451,0.0],[172.94373619883402,-40.792046807818394,0.0],[172.92774498789618,-40.804131768755951,0.0],[172.92615807383379,-40.808770440630894,99.1021],[172.92823326914629,-40.821954034380951,124.993],[172.92432701914629,-40.824639581255951,263.5439],[172.9113875660214,-40.825494073443451,35.488],[172.90626061289618,-40.827325128130951,51.881],[172.88221276133368,-40.842095635943281,56.1409],[172.86915123789652,-40.846123956255894,23.9742],[172.85633385508379,-40.842461846880951,0.0],[172.77039635508368,-40.790459893755894,0.0],[172.73597252695879,-40.763726495318394,0.0],[172.7221785816464,-40.735284112505781,0.0],[172.7008162769589,-40.743951104693451,34.7613],[172.69434655039618,-40.748955987505894,38.4216],[172.6889754566464,-40.732964776568338,42.9181],[172.70106041758379,-40.703179620318394,0.0],[172.7011824878964,-40.686211846880894,0.0],[172.6964217457089,-40.681695245318451,0.0],[172.6794539722714,-40.676690362505838,0.0],[172.67383873789652,-40.673272393755838,1.0973],[172.6601668628964,-40.646538995318394,0.7668],[172.6772567066464,-40.647881768755894,1.7564],[172.69129479258368,-40.647271417193451,0.0],[172.69666588633379,-40.639336846880951,0.0],[172.68751061289629,-40.618584893755894,0.0],[172.70240319102129,-40.608819268755951,0.0],[172.71143639414629,-40.589898370318394,0.0],[172.7221785816464,-40.550347589068451,0.0],[172.73182213633402,-40.529717706255894,0.3978],[172.74207604258379,-40.519707940630894,6.2094],[172.75770104258379,-40.516412042193451,0.0],[172.97388756602129,-40.530083917193394,1.4382],[172.99659264414629,-40.523003839068451,0.0],[172.96387780039618,-40.520318292193451,0.0],[172.9043074878964,-40.507256768755951,0.0],[172.83948815195868,-40.500909112505894,0.0],[172.64136803477129,-40.508477471880838,0.0],[172.5957137378964,-40.526665948443394,0.0],[172.55713951914629,-40.564019464068451,0.0],[172.56983483164629,-40.568047784380894,12.921],[172.58399498789652,-40.566094659380951,21.9066],[172.59839928477118,-40.559869073443338,42.3152],[172.61109459727152,-40.550347589068451,16.3772],[172.61451256602152,-40.554009698443394,22.0226],[172.62610924570879,-40.564019464068451,0.0],[172.62513268320868,-40.573052667193451,0.127],[172.5943709644589,-40.583550714068451,0.0136],[172.5987654957089,-40.598199151568394,45.0613],[172.59253990977129,-40.602837823443394,70.9679],[172.58399498789652,-40.608086846880894,28.8891],[172.57508385508368,-40.611016534380951,20.2287],[172.55872643320868,-40.604668878130894,0.9428],[172.55140221445902,-40.611260675005894,48.6601],[172.54578698008368,-40.620660089068451,97.8977],[172.5407820972714,-40.625420831255781,121.046],[172.52662194102129,-40.621148370318394,2.6908],[172.52784264414618,-40.610039971880838,0.1719],[172.5442000660214,-40.576958917193451,0.0],[172.50696862070879,-40.588311456255951,0.0],[172.46338951914618,-40.620538018755951,0.0],[172.36329186289629,-40.714654229693338,9.8493],[172.31153405039618,-40.745171807818338,27.5688],[172.30738365977129,-40.748955987505894,60.304],[172.29542076914652,-40.751885675005951,14.1413],[172.2674666675839,-40.766534112505838,112.6814],[172.2539168628964,-40.776055596880894,144.9096],[172.24671471445868,-40.776910089068394,118.933],[172.23194420664618,-40.776299737505951,66.8283],[172.2251082691464,-40.778863214068451,85.1281],[172.22083580820902,-40.784966729693451,92.2939],[172.21778405039652,-40.791680596880894,158.5362],[172.21448815195879,-40.796075128130894,158.2947],[172.20789635508379,-40.798394464068338,217.5492],[172.20142662852118,-40.798272393755894,138.2541],[172.19471276133402,-40.799004815630951,40.7491],[172.18787682383379,-40.804131768755951,42.4416],[172.18580162852129,-40.808648370318394,135.4382],[172.18397057383379,-40.819146417193394,314.0654],[172.18043053477129,-40.824639581255951,306.2967],[172.15650475352129,-40.848931573443338,274.1451],[172.14356530039629,-40.868829034380894,200.5326],[172.13672936289652,-40.874688409380838,114.9284],[172.1279403003964,-40.877373956255951,128.0593],[172.1152449878964,-40.878106378130838,0.0],[172.10670006602118,-40.885674737505951,0.0],[172.10633385508368,-40.903252862505894,152.0965],[172.1121932300839,-40.934502862505951,447.4172],[172.1121932300839,-41.043145440630951,105.6771],[172.11841881602152,-41.095025323443451,325.3942],[172.11646569102129,-41.104302667193394,94.7004],[172.10767662852129,-41.127129815630951,160.579],[172.10535729258368,-41.139336846880951,5.7093],[172.11414635508368,-41.249688409380951,2.5915],[172.11988365977129,-41.262017510943394,67.2796],[172.13941490977152,-41.290215753130951,59.3723],[172.12757408945902,-41.290704034380781,27.4818],[172.1157332691464,-41.294854425005894,5.7106],[172.10645592539629,-41.299493096880951,3.0474],[172.10181725352152,-41.300713800005951,2.5946],[172.09241783945879,-41.298028253130951,7.6546],[172.08753502695902,-41.307549737505838,2.3899],[172.08423912852129,-41.331841729693394,6.6305],[172.08375084727118,-41.353326104693338,8.0655],[172.08179772227152,-41.365044854693394,8.0411],[172.0681258472714,-41.384454034380951,6.9227],[172.06592858164629,-41.393853448443338,55.172],[172.0669051441464,-41.403741143755894,43.9027],[172.07056725352129,-41.413018487505894,155.9213],[172.04993737070902,-41.418877862505781,307.4519],[172.02039635508402,-41.432915948443394,356.0486],[171.99390709727118,-41.449883721880951,239.81],[171.98243248789652,-41.464654229693281,249.3665],[171.9814559253964,-41.476495050005951,328.0212],[171.9784041675839,-41.487237237505951,196.2314],[171.9731551441464,-41.497002862505894,203.9475],[171.96509850352129,-41.505913995318338,286.8404],[171.9600936207089,-41.509209893755894,195.3588],[171.95716393320868,-41.510674737505894,225.6565],[171.95557701914618,-41.512994073443451,208.7685],[171.95386803477129,-41.533746026568394,122.3248],[171.95069420664618,-41.537530206255951,180.7943],[171.94617760508402,-41.538384698443451,98.7848],[171.94080651133379,-41.543511651568451,123.5246],[171.90369713633368,-41.605767510943338,239.4014],[171.88965905039618,-41.622613214068394,253.8508],[171.88001549570902,-41.629693292193394,240.2339],[171.86988365977152,-41.634820245318394,297.7026],[171.86207115977152,-41.640923760943394,436.1076],[171.85511315195868,-41.664239190630951,815.8786],[171.84546959727152,-41.666558526568451,614.3425],[171.8319197925839,-41.664727471880951,220.1177],[171.81727135508379,-41.666924737505951,21.4232],[171.80848229258402,-41.672539971880951,18.1012],[171.78321373789618,-41.694878839068451,31.3076],[171.68885338633379,-41.740533135943451,11.647],[171.6391707691464,-41.756280206255951,7.5408],[171.6317244800839,-41.756768487505951,5.0612],[171.61329186289629,-41.755669854693394,2.7955],[171.54358971445868,-41.763116143755838,26.1752],[171.48365319102152,-41.756280206255951,28.998],[171.46802819102152,-41.765069268755951,23.9608],[171.46912682383379,-41.812188409380951,28.3727],[171.47034752695868,-41.817925714068394,6.347],[171.47461998789618,-41.825249932818451,6.1408],[171.4821883472714,-41.817803643755951,40.6712],[171.48865807383368,-41.829156182818451,36.2845],[171.46802819102152,-41.867242120318394,8.3651],[171.45850670664629,-41.899712823443451,6.9498],[171.4443465503964,-41.919610284380894,60.0175],[171.42750084727118,-41.982232354693394,400.8283],[171.4177352222714,-42.005181573443451,358.941],[171.40308678477118,-42.022759698443451,344.5057],[171.36878502695879,-42.054253839068394,87.7063],[171.36390221445879,-42.062188409380838,56.5198],[171.3536483082089,-42.086846612505951,281.3174],[171.3492537769589,-42.109063409380951,71.4037],[171.33130944102129,-42.146050714068281,18.1032],[171.30469811289629,-42.293389581255951,635.0475],[171.28357994883402,-42.338555596880894,187.6772],[171.2346297535214,-42.394463800005838,114.7626],[171.22828209727129,-42.417657159380781,210.2503],[171.24122155039652,-42.437798760943451,11.9904],[171.27198326914618,-42.445000909380838,55.3364],[171.33814537852129,-42.442193292193394,78.5035],[171.36487877695879,-42.436578057818394,28.9843],[171.38807213633379,-42.425713800005894,18.3577],[171.34681237070868,-42.458916925005838,81.6295],[171.23536217539618,-42.459405206255838,48.17],[171.21485436289629,-42.464288018755951,77.2624],[171.19422448008368,-42.482476495318338,53.7299],[171.12269127695868,-42.591119073443451,59.1708],[171.1047469410214,-42.599175714068394,9.3073],[171.07960045664618,-42.634454034380894,46.181399999999996],[171.06275475352129,-42.652764581255894,38.0751],[171.04664147227129,-42.660699151568394,24.1992],[171.03638756602152,-42.664239190630894,2.054],[171.0271102222714,-42.672784112505951,3.9874],[171.0122176441464,-42.691705010943394,9.5369],[171.0044051441464,-42.704522393755781,13.1711],[171.00660240977129,-42.711846612505838,48.7121],[171.02588951914652,-42.725884698443281,86.9356],[171.04261315195879,-42.749688409380894,21.2773],[171.04725182383402,-42.771661065630781,15.5716],[171.0471297535214,-42.793877862505951,13.1615],[171.05005944102129,-42.818291925005951,14.8208],[171.05311119883379,-42.827569268755894,17.8893],[171.05774987070902,-42.835625909380838,21.4654],[171.06410365035762,-42.8423896102975,25.6764],[171.06531823008379,-42.843682550005951,26.1195],[171.07752526133379,-42.853081964068338,32.763],[171.09534752695879,-42.863457940630894,133.6302],[171.10132897227118,-42.869439385943394,111.1926],[171.1047469410214,-42.879815362505951,51.6564],[171.05738365977129,-42.851739190630838,28.2241],[171.05336457703365,-42.846715337208835,25.5737],[171.05005944102129,-42.842583917193338,23.3595],[171.0379744800839,-42.834649346880894,20.119],[171.0140486988339,-42.832207940630951,18.6867],[170.9969588550839,-42.838311456255951,16.6984],[171.00538170664618,-42.856499932818394,25.0578],[171.01070251233156,-42.863899728804668,26.9721],[171.02381432383379,-42.882134698443394,32.0185],[171.03907311289629,-42.919244073443394,51.0082],[171.04175865977118,-42.954888604693394,104.6728],[171.02222740977129,-42.976006768755838,191.4392],[171.0192977222714,-42.924493096880894,53.3595],[171.01417076914618,-42.900079034380894,44.1269],[170.9948932567535,-42.870267738430769,27.2707],[170.9799910816464,-42.847222589068394,20.3334],[170.99207604258379,-42.832207940630951,49.1971],[171.01685631602118,-42.821465753130894,21.0284],[171.03589928477118,-42.805352471880894,14.1047],[171.03724205820868,-42.782037042193338,10.2883],[171.02759850352152,-42.754693292193451,11.002],[171.01124108164618,-42.731744073443394,87.0557],[170.9918319019589,-42.722100518755894,42.9825],[170.96631920664629,-42.720147393755951,3.3165],[170.95667565195879,-42.722955010943394,0.0],[170.94373619883379,-42.732720635943338,1.9363],[170.85816490977118,-42.842095635943394,19.7511],[170.8413192066464,-42.853081964068338,2.8503],[170.8230086597714,-42.861016534380951,1.002],[170.78724205820879,-42.900079034380894,63.9083],[170.76954186289652,-42.914483331255894,9.61],[170.73304283945868,-42.928277276568394,4.6924],[170.7219344410214,-42.934991143755838,5.4394],[170.70899498789618,-42.946099542193451,21.5151],[170.70777428477129,-42.951592706255838,23.3879],[170.71168053477118,-42.958306573443451,32.7414],[170.71464773687691,-42.971040815813623,41.8373],[170.72046959727129,-42.996026300005838,59.4773],[170.74524987070868,-43.031426690630951,205.6308],[170.7485457691464,-43.057915948443394,57.4953],[170.72608483164629,-43.033013604693394,40.4559],[170.70167076914629,-42.989556573443338,20.1366],[170.69438326721152,-42.980520071044168,83.0841],[170.67420494883379,-42.955498956255838,4.724],[170.64234459727129,-42.958916925005894,0.0],[170.60364830820868,-42.981866143755951,0.0],[170.51429283945879,-43.005547784380894,0.0],[170.47413170664618,-43.023736260943451,109.7726],[170.55423411828303,-43.0492233919187,210.5784],[170.56006920664629,-43.051080010943451,212.5453],[170.5985213550839,-43.072686456255894,117.7072],[170.62501061289618,-43.105645440630951,51.427],[170.60694420664618,-43.090264581255838,37.1775],[170.53386009890255,-43.059211057214554,15.6427],[170.48340905039629,-43.037774346880894,10.8226],[170.45691979258402,-43.034844659380838,3.5],[170.45362389414629,-43.051690362505894,31.833],[170.43189537852129,-43.044976495318451,5.5655],[170.41663658945879,-43.053765557818451,5.9595],[170.40272057383379,-43.068169854693451,15.3555],[170.38477623789629,-43.078423760943338,16.3286],[170.39283287852152,-43.087823175005951,12.9099],[170.41077721445902,-43.089776300005838,24.7613],[170.4189559253964,-43.098809503130894,19.7337],[170.38892662852118,-43.105645440630951,14.9965],[170.28919518320868,-43.105645440630951,0.0],[170.28919518320868,-43.113213800005894,65.0891],[170.38001549570879,-43.141534112505894,114.7072],[170.38011778556515,-43.141609062216318,122.048],[170.40650475352118,-43.160943292193451,90.0752],[170.42579186289629,-43.185113214068394,70.8092],[170.4323836597714,-43.200127862505838,37.0006],[170.4289656910214,-43.216607354693394,48.5429],[170.42798912852129,-43.235162042193451,68.8962],[170.42640221445902,-43.242852471880838,57.4559],[170.41480553477129,-43.262627862505951,72.4131],[170.41273033945879,-43.270806573443451,74.0931],[170.40650475352118,-43.270806573443451,80.9593],[170.3997908863339,-43.250176690630894,66.166],[170.40137780039629,-43.209283135943338,40.1295],[170.3984481128964,-43.188287042193338,31.6435],[170.39014733164629,-43.170953057818451,25.7763],[170.37757408945902,-43.154717706255838,179.4276],[170.3673510549462,-43.148885773815834,19.7706],[170.35938561289618,-43.144341729693451,17.7304],[170.33790123789652,-43.135918878130894,10.9946],[170.29712975352118,-43.128716729693281,6.8284],[170.25355065195879,-43.142510675005838,10.1647],[170.21949303477129,-43.172173760943338,1.3203],[170.2004500660214,-43.215508721880951,0.0],[170.22413170664618,-43.203179620318338,12.3316],[170.24647057383368,-43.177056573443451,0.0],[170.27149498789629,-43.156426690630894,33.0964],[170.30347740977118,-43.160943292193451,140.4632],[170.26271385261134,-43.208526316622624,67.7231],[170.23853600352152,-43.236748956255838,54.9726],[170.22706139414629,-43.234429620318394,18.7702],[170.22158538894641,-43.23196849438591,9.6339],[170.2053328785214,-43.224663995318451,6.2172],[170.19385826914629,-43.222344659380838,0.0],[170.17811119883368,-43.224297784380894,7.7423],[170.16456139414629,-43.229302667193338,25.6021],[170.13892662852129,-43.242852471880838,1.0],[170.11475670664652,-43.250542901568394,1.1686],[170.10486901133368,-43.256890557818281,0.0],[170.09742272227129,-43.270806573443451,2.6042],[170.09400475352118,-43.287041925005951,31.0663],[170.09778893320902,-43.293389581255838,80.3151],[170.10755455820879,-43.297784112505838,93.6351],[170.11252690788396,-43.301481500725856,110.3588],[170.12183678477129,-43.308404229693451,144.2343],[170.13709557383379,-43.328912042193451,107.2273],[170.14332115977129,-43.347588800005781,77.4979],[170.13611901133402,-43.354302667193394,83.9265],[170.11109459727129,-43.339165948443338,59.5679],[170.08683948289683,-43.31890405411832,33.1887],[170.0710555347714,-43.305718682818281,18.193],[170.05115807383368,-43.302300714068451,16.5842],[170.04285729258402,-43.328789971880951,24.0376],[170.03003990977129,-43.344537042193281,153.093],[169.89673912852152,-43.393365167193281,130.0065],[169.8748885425839,-43.406304620318338,121.7754],[169.85413658945868,-43.425103448443451,96.3489],[169.84766686289629,-43.446709893755894,94.9437],[169.86841881602118,-43.458672784380951,37.1548],[169.87871721898659,-43.460063444635352,42.4003],[169.90186608164629,-43.463189385943451,56.3593],[169.93299401133402,-43.462579034380838,79.6411],[169.95850670664629,-43.458184503130838,101.9525],[169.9703475269589,-43.457940362505951,112.1089],[169.9807235035214,-43.462579034380838,123.5775],[169.9367781910214,-43.475030206255894,81.6844],[169.9176131519589,-43.477471612505951,77.8375],[169.89136803477129,-43.476861260943394,58.6338],[169.85998597985019,-43.4727679494319,49.0823],[169.8352156910214,-43.469537042193338,24.4476],[169.80909264414618,-43.473199151568451,21.2974],[169.78882897227118,-43.490533135943451,165.3244],[169.81701840918564,-43.501910800240267,24.9454],[169.82935631602129,-43.506890557818394,19.3615],[169.84888756602129,-43.519097589068394,33.8055],[169.85718834727118,-43.534600518755781,79.9321],[169.85853112070879,-43.566338800005838,841.5369],[169.85291588633368,-43.571099542193338,635.6163],[169.83668053477129,-43.558770440630894,209.4032],[169.81849205820879,-43.524468682818338,20.3762],[169.8046981128964,-43.511529229693451,259.6462],[169.80245824574078,-43.511786263629347,298.7327],[169.7823592457089,-43.514092706255951,11.2945],[169.76734459727118,-43.526910089068394,24.0275],[169.7474665799933,-43.549084483793663,14.5514],[169.7335311207089,-43.564629815630951,166.9852],[169.71753990977118,-43.572442315630838,161.6336],[169.71099317703158,-43.573822650847092,212.1259],[169.69727623789618,-43.576714776568394,283.868],[169.64551842539629,-43.606622003130951,56.5051],[169.62354576914629,-43.608330987505951,9.1683],[169.58314049570879,-43.601739190630781,4.032],[169.54908287852129,-43.620904229693451,9.5019],[169.50892174570879,-43.629327081255894,20.4207],[169.49415123789629,-43.640069268755951,125.3389],[169.48743737070902,-43.661065362505951,340.8062],[169.49123704597363,-43.673705098590929,197.2544],[169.4934188160214,-43.680962823443338,355.7943],[169.50672448008368,-43.699395440630781,84.9436],[169.52198326914618,-43.715874932818451,296.7946],[169.5151473316464,-43.715874932818451,104.1339],[169.49317467539629,-43.710625909380838,26.3224],[169.48414147227129,-43.693902276568394,217.502],[169.48130506068262,-43.67807326996035,308.2525],[169.48035729258402,-43.672784112505951,434.9232],[169.47352135508379,-43.654351495318338,604.993],[169.46509850352152,-43.646538995318338,426.592],[169.45643151133368,-43.644707940630894,404.7418],[169.42920983164629,-43.646905206256008,36.5871],[169.41944420664618,-43.649468682818394,319.3851],[169.4069930347714,-43.655572198443394,185.1829],[169.39625084727152,-43.663628839068451,356.2271],[169.39161217539629,-43.671441339068451,439.2374],[169.37989342539618,-43.686089776568394,325.8977],[169.35279381602129,-43.696709893755951,19.0],[169.30225670664618,-43.709038995318451,321.9814],[169.22986901133379,-43.744805596880951,296.9221],[169.21009362070902,-43.749932550005951,315.3294],[169.19202721445879,-43.757622979693394,124.4673],[169.15406334727118,-43.790826104693338,32.0614],[169.13526451914629,-43.798394464068451,15.5355],[169.12549889414618,-43.800835870318338,10.4733],[169.09815514414629,-43.813409112505894,16.7286],[169.0905867847714,-43.818902276568451,21.3902],[169.08833425893303,-43.823932917607024,26.4084],[169.08692467539618,-43.827080987505951,23.6534],[169.08887780039618,-43.834038995318451,12.4646],[169.10425865977129,-43.853081964068394,15.8336],[169.12745201914629,-43.889825128130951,450.4753],[169.1433211597714,-43.907159112505894,1041.2377],[169.16260826914652,-43.914483331255894,402.7526],[169.18323815195868,-43.919122003130781,397.1316],[169.2360945972714,-43.943902276568451,105.8484],[169.2544051441464,-43.956109307818451,193.9935],[169.23072350352129,-43.957330010943338,42.0],[169.17566979258368,-43.929497979693451,444.6899],[169.14869225352152,-43.921929620318394,569.1326],[169.1367293628964,-43.920464776568451,578.7349],[169.12220299570868,-43.916070245318281,607.9932],[169.10962975352129,-43.908501885943338,229.5566],[169.08326256602152,-43.853081964068394,10.5312],[169.0651961597714,-43.856377862505951,23.0249],[169.00147545664618,-43.881158135943451,9.8472],[168.98389733164652,-43.890801690630781,25.4607],[168.96461022227152,-43.904717706255951,8.7781],[168.91822350352129,-43.927788995318451,5.5231],[168.85792076914618,-43.971612237505894,10.8602],[168.80347740977129,-43.996026300005894,18.455],[168.7465926441464,-44.009087823443394,506.3822],[168.70296528157459,-44.004277627057377,15.7306],[168.6989852222714,-44.003838800005894,14.0703],[168.67847740977129,-43.987969659380951,0.0],[168.66273033945868,-43.970147393755781,0.0],[168.64576256602129,-43.963311456255894,0.0],[168.62110436289652,-43.980279229693394,0.0],[168.61243737070868,-43.983208917193281,188.4364],[168.58668053477118,-43.981133721880894,207.1838],[168.57300865977129,-43.987115167193451,266.7082],[168.56324303477118,-43.994317315630894,107.1643],[168.54273522227129,-44.005059503130951,107.6695],[168.50916588633379,-44.017388604693394,309.4919],[168.4719344410214,-44.023736260943451,335.8304],[168.41016686289652,-44.026665948443338,123.6224],[168.39014733164629,-44.030694268755951,10.2012],[168.37061608164629,-44.038018487505838,4.0251],[168.39112389414618,-44.049615167193394,0.8187],[168.39490931072703,-44.051102295135877,2.5457],[168.39795983164652,-44.052300714068394,7.2958],[168.3864852222714,-44.055840753131008,2.312],[168.37476647227118,-44.061211846880951,2.2888],[168.36353600352118,-44.068169854693451,2.4392],[168.35328209727129,-44.076226495318394,3.6009],[168.3449813160214,-44.088067315630894,26.1309],[168.34205162852152,-44.100518487505951,107.28],[168.34144127695879,-44.111016534380951,214.3545],[168.3398543628964,-44.117120050005951,300.7655],[168.30689537852118,-44.147637628130951,296.2766],[168.26758873789618,-44.175835870318451,306.2797],[168.23554000457463,-44.191452572074,116.4161],[168.20521080820868,-44.206231378130894,336.4833],[168.16883385508379,-44.236993096880951,412.6502],[168.15003502695868,-44.245660089068281,415.8573],[168.10303795664629,-44.257134698443394,204.9444],[168.10303795664629,-44.263970635943281,284.0671],[168.12769615977129,-44.270806573443338,416.9198],[168.13965905039629,-44.282769464068451,600.091],[168.13941490977118,-44.298150323443394,25.5832],[168.12732994883368,-44.315484307818451,35.36],[168.1179305347714,-44.319146417193394,36.624],[168.02808678477129,-44.319146417193394,0.0],[168.03309166758379,-44.352105401568451,216.4329],[168.0080672535214,-44.374932550005894,19.9136],[167.97169030039618,-44.392998956255951,297.6926],[167.94263756602129,-44.411675714068451,38.6404],[167.85987389414652,-44.479668878130838,262.5187],[167.8363143238339,-44.504082940630838,128.356],[167.84424889414652,-44.515679620318394,190.5625],[167.85035240977152,-44.530328057818451,396.4762],[167.8567000660214,-44.559380792193508,548.0522],[167.8549910816464,-44.586114190630951,1471.0813],[167.8567000660214,-44.593560479693281,1327.8403],[167.86194908945879,-44.600762628130894,1029.9092],[167.8668319019589,-44.602837823443394,525.0501],[167.87183678477129,-44.603570245318451,271.85],[167.87781823008402,-44.607110284380951,794.7093],[167.90442955820868,-44.627618096880951,29.6344],[167.92701256602152,-44.637383721880894,1102.2858],[167.93250573008379,-44.641289971880894,477.438],[167.93921959727152,-44.653985284381008,406.4579],[167.94166100352129,-44.669366143755951,952.2382],[167.93958580820879,-44.684258721880781,200.1079],[167.93250573008379,-44.695977471880951,1571.9681],[167.90162194102129,-44.651543878130781,0.0],[167.8885604175839,-44.641167901568451,0.0],[167.85486901133379,-44.626885675005894,1081.8824],[167.8105574878964,-44.597955010943451,0.0],[167.78126061289629,-44.593072198443451,478.743],[167.75184166758368,-44.601983331255894,4.2165],[167.72291100352129,-44.624200128130894,575.6354],[167.71583092539629,-44.628472589068451,441.5],[167.69874108164629,-44.632134698443394,717.1293],[167.69227135508368,-44.635064385943451,622.1863],[167.6867781910214,-44.641656182818394,651.4333],[167.67884362070879,-44.655816339068451,224.5342],[167.67164147227152,-44.661797784380894,561.4888],[167.61878502695902,-44.672784112505838,437.5202],[167.60279381602129,-44.682183526568394,159.7292],[167.59461510508368,-44.696465753130781,127.1346],[167.59888756602118,-44.706963800005951,239.7845],[167.62464440195879,-44.723809503130838,657.5027],[167.6623641285214,-44.757378839068338,1198.218],[167.67920983164629,-44.764214776568394,456.3976],[167.65345299570879,-44.758721612505951,841.9147],[167.63477623789629,-44.751397393755781,704.7439],[167.61841881602152,-44.739556573443451,341.1888],[167.59974205820879,-44.720391534380951,713.1384],[167.58863365977129,-44.715020440631008,423.9389],[167.57801354258368,-44.719048760943451,170.8578],[167.5677596363339,-44.726250909380894,0.0],[167.54871666758368,-44.733330987506008,0.0],[167.55103600352129,-44.740777276568338,74.3632],[167.56177819102152,-44.753960870318451,940.8421],[167.56836998789618,-44.771294854693338,657.1564],[167.59461510508368,-44.792168878130894,951.5739],[167.59669030039629,-44.812554620318394,755.8729],[167.58887780039629,-44.830254815630951,875.0527],[167.57850182383379,-44.843438409380951,1095.9926],[167.5698348316464,-44.858208917193281,517.8192],[167.56800377695879,-44.880913995318451,237.0321],[167.55005944102118,-44.871148370318338,707.9178],[167.53980553477129,-44.859307550005894,1141.9489],[167.5372420582089,-44.844659112505951,601.5787],[167.5420028003964,-44.826226495318338,601.7708],[167.5511580738339,-44.812066339068451,220.6962],[167.55933678477129,-44.804864190630838,509.8589],[167.5620223316464,-44.798028253130781,495.461],[167.55506432383379,-44.784600518755951,889.7214],[167.52320397227129,-44.762505792193394,423.3417],[167.4870711597714,-44.765923760943394,0.0],[167.45740807383379,-44.788262628131008,488.7412],[167.44520104258379,-44.822564385943394,780.9711],[167.44800865977118,-44.834649346880781,504.343],[167.46253502695879,-44.866997979693451,211.7997],[167.46973717539618,-44.877496026568394,535.1927],[167.47681725352118,-44.892022393756008,311.8155],[167.47632897227152,-44.907891534380781,931.5374],[167.47413170664618,-44.922295831255781,524.4656],[167.47693932383379,-44.932427667193394,386.7296],[167.49769127695902,-44.946954034381008,839.097],[167.50049889414629,-44.952813409380781,628.8735],[167.50123131602118,-44.960137628130951,319.9172],[167.50342858164629,-44.967950128130838,413.6463],[167.5067244800839,-44.975030206255781,815.9551],[167.51099694102129,-44.980523370318508,961.6613],[167.51392662852118,-44.991387628130894,807.1456],[167.4965926441464,-44.993584893755894,1206.7404],[167.45948326914629,-44.990777276568451,523.0302],[167.46631920664618,-44.971978448443281,58.5],[167.45923912852118,-44.959893487505894,761.8094],[167.44703209727118,-44.949517510943394,954.4262],[167.43897545664618,-44.936089776568338,107.1677],[167.44019615977118,-44.926568292193451,254.4772],[167.45008385508368,-44.907525323443451,961.3001],[167.4526473316464,-44.897881768755781,670.6321],[167.44947350352129,-44.888238214068451,689.5453],[167.44239342539629,-44.880913995318451,897.0326],[167.43531334727152,-44.875176690630951,694.6582],[167.4321395191464,-44.870660089068508,495.2202],[167.4185897144589,-44.839654229693394,440.3882],[167.38563073008368,-44.841119073443451,719.9401],[167.33104355061411,-44.864476503644426,524.1537],[167.30860436289629,-44.874078057818394,499.7556],[167.31226611934468,-44.877323705579514,570.2991],[167.31397545664629,-44.878838800005894,494.0444],[167.32349694102129,-44.889947198443451,892.0778],[167.32911217539618,-44.894463800005951,906.803],[167.3053084644589,-44.895318292193451,665.537],[167.28638756602118,-44.898247979693451,651.1273],[167.27681459612629,-44.90181998338555,130.3862],[167.27003014414618,-44.904351495318451,151.2645],[167.21998131602152,-44.934869073443451,536.5063],[167.20337975352152,-44.948785089068451,401.2767],[167.19874108164629,-44.962823175005781,4.7266],[167.19897071664579,-44.962990617192986,9.6028],[167.21045983164629,-44.971368096881008,477.4288],[167.33082115977118,-45.021050714068394,253.9969],[167.34961998789629,-45.024956964068394,184.1905],[167.33558190195879,-45.035943292193338,57.8243],[167.31324303477152,-45.027276300005951,618.2216],[167.28858483164629,-45.012261651568394,962.1274],[167.2677108082089,-45.004327081255951,1028.7197],[167.2412215503964,-44.999322198443338,880.9382],[167.2146102222714,-44.989678643756008,552.7145],[167.18897545664618,-44.984063409380838,1040.7761],[167.16840970931887,-44.989747409898541,897.8191],[167.16468346445879,-44.990777276568451,816.0396],[167.15552972776447,-45.001526618741536,203.8373],[167.1513778003964,-45.006402276568451,84.0067],[167.15296471445879,-45.022759698443394,366.0203],[167.16468346445879,-45.039483331255951,953.7224],[167.18165123789629,-45.055962823443338,385.2323],[167.20276940195879,-45.065728448443281,656.9182],[167.25941002695879,-45.080621026568451,909.1104],[167.27454674570879,-45.093194268755781,495.4829],[167.21387780039652,-45.088311456255951,520.2987],[167.19874108164629,-45.093194268755781,127.6993],[167.19434655039629,-45.100884698443338,0.0],[167.19727623789652,-45.121026300005951,828.7431],[167.19190514414629,-45.134820245318394,973.2353],[167.18043053477129,-45.126031182818394,769.7137],[167.1788436207089,-45.114678643755894,719.7495],[167.18043053477129,-45.101372979693451,0.0],[167.17823326914618,-45.086968682818338,764.0503],[167.1405135425839,-45.041924737505894,446.6645],[167.11841881602118,-45.038018487505894,237.6078],[167.10676868577011,-45.046120354736416,469.8792],[167.09437096445868,-45.054742120318451,0.0],[167.08332679235346,-45.067558813872708,410.238],[167.05482018320879,-45.100640557818451,395.6832],[167.0794783863339,-45.101983331255951,491.3783],[167.10035240977129,-45.114922784380951,851.7139],[167.13672936289618,-45.148370050006008,660.0901],[167.17286217539652,-45.169976495318451,574.6288],[167.17823326914618,-45.176324151568338,892.3901],[167.17066490977118,-45.183648370318394,1013.5442],[167.15516198008368,-45.183648370318394,478.6422],[167.13819420664629,-45.179009698443451,181.9927],[167.12671959727129,-45.172539971880781,96.0755],[167.0876570972714,-45.133721612505781,597.4354],[167.06397545664629,-45.121514581255781,0.0],[167.03431237070868,-45.121026300005951,607.5859],[167.01760105278893,-45.129062343595777,663.4313],[167.01197350352118,-45.131768487505894,661.2889],[167.00841630650552,-45.140028419559371,395.1644],[167.00477135508379,-45.148492120318451,467.1225],[167.00757897227118,-45.193047784380951,404.6152],[167.01172936289618,-45.204400323443451,575.6012],[167.03003990977118,-45.215386651568394,666.5609],[167.03626549570879,-45.235406182818394,747.8986],[167.04529869883368,-45.255425714068451,788.5062],[167.04737389414629,-45.268487237505951,862.8148],[167.06470787852152,-45.275689385943338,592.6179],[167.14612877695879,-45.269707940630951,14.8321],[167.17151940195902,-45.265069268755894,388.0706],[167.20960533945879,-45.252373956255951,627.6033],[167.24708092539629,-45.252007745318394,1107.8354],[167.24708092539629,-45.252251885943451,1107.8354],[167.24708092539629,-45.252862237505894,1107.8354],[167.24708092539629,-45.253106378130951,936.84],[167.2385360035214,-45.257622979693451,1256.5935],[167.2329207691464,-45.268487237505951,1285.3284],[167.2310897144589,-45.287530206255951,721.5923],[167.2337752613339,-45.292168878130894,617.0156],[167.24354088633368,-45.302666925005894,424.7553],[167.25745690195868,-45.309991143755894,429.0728],[167.29249108164618,-45.308648370318394,970.3782],[167.30860436289629,-45.312310479693338,555.4122],[167.29761803477129,-45.325494073443451,812.3212],[167.2795516285214,-45.330865167193451,584.7],[167.25904381602129,-45.330376885943451,588.8797],[167.24036705820902,-45.325860284380838,438.2389],[167.22645104258402,-45.316949151568394,562.7154],[167.20899498789618,-45.292901300005951,632.1393],[167.19874108164629,-45.284966729693451,1102.7332],[167.18043053477129,-45.283501885943394,626.0424],[167.07874596445868,-45.305230401568394,1042.0084],[167.06177819102118,-45.312066339068451,1052.8881],[167.04737389414629,-45.325860284380838,886.0985],[167.14820397227129,-45.397027276568451,708.9134],[167.19996178477129,-45.444756768755894,1173.095],[167.20557701914618,-45.477349542193451,938.2053],[167.19898522227152,-45.472588800005894,743.1566],[167.18592369883368,-45.467583917193451,869.2723],[167.17823326914618,-45.463677667193451,834.1843],[167.1757918628964,-45.467461846880894,582.942],[167.17151940195902,-45.469903253130951,56.5172],[167.15345299570879,-45.436089776568394,905.1437],[167.14673912852152,-45.412530206255894,161.586],[167.13660729258402,-45.404473565630781,692.2972],[167.1242781910214,-45.398370050005781,484.7026],[167.09693444102152,-45.381036065630894,0.0],[167.08985436289629,-45.386285089068394,0.0],[167.08582604258379,-45.399346612505894,386.6132],[167.07899010508379,-45.412163995318338,721.9511],[167.06605065195902,-45.422906182818394,1125.637],[167.0540877613339,-45.428033135943451,980.0115],[167.02003014414629,-45.429620050005838,687.5401],[167.0109969410214,-45.425347589068451,11.5232],[167.02173912852129,-45.415948175005894,48.9731],[167.04737389414629,-45.401665948443508,549.1653],[167.05689537852152,-45.388726495318451,901.6724],[167.05860436289652,-45.378838800005894,722.7206],[167.05457604258379,-45.370049737505951,740.2778],[167.04737389414629,-45.360650323443394,142.0082],[167.01893151133402,-45.340020440630951,0.0],[166.99195397227118,-45.341851495318394,524.6104],[166.9638778003964,-45.351250909380951,919.0445],[166.93189537852129,-45.353814385943451,529.3647],[166.93555748789629,-45.344414971880894,789.2347],[166.94190514414629,-45.336846612505951,827.0687],[166.95008385508402,-45.330743096880951,266.9289],[166.9591170582089,-45.325860284380838,185.9352],[166.91749108164629,-45.311578057818451,477.8886],[166.89881432383368,-45.298882745318451,0.0],[166.89087975352118,-45.281792901568338,0.0],[166.88995201397026,-45.281468192725569,0.0],[166.8811141285214,-45.278374932818451,0.0],[166.85950768320879,-45.290337823443394,232.4228],[166.82545006602118,-45.315972589068281,533.7464],[166.81153405039618,-45.332452081255951,329.267],[166.80591881602118,-45.345147393755951,658.1698],[166.80909264414629,-45.356133721880951,554.4141],[166.82203209727129,-45.367486260943451,353.7979],[166.8362702781412,-45.374800394951947,714.3567],[166.83985436289629,-45.376641534380951,752.4604],[166.87940514414618,-45.390923760943451,738.149],[166.89771569102118,-45.401665948443508,486.7871],[166.90980065195879,-45.378472589068394,609.1434],[166.9255477222714,-45.387505792193451,498.0715],[166.94105065195879,-45.412163995318338,0.0],[166.95240319102118,-45.435723565630838,984.7727],[166.90919030039618,-45.428521417193451,8.7627],[166.86085045664618,-45.406060479693338,215.2051],[166.82573262049854,-45.3956747537149,0.0],[166.81214440195879,-45.391656182818338,0.0],[166.76734459727152,-45.408379815630781,559.605],[166.75733483164618,-45.424004815630951,713.3694],[166.73951256602152,-45.484185479693451,475.6022],[166.70228112070879,-45.541192315630838,633.6497],[166.70228112070879,-45.556206964068451,592.3498],[166.71448815195879,-45.574517510943451,423.6628],[166.72254479258402,-45.578545831255894,180.0716],[166.74012291758368,-45.579766534380951,0.0],[166.7515975269589,-45.578789971880951,0.0],[166.76172710689647,-45.576786947599459,0.0],[166.77320397227129,-45.574517510943451,0.0],[166.78443444102118,-45.573540948443451,5.0098],[166.83948815195868,-45.551690362505838,0.0],[166.92176354258368,-45.540093682818451,616.5617],[167.05482018320879,-45.490411065630951,493.4629],[167.04615319102129,-45.515679620318451,946.1158],[167.01697838633379,-45.531304620318451,1008.6613],[166.95240319102118,-45.545586846880838,278.1507],[166.96448815195868,-45.556451104693338,19.115],[166.97950280039629,-45.560479425005951,0.0],[167.0131942066464,-45.559869073443394,707.6309],[166.9918319019589,-45.574273370318394,925.4514],[166.96424401133379,-45.573052667193338,1074.3427],[166.91138756602129,-45.559869073443394,0.0],[166.88209069102118,-45.563409112506008,10.916],[166.83179772227129,-45.582330010943281,797.8712],[166.80494225352152,-45.586602471880951,535.5894],[166.78187096445879,-45.592950128130894,309.4595],[166.77064049570868,-45.609429620318451,274.4695],[166.76978600352129,-45.631524346880951,655.5988],[166.77759850352129,-45.655450128130838,0.0],[166.79444420664652,-45.658868096880894,0.0],[166.89087975352118,-45.648736260943394,678.5486],[166.87525475352129,-45.658013604693508,973.3242],[166.82203209727129,-45.669122003130951,711.2715],[166.80469811289629,-45.677666925005838,772.6283],[166.79273522227152,-45.688287042193281,777.9519],[166.77418053477129,-45.717583917193394,153.9549],[166.7973738941464,-45.723199151568451,0.0],[166.89087975352118,-45.703912042193451,507.2925],[166.96265709727152,-45.710137628130951,447.0783],[166.97803795664618,-45.708306573443451,311.834],[167.02076256602118,-45.696465753130951,320.788],[167.0083113941464,-45.717461846880951,563.2026],[166.98707115977152,-45.729058526568394,371.8421],[166.93873131602118,-45.744195245318394,555.3957],[166.91895592539629,-45.754571221880951,684.9586],[166.90931237070879,-45.761163018755951,574.6968],[166.90088951914629,-45.768731378130894,1049.7102],[166.88953698008368,-45.775201104693394,568.3076],[166.8758651050839,-45.775811456255951,856.0626],[166.84632408945902,-45.772149346880894,0.0],[166.81885826914652,-45.775445245318451,732.4932],[166.7692937597179,-45.788578698277561,539.5469],[166.76587975352129,-45.789483331255951,425.0046],[166.74012291758368,-45.792657159380894,615.775],[166.67774498789618,-45.793023370318394,830.0847],[166.6482039722714,-45.799004815630781,656.2327],[166.6234236988339,-45.813775323443451,394.9752],[166.6159774097714,-45.806329034380951,332.8094],[166.6234236988339,-45.799493096880951,441.362],[166.55445397227129,-45.799493096880951,158.9596],[166.48963463633402,-45.806329034380951,86.8625],[166.47315514414618,-45.816216729693394,0.0],[166.46668541758368,-45.839288018755894,118.5349],[166.4664412769589,-45.929253839068338,152.7003],[166.47169030039629,-45.949029229693451,172.6004],[166.4730330738339,-45.962701104693394,102.8255],[166.46924889414652,-45.974297784380951,114.8401],[166.46937096445879,-45.982232354693394,86.9],[166.47461998789618,-45.994805596880951,5.2123],[166.4821883472714,-46.006646417193394,0.0],[166.48963463633402,-46.011773370318281,0.0],[166.49732506602129,-46.007867120318451,0.0],[166.52076256602129,-45.989556573443451,82.7905],[166.53394615977129,-45.983819268755951,44.2595],[166.62916100352118,-45.964043878130894,0.0],[166.64380944102129,-45.953057550005894,0.0],[166.64747155039618,-45.943169854693338,87.808],[166.67469323008368,-45.912163995318394,0.0],[166.68067467539618,-45.907769464068394,41.2387],[166.69922936289629,-45.898492120318451,309.9645],[166.70045006602118,-45.892876885943394,272.0628],[166.70374596445868,-45.885796807818451,361.8425],[166.70789635508379,-45.879082940630838,179.6492],[166.71216881602129,-45.874566339068394,20.0],[166.72120201914652,-45.867608331255894,136.6243],[166.7324324878964,-45.861138604693394,151.3661],[166.7437850269589,-45.859673760943451,20.0],[166.75367272227129,-45.867852471880951,439.3479],[166.75171959727152,-45.875298760943281,863.9457],[166.74293053477152,-45.885796807818451,719.0809],[166.68824303477118,-45.932671807818508,535.3657],[166.69105065195902,-45.939019464068451,740.6829],[166.70655358164618,-45.944634698443281,325.2947],[166.71653938387064,-45.946542813518093,64.8271],[166.72571862070879,-45.948296807818394,5.4069],[166.73951256602152,-45.949029229693451,0.0],[166.7743026050839,-45.940972589068338,38.2262],[166.80836022227152,-45.929253839068338,768.5112],[166.79175865977152,-45.951836846880894,756.3874],[166.76575768320868,-45.960747979693281,10.4849],[166.70533287852129,-45.970757745318451,30.2845],[166.6775008472714,-45.983575128130894,408.151],[166.65845787852152,-45.998955987505838,230.3389],[166.64734948008379,-46.020806573443338,459.2437],[166.64380944102129,-46.052788995318451,314.1362],[166.6281844410214,-46.045708917193451,370.4337],[166.61927330820868,-46.053521417193451,208.6168],[166.61573326914652,-46.069512628130894,0.0],[166.6159774097714,-46.086846612505894,0.0],[166.68824303477118,-46.075982354693394,0.0],[166.71998131602118,-46.062920831255894,97.3677],[166.73316490977129,-46.031670831255838,186.9324],[166.74439537852118,-46.038995050005894,16.3775],[166.74439537852118,-46.047417901568451,0.0],[166.74024498789629,-46.055108331255894,0.0],[166.73951256602152,-46.060235284380951,0.0],[166.74817955820868,-46.068780206255951,341.5533],[166.75013268320879,-46.069146417193338,354.7215],[166.75086510508368,-46.069146417193338,367.6036],[166.75269615977129,-46.065118096880894,263.582],[166.78370201914629,-46.041314385943451,96.5156],[166.78797448008379,-46.039117120318338,289.5085],[166.78980553477129,-46.029595635943451,415.9133],[166.78675377695879,-46.022881768755894,249.8012],[166.7843123707089,-46.015801690630894,386.4282],[166.78797448008379,-46.004327081255951,278.3826],[166.80286705820868,-45.991509698443394,0.0],[166.8261824878964,-45.982110284380781,0.0],[166.86396634121479,-45.972267431835746,0.0],[166.8697615894589,-45.970757745318451,13.6206],[166.93055260508368,-45.945000909380951,517.6282],[166.95240319102118,-45.942925714068451,920.7773],[166.95240319102118,-45.949029229693451,600.7679],[166.9277449878964,-45.959771417193338,1038.4308],[166.88209069102118,-45.986016534380951,323.6823],[166.87870588439537,-45.986622978901394,336.5771],[166.85279381602152,-45.991265557818281,546.5979],[166.83204186289629,-45.999810479693508,720.4143],[166.81617272227152,-46.020196221880894,352.9349],[166.78797448008379,-46.066949151568508,484.9839],[166.75367272227129,-46.101128839068281,468.1726],[166.71558678477118,-46.131524346880838,305.6611],[166.70533287852129,-46.137017510943394,318.897],[166.6770125660214,-46.146050714068281,282.9962],[166.67115319102118,-46.152398370318508,161.3347],[166.6756697925839,-46.161797784380951,89.6727],[166.70533287852129,-46.189873956255894,206.3252],[166.76172936289618,-46.218804620318451,0.0],[166.82874596445879,-46.227105401568451,0.0],[166.96607506602129,-46.224663995318394,31.7233],[167.03431237070868,-46.237725518755894,0.0],[167.05152428477129,-46.238091729693451,0.0],[167.06836998789618,-46.236016534380894,49.738],[167.08545983164629,-46.235650323443394,68.2303],[167.14942467539629,-46.257012628130894,0.0],[167.1608992847714,-46.258843682818338,0.0],[167.16468346445879,-46.261895440630838,0.0],[167.16920006602129,-46.267876885943394,0.0],[167.17469323008368,-46.271905206255838,0.0],[167.18165123789629,-46.269097589068394,0.0],[167.18775475352129,-46.265069268755781,0.0],[167.19593346445902,-46.262139581255894,0.0],[167.2124129566464,-46.258843682818338,29.3571],[167.2341414722714,-46.259820245318281,0.0],[167.2751570972714,-46.270928643755894,0.0],[167.29493248789652,-46.272515557818451,0.0],[167.30982506602129,-46.268487237505951,0.0],[167.34022057383368,-46.255059503130951,0.0],[167.35645592539618,-46.251397393755838,0.0],[167.39039147227118,-46.253106378131008,0.0],[167.40565026133368,-46.249932550005894,0.0],[167.41846764414629,-46.237725518755894,0.0],[167.42444908945902,-46.222832940630951,0.0],[167.42652428477152,-46.209527276568338,0.0],[167.43055260508402,-46.195733331255781,0.0],[167.44202721445868,-46.179986260943451,0.0],[167.44581139414652,-46.172539971880951,0.0],[167.4465438160214,-46.156182550005894,0.0],[167.4526473316464,-46.148980401568338,17.395],[167.46082604258379,-46.147027276568394,67.8642],[167.57520592539618,-46.155816339068394,74.0883],[167.58985436289629,-46.158501885943508,77.5545],[167.6369735035214,-46.179986260943451,5.9166],[167.6571151050839,-46.184624932818394,12.6618],[167.69776451914652,-46.187554620318394,46.6],[167.71277916758379,-46.196709893755894,92.9971],[167.7129012378964,-46.216729425005951,140.067],[167.73792565195868,-46.245538018755894,114.2116],[167.78895104258379,-46.292901300005951,202.6196],[167.77955162852129,-46.305108331255951,46.61],[167.76758873789629,-46.311089776568508,42.8208],[167.75379479258379,-46.314996026568394,19.1829],[167.74000084727118,-46.320855401568281,19.8883],[167.75208580820879,-46.327813409380951,15.2598],[167.7756453785214,-46.337579034380894,12.9683],[167.7852889332089,-46.344170831255894,19.4037],[167.79932701914618,-46.362725518755781,10.7837],[167.80836022227129,-46.371636651568394,7.1582],[167.81946862070879,-46.375542901568394,0.0],[167.82874596445879,-46.385186456255894,0.0],[167.83851158945902,-46.392022393755894,0.0],[167.84986412852118,-46.395318292193451,0.0],[167.85572350352118,-46.393365167193394,0.0],[167.87086022227118,-46.384087823443281,108.1807],[167.87781823008402,-46.381768487505838,60.1074],[167.8855086597714,-46.382622979693338,6.5175],[167.89966881602118,-46.387872003130838,0.0],[167.9099227222714,-46.390435479693508,0.0],[167.92188561289652,-46.391778253130838,0.0],[167.93372643320879,-46.389214776568451,0.0],[167.93921959727152,-46.378594659380894,0.0],[167.94776451914629,-46.369195245318451,0.0],[167.96705162852129,-46.368706964068338,0.8664],[167.99720299570902,-46.372124932818508,140.288],[168.00977623789629,-46.368584893755894,36.5753],[168.02686608164618,-46.372491143755894,13.0326],[168.04456627695879,-46.378472589068451,0.0],[168.0590926441464,-46.381768487505838,0.0],[168.06153405039618,-46.376397393755894,0.0],[168.0581160816464,-46.364556573443394,0.0],[168.05872643320868,-46.352959893755838,0.0],[168.0730086597714,-46.347588800005894,0.0],[168.17090905039629,-46.335503839068508,8.3137],[168.19922936289629,-46.340752862505838,10.3242],[168.21583092539618,-46.353326104693394,2.1666],[168.26941979258379,-46.422295831255838,12.1088],[168.2900496753964,-46.463677667193508,0.4859],[168.30176842539629,-46.477227471880838,0.0],[168.32215416758368,-46.478814385943394,0.0],[168.34144127695879,-46.464532159380894,0.0],[168.35132897227118,-46.441094659380951,3.6989],[168.3432723316464,-46.415826104693451,2.8176],[168.36878502695879,-46.415826104693451,5.5169],[168.3873397144589,-46.439385675005951,7.6689],[168.39429772227129,-46.471734307818451,11.1464],[168.38502037852118,-46.498345635943451,7.9856],[168.33253014414652,-46.528985284380894,4.9454],[168.32618248789629,-46.535699151568451,7.9977],[168.32142174570879,-46.528497003130894,5.4676],[168.3215438160214,-46.524102471880951,3.8845],[168.31971276133379,-46.521294854693338,4.0949],[168.30921471445879,-46.518853448443451,2.7502],[168.29847252695868,-46.518487237505894,4.0563],[168.26758873789618,-46.525079034380894,56.0354],[168.26954186289629,-46.536797784380894,20.2044],[168.27393639414629,-46.545464776568451,25.3711],[168.28126061289618,-46.551080010943451,49.3538],[168.30762780039618,-46.557305596880894,0.0],[168.31373131602118,-46.566705010943451,0.0],[168.31556237070902,-46.576104425005894,0.0],[168.31910240977118,-46.580254815630781,0.0],[168.34168541758402,-46.587823175005894,0.0],[168.37794030039629,-46.618706964068451,0.0],[168.40540612070879,-46.621880792193394,0.0],[168.39356530039652,-46.603814385943281,0.0],[168.3632918628964,-46.576836846880951,0.0],[168.35694420664652,-46.556451104693394,0.0],[168.36561119883368,-46.538995050005894,5.8664],[168.3856307300839,-46.542168878130838,2.7711],[168.42579186289652,-46.559869073443394,0.6498],[168.51319420664618,-46.558404229693451,3.4149],[168.54200280039629,-46.566705010943451,8.1423],[168.56495201914618,-46.583794854693451,3.6919],[168.54712975352129,-46.589532159380894,4.3663],[168.51819908945868,-46.585625909380894,0.8575],[168.50782311289652,-46.574151300005781,1.5182],[168.49573815195879,-46.571343682818394,3.7069],[168.45997155039618,-46.570855401568394,0.0],[168.4456893238339,-46.574151300005781,0.0],[168.43726647227129,-46.578545831255951,1.461],[168.43165123789629,-46.583550714068394,0.0],[168.41907799570879,-46.600762628130781,5.3452],[168.59144127695868,-46.613091729693394,0.0],[168.6450301441464,-46.600762628130781,0.0],[168.64149010508379,-46.597710870318281,0.0],[168.63502037852152,-46.590264581255951,0.0],[168.63135826914629,-46.587090753130838,0.0],[168.64429772227118,-46.576714776568451,0.0],[168.63843834727129,-46.569146417193394,0.5],[168.62562096445879,-46.560235284380951,6.0385],[168.61768639414652,-46.546197198443451,10.0133],[168.66749108164618,-46.547417901568338,5.5711],[168.69275963633379,-46.551446221880951,8.0201],[168.71265709727152,-46.559869073443394,2.6291],[168.69910729258402,-46.564751885943394,15.3228],[168.68531334727118,-46.566338800005951,5.7357],[168.67322838633379,-46.569756768755951,1.1201],[168.66480553477129,-46.580254815630781,0.0],[168.69910729258402,-46.580621026568451,0.0],[168.80164635508368,-46.566705010943451,17.2442],[168.83106530039629,-46.558892510943281,41.9672],[168.84461510508379,-46.558892510943281,63.1415],[168.85047448008368,-46.570367120318394,26.5403],[168.85206139414629,-46.580254815630781,58.4489],[168.87720787852129,-46.642998956255951,11.6042],[168.88892662852129,-46.654839776568451,4.3879],[168.90723717539629,-46.656914971880951,0.0],[168.93982994883402,-46.656060479693451,4.5484],[168.96778405039618,-46.662530206255838,41.0848],[169.0020858082089,-46.674615167193394,0.26],[169.03589928477129,-46.680718682818394,0.0],[169.06275475352118,-46.669732354693394,84.2981],[169.0661727222714,-46.657403253130951,11.684],[169.06324303477152,-46.644952081255894,19.9314],[169.06336510508379,-46.636163018755894,179.3265],[169.07642662852118,-46.634942315630894,92.7221],[169.08326256602152,-46.640069268755951,110.7316],[169.08997643320868,-46.649590753130781,42.9035],[169.10035240977118,-46.658746026568281,6.6031],[169.11817467539652,-46.662896417193394,0.0],[169.14869225352152,-46.662896417193394,0.0],[169.15479576914652,-46.660577081255894,0.0],[169.15748131602129,-46.655694268755781,0.0],[169.15931237070879,-46.650811456255951,47.8215],[169.1716414722714,-46.643853448443451,40.8655],[169.17090905039618,-46.621636651568451,14.8812],[169.1799422535214,-46.614434503130894,78.7242],[169.1943465503964,-46.617120050005894,37.5608],[169.19691002695879,-46.628716729693451,105.8552],[169.19312584727152,-46.648614190630951,31.1172],[169.20606530039629,-46.657891534380951,30.381],[169.21949303477129,-46.659478448443338,0.0],[169.2544051441464,-46.656060479693451,0.0],[169.26636803477152,-46.653619073443394,0.0],[169.2784529957089,-46.647515557818394,0.0],[169.29883873789629,-46.631768487505951,0.0],[169.31226647227129,-46.625664971880951,128.074],[169.32996666758368,-46.624444268755894,25.2013],[169.3642684253964,-46.628716729693451,0.0],[169.37073815195868,-46.630913995318451,0.0],[169.39161217539629,-46.642388604693394,0.0],[169.41016686289652,-46.619317315631008,0.0],[169.44080651133368,-46.620782159380951,0.0],[169.47461998789629,-46.627862237505951,0.0],[169.5015975269589,-46.621880792193394,0.0],[169.49598229258379,-46.617120050005894,0.0],[169.4859725269589,-46.605523370318451,0.0],[169.48035729258402,-46.600762628130781,0.0],[169.53321373789652,-46.578912042193451,0.0],[169.54590905039618,-46.570367120318394,0.0],[169.5666610035214,-46.563775323443451,0.0],[169.59473717539618,-46.568780206255838,0.0],[169.6206160816464,-46.576226495318338,0.0],[169.63502037852129,-46.577203057818281,0.0],[169.66810143320879,-46.557671807818451,0.0],[169.70386803477129,-46.547784112505894,0.0],[169.7353621753964,-46.533013604693338,0.0],[169.75538170664629,-46.498345635943451,0.0],[169.67493737070879,-46.495538018755838,36.3658],[169.65919030039618,-46.490899346880781,86.673],[169.67530358164652,-46.487847589068281,15.757],[169.70411217539652,-46.479058526568451,0.3793],[169.7213240894589,-46.477227471880838,7.2236],[169.73816979258368,-46.479546807818281,0.0],[169.77210533945868,-46.488824151568394,0.0],[169.78919518320879,-46.490899346880781,0.0],[169.7972518238339,-46.487725518755838,0.0],[169.82068932383379,-46.473687432818394,0.0],[169.84888756602129,-46.466363214068338,0.0],[169.8535262378964,-46.456109307818394,0.0],[169.85096276133402,-46.429497979693451,0.0],[169.86451256602152,-46.377129815630951,0.0],[169.8993026050839,-46.343682550005894,0.0],[170.03773033945868,-46.274834893755894,0.0],[170.0566512378964,-46.259576104693394,0.0],[170.07386315195868,-46.241387628130838,0.0],[170.0954695972714,-46.222955010943394,0.0],[170.12037194102118,-46.211968682818394,0.0],[170.17310631602152,-46.196709893755894,0.0],[170.1943465503964,-46.186944268755951,0.0],[170.21680748789652,-46.171807550005951,0.0],[170.23462975352118,-46.152764581255894,0.0],[170.2419539722714,-46.131524346880838,0.0],[170.24402916758379,-46.122369073443338,0.0],[170.25306237070879,-46.103936456255894,0.0],[170.25623619883379,-46.073907159380894,0.0],[170.25989830820902,-46.062554620318394,0.0],[170.27564537852118,-46.039117120318338,0.0],[170.3335067066464,-45.980279229693451,0.0],[170.40784752695879,-45.942193292193394,0.0],[170.49317467539652,-45.921685479693394,0.0],[170.50932898661191,-45.920505777343145,0.0],[170.70045006602129,-45.906548760943338,0.0],[170.70264733164629,-45.901177667193394,0.0],[170.70215905039629,-45.894341729693338,0.0],[170.70740807383368,-45.887627862505894,0.0],[170.7180281910214,-45.881890557818451,0.0],[170.7219344410214,-45.880547784380781,0.0],[170.74232018320879,-45.881402276568281,0.0],[170.76368248789629,-45.880059503130951,0.0],[170.77845299570879,-45.874932550005951,0.0],[170.78724205820879,-45.861871026568451,0.0],[170.79053795664652,-45.807183526568338,0.0],[170.78675377695868,-45.791680596880951,0.0],[170.77637780039629,-45.778985284380951,0.0],[170.76587975352129,-45.792779229693338,0.0],[170.75440514414618,-45.797539971880838,0.0],[170.74183190195879,-45.799859307818451,6.9922],[170.7280379566464,-45.806329034380951,105.2614],[170.71607506602129,-45.818169854693451,95.2368],[170.7009383472714,-45.840997003130894,0.0],[170.6870223316464,-45.850396417193451,0.0],[170.64185631602118,-45.862847589068394,162.0374],[170.61146080820868,-45.881524346880894,198.8063],[170.5754500660214,-45.888116143755894,170.95],[170.55665123789629,-45.895074151568394,100.6085],[170.56617272227129,-45.877984307818451,0.0],[170.60352623789618,-45.860528253130951,54.2301],[170.61609948008368,-45.835137628130951,0.0],[170.6259871753964,-45.831475518755894,0.0],[170.63746178477118,-45.829766534380894,0.0],[170.64612877695902,-45.827447198443394,50.609],[170.6534529957089,-45.821099542193338,0.0],[170.67274010508368,-45.799493096880951,0.0],[170.69263756602129,-45.792046807818281,0.0],[170.74146569102129,-45.785210870318394,119.8925],[170.75904381602152,-45.775567315630894,0.0],[170.7585555347714,-45.762261651568338,0.0],[170.73829186289629,-45.751885675005951,0.0],[170.71216881602118,-45.742364190630951,0.0],[170.69385826914618,-45.731255792193508,0.0],[170.6805526050839,-45.742608331255838,0.0],[170.66773522227118,-45.741265557818394,0.0],[170.65430748789629,-45.735039971880894,0.0],[170.63929283945879,-45.731255792193508,0.0],[170.63025963633379,-45.730767510943394,0.0],[170.6259871753964,-45.728570245318394,0.0],[170.62570538141989,-45.727090826942,0.0],[170.62501061289618,-45.723443292193338,0.0],[170.62501061289618,-45.713799737505894,0.0],[170.62659752695868,-45.705132745318338,0.0],[170.63123619883379,-45.704644464068394,0.0],[170.63770592539629,-45.706109307818451,0.0],[170.64612877695902,-45.703912042193451,0.0],[170.66651451914629,-45.691338800005781,0.0],[170.6792098316464,-45.685723565630951,0.0],[170.69044030039629,-45.683404229693451,0.0],[170.69825280039618,-45.678033135943394,0.0],[170.7219344410214,-45.641900323443338,0.0],[170.69910729258379,-45.639580987505894,0.0],[170.68433678477129,-45.629815362505951,0.0],[170.6839705738339,-45.619439385943451,0.0],[170.70411217539652,-45.614556573443451,0.0],[170.74012291758379,-45.615288995318508,0.0],[170.75294030039652,-45.611382745318338,0.0],[170.76954186289652,-45.600274346880951,0.0],[170.76063073008379,-45.580987237505951,0.0],[170.7572127613339,-45.570855401568338,0.0],[170.75599205820902,-45.559869073443394,0.0],[170.7729598316464,-45.569146417193338,0.0],[170.78663170664618,-45.570245050005894,0.0],[170.7985945972714,-45.564263604693394,0.0],[170.81055748789652,-45.552422784380894,0.0],[170.80335533945879,-45.528008721880894,0.0],[170.82410729258402,-45.512383721880894,0.0],[170.8518172535214,-45.498955987505838,0.0],[170.86585533945902,-45.480767510943281,0.0],[170.86353600352129,-45.467950128130838,0.0],[170.8596297535214,-45.457207940630781,0.0],[170.85975182383402,-45.446099542193394,0.0],[170.86890709727152,-45.432671807818338,0.0],[170.90613854258379,-45.401665948443508,0.0],[170.90796959727129,-45.378716729693451,0.0],[170.89063561289629,-45.366997979693451,0.0],[170.87684166758368,-45.354668878130951,0.0],[170.88880455820879,-45.329278253130894,0.0],[170.90211022227152,-45.308404229693338,0.0],[170.92603600352118,-45.237115167193451,0.0],[170.98023522227118,-45.153741143755951,0.0],[171.09107506602129,-45.072442315630894,0.0],[171.15845787852152,-44.982232354693394,0.0],[171.1574813160214,-44.970391534380894,0.0],[171.13209069102129,-44.956597589068338,5.3038],[170.88148033945879,-44.889825128130894,74.75],[171.13953698008379,-44.936089776568338,1.1055],[171.17249596445868,-44.934991143755951,0.0],[171.19239342539652,-44.924493096880951,0.0],[171.20301354258368,-44.904351495318451,0.0],[171.21119225352118,-44.845025323443451,0.0],[171.21229088633379,-44.812310479693338,0.0],[171.20228112070879,-44.788140557818394,0.0],[171.17371666758402,-44.784600518755951,0.0],[171.18336022227118,-44.772393487505951,0.0],[171.19691002695868,-44.767144464068451,0.0],[171.2088729175839,-44.759576104693451,0.0],[171.21412194102129,-44.740655206255894,0.0],[171.21253502695868,-44.723443292193451,0.0],[171.20093834727129,-44.675469659380951,0.0],[171.20093834727129,-44.600030206255951,0.0],[171.19581139414629,-44.565606378130951,0.0],[171.17371666758402,-44.545708917193394,19.9589],[171.20264733164629,-44.533257745318338,0.0],[171.21094811289618,-44.531426690630894,0.0],[171.2224227222714,-44.527276300005951,0.0],[171.22571862070879,-44.517632745318451,0.0],[171.22596276133402,-44.506280206255951,0.0],[171.22828209727129,-44.497247003130951,0.0],[171.25709069102129,-44.472344659380951,0.0],[171.27051842539618,-44.457696221880894,0.0],[171.2760115894589,-44.438897393755894,0.0],[171.27588951914629,-44.381768487505951,0.0],[171.27979576914618,-44.370415948443451,0.0],[171.33411705820902,-44.298272393755838,0.0],[171.33741295664629,-44.288506768755894,2.9741],[171.33069908945902,-44.280450128130951,5.6998],[171.31080162852129,-44.271416925005951,8.0015],[171.2851668628964,-44.265191339068451,27.1544],[171.20093834727129,-44.263970635943281,40.8226],[171.22754967539629,-44.252740167193394,35.3113],[171.31055748789618,-44.257134698443394,11.9675],[171.3265486988339,-44.260796807818338,7.9622],[171.34241783945868,-44.267632745318394,3.3479],[171.35792076914629,-44.270928643755951,1.934],[171.3723250660214,-44.263970635943281,2.5215],[171.39222252695868,-44.269341729693394,0.0],[171.41651451914652,-44.259209893755951,0.0],[171.47767174570868,-44.211724542193451,0.0],[171.48975670664652,-44.204766534380951,0.0],[171.5157576832089,-44.197808526568394,0.0],[171.5079451832089,-44.189019464068451,0.25],[171.4821883472714,-44.175835870318451,15.6793],[171.46436608164629,-44.161431573443451,28.2689],[171.44666588633402,-44.141167901568394,44.5566],[171.43287194102129,-44.118340753130951,58.8101],[171.42750084727118,-44.096612237505951,72.3419],[171.41895592539629,-44.076836846880838,86.2111],[171.39918053477129,-44.061333917193451,99.4891],[171.3763533863339,-44.047295831255781,115.2547],[171.35914147227118,-44.031792901568394,129.2405],[171.36060631602129,-44.020684503130951,138.8268],[171.3828231128964,-44.024468682818338,144.615],[171.41114342539629,-44.036065362505894,125.6779],[171.44117272227129,-44.055596612505781,100.5249],[171.46717369883368,-44.062920831255951,87.5476],[171.47828209727129,-44.069390557818338,80.7821],[171.49756920664652,-44.086358331256008,65.1595],[171.5157576832089,-44.106866143755838,47.4265],[171.5367537769589,-44.141656182818394,23.9825],[171.54700768320879,-44.163384698443394,10.6426],[171.56714928477129,-44.162163995318394,0.0],[171.57825768320902,-44.158990167193451,0.0],[171.60486901133368,-44.144830010943338,0.0],[171.6330672535214,-44.138604425005894,0.0],[171.64429772227118,-44.131158135943394,0.0],[171.65479576914629,-44.122002862505894,0.0],[171.66700280039629,-44.113702081255894,0.0],[171.68250573008368,-44.109307550005894,0.0],[171.71961510508379,-44.103448175005951,0.0],[171.79371178477118,-44.065972589068451,0.0],[171.8022567066464,-44.050347589068281,3.0328],[171.79066002695868,-43.948540948443394,68.3517],[171.80042565195879,-43.959771417193394,58.5665],[171.80274498789652,-43.971123956255894,53.7611],[171.80237877695902,-43.983330987505894,48.4784],[171.80420983164618,-43.997002862505838,42.6647],[171.8222762378964,-44.029595635943394,26.1607],[171.82471764414629,-44.041680596880951,16.5239],[171.83814537852118,-44.060967706255894,0.0],[171.8680526050839,-44.057305596880951,0.0],[172.06104576914618,-43.955498956255894,0.0],[172.16504967539618,-43.919854425005838,0.0],[172.18580162852129,-43.906670831255894,0.0],[172.19410240977129,-43.884087823443338,8.852],[172.15674889414652,-43.856499932818394,28.4398],[172.1257430347714,-43.818902276568451,54.1512],[172.10084069102129,-43.778130792193508,74.4956],[172.08289635508379,-43.758355401568394,87.2571],[172.06092369883368,-43.749932550005951,96.8513],[172.03492272227118,-43.746758721880838,101.0509],[171.9792586597714,-43.727715753130951,122.9379],[171.92518151133379,-43.691705010943394,148.8887],[171.9029647144589,-43.669244073443451,165.5338],[172.1362410816464,-43.754937432818394,70.682],[172.1911727222714,-43.794732354693338,43.623],[172.2561141285214,-43.866631768756008,9.833],[172.27027428477129,-43.875176690630951,4.9114],[172.28223717539629,-43.876885675005951,0.0],[172.3654891285214,-43.867242120318281,0.0],[172.37623131602129,-43.863213800005838,0.0],[172.3881942066464,-43.851250909380894,0.0],[172.39100182383379,-43.846246026568451,0.0],[172.38892662852118,-43.840386651568394,0.0],[172.3864852222714,-43.825738214068451,0.0],[172.3868514332089,-43.801080010943394,0.0],[172.39100182383379,-43.771661065630838,0.0],[172.40052330820902,-43.746758721880838,0.0],[172.41724694102129,-43.736382745318451,0.0],[172.4453231128964,-43.731866143755894,0.5901],[172.47132408945868,-43.723931573443394,0.0],[172.49683678477152,-43.720635675005838,2.189],[172.52369225352129,-43.730157159380894,2.3747],[172.53187096445879,-43.737115167193394,2.8439],[172.5384358932572,-43.744807406997552,2.21],[172.54395592539652,-43.751275323443281,2.3126],[172.55103600352129,-43.756768487506008,1.3526],[172.56812584727129,-43.761895440630894,1.2787],[172.59986412852129,-43.758477471880894,0.0],[172.6123153003964,-43.760552667193394,0.0],[172.64002526133379,-43.773858331255951,0.1773],[172.64747155039629,-43.781426690630951,0.0],[172.63294518320868,-43.784722589068338,0.0],[172.6174422535214,-43.786187432818451,0.0],[172.51426414672315,-43.812107378610463,0.0],[172.46680748789618,-43.824029229693451,0.0],[172.4400740894589,-43.827080987505951,0.0],[172.42774498789629,-43.831475518755951,0.0],[172.41797936289618,-43.838921807818281,0.0],[172.41382897227129,-43.849663995318338,7.8481],[172.42249596445868,-43.853448175005894,0.0],[172.46302330820879,-43.848687432818394,0.0],[172.51439815895029,-43.83529149392885,7.0485],[172.55103600352129,-43.825738214068451,6.9257],[172.60889733164618,-43.821465753130781,6.8513],[172.6367293628964,-43.810845635943338,2.1694],[172.71839440195868,-43.802178643755838,134.3521],[172.7456160816464,-43.792535089068338,220.9941],[172.76331627695879,-43.791558526568394,1.5],[172.74402916758402,-43.810235284380894,124.2064],[172.74500573008379,-43.823663018755781,159.6596],[172.78370201914652,-43.853081964068394,7.2208],[172.80506432383402,-43.873345635943281,0.0],[172.8171492847714,-43.880303643755951,0.0],[172.8398543628964,-43.875054620318451,19.2396],[172.86280358164629,-43.895196221880951,0.0],[172.87659752695902,-43.900811456255781,0.0],[172.94202721445902,-43.900811456255781,0.0],[172.96546471445902,-43.904229425005951,0.0],[172.96876061289618,-43.902032159380951,0.0],[172.93726647227129,-43.865899346880951,0.0],[172.92652428477129,-43.839165948443508,0.0],[172.92774498789618,-43.811700128131008,0.0],[172.94202721445902,-43.784722589068338,6.7206],[172.92908776133368,-43.775933526568394,2.7649],[172.92628014414618,-43.764458917193394,1.5678],[172.93299401133379,-43.754327081255781,0.0],[172.94849694102152,-43.749932550005951,28.7668],[172.96143639414629,-43.754937432818394,162.1626],[172.96216881602129,-43.767022393755951,2.2867],[172.96033776133402,-43.781914971880894,0.0],[172.96558678477118,-43.794976495318394,33.3036],[172.9771834644589,-43.807915948443451,139.7779],[172.9785262378964,-43.815484307818394,178.2932],[172.97571862070879,-43.823907159381008,280.8069],[172.97559655039652,-43.839410089068451,648.1711],[172.97962487070868,-43.852593682818394,416.6848],[172.9924422535214,-43.875054620318451,17.5958],[172.99659264414629,-43.887749932818281,30.5805],[173.0050154957089,-43.881036065630838,215.049],[173.01392662852152,-43.877740167193451,0.0],[173.02271569102129,-43.879327081255838,0.0],[173.02909857974487,-43.886000101284992,0.0],[173.0307723316464,-43.887749932818281,0.0],[173.03099819135079,-43.884644361881669,0.0],[173.0312606128964,-43.881036065630838,0.0],[173.03748619883368,-43.859795831255951,236.8571],[173.05579674570868,-43.862969659380951,0.0],[173.08045494883379,-43.839410089068451,116.0136],[173.08558948102143,-43.845048006764614,0.0],[173.09290612070879,-43.853081964068394,0.0],[173.10523522227129,-43.828179620318394,0.0],[173.11341393320868,-43.799981378130838,0.0],[173.113806851891,-43.795915523940721,0.1259],[173.1162215503964,-43.770928643755951,168.7943],[173.11268151133379,-43.743829034380951,220.7584],[173.10999596445879,-43.738824151568394,28.4109],[173.10169518320868,-43.728570245318451,59.2308],[173.09913170664629,-43.722710870318394,17.0206],[173.10035240977129,-43.717828057818394,131.9006],[173.1040145191464,-43.710870050005894,67.8791],[173.10694420664629,-43.702691339068394,44.9127],[173.10596764414618,-43.694756768755894,4.1357],[173.09461510508402,-43.682793878130951,0.0],[173.08057701914618,-43.674615167193451,0.0],[173.06885826914652,-43.664483331255951,0.0],[173.0648299488339,-43.646905206256008,0.0],[173.05274498789618,-43.652032159380894,0.0],[173.02454674570879,-43.674859307818338,234.744],[173.02051842539618,-43.661187432818394,163.2917],[173.00916588633402,-43.652642510943338,0.0],[172.9941512378964,-43.648125909380894,129.079],[172.97925865977129,-43.646905206256008,119.3298],[172.9663192066464,-43.651543878130894,236.3659],[172.95777428477118,-43.662286065630951,186.443],[172.95069420664618,-43.674004815630838,463.8043],[172.94202721445902,-43.681695245318394,434.7422],[172.92823326914629,-43.684502862505951,584.666],[172.92457115977118,-43.678521417193451,433.0899],[172.92774498789618,-43.650689385943394,311.7003],[172.92603600352118,-43.633965753130951,92.1934],[172.92017662852118,-43.625420831255894,0.0],[172.91114367628484,-43.621360146305562,0.0]]]}}