{"type":"Feature","properties":{"GID_2":"NZL.3.5_1","GID_0":"NZL","country":"NewZealand","GID_1":"NZL.3_1","province":"Canterbury","NL_NAME_1":"NA","county":"Mackenzie","VARNAME_2":"NA","NL_NAME_2":"NA","TYPE_2":"District","ENGTYPE_2":"District","CC_2":"065","HASC_2":"NZ.CA.MZ","name":"Mackenzie.county"},
"geometry":{"type": "MultiPolygon","coordinates": [[[[170.6156,-43.4315,2390.9382],[170.6116,-43.4326,2295.895],[170.6031,-43.4305,2207.25],[170.6006,-43.4323,2187.2607],[170.5913,-43.434,2129.7385],[170.5808,-43.4302,1982.688],[170.5804,-43.4261,1918.2102],[170.5838,-43.4227,2025.2996],[170.5802,-43.4185,2257.7549],[170.5725,-43.419,2197.1362],[170.5653,-43.4229,2174.5234],[170.5567,-43.4242,1778.2041],[170.5528,-43.4219,1757.9205],[170.546,-43.4218,1763.118],[170.5439,-43.4183,1927.4712],[170.5352,-43.4145,2274.9961],[170.5335,-43.4103,2407.97],[170.5297,-43.41,2430.0544],[170.5217,-43.4183,2365.6138],[170.5183,-43.419,2377.4114],[170.5177,-43.4244,2304.6533],[170.5113,-43.4284,2408.4404],[170.4967,-43.4266,2310.6282],[170.4755,-43.433,2435.0474],[170.4725,-43.4367,2420.7891],[170.4709,-43.4421,2190.2778],[170.4607,-43.4514,2244.3203],[170.4592,-43.4613,2475.6965],[170.4517,-43.4614,2440.2588],[170.4338,-43.4658,2366.4321],[170.4267,-43.4741,2130.4741],[170.4183,-43.4777,2154.9697],[170.411,-43.4877,2539.75],[170.395,-43.4982,2484.7815],[170.3677,-43.5043,2298.9272],[170.3632,-43.5073,2552.7375],[170.356,-43.5061,2525.2344],[170.3463,-43.5002,2732.4136],[170.3348,-43.498,2523.8899],[170.334,-43.4919,2539.8872],[170.3297,-43.4851,2814.5903],[170.3323,-43.4835,2830.6196],[170.3281,-43.4818,3033.2798],[170.3219,-43.4914,2684.5176],[170.3169,-43.4922,2724.0039],[170.2992,-43.5017,2538.7483],[170.2869,-43.5047,2651.614],[170.2762,-43.5102,2891.2007],[170.2721,-43.51,2959.4983],[170.2671,-43.5127,2893.6819],[170.2574,-43.5108,2618.1062],[170.2512,-43.5131,2524.1885],[170.2383,-43.5139,2484.0564],[170.2286,-43.5192,2614.8137],[170.2261,-43.5226,2583.5793],[170.2209,-43.5248,2626.6951],[170.218,-43.5313,2625.6982],[170.2142,-43.5313,2807.8962],[170.2133,-43.5344,2768.2417],[170.2029,-43.5412,2832.0701],[170.2031,-43.5492,2892.3401],[170.1985,-43.5532,2883.114],[170.1895,-43.5562,2797.8994],[170.1827,-43.5613,2736.6406],[170.1695,-43.5599,3116.0667],[170.1658,-43.5629,3035.9141],[170.1607,-43.5631,3321.0049],[170.1574,-43.5655,3384.1963],[170.1577,-43.5718,3216.7839],[170.1466,-43.5738,3046.5273],[170.1398,-43.5895,3301.8071],[170.1253,-43.5872,2930.592],[170.1155,-43.5889,2596.0742],[170.0981,-43.5955,2828.6116],[170.093,-43.5997,2944.1948],[170.0922,-43.6066,2510.1765],[170.097,-43.6097,2195.1589],[170.0978,-43.6152,2187.8772],[170.0941,-43.6193,2278.4128],[170.0929,-43.6254,2460.1064],[170.0986,-43.6302,2252.0481],[170.1012,-43.6387,2149.2759],[170.0995,-43.6452,2131.3389],[170.094,-43.6493,2274.9878],[170.0951,-43.6556,2059.5969],[170.0914,-43.6604,2208.3843],[170.0737,-43.6721,2378.0142],[170.0591,-43.679,2564.8975],[170.0416,-43.6825,3020.8389],[170.029,-43.6903,2512.9319],[170.0281,-43.6942,2470.0344],[170.0302,-43.6973,2455.8733],[170.0229,-43.7061,2505.3193],[170.0282,-43.7127,2364.3535],[170.0309,-43.7214,2300.4204],[170.0294,-43.7245,2390.02],[170.0187,-43.7308,2467.4514],[170.0133,-43.7321,2443.3616],[170.0062,-43.7408,2448.302],[169.9988,-43.741,2474.2107],[169.9788,-43.7471,2594.5498],[169.9766,-43.7521,2250.78],[169.9847,-43.7594,2247.4485],[169.9798,-43.7649,2138.4829],[169.9739,-43.7684,2292.2756],[169.9704,-43.7732,2302.8833],[169.9752,-43.781,2156.1475],[169.9727,-43.7873,2224.2737],[169.967,-43.7914,2456.52],[169.9621,-43.7922,2436.2769],[169.9514,-43.7975,1533.3721],[169.9447,-43.8096,1309.4474],[169.931,-43.8175,1120.582],[169.9233,-43.8245,1095.5215],[169.9191,-43.8248,1100.8718],[169.9147,-43.8335,1072.8157],[169.9149,-43.838,1019.0919],[169.9124,-43.8401,1025.4119],[169.9142,-43.8431,997.2272],[169.9138,-43.8467,971.2004],[169.9066,-43.8548,912.6083],[169.904,-43.8614,898.4459],[169.9047,-43.8641,894.0812],[169.8975,-43.8728,842.02],[169.895,-43.8798,822.7341],[169.8796,-43.8891,776.6084],[169.8717,-43.8974,758.2574],[169.8631,-43.9013,771.7344],[169.8595,-43.9067,740.9233],[169.8578,-43.9156,725.2505],[169.8417,-43.9326,696.3626],[169.827,-43.9595,660.1479],[169.8259,-43.9811,637.6367],[169.8221,-44.0014,615.3478],[169.8163,-44.0168,601.4084],[169.8163,-44.0288,591.0189],[169.8274,-44.0548,572.1506],[169.8395,-44.0712,560.607],[169.8467,-44.0785,553.7961],[169.8651,-44.0908,543.6277],[169.874,-44.1009,537.9448],[169.8734,-44.1096,535.9852],[169.866,-44.1254,531.4556],[169.8616,-44.1316,528.9258],[169.8437,-44.145,526.0865],[169.8421,-44.1498,523.0673],[169.845,-44.1554,525.5297],[169.8551,-44.1615,523.0708],[169.861,-44.1673,522.2567],[169.8648,-44.1755,520.8738],[169.8627,-44.1805,520.0],[169.8703,-44.1829,520.6898],[169.8771,-44.1903,522.4777],[169.8789,-44.2013,520.0],[169.877,-44.204,520.0],[169.879,-44.2069,529.2528],[169.8773,-44.2127,520.0],[169.879,-44.2154,524.8115],[169.8777,-44.2194,520.0],[169.8798,-44.2248,541.1967],[169.8771,-44.2399,527.8031],[169.8778,-44.2569,520.8188],[169.8905,-44.271,574.8242],[169.9001,-44.2744,561.5993],[169.9068,-44.2749,524.6653],[169.927,-44.2692,545.8344],[169.9352,-44.2722,527.4213],[169.9354,-44.2765,523.5635],[169.939,-44.2811,528.3387],[169.9387,-44.2844,520.0],[169.9558,-44.2848,525.3676],[169.9606,-44.2782,512.3024],[169.9668,-44.2775,508.842],[169.9724,-44.2747,507.1913],[169.9751,-44.277,521.2336],[169.978,-44.2759,505.2546],[169.9774,-44.2716,501.1924],[169.9822,-44.268,501.2827],[169.9856,-44.2629,500.061],[169.9957,-44.2651,495.1766],[170.0,-44.2605,495.0424],[170.003,-44.2617,490.8444],[170.0026,-44.2651,485.7447],[169.9993,-44.2685,485.4637],[170.002,-44.2705,482.4871],[170.0076,-44.2682,479.0161],[170.0187,-44.2706,470.4721],[170.0289,-44.2681,471.9083],[170.0449,-44.2743,459.0],[170.0536,-44.2746,459.0],[170.06,-44.2801,459.0],[170.0677,-44.2802,459.0],[170.075,-44.2831,459.0],[170.0861,-44.2836,459.0],[170.0932,-44.2881,427.2916],[170.106,-44.2899,418.1939],[170.1144,-44.2953,413.3397],[170.1356,-44.303,401.123],[170.1534,-44.3147,397.8862],[170.165,-44.3198,382.5086],[170.1777,-44.3301,374.0078],[170.1801,-44.3347,373.0759],[170.1912,-44.3446,361.0],[170.2048,-44.351,361.0],[170.2043,-44.3603,361.0],[170.2068,-44.3709,361.0],[170.2027,-44.383,361.0],[170.2078,-44.3947,361.0],[170.2112,-44.3968,361.0],[170.2157,-44.4074,361.0],[170.2231,-44.4183,361.0],[170.2226,-44.437,361.0],[170.2152,-44.4432,361.0],[170.2173,-44.4577,361.0],[170.2197,-44.461,361.0],[170.2205,-44.466,361.0],[170.2268,-44.4644,378.4376],[170.5727,-44.313,938.5755],[170.5732,-44.318,921.577],[170.582,-44.3247,836.1489],[170.5882,-44.3336,798.0565],[170.5907,-44.3443,734.6835],[170.6024,-44.351,707.3605],[170.6094,-44.3528,698.297],[170.6268,-44.3514,666.3694],[170.6293,-44.3496,633.1854],[170.6357,-44.3501,624.6021],[170.6368,-44.3574,612.4111],[170.6407,-44.36,605.9399],[170.6436,-44.3644,600.4464],[170.6446,-44.3728,591.1157],[170.6493,-44.3748,581.4299],[170.6585,-44.3837,564.5685],[170.7357,-44.3842,1519.8407],[170.7373,-44.3955,1565.7108],[170.7424,-44.3995,1533.7252],[170.7428,-44.403,1527.2583],[170.7484,-44.4092,1488.9088],[170.7518,-44.4178,1465.9266],[170.7572,-44.4215,1448.8593],[170.763,-44.4351,1420.3529],[170.7705,-44.4422,1428.8864],[170.8026,-44.4363,1478.2185],[170.7935,-44.4262,1270.3286],[170.7887,-44.4241,1156.218],[170.7844,-44.4186,880.4083],[170.7822,-44.4185,884.8527],[170.7807,-44.415,853.1377],[170.7823,-44.4115,824.3384],[170.7804,-44.4108,823.8703],[170.7854,-44.4067,796.8155],[170.7843,-44.405,778.0845],[170.7879,-44.4027,783.1198],[170.7864,-44.4005,729.9028],[170.7877,-44.3955,749.2478],[170.7858,-44.3947,710.7966],[170.7884,-44.3932,711.085],[170.7853,-44.3919,702.0476],[170.7844,-44.3889,685.9944],[170.7871,-44.3876,653.0233],[170.7856,-44.3844,643.3498],[170.7892,-44.3814,636.0751],[170.7876,-44.3785,622.2252],[170.7896,-44.3766,633.9495],[170.7874,-44.3749,606.051],[170.7902,-44.3713,567.0333],[170.7967,-44.3657,572.2438],[170.7993,-44.3659,551.916],[170.8004,-44.3626,555.2697],[170.8065,-44.3597,562.413],[170.8099,-44.3599,539.1301],[170.8098,-44.3564,610.1427],[170.812,-44.354,586.2297],[170.8145,-44.3539,595.6715],[170.8155,-44.3555,495.0768],[170.8254,-44.3552,473.1325],[170.8341,-44.3528,457.5144],[170.8345,-44.3491,426.0575],[170.8415,-44.348,352.439],[170.8393,-44.3434,310.8961],[170.8412,-44.3396,313.0909],[170.8583,-44.3333,274.9191],[170.861,-44.3311,324.8784],[170.8746,-44.3314,256.768],[170.8833,-44.3279,273.5918],[170.8898,-44.3303,236.1503],[170.8925,-44.3293,248.7184],[170.8986,-44.3315,228.735],[170.9118,-44.3322,215.9926],[170.9135,-44.3333,222.5927],[170.9132,-44.3365,207.1409],[170.9234,-44.3427,204.4564],[170.9252,-44.3493,193.5272],[170.9294,-44.3554,182.9873],[170.9294,-44.3619,177.2071],[170.9344,-44.3638,172.0854],[170.9464,-44.3634,165.0414],[170.9625,-44.3707,154.085],[170.9772,-44.3742,141.5609],[170.9772,-44.3713,142.8851],[170.9641,-44.3536,164.312],[170.9569,-44.3295,189.5938],[170.9532,-44.3237,197.426],[170.9453,-44.3168,217.0055],[170.9475,-44.3166,225.7584],[170.9486,-44.3132,197.0913],[170.9462,-44.313,214.5469],[170.9476,-44.3111,164.3466],[170.9449,-44.3085,162.3375],[170.9462,-44.3089,164.6911],[170.9476,-44.3063,157.2466],[170.9407,-44.3007,164.5891],[170.9327,-44.2987,170.2026],[170.9301,-44.2947,168.3925],[170.9299,-44.2891,174.4004],[170.9282,-44.2862,201.8796],[170.9209,-44.2798,183.0688],[170.9154,-44.278,181.6386],[170.9082,-44.267,200.6242],[170.8993,-44.2614,197.6764],[170.8958,-44.2449,208.6411],[170.891,-44.2393,239.7986],[170.8881,-44.2326,219.0597],[170.8796,-44.227,225.6348],[170.8788,-44.2238,229.1463],[170.8805,-44.2194,234.0895],[170.8791,-44.216,242.8413],[170.8757,-44.2101,243.091],[170.87,-44.2069,245.19],[170.8642,-44.1843,266.3031],[170.8602,-44.177,273.0111],[170.8725,-44.1631,305.5577],[170.8676,-44.153,292.9789],[170.8704,-44.1384,258.6175],[170.8758,-44.1371,257.7052],[170.8784,-44.1395,286.6349],[170.8845,-44.1403,292.8477],[170.8875,-44.1427,275.4762],[170.8875,-44.1459,265.6157],[170.8917,-44.1469,262.6369],[170.8921,-44.149,253.0974],[170.8958,-44.1467,239.2719],[170.9005,-44.15,255.8911],[170.9077,-44.1495,305.6399],[170.9094,-44.153,286.5005],[170.9085,-44.1552,227.8893],[170.9116,-44.1563,226.0358],[170.9127,-44.1603,234.0046],[170.9187,-44.162,220.9062],[170.9267,-44.161,258.9733],[170.9337,-44.1652,208.6035],[170.9342,-44.1694,178.5024],[170.9406,-44.1678,182.2459],[170.9633,-44.1671,160.8758],[170.9801,-44.1734,157.7405],[170.9931,-44.1744,148.3026],[170.9978,-44.1654,163.7304],[170.9953,-44.1575,186.073],[171.0015,-44.1477,185.0561],[171.0017,-44.1435,176.7263],[170.9992,-44.1345,188.5805],[170.9944,-44.1304,199.5459],[170.9947,-44.1269,198.9036],[170.9892,-44.122,200.9726],[170.9828,-44.1092,219.4968],[170.9834,-44.1019,228.007],[170.9812,-44.1002,224.0759],[170.9824,-44.0975,230.5073],[170.9801,-44.0953,228.0901],[170.982,-44.092,232.2782],[170.9798,-44.09,234.1919],[170.9805,-44.0867,239.9347],[170.976,-44.0829,240.5084],[170.9801,-44.0798,252.8787],[170.9798,-44.0775,246.3472],[170.9821,-44.0767,259.4065],[170.9798,-44.0675,284.0124],[170.9776,-44.0659,299.116],[170.9719,-44.0674,273.5553],[170.9675,-44.0644,279.0771],[170.9709,-44.0622,425.601],[170.9714,-44.0602,429.5435],[170.9767,-44.0595,483.7089],[170.979,-44.0537,639.803],[170.9886,-44.0423,740.7],[170.9815,-44.0389,701.5981],[170.9751,-44.0324,699.5502],[170.9657,-44.0281,726.7188],[170.9626,-44.0229,764.0303],[170.9699,-44.0193,667.0603],[170.9688,-44.0181,667.0603],[170.9606,-44.0132,545.6463],[170.9573,-44.0142,505.3987],[170.9438,-44.0077,435.1106],[170.9522,-44.0043,639.7469],[170.9544,-43.9999,504.9955],[170.9648,-43.9961,517.6758],[170.9684,-43.9931,517.9964],[170.9682,-43.9912,535.0947],[170.9715,-43.9892,602.3345],[170.9675,-43.988,543.1436],[170.966,-43.9811,566.0542],[170.9692,-43.9733,633.4357],[170.9693,-43.9658,667.9977],[170.9829,-43.966,814.1365],[170.9919,-43.9644,1227.5591],[170.9925,-43.9622,1287.5564],[170.989,-43.9566,1298.4623],[170.9941,-43.9481,881.9451],[170.9843,-43.941,801.1724],[170.9848,-43.9236,626.0318],[170.9914,-43.9206,647.6549],[171.0022,-43.9295,658.062],[171.0028,-43.9319,669.0771],[171.0105,-43.9361,692.9066],[171.0149,-43.9406,709.1453],[171.0116,-43.9447,727.6118],[171.0315,-43.9588,1056.7168],[171.0447,-43.9574,1217.785],[171.0476,-43.9557,1146.1777],[171.06,-43.9609,747.6477],[171.0665,-43.9594,725.3236],[171.068,-43.9607,668.6051],[171.0775,-43.961,606.6863],[171.0836,-43.9585,597.731],[171.0826,-43.9514,661.0444],[171.0869,-43.9486,855.7949],[171.091,-43.9371,812.6603],[171.0975,-43.9322,599.7465],[171.1031,-43.9309,558.3879],[171.1182,-43.932,459.2145],[171.1206,-43.9298,440.6205],[171.1239,-43.9298,443.1583],[171.141,-43.9327,426.5002],[171.1509,-43.9327,418.215],[171.1541,-43.9323,411.0998],[171.1556,-43.9304,375.449],[171.1581,-43.9307,357.3235],[171.1592,-43.929,390.5533],[171.166,-43.9301,370.3797],[171.1762,-43.9276,339.1079],[171.1815,-43.9225,313.384],[171.1751,-43.9193,316.5048],[171.1764,-43.9148,323.8272],[171.1725,-43.9107,335.202],[171.1792,-43.9068,317.7168],[171.1706,-43.903,332.9438],[171.1711,-43.8947,371.8471],[171.1869,-43.8925,600.0538],[171.193,-43.893,747.6385],[171.1976,-43.8911,578.1599],[171.2023,-43.8931,523.3812],[171.2088,-43.9006,444.8588],[171.2171,-43.8998,610.1572],[171.2172,-43.8969,635.0096],[171.2197,-43.8948,533.504],[171.2181,-43.8898,650.6103],[171.2209,-43.8902,636.7491],[171.2227,-43.8879,733.4838],[171.2177,-43.8787,1145.3732],[171.2183,-43.8729,962.9971],[171.2117,-43.8681,767.9835],[171.2168,-43.8643,628.5039],[171.2156,-43.8587,564.9365],[171.219,-43.8556,478.9444],[171.2208,-43.8497,423.7007],[171.2159,-43.8511,436.8533],[171.2107,-43.8471,515.6423],[171.2088,-43.8414,708.3137],[171.1963,-43.8342,1017.7527],[171.1922,-43.8276,1190.1514],[171.1839,-43.826,1226.0077],[171.1766,-43.8123,1417.3599],[171.1682,-43.8062,1464.4458],[171.1533,-43.8079,1472.2708],[171.1448,-43.7995,1497.176],[171.1425,-43.7951,1492.7583],[171.1446,-43.7914,1458.7401],[171.142,-43.789,1379.7163],[171.1388,-43.7798,1603.0363],[171.1335,-43.7819,1495.6736],[171.1164,-43.7822,1416.8248],[171.1086,-43.775,1290.7819],[171.1007,-43.7739,1139.7687],[171.0984,-43.77,1017.9019],[171.0914,-43.7667,809.1528],[171.0895,-43.7573,755.3233],[171.087,-43.7548,744.6504],[171.0781,-43.7524,715.8497],[171.0693,-43.7523,765.6652],[171.0683,-43.7498,820.4963],[171.0645,-43.7514,719.9158],[171.0634,-43.754,676.7661],[171.05,-43.7588,638.935],[171.0452,-43.7573,642.2239],[171.0346,-43.7504,668.6952],[171.0258,-43.7484,668.0862],[171.0079,-43.7486,688.7802],[170.998,-43.7521,720.344],[170.9849,-43.7645,824.0115],[170.9742,-43.7698,765.8947],[170.9492,-43.7777,873.9633],[170.9418,-43.7833,845.9386],[170.9298,-43.7827,872.9755],[170.9114,-43.7895,966.3877],[170.914,-43.7951,1208.2902],[170.9173,-43.795,1175.7449],[170.9149,-43.8047,762.8027],[170.9018,-43.806,808.3571],[170.8911,-43.8034,902.7766],[170.8828,-43.8117,1291.0348],[170.8705,-43.8118,1354.4838],[170.8615,-43.8088,1592.5117],[170.851,-43.8003,1861.6028],[170.8524,-43.796,1980.4437],[170.8504,-43.7936,1976.3871],[170.8509,-43.79,1960.9375],[170.8537,-43.7864,1910.2928],[170.8399,-43.7797,1758.5383],[170.8213,-43.7763,2022.3215],[170.8168,-43.7735,2154.6909],[170.8111,-43.7765,2133.6023],[170.8075,-43.7803,2151.365],[170.8069,-43.7834,2173.7771],[170.7836,-43.7752,1091.8503],[170.7832,-43.7772,1146.0723],[170.7847,-43.7782,1122.752],[170.782,-43.7821,1141.9518],[170.7804,-43.7898,1198.7501],[170.7782,-43.7937,1215.9857],[170.7703,-43.8007,1240.5149],[170.7693,-43.8121,1336.7189],[170.7631,-43.8171,1377.3998],[170.7498,-43.8174,1500.0488],[170.7379,-43.8142,1626.1245],[170.7294,-43.8154,1728.1953],[170.724,-43.8126,1838.0194],[170.7153,-43.8054,2143.4404],[170.7209,-43.8002,2207.2764],[170.7238,-43.7911,2021.3295],[170.7291,-43.7871,1977.7568],[170.7299,-43.7833,1905.7948],[170.7336,-43.7794,1988.5099],[170.7373,-43.7702,1934.9055],[170.7378,-43.7646,1933.0521],[170.732,-43.7606,1883.7102],[170.724,-43.7644,1889.3606],[170.7198,-43.762,1875.814],[170.7093,-43.7656,2013.7386],[170.7014,-43.7622,1929.8987],[170.6946,-43.753,1935.572],[170.6947,-43.7508,1910.2593],[170.686,-43.742,1968.9678],[170.692,-43.7369,2008.4618],[170.6937,-43.7329,2022.0654],[170.6918,-43.7298,2037.8737],[170.694,-43.7261,2034.9293],[170.6888,-43.7232,1954.0057],[170.6836,-43.7167,2027.322],[170.6851,-43.7121,2005.8711],[170.6984,-43.6989,1947.829],[170.6987,-43.6967,1943.3522],[170.6931,-43.6875,2010.5786],[170.7091,-43.6735,2163.0002],[170.702,-43.6671,2109.2666],[170.7053,-43.663,2047.7407],[170.7102,-43.6603,2160.2935],[170.7123,-43.656,2170.9976],[170.7077,-43.6511,2219.4248],[170.711,-43.644,2327.5955],[170.7254,-43.6341,2213.3145],[170.7295,-43.6287,2283.7742],[170.7327,-43.619,2192.5154],[170.7363,-43.6166,2188.3826],[170.7376,-43.6137,2218.3777],[170.741,-43.6124,2251.4846],[170.7411,-43.6094,2182.5449],[170.7367,-43.6029,2278.2144],[170.7367,-43.6006,2252.4189],[170.7275,-43.5946,2404.3525],[170.7268,-43.5915,2438.707],[170.7227,-43.5878,2322.1365],[170.7214,-43.5813,2251.8896],[170.7178,-43.5785,2373.4365],[170.7183,-43.5743,2385.6792],[170.7301,-43.5645,2291.1948],[170.7271,-43.5553,2407.208],[170.7111,-43.5528,2257.6431],[170.6982,-43.5542,2273.96],[170.6926,-43.5521,2112.1421],[170.6917,-43.5487,2084.0269],[170.6867,-43.5462,1913.4398],[170.6845,-43.5475,1918.0691],[170.68,-43.547,1867.9421],[170.6733,-43.5428,2235.6167],[170.6679,-43.5457,2056.7397],[170.6628,-43.5447,1989.7993],[170.6566,-43.5401,1964.7716],[170.6526,-43.5346,1942.5706],[170.6462,-43.5337,1984.4778],[170.6387,-43.5289,2106.5952],[170.6407,-43.5254,2105.2793],[170.6384,-43.5218,2115.9927],[170.6386,-43.5156,2019.0991],[170.6349,-43.5128,2004.1951],[170.6346,-43.5107,1976.9482],[170.6259,-43.5068,1874.5394],[170.627,-43.502,1876.5254],[170.6253,-43.497,2011.5155],[170.6286,-43.4918,2058.7637],[170.627,-43.4892,2017.7834],[170.6062,-43.4858,2167.3757],[170.5983,-43.4785,2090.1455],[170.5898,-43.476,2326.7241],[170.5888,-43.4687,2293.3621],[170.5823,-43.465,2781.3096],[170.5908,-43.4652,2327.6362],[170.5983,-43.4635,2310.707],[170.6031,-43.4547,2206.8057],[170.6033,-43.4506,2237.0527],[170.6142,-43.4438,2108.3997],[170.6156,-43.4315,2390.9382]]]]}}