{"type": "Feature","bbox": [171.44508805912369,-43.349036845809053,171.58250193221033,-43.232681202623894],"geometry": {"type": "Polygon","coordinates": [[[171.44508805912369,-43.2333950409257,507.0],[171.44544497827462,-43.241247262244883,535.0602],[171.44794341233069,-43.250527160167621,553.9788],[171.45508179534818,-43.25695170488342,507.0],[171.45543871449911,-43.265160845353535,507.0],[171.45151260383943,-43.2712284709184,517.6321],[171.45294028044304,-43.27872377308671,507.0],[171.46222017836567,-43.29121594336732,576.2944],[171.47614002524972,-43.300852760440989,551.1631],[171.49505674024613,-43.3054927094023,512.1104],[171.50933350628111,-43.3133449307216,510.7648],[171.51611497014778,-43.322267909493462,512.663],[171.51897032335467,-43.332261645717892,543.1112],[171.52717946382484,-43.341184624489756,538.2281],[171.53717320004932,-43.343683058545935,542.3942],[171.54716693627381,-43.342255381942437,507.0],[171.55965910655448,-43.348679926658122,531.0506],[171.56786824702465,-43.34725225005468,513.0873],[171.57607738749459,-43.349036845809053,507.0],[171.58178809390859,-43.346181492602057,507.0],[171.58250193221033,-43.342612301093311,507.0],[171.57143743853339,-43.340113867037189,510.7399],[171.55930218740355,-43.337972352131885,507.0],[171.54788077457556,-43.328692454209147,507.0],[171.53324708938965,-43.312274173268975,507.0],[171.53717320004932,-43.308704981760229,507.0],[171.53396092769151,-43.306206547704107,517.8809],[171.52682254467402,-43.306206547704107,526.1152],[171.52361027231609,-43.309061900911047,510.1128],[171.51861340420385,-43.303708113647929,509.0629],[171.51575805099685,-43.297997407233993,507.0],[171.52075491910921,-43.29621281147962,507.0],[171.52610870637216,-43.294428215725247,507.0],[171.52325335316527,-43.289431347612947,507.0],[171.51897032335467,-43.2858621561042,510.8352],[171.51004734458297,-43.283720641199011,508.3738],[171.50397971901793,-43.276939177332338,536.228],[171.49541365939706,-43.274440743276273,538.305],[171.48756143807782,-43.270514632616653,532.5349],[171.48327840826721,-43.263376249599162,526.4314],[171.47649694440065,-43.2530255942238,507.0],[171.47078623798677,-43.246601049508,507.0],[171.46329093581835,-43.238391909037944,507.0],[171.45865098685692,-43.2348227175292,507.5648],[171.44901416978337,-43.232681202623894,507.8063],[171.44508805912369,-43.2333950409257,507.0]]]}
,"properties": {"featurecla": "Reservoir","scalerank": 7,"name": "Lake Coleridge","name_abb": "L. Colerdige","name_alt": null,"note": "natural lake","delta": null,"dam_name": null,"year": -99,"admin": null,"min_zoom": 5.7,"min_label": 6.7,"area_km2": 35.52456,"hist_schema_id": "Elevation0-9000","hist_area_km2": {"500": 34.90743,"525": 0.40114,"550": 0.16971,"575": 0.04629}}}