{"type": "Feature","bbox": [170.1450100520633,-44.569950185205641,170.2630313179526,-44.3419978208471],"geometry": {"type": "Polygon","coordinates": [[[170.1450100520633,-44.536637731124017,361.0],[170.1450100520633,-44.540920760934455,372.0255],[170.15643146489128,-44.542824329739176,361.0],[170.16452163231111,-44.540920760934455,366.4836],[170.16642520111577,-44.534734162319353,364.0188],[170.1730876919321,-44.5304511325088,361.0],[170.17403947633443,-44.534734162319353,361.0],[170.16832876992044,-44.539968976532123,373.1987],[170.16832876992044,-44.546155575147338,361.0],[170.17403947633443,-44.550438604957776,374.6995],[170.18498499696125,-44.556149311371826,361.0],[170.1925992721799,-44.554245742567105,361.0],[170.1954546253869,-44.550914497159,372.75],[170.20306890060567,-44.553293958164829,459.6848],[170.201165331801,-44.559004664578765,393.7952],[170.19450284098457,-44.561860017785818,349.9208],[170.19878587079518,-44.567094831998588,357.4507],[170.20782782261733,-44.569950185205641,436.9694],[170.21353852903121,-44.568046616400977,392.9958],[170.21829745104287,-44.563763586590426,410.8399],[170.2192492354452,-44.554245742567105,363.8677],[170.21068317582433,-44.546631467348504,361.0],[170.19212337997874,-44.540920760934455,361.0],[170.19735819419157,-44.539017192129847,361.0],[170.21163496022655,-44.536637731124017,389.7928],[170.20925549922072,-44.531402916911134,371.0104],[170.212586744629,-44.526168102698364,391.7495],[170.21115906802538,-44.517602043077375,391.3705],[170.20402068500789,-44.511415444462159,361.0],[170.2054483616115,-44.50284938484117,363.8308],[170.20402068500789,-44.491427972013241,364.8643],[170.21353852903121,-44.487620834403856,361.0],[170.21972512764648,-44.485241373398026,361.0],[170.21829745104287,-44.478578882581758,364.4891],[170.215442097836,-44.477151205978259,361.0],[170.22020101984765,-44.470964607363044,361.0],[170.22876707946853,-44.459543194535115,382.6501],[170.22733940286514,-44.4443146440978,372.1078],[170.23114654047436,-44.43479680007448,361.0],[170.24209206110118,-44.429561985861653,363.755],[170.24875455191761,-44.418616465234777,367.9282],[170.25922418034315,-44.411002190016177,379.4881],[170.2630313179526,-44.399580777188135,362.0576],[170.25636882713616,-44.391014717567145,362.7923],[170.24780276751517,-44.391014717567145,361.0],[170.24066438449768,-44.386731687756708,361.0],[170.23733313908951,-44.372454921721726,362.0719],[170.23305010927902,-44.367695999710065,362.9651],[170.22829118726736,-44.367220107508842,362.3748],[170.21877334324404,-44.357702263485521,362.4717],[170.21972512764648,-44.351039772669253,361.0],[170.22020101984765,-44.34580495845637,362.516],[170.20877960701955,-44.3419978208471,361.3235],[170.201165331801,-44.348660311663423,361.0],[170.1925992721799,-44.343425497450539,363.9817],[170.19593051758818,-44.3481844194622,362.438],[170.1968823019904,-44.357702263485521,375.4982],[170.19355105658235,-44.370551352917062,365.3826],[170.19640640978935,-44.384352226750877,366.1445],[170.2054483616115,-44.396725423981195,361.0],[170.2054483616115,-44.409574513412679,389.9778],[170.20402068500789,-44.42432717164877,362.2594],[170.20497246941022,-44.440507506488473,371.7602],[170.198309978594,-44.44479053629891,361.0],[170.20021354739856,-44.457163733529285,361.0],[170.20877960701955,-44.462398547742055,361.0],[170.21163496022655,-44.465253900949108,379.2545],[170.2054483616115,-44.470012822960769,376.6646],[170.20259300840439,-44.477151205978259,371.2223],[170.20735193041605,-44.480958343587588,361.0],[170.20306890060567,-44.482861912392195,391.662],[170.19450284098457,-44.485241373398026,366.6843],[170.19164748777769,-44.492855648616739,361.0],[170.19497873318574,-44.50046992383534,361.0],[170.1954546253869,-44.512367228864491,361.0],[170.20021354739856,-44.5214091806867,380.3829],[170.19640640978935,-44.526168102698364,398.9668],[170.18926802677186,-44.532830593514632,361.0],[170.18308142815658,-44.533782377916964,364.0065],[170.17784661394376,-44.529499348106526,361.0],[170.17261179973104,-44.523312749491311,361.0],[170.15833503369606,-44.522360965089035,368.7283],[170.15643146489128,-44.530927024710024,361.0],[170.15595557269023,-44.537113623325183,361.0],[170.14976897407496,-44.537589515526292,363.4701],[170.1450100520633,-44.536637731124017,361.0]]]}
,"properties": {"featurecla": "Reservoir","scalerank": 7,"name": "Lake Benmore","name_abb": "L. Benmore","name_alt": null,"note": null,"delta": null,"dam_name": null,"year": -99,"admin": null,"min_zoom": 5.7,"min_label": 6.7,"area_km2": 59.48744,"hist_schema_id": "Elevation0-9000","hist_area_km2": {"325": 0.01511,"350": 56.64442,"375": 1.45214,"400": 0.89211,"425": 0.31741,"450": 0.15115,"475": 0.01511}}}