{"type": "Feature","bbox": [170.46620754458797,-44.002395197442411,170.56019625431827,-43.785864245911853],"geometry": {"type": "Polygon","coordinates": [[[170.55662706280953,-43.8132280474789,718.5269],[170.55900652381536,-43.785864245911853,710.6733],[170.51857845452287,-43.791770091140336,710.2927],[170.51769536214124,-43.796185553047394,709.5],[170.51022757319583,-43.807279394964326,709.5],[170.50427892068126,-43.826315083010968,709.5],[170.50784811219,-43.841781579548865,709.5],[170.50903784269292,-43.850109693069271,709.5],[170.50903784269292,-43.8524891540751,711.6053],[170.50903784269292,-43.860817267595507,709.5],[170.50784811219,-43.870335111618829,709.5],[170.50650952531021,-43.880373693407023,711.0037],[170.49600161539706,-43.901863654730619,709.5],[170.48762269364045,-43.917924331735435,709.5],[170.49119188514919,-43.944098402799568,710.0797],[170.50650952531021,-43.9483718067745,709.5],[170.49119188514919,-43.964323821349126,709.5],[170.48842297851934,-43.976731512142749,709.5],[170.46620754458797,-44.002395197442411,738.4164],[170.4938697692121,-44.001366156277868,709.5],[170.51769536214124,-43.964267469639594,730.4388],[170.54354002727746,-43.957185438331635,709.5],[170.55186814079786,-43.91911406223835,709.5],[170.55067841029495,-43.873904303127574,716.1383],[170.56019625431827,-43.833453466028459,709.5],[170.55662706280953,-43.8132280474789,718.5269]]]}
,"properties": {"featurecla": "Lake","scalerank": 5,"name": "Lake Tekapo","name_abb": "L. Tekapo","name_alt": null,"note": null,"delta": null,"dam_name": null,"year": -99,"admin": null,"min_zoom": 4.7,"min_label": 6.0,"area_km2": 85.67673,"hist_schema_id": "Elevation0-9000","hist_area_km2": {"700": 83.07971,"725": 2.49013,"750": 0.10689}}}