{"type": "Feature","bbox": [170.12118569874258,-44.179665042376769,170.21771403370246,-43.900078374191708],"geometry": {"type": "Polygon","coordinates": [[[170.20211273496454,-44.034688267742354,534.3163],[170.19494898992332,-44.022620615991968,531.5],[170.19256952891749,-44.010723310962817,531.5],[170.19651981654908,-43.997892751850827,540.7927],[170.19613872042623,-43.95837516883455,531.5],[170.19019006791166,-43.9310113672675,531.5],[170.18900033740874,-43.914355140226689,556.5833],[170.18186195439125,-43.900078374191708,531.5],[170.12951381226299,-43.909596218215029,536.4141],[170.12594462075424,-43.927442175758756,576.8066],[170.14176808890261,-43.948439578492696,531.5],[170.13665219528048,-43.967893012857871,531.5],[170.13903165628631,-43.988118431407429,531.5],[170.13546246477756,-44.008343849956987,531.5],[170.13903165628631,-44.029758999009459,531.5],[170.138235719377,-44.053233207751589,531.5],[170.13588080635986,-44.06324158807405,531.5],[170.138235719377,-44.072955604269396,531.5],[170.14379057829797,-44.096383907172708,531.5],[170.13784192578339,-44.118988786728096,531.5],[170.14299110979073,-44.134975017640443,531.5],[170.12237542924549,-44.148732049300975,531.5],[170.12118569874258,-44.168957467850532,531.5],[170.14141111729214,-44.179665042376769,531.5],[170.16826086034428,-44.1762774128926,590.655],[170.19851818143206,-44.178475311873854,593.4919],[170.21636413897579,-44.160629354330126,531.5],[170.21160521696413,-44.135645013768908,533.1109],[170.2092257559583,-44.105901751196029,534.7057],[170.21771403370246,-44.061475403311249,532.8328],[170.20211273496454,-44.034688267742354,534.3163]]]}
,"properties": {"featurecla": "Reservoir","scalerank": 5,"name": "Lake Pukaki","name_abb": "L. Pukaki","name_alt": null,"note": "natural lake","delta": null,"dam_name": "Pukaki Lake Control","year": 1976,"admin": null,"min_zoom": 4.7,"min_label": 6.0,"area_km2": 163.6604,"hist_schema_id": "Elevation0-9000","hist_area_km2": {"525": 161.8174,"550": 1.7214,"575": 0.0912,"600": 0.0304}}}