{"type":"Feature","properties":{"featurecla":"Lake","scalerank":7,"name":"Lake Ohau","name_abb":"L. Ohau","name_alt":null,"note":null,"delta":null,"dam_name":null,"year":-99,"admin":null,"min_zoom":5.7,"min_label":6.7},
"geometry":{"type": "Polygon","coordinates": [[[169.88264473290826,-44.26770509959249,520.0],[169.87274334785752,-44.2389486040783,520.0],[169.8792193586545,-44.212750196763636,530.7451],[169.88127990754447,-44.198915082788517,551.335],[169.87598135325595,-44.187729245957485,545.8744],[169.86979970658638,-44.180075778652053,522.8502],[169.85230660508375,-44.176690716119481,520.0],[169.83565037804294,-44.17193179410782,520.0],[169.82613253401962,-44.171336928856363,520.0],[169.82122962560948,-44.1897897948474,525.482],[169.81563670719402,-44.214810745653551,530.4297],[169.82240708211793,-44.246307707256619,520.0],[169.84695281782081,-44.270679425849835,548.0895],[169.87434404543433,-44.287205909936404,531.5958],[169.92309557000738,-44.289715113896477,520.0],[169.93667680356521,-44.284023091914491,520.0],[169.93201854877907,-44.270679425849835,537.5892],[169.90806704311331,-44.272800478698514,751.3929],[169.88264473290826,-44.26770509959249,520.0]]]}}