{"type": "Feature","bbox": [173.8203,-39.296,174.8625,-38.7066],"geometry": {"type": "MultiPolygon","coordinates": [[[[174.0126,-39.061,0.0],[174.0128,-39.0611,0.0],[174.013,-39.0611,0.0],[174.0127,-39.0609,0.0],[174.0126,-39.061,0.0]]],
[[[174.0028,-39.0573,-0.1537],[174.0028,-39.0574,-0.1537],[174.003,-39.0574,-0.1537],[174.0029,-39.0573,-0.1537],[174.0028,-39.0573,-0.1537]]],
[[[174.0022,-39.057,-0.1537],[174.0024,-39.0571,-0.1537],[174.0026,-39.057,-0.1537],[174.0024,-39.0569,-0.1537],[174.0022,-39.057,-0.1537]]],
[[[174.0005,-39.0568,0.0],[174.0004,-39.057,0.0],[174.0005,-39.057,0.0],[174.0005,-39.0569,0.0],[174.0005,-39.0568,0.0]]],
[[[174.0031,-39.057,-0.1537],[174.0033,-39.057,-0.1537],[174.0035,-39.0569,-0.1537],[174.0031,-39.0568,-0.1537],[174.0031,-39.057,-0.1537]]],
[[[174.0033,-39.0561,0.0],[174.0027,-39.0566,-0.1537],[174.0042,-39.0561,0.0],[174.0041,-39.056,0.0],[174.0033,-39.0561,0.0]]],
[[[174.0134,-39.0463,0.0],[174.0134,-39.0462,0.4232],[174.0134,-39.0461,0.4232],[174.0133,-39.0462,0.4232],[174.0134,-39.0463,0.0]]],
[[[174.0136,-39.046,0.4232],[174.0135,-39.0459,0.4232],[174.0135,-39.0461,0.4232],[174.0136,-39.046,0.4232]]],
[[[174.0155,-39.0455,2.1983],[174.0152,-39.0447,2.1983],[174.014,-39.0454,0.4232],[174.0144,-39.0462,2.1983],[174.0155,-39.0455,2.1983]]],
[[[174.0138,-39.0455,0.4232],[174.0139,-39.0454,0.4232],[174.0139,-39.0453,0.4232],[174.0138,-39.0454,0.4232],[174.0138,-39.0455,0.4232]]],
[[[174.0155,-39.0605,0.0],[174.0154,-39.0605,0.0],[174.0153,-39.0605,0.0],[174.0155,-39.0606,0.0],[174.0155,-39.0605,0.0]]],
[[[174.02,-39.059,0.8735],[174.0193,-39.0589,0.8735],[174.0188,-39.0596,0.0],[174.0195,-39.0597,0.0],[174.02,-39.059,0.8735]]],
[[[174.0246,-39.0574,1.9151],[174.0247,-39.0574,1.9151],[174.0245,-39.0573,1.9151],[174.0246,-39.0574,1.9151]]],
[[[174.0262,-39.0502,0.0],[174.0264,-39.0503,0.0],[174.0266,-39.0501,0.0],[174.0262,-39.05,0.0],[174.0262,-39.0502,0.0]]],
[[[174.0266,-39.0509,0.0],[174.027,-39.0509,0.0],[174.027,-39.0507,0.0],[174.0268,-39.0505,0.0],[174.0266,-39.0509,0.0]]],
[[[174.0265,-39.0503,0.0],[174.0264,-39.0504,0.0],[174.0264,-39.0506,0.0],[174.0266,-39.0505,0.0],[174.0265,-39.0503,0.0]]],
[[[174.0269,-39.0495,1.4797],[174.028,-39.0497,0.0],[174.0285,-39.0486,1.4581],[174.0267,-39.0487,1.4797],[174.0269,-39.0495,1.4797]]],
[[[174.8625,-38.7768,496.8762],[174.8622,-38.7742,488.0329],[174.8504,-38.7729,477.4863],[174.8434,-38.7668,467.1306],[174.8344,-38.7644,482.6702],[174.8282,-38.761,412.9957],[174.8277,-38.7585,389.7803],[174.8254,-38.7586,395.2216],[174.8275,-38.7567,401.64],[174.8249,-38.7533,387.9746],[174.8242,-38.748,384.0465],[174.8185,-38.747,354.438],[174.8164,-38.7453,363.1248],[174.8154,-38.7409,365.166],[174.8124,-38.7412,337.2157],[174.8074,-38.7359,335.905],[174.8038,-38.7365,316.7971],[174.7942,-38.731,308.5086],[174.7905,-38.7336,330.2162],[174.7811,-38.735,261.9801],[174.7741,-38.7389,325.7819],[174.7744,-38.7365,327.4851],[174.7674,-38.7373,313.3154],[174.763,-38.7394,326.9563],[174.761,-38.7431,327.7195],[174.7564,-38.745,340.2637],[174.7514,-38.7433,306.4686],[174.7511,-38.7444,306.4686],[174.7481,-38.7441,289.1486],[174.7486,-38.743,289.1486],[174.744,-38.7408,322.6027],[174.7376,-38.7341,313.2941],[174.728,-38.7334,279.0505],[174.7258,-38.7353,260.1115],[174.7089,-38.7319,216.2851],[174.7035,-38.7326,220.2356],[174.7022,-38.7307,249.3751],[174.6934,-38.7337,250.6004],[174.6875,-38.7278,278.1169],[174.6663,-38.7289,192.4936],[174.6616,-38.732,189.4658],[174.6578,-38.7315,193.2919],[174.654,-38.7332,200.4114],[174.6459,-38.726,177.0768],[174.6472,-38.721,181.8049],[174.6169,-38.7229,52.9055],[174.6134,-38.7135,30.491],[174.614,-38.7088,23.2979],[174.6155,-38.7076,13.5159],[174.6134,-38.7066,15.4548],[174.6095,-38.7152,27.0834],[174.6087,-38.7281,0.0],[174.6105,-38.7336,5.0007],[174.6074,-38.7368,0.0],[174.6051,-38.7537,19.163],[174.6033,-38.7575,13.2612],[174.6046,-38.7574,13.2612],[174.6014,-38.7622,15.0875],[174.602,-38.7669,23.3845],[174.5996,-38.7673,0.0],[174.5997,-38.7702,3.2569],[174.5978,-38.7723,0.0],[174.598,-38.7766,7.0793],[174.592,-38.7947,16.6104],[174.5899,-38.7958,0.0],[174.5912,-38.7965,25.8598],[174.5905,-38.7992,21.3597],[174.5922,-38.8005,10.1546],[174.5883,-38.8016,16.6642],[174.5884,-38.8049,31.3542],[174.5843,-38.8125,24.6741],[174.5854,-38.8139,5.9707],[174.5903,-38.8121,43.0091],[174.5939,-38.8155,13.137],[174.5931,-38.8172,2.5611],[174.5851,-38.8164,30.9361],[174.5821,-38.8179,11.3912],[174.5774,-38.8278,3.0033],[174.5736,-38.8313,0.0],[174.5717,-38.8369,0.0],[174.567,-38.8417,8.2595],[174.56,-38.8559,14.0033],[174.5497,-38.8666,78.7184],[174.5174,-38.892,6.6722],[174.5119,-38.8934,28.1962],[174.5077,-38.8903,4.0755],[174.499,-38.8959,0.0],[174.4948,-38.9028,0.0],[174.479,-38.9156,13.4255],[174.473,-38.9249,15.2005],[174.4432,-38.9549,29.4683],[174.4392,-38.9623,0.0],[174.4287,-38.9673,5.9683],[174.4068,-38.9834,10.441],[174.3913,-38.9888,2.9286],[174.3816,-38.9871,4.0631],[174.3649,-38.9925,2.7498],[174.3615,-38.9921,15.6755],[174.3613,-38.9908,0.0],[174.348,-38.994,6.7742],[174.3258,-38.9912,0.0],[174.3206,-38.9894,3.9665],[174.3123,-38.9829,0.0],[174.3022,-38.9825,0.0],[174.2844,-38.9863,30.0564],[174.2668,-38.9868,11.0254],[174.2419,-38.9817,0.0],[174.2277,-38.9879,0.0],[174.1999,-38.9886,5.3609],[174.1856,-38.9954,2.6624],[174.1794,-38.9963,12.5636],[174.1716,-39.0054,15.8251],[174.1581,-39.0147,3.4466],[174.1457,-39.0193,0.0],[174.1377,-39.0184,2.7066],[174.1224,-39.03,4.2299],[174.107,-39.0362,0.0327],[174.0889,-39.0512,2.8233],[174.0834,-39.0503,7.5053],[174.072,-39.0558,0.859],[174.0632,-39.055,5.5576],[174.0518,-39.0582,13.6194],[174.0446,-39.0549,0.0],[174.0506,-39.0582,4.8409],[174.0433,-39.0593,0.5844],[174.0429,-39.0607,5.4451],[174.0369,-39.0594,2.674],[174.0385,-39.0566,1.8245],[174.0332,-39.0576,0.4627],[174.0361,-39.0558,0.0],[174.0313,-39.0569,2.9649],[174.0393,-39.0518,0.0],[174.0308,-39.0551,4.618],[174.0305,-39.0555,3.7065],[174.0294,-39.0544,0.0],[174.0249,-39.0568,1.9151],[174.0245,-39.0587,20.9828],[174.0164,-39.061,1.6294],[174.019,-39.0622,0.0],[174.0175,-39.0683,0.0],[174.0192,-39.0678,0.0],[174.0201,-39.0698,20.8801],[174.0181,-39.0696,2.6072],[174.0106,-39.0798,22.6433],[174.0038,-39.0854,33.1178],[173.991,-39.0894,0.2406],[173.9857,-39.0948,43.7211],[173.9779,-39.0995,6.0514],[173.9684,-39.1024,0.0],[173.9479,-39.1155,1.1317],[173.9118,-39.1198,14.8439],[173.8964,-39.1323,4.0267],[173.8832,-39.1349,14.9628],[173.8761,-39.1404,7.6397],[173.8672,-39.1425,2.7985],[173.855,-39.1503,6.6509],[173.8457,-39.1539,2.7349],[173.8328,-39.1685,9.9466],[173.823,-39.17,6.4749],[173.8203,-39.1726,2.9341],[173.8211,-39.1744,4.6916],[173.8277,-39.1763,14.6164],[173.8314,-39.1794,21.7343],[173.8456,-39.1798,41.3292],[173.8539,-39.1874,57.5726],[173.8634,-39.1898,68.593],[173.8729,-39.1996,100.1665],[173.8769,-39.2017,106.2032],[173.8791,-39.2063,116.8691],[173.8894,-39.2134,142.0211],[173.891,-39.2186,154.584],[173.8957,-39.2216,164.4802],[173.9018,-39.2298,191.7949],[173.9247,-39.244,258.0818],[173.9411,-39.2518,315.8888],[173.9546,-39.2528,376.9736],[173.9643,-39.256,400.5521],[173.9611,-39.2615,414.489],[174.0638,-39.296,2457.0376],[174.1753,-39.2881,536.8163],[174.1859,-39.2854,492.0371],[174.1966,-39.2807,452.2732],[174.2087,-39.2715,406.6802],[174.2231,-39.2668,369.9884],[174.2331,-39.2581,342.1538],[174.2382,-39.2562,334.0702],[174.2421,-39.2527,319.8076],[174.2421,-39.2507,319.4416],[174.2482,-39.2513,312.3767],[174.2523,-39.2444,290.7479],[174.2554,-39.2423,288.8711],[174.2544,-39.2407,282.3752],[174.256,-39.2401,281.3417],[174.2556,-39.2349,274.254],[174.2572,-39.2324,263.0185],[174.261,-39.2324,259.0951],[174.2641,-39.2292,256.0518],[174.267,-39.2305,246.2644],[174.2706,-39.2276,237.7368],[174.2719,-39.2241,223.196],[174.2746,-39.2252,226.7111],[174.2865,-39.2246,230.062],[174.2865,-39.2352,259.6485],[174.296,-39.2325,257.0318],[174.3012,-39.2363,269.2657],[174.3012,-39.2338,250.4436],[174.3118,-39.2337,258.4041],[174.3133,-39.2353,236.5394],[174.3125,-39.2368,215.0719],[174.3447,-39.2366,173.0789],[174.3441,-39.2405,163.5401],[174.3532,-39.2381,155.0222],[174.3523,-39.2406,161.1299],[174.3567,-39.2415,173.5491],[174.3572,-39.2335,195.1438],[174.3611,-39.2323,176.7405],[174.3592,-39.2297,185.7523],[174.3798,-39.2258,269.1441],[174.3848,-39.2257,237.8551],[174.387,-39.2278,254.9539],[174.4146,-39.2277,125.0909],[174.4152,-39.2244,179.2224],[174.4173,-39.2267,143.4458],[174.4225,-39.2259,131.5117],[174.4216,-39.2281,122.2089],[174.4231,-39.2289,122.2089],[174.4264,-39.2245,124.5427],[174.424,-39.2238,125.5939],[174.4237,-39.2199,145.1009],[174.4191,-39.2196,125.4041],[174.4214,-39.2142,131.426],[174.4244,-39.213,135.8329],[174.424,-39.218,110.3797],[174.4287,-39.2202,121.7489],[174.4316,-39.2165,119.8654],[174.4272,-39.212,112.3915],[174.4274,-39.2081,107.4236],[174.4292,-39.209,109.5045],[174.4289,-39.2116,120.514],[174.4303,-39.2117,141.7558],[174.4365,-39.2092,115.5328],[174.4405,-39.2095,118.5074],[174.4458,-39.2059,101.9615],[174.4469,-39.2023,115.1394],[174.4422,-39.2053,111.4842],[174.4357,-39.2008,117.0102],[174.4427,-39.1961,146.047],[174.4409,-39.1918,94.6052],[174.4393,-39.1913,95.0523],[174.4444,-39.1914,106.3256],[174.447,-39.1866,208.479],[174.4537,-39.1867,263.3032],[174.4577,-39.1779,235.8365],[174.4651,-39.1795,248.052],[174.4678,-39.1817,239.4586],[174.474,-39.181399999999996,297.273],[174.4762,-39.1793,254.197],[174.4817,-39.1878,272.8864],[174.4933,-39.1902,184.2392],[174.5,-39.1958,104.821],[174.5041,-39.1942,124.2803],[174.511,-39.1971,115.4573],[174.5154,-39.1933,148.3947],[174.5144,-39.1887,120.8694],[174.5159,-39.1866,108.6139],[174.5208,-39.1858,159.9657],[174.5199,-39.1754,135.1985],[174.5312,-39.1746,117.3009],[174.5337,-39.1723,125.963],[174.5331,-39.1704,131.7355],[174.5279,-39.1715,135.4528],[174.5253,-39.17,110.5884],[174.528,-39.1692,111.2163],[174.5299,-39.1664,109.9595],[174.5348,-39.1668,132.1142],[174.5325,-39.1645,122.7392],[174.5213,-39.1657,121.9876],[174.5189,-39.1647,121.8248],[174.5193,-39.163,108.018],[174.5244,-39.1631,128.2563],[174.5274,-39.1608,110.9878],[174.5218,-39.1591,110.0787],[174.5223,-39.1525,114.8112],[174.5297,-39.1593,109.8538],[174.5311,-39.155,113.0501],[174.5294,-39.1525,111.9946],[174.5268,-39.1521,113.6832],[174.5276,-39.1465,119.0117],[174.5417,-39.1432,145.7994],[174.5331,-39.1396,111.2271],[174.5277,-39.1434,132.5838],[174.5261,-39.1406,111.2368],[174.521,-39.1393,116.2927],[174.5206,-39.1372,118.9184],[174.5288,-39.133,121.0788],[174.5258,-39.1285,110.9849],[174.521,-39.1267,120.0966],[174.5206,-39.1253,119.1103],[174.526,-39.1204,124.78],[174.532,-39.1236,122.405],[174.5371,-39.1242,118.0842],[174.5376,-39.1215,114.5651],[174.534,-39.113,126.197],[174.5345,-39.1103,127.3408],[174.5403,-39.1129,141.7666],[174.5466,-39.1117,126.0393],[174.5462,-39.109,126.1054],[174.5405,-39.11,146.0848],[174.5374,-39.1052,134.1328],[174.5388,-39.0991,140.5073],[174.5456,-39.1025,128.5015],[174.5577,-39.1005,139.6509],[174.557,-39.0982,116.8755],[174.5516,-39.0971,116.8758],[174.5474,-39.0926,116.9466],[174.5579,-39.0924,124.8136],[174.5555,-39.0889,142.2652],[174.5582,-39.086,139.8036],[174.5549,-39.0833,160.8754],[174.5571,-39.0797,123.0539],[174.5527,-39.0755,134.6509],[174.5538,-39.0721,122.7118],[174.5567,-39.0718,128.5373],[174.5572,-39.078,120.9086],[174.5612,-39.0791,126.3074],[174.566,-39.0778,129.4084],[174.5667,-39.0715,122.987],[174.5686,-39.0706,123.4011],[174.5741,-39.0776,159.5384],[174.5721,-39.0829,122.3986],[174.576,-39.0857,121.5653],[174.5778,-39.085,121.5653],[174.5811,-39.0772,142.5884],[174.5843,-39.0759,150.6582],[174.591,-39.0832,128.5655],[174.5915,-39.0874,151.3399],[174.5947,-39.0894,202.537],[174.5934,-39.0911,211.7405],[174.5957,-39.0962,335.1517],[174.6015,-39.0923,319.4042],[174.6088,-39.0942,332.0829],[174.6104,-39.0933,332.0829],[174.613,-39.0966,324.7662],[174.6199,-39.0989,333.9429],[174.6238,-39.1028,333.8864],[174.6265,-39.102,338.2196],[174.6361,-39.1054,328.8694],[174.6386,-39.1087,351.9374],[174.6422,-39.108,377.4364],[174.6515,-39.1134,351.1983],[174.658,-39.1137,391.2256],[174.6602,-39.107,353.2467],[174.6562,-39.102,361.9611],[174.655,-39.093,354.9769],[174.6494,-39.0877,344.2604],[174.6562,-39.075,204.706],[174.6543,-39.0715,166.1454],[174.66,-39.0673,293.5695],[174.6581,-39.0645,259.9352],[174.6585,-39.0595,176.8009],[174.6632,-39.0614,178.632],[174.6644,-39.0586,158.0957],[174.6697,-39.0598,167.5583],[174.6702,-39.0556,224.0785],[174.6743,-39.0545,221.3549],[174.6722,-39.0478,315.5553],[174.668,-39.0436,372.7672],[174.6688,-39.0406,389.481],[174.6794,-39.0365,300.5548],[174.6809,-39.0345,332.8365],[174.6842,-39.0352,308.556],[174.6862,-39.0336,312.5055],[174.6879,-39.0373,194.3121],[174.6926,-39.0387,261.6436],[174.6963,-39.0438,342.2695],[174.7019,-39.0443,353.4902],[174.7068,-39.0408,368.4004],[174.7144,-39.0414,368.4929],[174.7199,-39.0378,385.6426],[174.7219,-39.0308,347.2343],[174.7289,-39.0277,415.3326],[174.7287,-39.0243,399.6052],[174.7232,-39.0175,391.9785],[174.7315,-39.0114,403.7318],[174.7345,-39.0007,379.6863],[174.738,-38.9973,394.9155],[174.7359,-38.9929,398.9065],[174.7367,-38.985,388.123],[174.7298,-38.98,349.6058],[174.7141,-38.9761,289.382],[174.7134,-38.9741,210.4571],[174.7169,-38.9711,216.8561],[174.7082,-38.9642,348.5255],[174.7116,-38.9561,358.3095],[174.7187,-38.9537,392.9433],[174.7206,-38.9516,423.9626],[174.7165,-38.9443,388.4513],[174.71,-38.9411,393.9221],[174.7104,-38.9368,396.8955],[174.7123,-38.935,394.222],[174.7109,-38.9317,364.2531],[174.7132,-38.9292,333.3666],[174.7168,-38.928,373.2635],[174.7181,-38.9254,314.7947],[174.7229,-38.9241,326.7052],[174.7245,-38.9205,333.447],[174.73,-38.9174,305.6305],[174.7306,-38.9153,338.5861],[174.7386,-38.911,329.923],[174.7401,-38.9157,406.9572],[174.7424,-38.9165,430.9902],[174.7453,-38.9209,413.9626],[174.7532,-38.9249,392.1543],[174.7575,-38.9223,361.9471],[174.7675,-38.921,330.6089],[174.7686,-38.9147,337.3232],[174.7729,-38.9213,341.5905],[174.7782,-38.9245,323.7326],[174.7838,-38.925,316.8692],[174.7843,-38.9206,321.4097],[174.7905,-38.9203,324.4243],[174.7915,-38.9176,333.8393],[174.795,-38.9159,396.6732],[174.8034,-38.9258,436.5611],[174.8099,-38.9262,455.9135],[174.8116,-38.923,456.0931],[174.8135,-38.9259,459.6057],[174.8169,-38.9235,446.4656],[174.8221,-38.9256,449.0881],[174.8207,-38.9231,421.8476],[174.8299,-38.9233,484.2388],[174.8279,-38.9201,491.2829],[174.8307,-38.9186,502.2128],[174.8321,-38.9151,515.8513],[174.8299,-38.9147,507.7416],[174.8306,-38.9125,480.2897],[174.8271,-38.9104,452.9777],[174.8252,-38.9047,525.351],[174.8269,-38.9,455.3439],[174.8237,-38.898,473.9255],[174.8246,-38.8956,461.0904],[174.8196,-38.8944,450.4069],[174.8217,-38.8913,455.3909],[174.8202,-38.8902,461.2254],[174.821,-38.8872,441.0007],[174.8174,-38.8874,416.4432],[174.8118,-38.8841,466.9981],[174.8125,-38.8827,444.867],[174.8076,-38.8819,457.0615],[174.8059,-38.8775,435.0876],[174.8076,-38.8759,454.4126],[174.8035,-38.871,433.2322],[174.8066,-38.8695,402.8743],[174.7988,-38.8653,447.4045],[174.7995,-38.8617,471.6699],[174.7967,-38.859,465.7152],[174.7998,-38.8541,439.6913],[174.7995,-38.8512,418.137],[174.797,-38.8494,468.7923],[174.7996,-38.8452,450.1029],[174.7984,-38.843,415.7936],[174.7997,-38.8392,420.3651],[174.7983,-38.8376,426.6971],[174.7997,-38.8327,427.9383],[174.7973,-38.8316,439.1829],[174.7993,-38.8289,434.2124],[174.7966,-38.829,413.8081],[174.788,-38.8247,406.6158],[174.7866,-38.821,440.4203],[174.8078,-38.82,395.7809],[174.8159,-38.8034,400.2086],[174.8145,-38.8006,418.0579],[174.8184,-38.7965,401.3666],[174.8169,-38.7941,406.1833],[174.8206,-38.795,401.3333],[174.8218,-38.7939,403.6906],[174.8207,-38.7935,399.4285],[174.8222,-38.7921,402.1898],[174.819,-38.7904,402.5297],[174.8208,-38.7883,401.4764],[174.82,-38.787,403.1678],[174.8263,-38.7857,418.0935],[174.8315,-38.7819,416.001],[174.832,-38.7835,404.9158],[174.8371,-38.783,403.6297],[174.8485,-38.7786,425.0327],[174.8505,-38.7796,426.0877],[174.8493,-38.7811,419.7795],[174.8508,-38.783,449.5656],[174.8561,-38.7828,478.0988],[174.8604,-38.7807,524.6744],[174.8625,-38.7768,496.8762]]],
[[[174.6005,-38.7664,0.0],[174.6006,-38.7658,22.6408],[174.5994,-38.7661,0.0],[174.5999,-38.7667,0.0],[174.6005,-38.7664,0.0]]],
[[[174.6033,-38.7582,18.7302],[174.6034,-38.7582,18.7302],[174.6036,-38.758,18.7302],[174.6032,-38.7581,18.7302],[174.6033,-38.7582,18.7302]]]]}
,"properties": {"GID_2": "NZL.15.1_1","GID_0": "NZL","country": "NewZealand","GID_1": "NZL.15_1","province": "Taranaki","NL_NAME_1": "NA","county": "NewPlymouth","VARNAME_2": "NA","NL_NAME_2": "NA","TYPE_2": "District","ENGTYPE_2": "District","CC_2": "033","HASC_2": "NZ.TK.NP","name": "New_Plymouth.county","area_km2": 2205.328,"hist_schema_id": "Elevation0-9000","hist_area_km2": {"0": 30.519,"25": 137.114,"50": 168.992,"75": 171.414,"100": 154.543,"125": 182.781,"150": 218.602,"175": 194.865,"200": 180.589,"225": 136.884,"250": 107.196,"275": 88.277,"300": 72.517,"325": 61.15,"350": 43.456,"375": 32.272,"400": 27.309,"425": 22.645,"450": 18.029,"475": 13.826,"500": 11.962,"525": 9.411,"550": 9.18,"575": 8.063,"600": 7.061,"625": 6.568,"650": 5.747,"675": 5.484,"700": 5.238,"725": 4.811,"750": 4.794,"775": 4.252,"800": 3.776,"825": 3.349,"850": 3.431,"875": 3.037,"900": 3.086,"925": 4.285,"950": 3.792,"975": 3.398,"1000": 3.119,"1025": 2.988,"1050": 2.807,"1075": 2.495,"1100": 2.413,"1125": 2.315,"1150": 1.904,"1175": 1.642,"1200": 1.149,"1225": 1.231,"1250": 0.985,"1275": 0.788,"1300": 0.542,"1325": 0.673,"1350": 0.476,"1375": 0.542,"1400": 0.295,"1425": 0.295,"1450": 0.377,"1475": 0.263,"1500": 0.279,"1525": 0.345,"1550": 0.181,"1575": 0.246,"1600": 0.295,"1625": 0.181,"1650": 0.181,"1675": 0.181,"1700": 0.213,"1725": 0.131,"1750": 0.082,"1775": 0.23,"1800": 0.181,"1825": 0.098,"1850": 0.115,"1875": 0.098,"1900": 0.115,"1925": 0.098,"1950": 0.082,"1975": 0.082,"2000": 0.098,"2025": 0.131,"2050": 0.066,"2075": 0.049,"2100": 0.066,"2125": 0.066,"2150": 0.049,"2175": 0.049,"2200": 0.033,"2225": 0.033,"2250": 0.066,"2275": 0.049,"2375": 0.033,"2400": 0.033}}}