{"type":"Feature","properties":{"GID_2":"NZL.2.3_1","GID_0":"NZL","country":"NewZealand","GID_1":"NZL.2_1","province":"BayofPlenty","NL_NAME_1":"NA","county":"Opotiki","VARNAME_2":"NA","NL_NAME_2":"NA","TYPE_2":"District","ENGTYPE_2":"District","CC_2":"027","HASC_2":"NZ.BP.OP","name":"Opotiki.county"},
"geometry":{"type": "MultiPolygon","coordinates": [[[[178.0891,-37.5512,358.8199],[178.0853,-37.5424,5.2702],[178.0793,-37.5445,3.5183],[178.0495,-37.5416,14.4011],[178.0486,-37.543,53.3721],[178.0396,-37.5434,14.2918],[178.0371,-37.5415,0.0],[178.0356,-37.5444,6.6242],[178.029,-37.5474,11.5105],[178.0204,-37.5488,0.0],[178.0168,-37.5509,12.201599999999999],[178.0098,-37.5506,0.0],[178.0092,-37.5527,2.7278],[178.007,-37.5532,66.5908],[177.9835,-37.5364,3.7533],[177.9814,-37.5374,0.0],[177.9804,-37.5411,0.0],[177.9823,-37.5458,20.9564],[177.9801,-37.5487,2.3212],[177.9808,-37.5541,0.0],[177.9849,-37.5579,5.1695],[177.9834,-37.5587,0.0],[177.9856,-37.5612,20.3616],[177.9841,-37.5638,0.0],[177.9867,-37.5661,5.625],[177.9894,-37.566,17.1559],[177.9907,-37.5696,0.0],[177.9935,-37.5703,0.0],[177.9923,-37.5739,1.1345],[177.9794,-37.5874,2.0263],[177.9743,-37.5908,1.942],[177.97,-37.5914,11.2145],[177.9703,-37.5936,23.4885],[177.9654,-37.5943,0.549],[177.9664,-37.6019,6.0602],[177.9576,-37.6062,0.0],[177.9587,-37.6099,0.0],[177.9541,-37.6154,1.1143],[177.9449,-37.6189,1.7612],[177.9195,-37.6203,4.3041],[177.9082,-37.6166,6.4357],[177.9054,-37.6131,1.2052],[177.9041,-37.609,3.5178],[177.9053,-37.6064,0.0],[177.9039,-37.6052,1.5748],[177.8998,-37.6106,5.7471],[177.8952,-37.6122,0.9576],[177.8913,-37.6184,2.299],[177.8939,-37.622,1.5565],[177.8901,-37.6296,12.7575],[177.8851,-37.6306,1.7255],[177.8856,-37.6357,1.0181],[177.8844,-37.6375,0.0],[177.8814,-37.6394,0.9879],[177.8777,-37.6386,0.0],[177.879,-37.6419,1.7498],[177.8758,-37.6431,1.1889],[177.8749,-37.6475,3.21],[177.87,-37.6525,1.546],[177.8645,-37.6544,0.7838],[177.8638,-37.6566,9.5465],[177.8622,-37.6572,9.5465],[177.8624,-37.6555,2.5181],[177.8613,-37.6555,0.0],[177.8394,-37.6639,2.6996],[177.8349,-37.6642,11.9449],[177.8244,-37.6592,3.09],[177.8157,-37.6582,19.2068],[177.8077,-37.6628,0.3139],[177.8081,-37.6653,12.9428],[177.8007,-37.6661,2.5331],[177.8018,-37.6684,14.9981],[177.7995,-37.6697,0.0],[177.8016,-37.67,19.8965],[177.801,-37.6731,2.1399],[177.7942,-37.674,15.7822],[177.7953,-37.6783,28.4866],[177.7881,-37.6809,3.6517],[177.7841,-37.6785,3.909],[177.7833,-37.6759,5.2208],[177.776,-37.6761,1.3749],[177.7768,-37.6772,15.7976],[177.7742,-37.6782,32.7876],[177.7669,-37.6757,4.6398],[177.7657,-37.6778,40.2887],[177.7622,-37.6781,30.5999],[177.7494,-37.6751,15.9705],[177.7469,-37.6774,6.5008],[177.7343,-37.6779,0.0],[177.7276,-37.6802,0.5322],[177.7301,-37.6839,8.3335],[177.7237,-37.685,5.6578],[177.7247,-37.6861,20.1478],[177.7228,-37.6898,12.6065],[177.7245,-37.693,19.5551],[177.721,-37.6976,0.0],[177.7207,-37.702,5.7015],[177.7182,-37.7036,4.7458],[177.7191,-37.7057,3.8114],[177.7179,-37.7095,0.0],[177.7085,-37.7154,12.2001],[177.7079,-37.7224,14.4808],[177.6993,-37.7273,5.8115],[177.6913,-37.7263,3.6421],[177.6931,-37.7269,3.6421],[177.6935,-37.7291,2.5786],[177.6869,-37.7312,0.0],[177.6859,-37.7345,0.0],[177.6795,-37.7364,16.5118],[177.6742,-37.7355,2.0161],[177.6706,-37.7387,3.2928],[177.6746,-37.7407,6.3139],[177.6745,-37.7447,0.0],[177.6798,-37.7473,10.1717],[177.6819,-37.7499,6.7302],[177.6812,-37.752,10.6677],[177.6835,-37.7533,9.8861],[177.6842,-37.7605,6.7927],[177.6748,-37.7714,13.3851],[177.6699,-37.7719,11.105],[177.6651,-37.7771,18.7006],[177.6602,-37.7776,0.0],[177.6526,-37.7859,10.8857],[177.6528,-37.7883,11.7563],[177.6566,-37.7906,24.2286],[177.6564,-37.7966,1.0519],[177.6505,-37.8057,5.3259],[177.6291,-37.8146,10.6252],[177.6242,-37.8143,12.7471],[177.6196,-37.8108,0.0],[177.6197,-37.8078,0.0],[177.6128,-37.812,1.5439],[177.6122,-37.8137,3.9499],[177.6153,-37.8151,13.9897],[177.6166,-37.8216,14.0174],[177.6146,-37.8231,0.0],[177.6152,-37.8255,25.5274],[177.6137,-37.8275,14.0423],[177.6076,-37.8293,12.1714],[177.6065,-37.8381,20.3696],[177.5925,-37.8399,11.8778],[177.5922,-37.8384,7.4083],[177.5883,-37.8376,0.0],[177.5891,-37.8395,21.0656],[177.5853,-37.8443,4.5438],[177.5872,-37.8451,12.172],[177.5906,-37.8513,2.434],[177.589,-37.8541,0.5955],[177.5868,-37.8546,0.0],[177.586,-37.8642,1.3924],[177.5841,-37.8674,3.3227],[177.5767,-37.8737,5.4232],[177.5544,-37.8833,0.0],[177.5508,-37.8914,49.2708],[177.5459,-37.8964,0.0],[177.5489,-37.904,10.6697],[177.5482,-37.906,11.6631],[177.5333,-37.9156,28.3722],[177.5301,-37.9203,3.4959],[177.5157,-37.9264,7.4824],[177.4859,-37.9351,26.0139],[177.4864,-37.9386,20.1914],[177.4911,-37.9403,0.2615],[177.4917,-37.943,0.9245],[177.4907,-37.9469,1.6618],[177.485,-37.9509,0.6926],[177.4511,-37.9619,35.469],[177.4464,-37.9616,59.8206],[177.4425,-37.9587,0.0],[177.441,-37.9638,84.0847],[177.4395,-37.9644,0.1819],[177.4405,-37.967,20.7008],[177.4377,-37.9688,2.8092],[177.4325,-37.9698,36.5466],[177.4274,-37.9679,0.0],[177.4223,-37.9715,11.4286],[177.4225,-37.9741,3.2226],[177.4187,-37.9769,0.0],[177.3872,-37.9854,0.5076],[177.3827,-37.9837,1.3918],[177.3388,-37.9883,4.9067],[177.2641,-37.9924,0.0],[177.2067,-37.9919,13.8299],[177.1574,-37.9866,0.0],[177.1478,-37.9956,0.0],[177.1492,-37.9964,0.0],[177.1531,-37.9908,0.68],[177.1609,-37.99,28.2872],[177.1632,-37.9954,10.9543],[177.1604,-37.9981,30.1584],[177.1633,-38.0043,10.3378],[177.1619,-38.007,9.0779],[177.1591,-38.0101,7.343],[177.1546,-38.0105,5.3035],[177.1532,-38.0074,0.0],[177.149,-38.0087,2.848],[177.1469,-38.0067,4.303],[177.1517,-38.0041,0.0],[177.146,-38.0048,2.128],[177.1425,-38.0085,0.0],[177.1454,-38.0141,2.9126],[177.1407,-38.0153,3.5588],[177.1381,-38.021,12.6821],[177.138,-38.0232,0.0],[177.1389,-38.0222,3.2373],[177.1429,-38.0277,4.9071],[177.1416,-38.0318,0.0],[177.1438,-38.034,0.0],[177.151,-38.0325,1.7138],[177.1523,-38.0354,0.6481],[177.1556,-38.0365,2.4719],[177.156,-38.0391,1.8442],[177.1594,-38.0386,3.0299],[177.1602,-38.0397,0.8204],[177.159,-38.0411,0.8204],[177.1584,-38.0393,3.0299],[177.1573,-38.0408,0.3752],[177.1548,-38.04,0.3127],[177.1545,-38.0423,1.7104],[177.1522,-38.0416,0.8574],[177.1494,-38.0442,5.0439],[177.1487,-38.0427,1.0432],[177.1372,-38.0383,9.7593],[177.135,-38.0356,4.3464],[177.1337,-38.0373,19.9063],[177.1355,-38.0396,0.581],[177.1347,-38.0422,3.4971],[177.1305,-38.0327,3.5962],[177.1292,-38.0316,6.8262],[177.1259,-38.0323,3.3498],[177.1273,-38.0282,1.8379],[177.1191,-38.0178,0.0],[177.1106,-38.0226,2.0825],[177.105,-38.022,0.9239],[177.102,-38.0248,0.7163],[177.109,-38.0301,24.1633],[177.1069,-38.0339,2.5941],[177.1153,-38.0448,17.6473],[177.1151,-38.0479,11.185],[177.1173,-38.0488,5.7584],[177.1178,-38.0532,16.7171],[177.1207,-38.0582,76.7594],[177.1296,-38.059,9.0637],[177.1305,-38.064,12.8318],[177.1284,-38.0691,16.0648],[177.1323,-38.0732,20.252],[177.1325,-38.076,36.5996],[177.1523,-38.0744,105.4464],[177.1532,-38.0816,188.796],[177.1613,-38.0811,226.007],[177.1626,-38.0826,219.5737],[177.166,-38.0905,238.6888],[177.165,-38.1073,228.4459],[177.1728,-38.1151,160.3138],[177.1707,-38.1196,188.1686],[177.159,-38.1199,60.9759],[177.1614,-38.1263,77.6227],[177.1586,-38.1316,176.8676],[177.1567,-38.1426,276.4714],[177.1593,-38.1437,256.5525],[177.1601,-38.1478,221.6687],[177.1642,-38.152,223.5021],[177.1626,-38.1576,261.1377],[177.1641,-38.16,293.3261],[177.1566,-38.1668,356.0456],[177.1569,-38.179,455.9087],[177.1538,-38.1806,488.2547],[177.1538,-38.1845,542.7875],[177.1503,-38.1888,581.5081],[177.1555,-38.195,613.8604],[177.156,-38.1996,553.7705],[177.1551,-38.2037,551.5338],[177.1508,-38.2094,513.8926],[177.1527,-38.2114,550.4714],[177.1505,-38.2152,551.5405],[177.1517,-38.2223,613.2784],[177.145,-38.2269,660.5021],[177.147,-38.2293,637.2504],[177.1528,-38.2304,621.5363],[177.1613,-38.2398,614.8356],[177.1602,-38.2459,573.7072],[177.1628,-38.2536,629.5816],[177.1674,-38.2598,567.963],[177.1676,-38.2631,556.0946],[177.1736,-38.2655,580.0769],[177.1779,-38.2626,609.8443],[177.1783,-38.2607,615.0981],[177.1861,-38.2642,574.0829],[177.2073,-38.2641,856.4211],[177.2143,-38.2776,826.2601],[177.2276,-38.2858,790.2034],[177.2303,-38.2902,792.4222],[177.2293,-38.2941,774.3516],[177.2308,-38.2979,778.0428],[177.2297,-38.3062,819.6213],[177.2308,-38.3117,778.2812],[177.2234,-38.3183,733.6133],[177.2158,-38.3193,841.8456],[177.2145,-38.3207,872.4611],[177.2164,-38.332,865.2981],[177.215,-38.3418,998.0215],[177.219,-38.3455,886.944],[177.2243,-38.3448,781.6162],[177.238,-38.3475,896.0157],[177.2366,-38.3522,797.418],[177.2389,-38.3565,838.7391],[177.2395,-38.3641,875.1517],[177.2382,-38.3662,947.1271],[177.2257,-38.3688,844.2148],[177.2243,-38.3729,833.7413],[177.2254,-38.3777,782.6517],[177.2237,-38.3797,829.7034],[177.2206,-38.3805,855.6505],[177.2136,-38.3782,967.9435],[177.2093,-38.3798,1007.4821],[177.205,-38.3836,1033.934],[177.2044,-38.3902,1148.0192],[177.2122,-38.4012,974.7722],[177.2102,-38.406,968.2969],[177.1982,-38.4139,1051.1484],[177.1945,-38.4202,1089.8477],[177.194,-38.4248,1039.73],[177.1954,-38.428,1046.1429],[177.1882,-38.4406,982.7806],[177.1886,-38.4466,927.6683],[177.1913,-38.4514,898.166],[177.1905,-38.469,990.3156],[177.1872,-38.4749,975.0879],[177.1864,-38.4846,976.1296],[177.1815,-38.4876,1003.9847],[177.1839,-38.4937,1034.0703],[177.1892,-38.4939,994.6562],[177.1945,-38.4987,1006.6862],[177.2061,-38.5032,1126.2509],[177.2069,-38.5132,1227.9846],[177.2031,-38.5242,1279.4858],[177.214,-38.5301,998.0974],[177.2258,-38.5341,1243.3184],[177.2302,-38.5272,1210.0325],[177.2379,-38.5195,1168.7502],[177.2406,-38.5104,1123.0454],[177.2431,-38.51,1131.8477],[177.2523,-38.5137,1038.5193],[177.2547,-38.513,1118.2583],[177.2574,-38.5083,1111.1245],[177.2369,-38.4263,512.7672],[177.4637,-38.3335,848.4081],[177.4863,-38.2963,840.3527],[177.4843,-38.2745,978.2007],[177.4975,-38.2608,644.481],[177.4923,-38.2625,586.335],[177.4899,-38.2612,558.6064],[177.4887,-38.2582,534.3134],[177.4911,-38.2501,467.4277],[177.4833,-38.2431,465.2462],[177.4818,-38.2399,443.5512],[177.4841,-38.2371,426.3756],[177.4863,-38.2391,430.6438],[177.4919,-38.2397,387.3055],[177.4923,-38.2358,372.7246],[177.4906,-38.2336,355.8191],[177.4935,-38.2323,366.9295],[177.4928,-38.2291,363.0812],[177.4946,-38.2267,396.0159],[177.4935,-38.2241,376.5997],[177.4951,-38.2249,361.8073],[177.4956,-38.2228,317.7415],[177.4939,-38.2223,317.7415],[177.495,-38.2206,317.6341],[177.4983,-38.2205,322.685],[177.4981,-38.2182,295.2241],[177.5019,-38.2178,346.8943],[177.5026,-38.2164,373.3107],[177.5009,-38.2154,337.9066],[177.501,-38.2134,296.927],[177.5032,-38.2127,296.1599],[177.5062,-38.2167,517.8528],[177.512,-38.2175,612.3682],[177.5174,-38.2146,665.5698],[177.5268,-38.2184,699.0052],[177.5321,-38.2185,679.4008],[177.5333,-38.2184,676.5464],[177.5337,-38.2093,450.9569],[177.5604,-38.2094,774.8308],[177.5573,-38.208,772.3488],[177.5565,-38.2047,758.5125],[177.5732,-38.1927,665.0012],[177.5764,-38.1933,745.7405],[177.5786,-38.1913,728.7634],[177.5837,-38.1936,714.4535],[177.5903,-38.1896,647.7278],[177.597,-38.1901,565.4789],[177.6014,-38.1846,582.8669],[177.6048,-38.1866,636.3393],[177.6024,-38.1712,512.3138],[177.6045,-38.173,589.142],[177.6094,-38.1712,746.7045],[177.6153,-38.172,843.4739],[177.6182,-38.1684,891.2258],[177.6223,-38.1683,826.6433],[177.6246,-38.1638,813.7776],[177.6286,-38.1607,852.1301],[177.634,-38.1608,769.2068],[177.6423,-38.1638,756.1932],[177.6536,-38.1586,564.222],[177.6555,-38.1555,369.9078],[177.6518,-38.1539,453.3196],[177.653,-38.1435,379.054],[177.6509,-38.1416,353.3508],[177.6528,-38.1356,339.1802],[177.6551,-38.1346,367.1348],[177.6549,-38.132,350.9608],[177.6594,-38.1313,398.2205],[177.6622,-38.1284,342.0815],[177.6605,-38.1259,327.221],[177.6638,-38.1228,338.2568],[177.6642,-38.1163,352.4643],[177.668,-38.1182,331.8828],[177.6681,-38.1134,380.0111],[177.6791,-38.1139,300.0529],[177.6849,-38.1107,343.8211],[177.6858,-38.1071,353.1057],[177.6879,-38.1092,321.8868],[177.6911,-38.1091,354.6603],[177.6944,-38.1033,316.7558],[177.7026,-38.1057,266.8925],[177.6946,-38.0998,322.6217],[177.6952,-38.097,260.6468],[177.6897,-38.0973,254.5365],[177.6934,-38.0929,288.1224],[177.6882,-38.091,310.3856],[177.6856,-38.0833,218.2593],[177.6823,-38.0829,306.2685],[177.6799,-38.0859,244.5942],[177.6772,-38.0862,247.0767],[177.6805,-38.0786,224.8402],[177.6877,-38.0776,245.3714],[177.69,-38.0673,227.5905],[177.6976,-38.0607,282.5018],[177.6942,-38.058,244.7352],[177.6941,-38.0534,194.4042],[177.6911,-38.0516,245.3111],[177.6893,-38.0467,228.0772],[177.6828,-38.0393,300.1849],[177.6801,-38.0309,193.6436],[177.6743,-38.0262,250.5404],[177.6729,-38.0199,196.8054],[177.6795,-38.0155,218.4937],[177.6811,-38.0124,184.8178],[177.6824,-38.015,288.3697],[177.69,-38.014,275.8694],[177.6912,-38.0163,401.7314],[177.6983,-38.0186,779.5436],[177.7008,-38.0222,794.6739],[177.7244,-38.0226,1047.0743],[177.74,-38.042,1267.4375],[177.7727,-38.0598,1282.9941],[177.849,-38.1113,896.1459],[177.8504,-38.1089,871.8412],[177.8557,-38.1074,1051.2998],[177.861,-38.1117,1394.5179],[177.9168,-37.9814,1420.8823],[177.9723,-37.845,1382.5466],[178.073,-37.7636,1195.3528],[178.0387,-37.7331,303.0404],[177.9946,-37.7643,179.4572],[177.9966,-37.7603,186.3319],[177.9922,-37.7528,179.6985],[177.9781,-37.7442,111.5332],[177.9768,-37.7406,95.878],[177.98,-37.736,85.2032],[177.9781,-37.7343,83.8715],[177.9786,-37.7308,88.3404],[177.987,-37.7252,95.5112],[177.9889,-37.7213,127.9382],[177.9924,-37.7196,109.7319],[177.9933,-37.7166,116.7904],[177.9887,-37.7145,117.8943],[177.9893,-37.7113,113.0314],[177.9858,-37.7072,151.6198],[177.9866,-37.7044,134.5724],[177.985,-37.7035,187.6812],[177.9877,-37.7017,158.8733],[177.9859,-37.7007,126.6673],[177.9885,-37.6992,138.7359],[177.9866,-37.6972,140.3667],[177.9934,-37.6967,140.3851],[177.9948,-37.6919,135.6846],[177.9982,-37.6896,152.0385],[177.9924,-37.6905,168.603],[177.9936,-37.6889,167.3539],[177.9921,-37.688,167.3539],[177.9937,-37.6871,164.4089],[177.9919,-37.6862,160.0775],[177.9949,-37.681,168.3783],[177.9921,-37.6796,173.3366],[177.9947,-37.6742,205.9916],[177.9938,-37.6695,237.0374],[177.9915,-37.6678,230.8371],[177.993,-37.6583,189.7731],[177.9917,-37.6581,189.7731],[177.9913,-37.6536,192.9824],[177.9887,-37.6539,194.8659],[177.9913,-37.6499,199.9569],[177.9872,-37.6481,205.8968],[177.9896,-37.6449,333.7236],[177.9831,-37.6413,269.8448],[177.9817,-37.6382,301.6447],[177.9826,-37.6362,260.4999],[177.9785,-37.6336,334.604],[177.9777,-37.6305,345.357],[177.9751,-37.6302,293.9844],[177.9759,-37.6249,305.3285],[177.9784,-37.6214,294.6038],[177.9781,-37.617,285.7564],[177.9801,-37.6132,302.7294],[177.9867,-37.6088,306.6465],[178.0252,-37.6049,75.0439],[178.0262,-37.6032,51.8185],[178.0302,-37.6042,47.8928],[178.0338,-37.6026,49.8232],[178.034,-37.5997,51.0329],[178.0375,-37.5999,87.0535],[178.0398,-37.5975,33.3047],[178.1076,-37.5987,139.804],[178.0983,-37.586,222.9576],[178.0891,-37.5512,358.8199]]],
[[[177.1342,-38.0195,1.4481],[177.1337,-38.0177,0.0],[177.1317,-38.019,0.0],[177.1342,-38.0224,0.0],[177.1344,-38.0222,0.0],[177.1342,-38.0195,1.4481]]],
[[[177.1266,-38.0077,0.0],[177.1348,-38.0139,0.0],[177.1392,-38.0111,0.1606],[177.1383,-38.0065,0.0],[177.1305,-38.004,0.0],[177.1266,-38.0077,0.0]]],
[[[177.1538,-37.9981,0.5376],[177.1465,-37.9987,0.0],[177.1439,-38.0008,0.0],[177.147,-38.0017,0.0],[177.1473,-37.9997,1.5004],[177.1538,-37.9981,0.5376]]]]}}