{"type": "Feature","id": "3406","bbox": [168.10328,-44.49,172.70163,-40.77752],"geometry": {"type": "Polygon","coordinates": [[[172.23347,-40.7776,41.7988],[172.23341,-40.7776,41.7988],[172.23211,-40.77752,41.7988],[172.22535,-40.78004,59.3461],[172.22104,-40.78623,92.2939],[172.21795,-40.79274,158.5362],[172.21469,-40.7973,222.3764],[172.20802,-40.79957,217.5492],[172.20151,-40.79949,138.2541],[172.19483,-40.80023,98.0362],[172.188,-40.80535,70.3223],[172.18588,-40.80975,145.4352],[172.18409,-40.82025,309.0904],[172.18067,-40.82586,331.265],[172.15675,-40.85003,337.0508],[172.14381,-40.86989,205.7799],[172.13689,-40.87591,114.9284],[172.1281,-40.87859,219.726],[172.11541,-40.87916,0.0],[172.10678,-40.8869,0.0],[172.10646,-40.90447,152.0965],[172.11232,-40.93572,439.1037],[172.11232,-41.04437,105.6771],[172.1185,-41.09629,234.1256],[172.11671,-41.10556,66.0616],[172.10792,-41.12835,147.9092],[172.10548,-41.14056,4.8498],[172.11443,-41.25091,2.5915],[172.12013,-41.26328,75.9985],[172.13966,-41.29144,67.8442],[172.12761,-41.29176,37.8218],[172.1159,-41.29608,5.7106],[172.1067,-41.30055,3.981],[172.10206,-41.30193,10.1562],[172.09254,-41.29925,7.6546],[172.08766,-41.30877,2.8739],[172.08448,-41.33294,7.174],[172.08383,-41.35459,7.2177],[172.08188,-41.36631,21.7185],[172.06837,-41.38567,4.7933],[172.06617,-41.39511,129.7758],[172.06707,-41.40496,39.6144],[172.07081,-41.41424,155.9213],[172.05006,-41.4201,291.3686],[172.02052,-41.43418,342.3471],[171.99415,-41.4511,239.81],[171.98268,-41.46575,249.3665],[171.9817,-41.47772,328.0212],[171.97853,-41.48846,176.0789],[171.97332,-41.49814,237.8708],[171.96518,-41.50709,240.9304],[171.96022,-41.51043,199.3122],[171.95729,-41.5119,218.0773],[171.95574,-41.51426,208.7685],[171.95411,-41.53493,187.8322],[171.95094,-41.53875,175.7521],[171.9463,-41.53948,98.7848],[171.94093,-41.54461,143.7816],[171.90382,-41.60687,149.4655],[171.88982,-41.62371,281.2174],[171.88014,-41.63079,240.2339],[171.87013,-41.636,316.7142],[171.86215,-41.64202,501.0208],[171.85524,-41.66546,816.9334],[171.84555,-41.66766,614.3425],[171.8322,-41.66579,220.1177],[171.81739,-41.66815,35.1428],[171.8086,-41.67376,54.1214],[171.78338,-41.69606,31.3076],[171.68898,-41.74163,19.6093],[171.63941,-41.7575,7.5408],[171.63201,-41.75791,5.0612],[171.61329,-41.75693,7.8789],[171.54371,-41.76434,26.1752],[171.4839,-41.7575,28.998],[171.46811,-41.76629,18.0641],[171.46925,-41.81341,31.4994],[171.47055,-41.81911,6.347],[171.47486,-41.82643,33.9377],[171.48227,-41.81902,14.8777],[171.48878,-41.83034,37.3901],[171.46827,-41.86834,9.9862],[171.45867,-41.90097,6.9498],[171.44459,-41.92067,60.0175],[171.42774,-41.98349,405.7703],[171.41782,-42.00628,356.9033],[171.40317,-42.02402,349.744],[171.36899,-42.05543,82.8102],[171.36394,-42.06341,77.0207],[171.35377,-42.08807,394.507],[171.34938,-42.11028,63.1316],[171.33155,-42.14723,29.376],[171.30486,-42.29461,631.0581],[171.2837,-42.33978,94.5825],[171.23487,-42.39568,131.0292],[171.22836,-42.41888,180.9149],[171.22541,-42.45069,28.1102],[171.21502,-42.46551,62.068],[171.19435,-42.48366,74.2833],[171.12281,-42.59238,58.9069],[171.10499,-42.60036,30.8477],[171.07984,-42.63551,16.1165],[171.063,-42.65399,40.0351],[171.04689,-42.6618,43.3696],[171.03663,-42.66546,4.7156],[171.02719,-42.674,4.4568],[171.01246,-42.69297,14.9174],[171.00465,-42.70574,10.9616],[170.98699,-42.71481,41.0753],[170.96648,-42.72137,1.8683],[170.9568,-42.72405,0.0],[170.94386,-42.73382,3.0469],[170.85841,-42.84336,24.8799],[170.84148,-42.85426,2.8503],[170.82309,-42.86224,1.9485],[170.78728,-42.90114,63.9083],[170.76979,-42.9157,10.8004],[170.73316,-42.92946,4.6924],[170.72202,-42.93621,5.4394],[170.70924,-42.9472,21.2806],[170.70074,-42.95466,33.1818],[170.69003,-42.95609,24.9098],[170.67433,-42.95672,7.0355],[170.64259,-42.96014,0.0],[170.60377,-42.98309,0.0],[170.51441,-43.00661,0.0],[170.47429,-43.025,130.054],[170.46803,-43.03247,26.7246],[170.4572,-43.03607,3.5],[170.45387,-43.05291,31.833],[170.43214,-43.04616,5.5655],[170.41676,-43.05495,3.8829],[170.40284,-43.06943,20.5322],[170.38502,-43.07969,16.9236],[170.39308,-43.08904,13.2221],[170.38523,-43.09528,0.0],[170.3631,-43.10314,0.0],[170.28932,-43.10687,0.0],[170.28932,-43.11435,65.0891],[170.27958,-43.12955,9.1425],[170.25367,-43.14373,8.234],[170.21974,-43.17327,1.3807],[170.20053,-43.21673,0.0],[170.22438,-43.20428,12.3316],[170.24659,-43.17816,0.0],[170.27166,-43.15765,33.0964],[170.30356,-43.1622,144.0131],[170.23878,-43.23789,54.9726],[170.22722,-43.23561,22.4848],[170.20558,-43.22584,6.2172],[170.1941,-43.22357,0.0],[170.17823,-43.22552,10.5342],[170.16456,-43.2304,45.4656],[170.13917,-43.24407,1.0],[170.11492,-43.25172,5.5254],[170.10499,-43.25807,8.0639],[170.0975,-43.27207,2.0267],[170.08827,-43.28802,68.2406],[170.07328,-43.29801,12.7753],[170.05144,-43.30348,19.5449],[170.04298,-43.33001,30.7222],[170.03012,-43.3458,202.8671],[169.89682,-43.39446,130.0065],[169.87501,-43.40748,121.7754],[169.85426,-43.4262,96.3489],[169.84791,-43.44793,28.3617],[169.84628,-43.46148,29.5842],[169.8353,-43.4708,25.1932],[169.80926,-43.47438,21.2974],[169.78907,-43.49179,180.6582],[169.78846,-43.50431,234.6376],[169.78248,-43.51531,13.6028],[169.76759,-43.52809,26.9787],[169.73365,-43.56569,166.9852],[169.71778,-43.57366,195.1274],[169.69752,-43.57789,283.868],[169.64576,-43.60768,56.5051],[169.62371,-43.60947,9.1683],[169.58326,-43.60296,17.1418],[169.54916,-43.62217,11.5214],[169.50913,-43.63055,14.1094],[169.49431,-43.64129,165.6208],[169.48251,-43.64723,474.8826],[169.47388,-43.64871,481.3499],[169.46518,-43.64764,426.592],[169.45655,-43.64593,404.7418],[169.42945,-43.64813,1.6858],[169.41961,-43.65057,295.6122],[169.40707,-43.65683,161.0923],[169.39633,-43.66481,369.1992],[169.39177,-43.67262,439.2374],[169.38014,-43.68727,378.1051],[169.35288,-43.69793,20.9545],[169.3025,-43.71014,344.8182],[169.22999,-43.74586,296.9221],[169.21022,-43.75115,315.3294],[169.19215,-43.75872,148.3629],[169.15414,-43.79209,34.9313],[169.13551,-43.79957,15.5355],[169.12566,-43.80202,10.3155],[169.09832,-43.81463,16.7124],[169.09083,-43.82008,23.5306],[169.08709,-43.82822,17.4301],[169.08633,-43.83818,9.4648],[169.08127,-43.8468,15.3399],[169.06544,-43.85752,21.9099],[169.00164,-43.88242,18.4079],[168.98406,-43.89202,18.3728],[168.96485,-43.90594,8.7781],[168.91847,-43.92889,5.8121],[168.85816,-43.97275,10.8602],[168.80372,-43.99725,5.4718],[168.74676,-44.01035,584.0563],[168.69923,-44.00506,21.9313],[168.67856,-43.98919,0.0],[168.66285,-43.97137,0.0],[168.64584,-43.96453,0.0],[168.62127,-43.98154,35.6135],[168.61248,-43.98447,188.4364],[168.58676,-43.98235,163.7203],[168.57309,-43.98821,294.5089],[168.56349,-43.99554,178.0197],[168.54298,-44.00612,107.6695],[168.50929,-44.01865,257.4774],[168.47218,-44.025,356.3626],[168.41033,-44.02793,89.6635],[168.39039,-44.03191,4.8956],[168.37086,-44.03916,4.0251],[168.39137,-44.05088,0.8187],[168.39812,-44.0534,2.5076],[168.38657,-44.05706,1.6733],[168.37485,-44.06243,2.3243],[168.36378,-44.06927,2.4392],[168.35336,-44.07733,5.047],[168.34523,-44.08929,27.3918],[168.3423,-44.10174,56.208],[168.34148,-44.11224,289.7322],[168.3401,-44.11834,271.6219],[168.30714,-44.14886,335.9496],[168.26783,-44.17693,287.9527],[168.20533,-44.20729,348.9232],[168.16896,-44.23821,459.4953],[168.15008,-44.24684,325.0154],[168.10328,-44.25823,263.1599],[168.10328,-44.26507,267.3108],[168.12794,-44.27207,435.1311],[168.13673,-44.28078,533.6642],[168.13674,-44.28079,533.6642],[168.19101,-44.26779,577.494],[168.24155,-44.26562,916.2126],[168.27689,-44.27725,362.9313],[168.31089,-44.29378,1015.5583],[168.33043,-44.31052,1097.5308],[168.35089,-44.33207,1390.6215],[168.36133,-44.35233,1450.665],[168.37394,-44.36975,1183.8846],[168.36536,-44.39316,1923.691],[168.3573,-44.40985,1913.6802],[168.32888,-44.49,1845.0588],[168.45394,-44.48054,1443.1306],[168.64948,-44.41269,2088.9595],[168.7148,-44.40613,2050.781],[168.7427,-44.39362,2509.4146],[168.78032,-44.3653,1557.4015],[168.80306,-44.34008,2080.543],[168.82766,-44.29197,1759.9121],[168.83427,-44.27228,1330.821],[168.8444,-44.25089,1797.7427],[168.8628,-44.23472,2079.645],[168.88585,-44.21828,2097.7996],[168.92088,-44.20355,1214.5764],[168.95623,-44.17219,1584.7036],[168.96698,-44.15389,1253.7036],[168.97752,-44.14402,1912.6924],[169.02517,-44.11632,1543.634],[169.07106,-44.10144,1265.6917],[169.11343,-44.09648,1306.3676],[169.16252,-44.09839,922.0541],[169.22505,-44.09137,925.793],[169.26257,-44.077,786.3069],[169.29233,-44.07622,1565.2175],[169.30939,-44.08568,914.3442],[169.33471,-44.09576,1233.781],[169.36726,-44.10206,674.7522],[169.40654,-44.08708,1267.3529],[169.43982,-44.06847,1944.7324],[169.48168,-44.05328,1671.0552],[169.51847,-44.03473,1206.7719],[169.54772,-44.02346,1097.5818],[169.56767,-44.00414,1065.672],[169.58214,-43.98352,1909.0912],[169.59898,-43.96595,1505.5212],[169.62399,-43.96285,1939.2355],[169.6426,-43.96264,2067.5449],[169.67195,-43.97551,1346.1462],[169.72528,-43.92972,1616.4634],[169.76021,-43.90492,1968.983],[169.79401,-43.87598,1856.8959],[169.94986,-43.78286,1721.8866],[169.97694,-43.7472,2594.5498],[169.99999,-43.72948,2075.9136],[170.01859,-43.70235,2316.5728],[170.04536,-43.67976,2607.155],[170.07099,-43.65258,1365.7021],[170.08526,-43.62731,2217.3267],[170.10035,-43.60566,2185.3652],[170.1266,-43.58323,2609.7603],[170.20463,-43.53248,2486.1672],[170.23564,-43.51889,2326.332],[170.33609,-43.49285,2471.5542],[170.47056,-43.43652,2318.1938],[170.51841,-43.42247,2256.2561],[170.55262,-43.41869,1530.5742],[170.56946,-43.42324,2020.8716],[170.59582,-43.4235,1448.8503],[170.69297,-43.34402,1972.9976],[170.86815,-43.24211,1773.856],[170.96851,-43.20455,1348.1869],[171.00572,-43.18579,1848.0118],[171.06804,-43.10672,1394.1036],[171.10659,-43.08879,1379.5017],[171.1284,-43.09024,1641.1931],[171.20726,-43.07205,1748.4609],[171.22596,-43.06331,1628.5342],[171.23774,-43.05277,1277.5032],[171.24198,-43.0412,1651.8491],[171.2488,-43.02616,1605.151],[171.26193,-43.00756,1368.6664],[171.30451,-42.97691,1780.3568],[171.32776,-42.96456,1194.6991],[171.36869,-42.95237,1749.8698],[171.40146,-42.9503,1922.5583],[171.41965,-42.94751,1503.2051],[171.43515,-42.94058,1728.9672],[171.45592,-42.92885,1129.2244],[171.49303,-42.91826,1403.6871],[171.50574,-42.91785,2073.646],[171.51556,-42.91971,1643.3611],[171.52248,-42.92322,1676.5997],[171.52837,-42.92368,1616.7314],[171.5355,-42.92291,1531.6887],[171.57261,-42.91454,1418.983],[171.61447,-42.91221,1208.2184],[171.65126,-42.90601,1940.8564],[171.70139,-42.90725,1590.9502],[171.71658,-42.90038,1152.4872],[171.72712,-42.89077,1676.5211],[171.7326,-42.87924,1489.7083],[171.73632,-42.86586,1393.8909],[171.74831,-42.83847,991.0458],[171.75575,-42.81243,1492.0989],[171.75988,-42.80178,1709.7832],[171.76515,-42.79728,1447.8003],[171.81735,-42.78519,1227.9418],[171.87895,-42.7578,1260.4092],[171.88236,-42.73925,1422.9153],[171.88711,-42.72762,946.2335],[171.91057,-42.70649,1331.1185],[171.93383,-42.68106,1583.951],[171.95388,-42.66773,1284.111],[171.98292,-42.65243,1270.0562],[171.99811,-42.64908,974.0128],[172.02726,-42.64753,797.6588],[172.04545,-42.64267,1213.0488],[172.0716,-42.63249,1006.9225],[172.10064,-42.61373,1077.0675],[172.1272,-42.57353,1059.1301],[172.17236,-42.54702,1443.6528],[172.18291,-42.53637,1429.0425],[172.19335,-42.522,911.9327],[172.21484,-42.50624,1377.6362],[172.22383,-42.49679,1019.5579],[172.23376,-42.4818,1354.8904],[172.24874,-42.46966,998.9805],[172.31003,-42.43395,1372.1903],[172.36088,-42.40046,1366.5686],[172.39023,-42.39064,1129.77],[172.40894,-42.38749,1165.3857],[172.43457,-42.37948,1407.0569],[172.44697,-42.36914,1496.3384],[172.45276,-42.35752,1357.4778],[172.45596,-42.34636,1364.225],[172.46919,-42.32656,1234.498],[172.47509,-42.31519,1542.3773],[172.47912,-42.30538,968.9534],[172.48459,-42.286,1771.2927],[172.46671,-42.28398,1889.7251],[172.45731,-42.28414,1572.1875],[172.44759,-42.28553,1722.5486],[172.44108,-42.28858,1701.8844],[172.43612,-42.29401,1828.8932],[172.4323,-42.2999,1423.3525],[172.42734,-42.306,1536.7417],[172.41969,-42.3106,1493.0461],[172.40956,-42.31251,1193.2437],[172.3955,-42.30569,1315.2],[172.38072,-42.29122,1732.2261],[172.36047,-42.25727,1627.2343],[172.35251,-42.23324,1009.3735],[172.34445,-42.19158,1522.2136],[172.3367,-42.17474,1009.6489],[172.32533,-42.16208,1095.7587],[172.30765,-42.15371,764.5176],[172.29401,-42.15231,555.1342],[172.269,-42.15433,447.354],[172.25835,-42.15231,484.2164],[172.24978,-42.14828,542.2657],[172.24171,-42.14337,419.2627],[172.23551,-42.14068,382.7141],[172.23004,-42.1367,372.3086],[172.22435,-42.12983,320.762],[172.21763,-42.11717,328.9843],[172.21009,-42.10802,301.2509],[172.19562,-42.10384,414.6169],[172.16627,-42.10684,1095.1146],[172.15304,-42.10544,1276.3943],[172.14167,-42.09908,1257.8651],[172.13206,-42.08642,1381.228],[172.12513,-42.07077,925.7877],[172.12327,-42.0519,1165.0354],[172.12358,-42.03749,1149.8381],[172.121,-42.02524,1391.575],[172.11232,-42.01692,1171.686],[172.10229,-42.0133,1127.155],[172.09092,-42.00751,1247.1667],[172.08131,-41.99899,1161.6272],[172.07211,-41.98007,1361.9893],[172.06663,-41.96555,1171.9543],[172.06405,-41.95465,981.6086],[172.07583,-41.90545,1033.5208],[172.09971,-41.89016,1119.3369],[172.10953,-41.87563,920.1447],[172.121,-41.84964,864.7592],[172.1241,-41.82499,786.688],[172.12141,-41.80784,530.3513],[172.11852,-41.79874,298.7242],[172.11397,-41.7897,125.9024],[172.11232,-41.78148,258.0388],[172.1118,-41.77492,299.2506],[172.1148,-41.75802,780.8922],[172.11955,-41.74794,879.9498],[172.12854,-41.7373,1102.647],[172.1489,-41.72396,1047.4828],[172.16461,-41.71657,886.2787],[172.18239,-41.71094,746.0893],[172.23272,-41.7051,651.5082],[172.24326,-41.69931,907.3744],[172.2445,-41.68588,840.6226],[172.24223,-41.67286,818.691],[172.24606,-41.66004,1062.7124],[172.25753,-41.64971,888.9039],[172.28161,-41.64304,1095.8451],[172.29804,-41.63622,900.5727],[172.31034,-41.62526,1018.4816],[172.32285,-41.60216,1041.9343],[172.33308,-41.57746,1204.605],[172.34507,-41.53705,1203.3536],[172.35096,-41.52315,963.5347],[172.36047,-41.5124,941.9891],[172.40791,-41.48708,1058.2942],[172.41772,-41.47401,1231.1039],[172.42155,-41.46248,1290.4949],[172.42124,-41.45256,1209.2285],[172.4107,-41.44021,1252.0193],[172.40925,-41.43303,1221.6023],[172.41411,-41.42765,896.0319],[172.42982,-41.42037,914.1781],[172.44284,-41.41695,835.3749],[172.45524,-41.41577,1352.2271],[172.49297,-41.4245,873.2253],[172.51043,-41.4245,1494.9294],[172.52831,-41.41959,816.8601],[172.5463,-41.40998,1148.1193],[172.56604,-41.39267,1011.3409],[172.57813,-41.37815,1441.5385],[172.58206,-41.35866,1440.5845],[172.58185,-41.34223,1254.0925],[172.58402,-41.32533,1370.6404],[172.58764,-41.31376,1304.7743],[172.58888,-41.30415,1054.4033],[172.58547,-41.298,1300.4656],[172.571,-41.28497,819.1136],[172.57131,-41.27681,935.0956],[172.58154,-41.26937,1342.5409],[172.65182,-41.24844,1312.4907],[172.69791,-41.21723,1501.3972],[172.70163,-41.20911,1493.1055],[172.69853,-41.2025,1161.6692],[172.68965,-41.19413,1203.1344],[172.67125,-41.18467,1190.7944],[172.62154,-41.17356,1286.172],[172.60748,-41.16875,1154.2019],[172.59477,-41.16178,1241.9048],[172.55188,-41.12746,1361.5803],[172.53875,-41.12137,919.4017],[172.52707,-41.11811,1452.7872],[172.51808,-41.11413,1321.8934],[172.51002,-41.10721,1180.5809],[172.50206,-41.09542,968.9502],[172.49421,-41.08731,1225.0054],[172.48842,-41.07858,1261.233],[172.48397,-41.06757,1318.9711],[172.47777,-41.05672,1403.1794],[172.46485,-41.04762,985.4512],[172.45255,-41.04421,791.4714],[172.43106,-41.04437,1042.4685],[172.40181,-41.04871,625.1183],[172.39178,-41.04695,671.7628],[172.38124,-41.04354,1051.8484],[172.37204,-41.04359,978.923],[172.36367,-41.04804,1460.0186],[172.34455,-41.06897,1071.902],[172.33235,-41.07062,858.9052],[172.32336,-41.0624,1296.6411],[172.31964,-41.0329,1065.2114],[172.32533,-41.01693,1038.0826],[172.33484,-41.00515,1136.7906],[172.34238,-40.99977,744.3193],[172.35344,-40.98711,1024.5386],[172.3584,-40.97512,1268.9226],[172.35675,-40.96282,675.3887],[172.34476,-40.95006,707.5593],[172.33163,-40.94174,684.3217],[172.31995,-40.93197,800.0105],[172.31137,-40.91993,768.1806],[172.30352,-40.9021,783.3695],[172.2938,-40.89006,730.8348],[172.26187,-40.86872,806.2614],[172.25164,-40.85399,717.949],[172.23799,-40.78702,258.4727],[172.23347,-40.7776,41.7988]]]}
,"properties": {"ISO3166-1-Alpha-3": "NZL","country": "New Zealand","fill": "#F00","name": "West Coast","area_km2": 22362.2,"hist_schema_id": "Elevation0-9000","hist_area_km2": {"0": 352.22,"25": 926.11,"50": 741.2,"75": 624.76,"100": 640.09,"125": 641.35,"150": 619.28,"175": 576.43,"200": 569.54,"225": 548.91,"250": 507.33,"275": 498.89,"300": 458.29,"325": 434.41,"350": 414.21,"375": 384.17,"400": 360.88,"425": 352.79,"450": 342.44,"475": 341.94,"500": 337.4,"525": 323.34,"550": 319.2,"575": 314.99,"600": 314.51,"625": 314.62,"650": 318.51,"675": 312.28,"700": 311.62,"725": 312.26,"750": 313.63,"775": 314.72,"800": 314.7,"825": 312.79,"850": 306.59,"875": 303.68,"900": 302.89,"925": 303.79,"950": 304.04,"975": 296.12,"1000": 291.25,"1025": 293.69,"1050": 286.11,"1075": 283.61,"1100": 271.19,"1125": 269.75,"1150": 259.23,"1175": 245.99,"1200": 236.03,"1225": 226.42,"1250": 216.7,"1275": 203.82,"1300": 191.39,"1325": 179.61,"1350": 169.76,"1375": 160.72,"1400": 146.1,"1425": 139.75,"1450": 126.47,"1475": 118.78,"1500": 111.7,"1525": 102.65,"1550": 95.24,"1575": 91.34,"1600": 84.37,"1625": 79.1,"1650": 74.19,"1675": 68.17,"1700": 63.18,"1725": 56.82,"1750": 53.3,"1775": 50.55,"1800": 46.76,"1825": 40.39,"1850": 38.54,"1875": 36.97,"1900": 34.24,"1925": 31.62,"1950": 26.97,"1975": 26.07,"2000": 23.51,"2025": 20.65,"2050": 18.21,"2075": 18.7,"2100": 17.44,"2125": 14.82,"2150": 14.17,"2175": 12.53,"2200": 11.36,"2225": 10.3,"2250": 10.56,"2275": 9.39,"2300": 7.68,"2325": 7.06,"2350": 6.56,"2375": 5.76,"2400": 4.85,"2425": 4.22,"2450": 3.81,"2475": 3.5,"2500": 3.27,"2525": 2.44,"2550": 2.41,"2575": 1.9,"2600": 1.61,"2625": 1.44,"2650": 1.32,"2675": 1.09,"2700": 0.92,"2725": 0.75,"2750": 0.88,"2775": 0.45,"2800": 0.38,"2825": 0.49,"2850": 0.37,"2875": 0.32,"2900": 0.37,"2925": 0.26,"2950": 0.2}}}