{"type": "Feature","bbox": [168.0521,-44.4991,172.692,-40.7746],"geometry": {"type": "MultiPolygon","coordinates": [[[[168.8777,-43.8616,0.2029],[168.8752,-43.8619,-0.1085],[168.874,-43.8633,0.0],[168.8771,-43.8631,0.0],[168.8777,-43.8616,0.2029]]],
[[[168.8781,-43.8611,0.0],[168.878,-43.861,0.0],[168.8776,-43.8613,0.2029],[168.8781,-43.8615,0.0],[168.8781,-43.8611,0.0]]],
[[[168.8839,-43.8595,2.7705],[168.8795,-43.8612,0.0],[168.8825,-43.862,3.7594],[168.8874,-43.8598,2.8943],[168.8839,-43.8595,2.7705]]],
[[[168.8877,-43.8597,2.8943],[168.8877,-43.8596,2.8943],[168.8875,-43.8596,2.8943],[168.8876,-43.8597,2.8943],[168.8877,-43.8597,2.8943]]],
[[[168.888,-43.8596,2.8943],[168.8883,-43.8597,0.0],[168.8886,-43.8595,0.0],[168.8882,-43.8594,1.3489],[168.888,-43.8596,2.8943]]],
[[[168.8835,-43.8591,2.7705],[168.8836,-43.8592,2.7705],[168.8837,-43.8593,2.7705],[168.8837,-43.8591,2.7705],[168.8835,-43.8591,2.7705]]],
[[[171.1148,-43.0974,1501.0122],[171.1135,-43.0957,1453.5094],[171.1164,-43.0863,1784.6398],[171.1289,-43.0813,1922.3597],[171.1407,-43.0826,1900.8353],[171.1459,-43.0888,1973.8486],[171.1585,-43.0771,2036.7542],[171.1757,-43.0743,2058.6672],[171.1783,-43.068,2010.7888],[171.1842,-43.0644,1946.0171],[171.1909,-43.0667,1957.0314],[171.195,-43.0726,2049.8457],[171.1982,-43.0743,2064.4375],[171.204,-43.0727,1885.9105],[171.2114,-43.0657,1846.6707],[171.2196,-43.0647,2011.7396],[171.222,-43.0583,1988.6797999999999],[171.2227,-43.0433,1910.9452],[171.227,-43.0402,1930.231],[171.2338,-43.0393,1963.5542],[171.2407,-43.031,1847.2644],[171.2408,-43.0287,1846.9175],[171.2368,-43.0264,1855.532],[171.2367,-43.0242,1828.0299],[171.2435,-43.0162,1738.9897],[171.2393,-43.013,1660.5486],[171.2404,-43.008,1775.1089],[171.2377,-43.0025,1966.9622],[171.2418,-42.9988,1919.0498],[171.2539,-42.9975,1594.0942],[171.2569,-42.9919,1751.4125],[171.2561,-42.9898,1770.4011],[171.2609,-42.9851,1920.1259],[171.2736,-42.98,1970.3718],[171.2824,-42.973,1941.1725],[171.2903,-42.971,1653.4712],[171.2984,-42.9661,1614.7295],[171.3084,-42.9662,1811.64],[171.3095,-42.9614,1922.1143],[171.305,-42.9602,1806.1614],[171.3031,-42.9581,1896.1025],[171.3092,-42.9513,1841.6194],[171.3147,-42.948,1863.2053],[171.3361,-42.9433,1479.8195],[171.3402,-42.9451,1401.2562],[171.34,-42.9487,1382.3203],[171.3457,-42.9496,1365.0543],[171.3528,-42.9457,1497.6348],[171.3622,-42.9372,1817.772],[171.3722,-42.9389,1626.9801],[171.3818,-42.946,2043.813],[171.3902,-42.9413,2086.9033],[171.3932,-42.9426,2051.2888],[171.3948,-42.9444,2006.4922],[171.3947,-42.9503,1723.0077],[171.3924,-42.9562,1935.9237],[171.396,-42.9593,2140.5596],[171.3978,-42.955,2051.4153],[171.4015,-42.9525,1982.2354],[171.4048,-42.9532,1891.1812],[171.4114,-42.9509,1810.5652],[171.4181,-42.9462,1561.8105],[171.4211,-42.9392,1316.927],[171.4258,-42.9354,1484.9287],[171.4375,-42.9357,1794.0609],[171.4409,-42.9303,1741.1943],[171.4354,-42.9271,1707.6173],[171.4344,-42.9214,1669.4218],[171.4423,-42.9137,1555.5889],[171.4492,-42.9092,1319.4164],[171.4542,-42.9092,1315.1536],[171.4629,-42.9124,1601.6689],[171.4655,-42.9152,1841.8792],[171.4688,-42.9142,1902.0717],[171.4837,-42.9056,1962.3258],[171.491,-42.8959,1921.5244],[171.4953,-42.898,1791.4874],[171.5011,-42.8979,1791.7848],[171.5077,-42.902,1865.6991],[171.5117,-42.911,2131.5459],[171.5172,-42.9142,2164.7061],[171.5266,-42.9067,1777.7366],[171.5397,-42.9046,1624.1533],[171.5603,-42.9073,925.1663],[171.5701,-42.9033,1318.9943],[171.5739,-42.8996,1526.3805],[171.5869,-42.8957,1791.7472],[171.591,-42.8961,1895.7017],[171.5916,-42.9014,1808.5719],[171.6056,-42.8987,1574.8054],[171.6106,-42.9002,1613.0194],[171.6142,-42.9036,1457.8384],[171.6192,-42.9015,1228.9404],[171.6341,-42.9026,1434.3654],[171.6444,-42.8981,1675.1331],[171.653,-42.897,1828.8862],[171.6544,-42.8935,1810.002],[171.6603,-42.8909,1762.64],[171.6651,-42.8863,1779.1161],[171.6721,-42.8914,1379.8647],[171.6794,-42.8941,1260.615],[171.6804,-42.8991,1505.3612],[171.6903,-42.8999,1826.9185],[171.6869,-42.9061,1665.3817],[171.6943,-42.9083,1780.0117],[171.6992,-42.9069,1694.8225],[171.7036,-42.9035,1572.1461],[171.7101,-42.9038,1636.53],[171.7108,-42.8958,1067.4697],[171.7265,-42.8884,1723.7996],[171.7354,-42.8825,1657.4258],[171.7373,-42.8785,1650.7556],[171.7401,-42.8785,1667.6327],[171.7464,-42.8741,1679.9518],[171.7409,-42.8682,1624.3391],[171.7337,-42.8646,1401.4202],[171.733,-42.8632,1486.3973],[171.7368,-42.8609,1433.4036],[171.7374,-42.8587,1511.8601],[171.733,-42.8533,1454.3716],[171.737,-42.8471,1458.96],[171.7516,-42.8463,1078.7999],[171.7601,-42.8407,1241.6143],[171.7626,-42.8373,1498.6975],[171.7611,-42.8342,1479.5315],[171.7628,-42.8285,1602.9465],[171.7614,-42.8248,1570.2736],[171.7564,-42.8227,1662.7966],[171.7545,-42.8188,1652.2712],[171.7595,-42.8142,1510.5059],[171.7571,-42.8091,1621.6737],[171.7616,-42.8022,1640.9362],[171.7639,-42.7917,1642.2703],[171.7691,-42.7891,1584.533],[171.7764,-42.7903,1693.4467],[171.7832,-42.7843,1666.7406],[171.7891,-42.7828,1740.5214],[171.7946,-42.788,1472.2983],[171.8017,-42.7866,1443.6277],[171.8066,-42.7893,1277.2029],[171.8126,-42.79,1019.3326],[171.8145,-42.7874,1074.4492],[171.8125,-42.7838,1139.7882],[171.8271,-42.7813,1641.0964],[171.8296,-42.7771,1586.4099],[171.8327,-42.7751,1591.2109],[171.8433,-42.7748,1633.057],[171.8419,-42.7708,1482.9069],[171.8463,-42.767,1458.2733],[171.848,-42.7615,1349.0477],[171.856,-42.7575,1392.8259],[171.8577,-42.7546,1415.4368],[171.8636,-42.7506,1432.7107],[171.8731,-42.748,1466.6462],[171.8798,-42.7515,1610.077],[171.8844,-42.7496,1602.0332],[171.883,-42.7468,1570.3331],[171.8841,-42.7392,1422.9153],[171.8824,-42.7331,1177.1821],[171.8851,-42.7187,1401.4147],[171.9006,-42.7112,1359.0577],[171.908,-42.7047,1414.1664],[171.9135,-42.6905,1427.5273],[171.9157,-42.6881,1424.7303],[171.9156,-42.6817,1459.4348],[171.9228,-42.6774,1375.5195],[171.9278,-42.6715,1399.3945],[171.928,-42.669,1481.7964],[171.9259,-42.6662,1608.2196],[171.9425,-42.6635,1564.1362],[171.9586,-42.6536,1537.807],[171.9723,-42.6535,1648.7721],[171.9754,-42.6454,1567.4286],[171.9744,-42.6391,1520.7571],[171.9897,-42.6372,1479.713],[171.9968,-42.6336,1411.5123],[172.0075,-42.6349,1407.9773],[172.0155,-42.6318,1402.812],[172.0285,-42.6368,1414.1833],[172.0408,-42.6309,1396.1405],[172.0473,-42.6324,1496.9329],[172.0508,-42.6298,1454.9845],[172.0756,-42.6227,1385.969],[172.0793,-42.6221,1392.338],[172.0856,-42.624,1399.6421],[172.0937,-42.6211,1413.5293],[172.0977,-42.6103,977.6172],[172.1027,-42.6061,1271.8373],[172.0985,-42.5934,1570.3146],[172.1031,-42.5879,1610.0262],[172.1071,-42.5859,1669.6798],[172.1085,-42.5805,1565.3884],[172.1245,-42.5634,1653.8596],[172.1283,-42.5616,1647.8147],[172.1329,-42.5553,1605.9067],[172.1404,-42.5544,1596.1683],[172.1441,-42.5523,1620.1067],[172.1499,-42.5549,1629.6744],[172.1558,-42.5531,1613.1194],[172.1783,-42.5355,1597.9613],[172.1828,-42.5265,1429.4049],[172.1805,-42.5201,1011.0787],[172.1809,-42.5135,1431.1417],[172.1867,-42.5041,1505.5574],[172.1933,-42.4999,1626.923],[172.1954,-42.4965,1725.9802],[172.2052,-42.493,1655.5922],[172.2111,-42.4886,1581.0317],[172.2199,-42.4863,1493.9396],[172.2271,-42.4795,1587.9352],[172.2316,-42.473,1695.949],[172.2315,-42.4654,1482.8511],[172.2357,-42.4565,1653.0264],[172.2411,-42.457,1593.8372],[172.2548,-42.4513,1577.6024],[172.2572,-42.4535,1460.7534],[172.2617,-42.452,1572.144],[172.2655,-42.4551,1632.006],[172.2728,-42.451,1468.0785],[172.2788,-42.4499,1548.0636],[172.2933,-42.4404,1635.8342],[172.296,-42.4339,1596.4465],[172.3007,-42.4285,1624.4482],[172.2998,-42.4217,1597.354],[172.3175,-42.4198,1374.3489],[172.3248,-42.4164,1569.8566],[172.3287,-42.4106,1482.1312],[172.3337,-42.4083,1604.5701],[172.3372,-42.3997,1607.0895],[172.3446,-42.3972,1444.8848],[172.3451,-42.3936,1458.1897],[172.3472,-42.3918,1528.6868],[172.3562,-42.3906,1478.7103],[172.3687,-42.385,1515.8123],[172.3932,-42.3779,1061.3933],[172.4168,-42.3838,1422.4355],[172.4292,-42.3721,1698.1926],[172.438,-42.3701,1718.6226],[172.4433,-42.3669,1684.6012],[172.4469,-42.3614,1343.2079],[172.4494,-42.3544,1469.5664],[172.4431,-42.3447,1668.3176],[172.4487,-42.3286,1653.8135],[172.4542,-42.3229,1587.0874],[172.461,-42.3236,1650.1128],[172.4662,-42.3195,1560.9424],[172.4631,-42.3174,1451.6467],[172.4645,-42.3138,1253.9326],[172.462,-42.3114,1140.3632],[172.4617,-42.3075,1029.3346],[172.4652,-42.3016,1197.3846],[172.4764,-42.2945,1662.8311],[172.4785,-42.2901,1752.0022],[172.4776,-42.2881,1772.2346],[172.4798,-42.2857,1821.3375],[172.479,-42.277,1860.5995],[172.4746,-42.2743,2002.728],[172.4675,-42.2783,1871.4009],[172.4536,-42.2748,1908.9722],[172.4518,-42.2788,1765.2139],[172.4461,-42.2834,1736.4768],[172.4447,-42.2908,1808.5054],[172.4406,-42.2952,1830.0933],[172.4411,-42.2979,1741.5516],[172.4387,-42.3018,1575.8267],[172.4309,-42.3056,1524.8856],[172.4178,-42.3006,1514.2642],[172.4021,-42.2983,1658.3926],[172.3722,-42.2812,1599.0629],[172.3557,-42.281,1661.069],[172.3479,-42.2767,1713.6462],[172.3565,-42.2674,1714.6888],[172.3544,-42.2561,1630.8054],[172.3463,-42.254,1568.51],[172.3454,-42.2492,1538.9717],[172.3407,-42.243899999999996,1364.0205],[172.3344,-42.245,1508.6338],[172.3334,-42.2387,1584.8688],[172.3357,-42.2343,1576.3065],[172.3468,-42.227,1296.4518],[172.3494,-42.2223,1128.2921],[172.3441,-42.2143,1471.6454],[172.3429,-42.2084,1462.387],[172.3438,-42.2009,1494.7858],[172.3403,-42.1991,1490.3347],[172.3396,-42.1971,1547.1943],[172.3416,-42.1932,1522.6663],[172.3395,-42.1903,1488.6068],[172.3412,-42.1806,1394.6072],[172.3451,-42.1758,1312.8163],[172.3409,-42.1695,1336.1342],[172.3405,-42.1626,1515.1688],[172.3373,-42.1611,1569.8145],[172.333,-42.1523,1557.9102],[172.3334,-42.1492,1652.5525],[172.332,-42.1506,1607.8441],[172.3254,-42.1506,1333.7101],[172.3162,-42.1479,1006.1208],[172.2741,-42.1481,469.5452],[172.261,-42.1483,543.114],[172.2515,-42.1503,681.7344],[172.252,-42.1444,649.7276],[172.25,-42.1432,621.5447],[172.2506,-42.1379,625.9513],[172.2477,-42.1324,646.7365],[172.235,-42.1336,371.4529],[172.2327,-42.1316,366.3885],[172.221,-42.1316,311.1821],[172.2166,-42.1239,307.4702],[172.2179,-42.1148,325.6374],[172.2056,-42.1145,306.6701],[172.2059,-42.1106,302.1098],[172.213,-42.1109,297.5187],[172.215,-42.1091,309.1766],[172.2138,-42.1074,317.5432],[172.2059,-42.105,294.6416],[172.2067,-42.0983,289.4288],[172.1942,-42.1017,448.2162],[172.1873,-42.1056,684.7261],[172.1743,-42.1002,974.4944],[172.1703,-42.1013,1049.7217],[172.1682,-42.1039,1083.895],[172.1352,-42.104,1392.5645],[172.1356,-42.1023,1568.589],[172.1299,-42.0924,1371.8843],[172.133,-42.0844,1284.0229],[172.1325,-42.0806,1255.0941],[172.1214,-42.0751,1159.9457],[172.1165,-42.0756,1284.6219],[172.1196,-42.0727,1166.7406],[172.113,-42.0615,1303.6047],[172.109,-42.0589,1462.6406],[172.1091,-42.0554,1492.217],[172.1049,-42.0484,1463.7302],[172.1057,-42.0446,1409.2529],[172.1119,-42.0383,1462.4338],[172.1124,-42.0335,1408.9865],[172.1181,-42.0289,1554.7588],[172.1168,-42.0268,1417.4009],[172.1175,-42.0204,1246.783],[172.1204,-42.0167,1395.4678],[172.12,-42.0146,1403.0039],[172.116,-42.0121,1366.2496],[172.1044,-42.0129,1166.1287],[172.081,-42.0077,1353.1736],[172.0765,-42.002,1304.7257],[172.071,-41.9985,1375.9882],[172.0766,-41.9875,1350.2516],[172.0697,-41.9801,1382.3098],[172.0712,-41.9769,1289.7222],[172.0692,-41.9731,1275.5251],[172.0701,-41.9647,1281.653],[172.0608,-41.9602,1200.4135],[172.0536,-41.9592,1253.6501],[172.0506,-41.9519,1375.6311],[172.0521,-41.9452,1339.694],[172.056,-41.9393,1305.1593],[172.0602,-41.9368,1280.677],[172.0656,-41.9365,1278.877],[172.0683,-41.9295,1314.9025],[172.0726,-41.9269,1320.7009],[172.0774,-41.9205,1295.2906],[172.0724,-41.9129,1333.6602],[172.0687,-41.9103,1356.2059],[172.0688,-41.9042,1315.208],[172.0634,-41.8989,1361.3842],[172.0654,-41.8944,1317.0914],[172.0707,-41.8929,1303.6443],[172.0784,-41.8965,1220.8727],[172.0858,-41.893,1334.9082],[172.0929,-41.8919,1291.5948],[172.0949,-41.887,1339.7668],[172.093,-41.8838,1291.7375],[172.0938,-41.8744,1308.2792],[172.1032,-41.868899999999996,1165.3932],[172.1157,-41.8684,1199.7854],[172.1163,-41.7892,120.4003],[172.1051,-41.7893,369.0346],[172.1041,-41.7864,436.1191],[172.1001,-41.7838,691.7866],[172.1006,-41.7782,559.4165],[172.0977,-41.7767,570.4105],[172.0973,-41.7743,574.3455],[172.1001,-41.7676,562.5017],[172.1075,-41.7643,673.321],[172.1179,-41.7562,825.8892],[172.1187,-41.7479,875.896],[172.124,-41.7423,1154.1339],[172.1246,-41.738,1182.5792],[172.1241,-41.7353,1270.667],[172.12,-41.7351,1280.4459],[172.1158,-41.7321,1336.8944],[172.119,-41.7254,1327.5518],[172.1249,-41.7225,1237.1036],[172.1291,-41.7141,1311.8876],[172.1392,-41.7159,1393.7957],[172.1441,-41.7117,1298.1014],[172.1504,-41.7108,1368.2979],[172.1515,-41.7042,1199.0938],[172.1553,-41.6997,1332.8774],[172.1611,-41.7027,1134.2308],[172.1745,-41.703,1046.5927],[172.188,-41.6925,949.5604],[172.2033,-41.6956,1005.6576],[172.2091,-41.6999,1066.6355],[172.2125,-41.696,918.2175],[172.2127,-41.6892,1059.5323],[172.2257,-41.6936,960.1338],[172.2329,-41.6915,939.2162],[172.2358,-41.6928,878.7753],[172.2413,-41.7,916.4456],[172.2476,-41.7028,966.1137],[172.2515,-41.7027,901.8438],[172.2597,-41.6944,859.9435],[172.2471,-41.6842,852.5765],[172.2507,-41.6725,798.5311],[172.2538,-41.6681,901.2748],[172.2518,-41.6633,1014.8438],[172.2433,-41.6603,1073.5509],[172.2402,-41.6555,1161.6765],[172.2392,-41.6527,1104.8188],[172.2412,-41.65,1105.3625],[172.2413,-41.6439,1129.0645],[172.2378,-41.6426,1032.9395],[172.2374,-41.6402,1052.3453],[172.2469,-41.6349,1081.7802],[172.2577,-41.6319,1090.4988],[172.2644,-41.6273,1157.5997],[172.2764,-41.6315,1101.7368],[172.2804,-41.6365,1113.2826],[172.291,-41.6348,1202.0255],[172.2944,-41.6304,1156.6039],[172.2925,-41.626,1138.427],[172.2931,-41.6239,1130.126],[172.3038,-41.6161,1091.3145],[172.3205,-41.6104,1106.1017],[172.3273,-41.6038,1046.9062],[172.3304,-41.5996,1153.6348],[172.33,-41.596,1152.1053],[172.3345,-41.5836,1250.5801],[172.3318,-41.5721,1184.8624],[172.3275,-41.5659,1300.7877],[172.3268,-41.5603,1484.7517],[172.3447,-41.5552,1329.751],[172.3457,-41.5449,1276.6201],[172.3438,-41.5396,1255.3008],[172.3467,-41.5312,1280.3945],[172.3426,-41.5166,1328.4954],[172.343,-41.5115,1532.4417],[172.3526,-41.508,1348.2716],[172.372,-41.493899999999996,1385.1774],[172.3771,-41.4916,1192.7773],[172.3889,-41.4906,1199.0029],[172.3961,-41.4786,1336.8743],[172.4033,-41.4787,1277.644],[172.4069,-41.4755,1206.51],[172.4141,-41.4745,1331.7805],[172.4189,-41.4707,1346.1089],[172.4197,-41.4586,1352.7317],[172.4254,-41.4518,1413.3606],[172.4222,-41.4391,1440.0574],[172.4301,-41.4346,1328.6919],[172.4311,-41.429,1372.3557],[172.4292,-41.4252,1338.824],[172.4222,-41.4249,1030.3751],[172.4189,-41.4227,1058.2004],[172.4155,-41.4167,1236.1023],[172.4159,-41.4126,1393.2465],[172.4194,-41.4105,1358.8657],[172.4385,-41.4081,1223.9135],[172.4612,-41.3944,1571.547],[172.4627,-41.3962,1478.5754],[172.4631,-41.4043,1480.4692],[172.4651,-41.4055,1476.4949],[172.4847,-41.4081,1206.2949],[172.4979,-41.4072,1107.0597],[172.5043,-41.4086,1132.5769],[172.5086,-41.4124,1283.9255],[172.5124,-41.4128,1358.1027],[172.5225,-41.4067,1421.4678],[172.5321,-41.4055,1537.7048],[172.5339,-41.4018,1460.2932],[172.5365,-41.4005,1372.0153],[172.5436,-41.4006,1402.0203],[172.5524,-41.3983,1377.7684],[172.5599,-41.3828,1315.0542],[172.5736,-41.377,1231.9265],[172.5781,-41.3786,1441.5385],[172.5843,-41.3763,1530.9679],[172.5865,-41.3645,1491.4185],[172.5818,-41.3585,1451.9576],[172.586,-41.3515,1261.0962],[172.5816,-41.3436,1349.0695],[172.5894,-41.3353,1525.6084],[172.5873,-41.328,1506.2946],[172.5879,-41.3227,1555.0841],[172.5909,-41.3166,1488.1959],[172.5982,-41.3102,1588.3979],[172.6003,-41.3009,1399.7791],[172.5965,-41.2926,1418.7985],[172.5885,-41.2908,1490.4275],[172.5861,-41.2887,1496.0203],[172.5853,-41.2809,1457.0925],[172.5818,-41.2721,1446.6055],[172.5726,-41.2637,1550.8843],[172.5744,-41.2583,1432.2377],[172.5802,-41.254,1421.2881],[172.6052,-41.2534,1518.2786],[172.6105,-41.2492,1447.9753],[172.6253,-41.2431,1354.1931],[172.637,-41.2452,1421.0251],[172.6579,-41.2392,1692.3781],[172.6621,-41.2321,1615.3032],[172.6781,-41.2224,1565.6],[172.6822,-41.2171,1738.9534],[172.6908,-41.2113,1515.4789],[172.692,-41.1999,1331.0336],[172.6828,-41.1927,1441.0421],[172.6732,-41.1882,1292.9915],[172.6682,-41.1896,1126.4296],[172.6644,-41.1946,989.2088],[172.6566,-41.1925,1098.9958],[172.6371,-41.1957,1161.8448],[172.6289,-41.1948,1205.3872],[172.6295,-41.1875,1233.1945],[172.6252,-41.1847,1256.1321],[172.6223,-41.1798,1233.5626],[172.6204,-41.1715,1297.4824],[172.621,-41.1646,1284.6405],[172.6185,-41.1604,1372.9916],[172.5966,-41.148,1531.2906],[172.5917,-41.1377,1591.4359],[172.5852,-41.139,1453.3894],[172.5814,-41.137,1517.5863],[172.5735,-41.1251,1481.7463],[172.5672,-41.1228,1439.7683],[172.5607,-41.1168,1503.3193],[172.5529,-41.1024,1555.7397],[172.5436,-41.1015,1474.8322],[172.5334,-41.0963,1453.5009],[172.5198,-41.0957,1637.2573],[172.5181,-41.091,1434.1167],[172.5226,-41.0817,1599.7008],[172.5132,-41.0668,1562.4988],[172.4921,-41.0647,1547.1482],[172.4891,-41.0577,1507.9797],[172.4859,-41.0546,1526.704],[172.4922,-41.0483,1486.7144],[172.4961,-41.041,1480.7646],[172.494,-41.0246,1628.9526],[172.4915,-41.0226,1653.6373],[172.4776,-41.0252,1593.2451],[172.4684,-41.0227,1498.839],[172.4397,-41.0204,1444.2484],[172.4356,-41.0275,1380.2728],[172.4192,-41.0335,1440.8979],[172.4072,-41.0275,1380.8768],[172.3827,-41.0226,1506.9769],[172.3668,-41.0365,1267.7535],[172.3611,-41.0441,1329.7395],[172.3624,-41.0514,1473.1035],[172.3552,-41.0513,1399.8455],[172.3507,-41.054,1367.026],[172.3503,-41.0634,1473.7295],[172.3429,-41.0603,1236.4318],[172.3322,-41.0617,1171.5361],[172.3248,-41.0595,1229.8721],[172.3235,-41.054,1400.9048],[172.3309,-41.0458,1437.174],[172.3337,-41.035,1366.0107],[172.3237,-41.0282,1454.2639],[172.314,-41.0183,1495.5679],[172.3105,-41.014,1198.969],[172.3109,-41.0112,1228.9641],[172.3297,-40.987,1323.8075],[172.3351,-40.9844,1367.4314],[172.3487,-40.9839,1297.261],[172.3576,-40.9794,1312.5419],[172.3702,-40.9707,1234.5487],[172.3747,-40.962,1277.979],[172.3831,-40.9552,1357.8339],[172.3864,-40.9493,1412.2493],[172.3811,-40.9455,1295.4331],[172.3758,-40.9344,1371.6406],[172.3689,-40.9366,1344.6985],[172.3507,-40.9319,835.4493],[172.3281,-40.9363,766.2162],[172.3166,-40.9245,794.7152],[172.3052,-40.9255,856.3704],[172.2977,-40.9225,852.05],[172.294,-40.9194,880.9739],[172.3004,-40.9153,843.5726],[172.301,-40.9102,831.3593],[172.2952,-40.9032,797.0661],[172.2884,-40.9038,785.6722],[172.2815,-40.8989,786.7318],[172.2899,-40.8859,719.3899],[172.2898,-40.8775,736.9271],[172.2847,-40.8739,805.1042],[172.2679,-40.8712,789.1461],[172.2634,-40.8659,783.7521],[172.2625,-40.859,801.6823],[172.2531,-40.8609,798.4888],[172.251,-40.869,817.5377],[172.2471,-40.866,797.1075],[172.2385,-40.8713,821.4946],[172.2336,-40.869,833.0452],[172.2303,-40.8639,820.524],[172.2312,-40.8592,811.6],[172.229,-40.8561,813.0275],[172.2321,-40.8534,831.8529],[172.2305,-40.8501,824.8228],[172.2381,-40.8453,825.8199],[172.2402,-40.8417,829.7075],[172.2382,-40.8296,714.806],[172.2426,-40.8263,719.5071],[172.2402,-40.8248,724.3134],[172.2463,-40.8185,712.3865],[172.2456,-40.8147,693.965],[172.2488,-40.8069,611.3444],[172.2348,-40.7922,326.2522],[172.2239,-40.7848,139.4085],[172.2182,-40.7777,78.5447],[172.2177,-40.7746,42.0666],[172.2151,-40.7771,0.0],[172.2119,-40.7884,7.2402],[172.2128,-40.7901,27.6071],[172.2009,-40.7926,0.0],[172.1957,-40.7972,8.3473],[172.1858,-40.8024,0.0],[172.1851,-40.8049,33.6109],[172.1727,-40.81,7.7131],[172.1735,-40.8156,12.1915],[172.1663,-40.8201,8.1652],[172.1627,-40.8254,37.0973],[172.1601,-40.8261,0.687],[172.1588,-40.8306,7.5577],[172.1556,-40.8304,0.0],[172.1552,-40.8329,0.0],[172.1513,-40.8352,0.0],[172.1498,-40.8383,48.9192],[172.1465,-40.8396,34.8769],[172.1423,-40.8468,24.3071],[172.1339,-40.8503,1.8151],[172.1358,-40.853,54.7409],[172.1358,-40.8579,110.6414],[172.1309,-40.8722,21.1959],[172.127,-40.8757,0.0],[172.1103,-40.8823,0.0],[172.1035,-40.8934,8.9607],[172.0998,-40.8963,0.0],[172.1013,-40.8996,12.0385],[172.0982,-40.913,5.963],[172.0929,-40.9147,1.7506],[172.0969,-40.9218,10.1766],[172.0961,-40.9266,0.0],[172.0989,-40.9362,8.8707],[172.0965,-40.9423,0.9621],[172.1008,-40.9556,87.0272],[172.1009,-40.9714,0.0],[172.105,-40.9829,104.7489],[172.1033,-40.9845,42.3921],[172.1081,-40.9856,16.6185],[172.1067,-40.9879,2.4725],[172.1106,-41.0098,11.0479],[172.1086,-41.0182,0.0],[172.1117,-41.0269,30.2258],[172.1113,-41.0367,92.592],[172.1045,-41.0431,3.7588],[172.1071,-41.0471,4.7414],[172.106,-41.0575,0.0],[172.1032,-41.0596,17.3731],[172.105,-41.0658,17.2902],[172.1025,-41.0722,20.8606],[172.1046,-41.0944,31.8694],[172.1002,-41.0967,0.0],[172.0997,-41.1003,0.0],[172.1,-41.1065,4.7624],[172.1028,-41.1094,8.9594],[172.104,-41.1358,4.048],[172.1057,-41.1402,4.8498],[172.1049,-41.1494,5.7063],[172.1062,-41.152,4.4158],[172.1048,-41.1555,5.9378],[172.1045,-41.1675,0.0],[172.1056,-41.1687,2.4205],[172.1043,-41.171,2.4299],[172.1029,-41.1996,1.3165],[172.0981,-41.2399,0.0],[172.0991,-41.2427,1.9119],[172.1034,-41.2458,1.3664],[172.1085,-41.245,1.1086],[172.1067,-41.2471,0.7614],[172.1113,-41.2447,1.0492],[172.112,-41.2462,1.0492],[172.1043,-41.2495,1.2896],[172.1065,-41.2537,1.257],[172.1109,-41.2542,1.267],[172.1138,-41.2516,0.5],[172.1211,-41.25,3.6357],[172.1211,-41.2513,2.0749],[172.1274,-41.2538,3.5605],[172.1316,-41.2607,5.1173],[172.1283,-41.2605,5.3455],[172.1266,-41.2558,2.0406],[172.1205,-41.2531,3.9491],[172.1146,-41.2541,2.7582],[172.1136,-41.256,2.2899],[172.1168,-41.2556,1.9052],[172.1163,-41.2573,19.357],[172.113,-41.2565,24.7243],[172.1098,-41.2583,3.0812],[172.1049,-41.2581,5.6446],[172.1065,-41.2653,1.7702],[172.1084,-41.2659,2.1476],[172.1077,-41.2758,1.5479],[172.106,-41.2709,0.0],[172.1056,-41.276,1.3653],[172.1031,-41.2801,1.0258],[172.1038,-41.2855,3.2328],[172.1005,-41.2897,2.5949],[172.0934,-41.2901,1.6359],[172.0957,-41.2854,0.0],[172.0927,-41.283,0.423],[172.0934,-41.2784,0.5317],[172.0925,-41.2751,3.7557],[172.0916,-41.2761,0.0],[172.0797,-41.3378,0.0],[172.0702,-41.3684,0.0],[172.0607,-41.3883,0.0],[172.0581,-41.391,0.0],[172.0535,-41.3905,9.2537],[172.0442,-41.3977,0.0],[172.0335,-41.4118,32.5447],[172.0307,-41.4131,43.3681],[172.0268,-41.4122,20.3302],[172.0257,-41.415,47.4739],[172.014,-41.4254,88.7965],[172.012,-41.4298,236.4076],[171.9988,-41.4414,44.318],[171.9865,-41.4456,0.0],[171.9812,-41.4574,24.2007],[171.9756,-41.4645,5.5751],[171.9558,-41.4979,2.7289],[171.9467,-41.5057,21.7573],[171.9421,-41.5164,13.58],[171.9324,-41.5259,0.0],[171.9208,-41.5489,0.6175],[171.9105,-41.565,2.5865],[171.9016,-41.5745,6.9669],[171.8821,-41.6007,0.0],[171.8645,-41.6163,4.3203],[171.8582,-41.6243,5.6941],[171.8256,-41.6488,0.6379],[171.7874,-41.6693,0.0],[171.7511,-41.6913,0.0],[171.7476,-41.6942,0.0],[171.7477,-41.6958,0.0],[171.7396,-41.6996,0.0],[171.7054,-41.7247,7.7107],[171.6976,-41.7249,0.0],[171.6907,-41.7277,0.0],[171.692,-41.7294,0.0],[171.6818,-41.7341,0.0],[171.6812,-41.7332,0.0],[171.6547,-41.742,0.0],[171.6508,-41.7395,0.0],[171.634,-41.7422,3.1059],[171.6215,-41.7421,3.2906],[171.5917,-41.7324,0.0],[171.5894,-41.727,0.0],[171.5935,-41.7375,3.1293],[171.5914,-41.7367,0.0],[171.5939,-41.7441,1.594],[171.596,-41.7448,0.5],[171.5995,-41.7409,3.039],[171.601,-41.742,2.7001],[171.5975,-41.746,0.5],[171.5958,-41.7468,1.9581],[171.5946,-41.7456,0.5],[171.597,-41.753,2.4244],[171.5983,-41.7656,7.9788],[171.5951,-41.7664,0.5],[171.5928,-41.752,2.744],[171.5896,-41.7505,2.0098],[171.5812,-41.7516,3.2734],[171.5769,-41.7494,1.2887],[171.5829,-41.7491,1.4527],[171.5832,-41.747,2.6197],[171.5855,-41.7466,0.6293],[171.5836,-41.7444,1.8171],[171.5856,-41.7445,0.5986],[171.5818,-41.7427,1.8618],[171.59,-41.7434,2.085],[171.5869,-41.7411,1.2799],[171.5885,-41.7346,0.0],[171.5871,-41.7274,0.0],[171.5875,-41.7316,3.0922],[171.5559,-41.7484,4.3346],[171.5501,-41.7501,3.0279],[171.5264,-41.7523,1.3541],[171.5187,-41.7508,0.0],[171.5061,-41.7453,0.0],[171.4862,-41.7456,0.0],[171.4862,-41.7467,13.3495],[171.4745,-41.7491,7.0585],[171.4706,-41.748,24.8365],[171.4695,-41.7452,2.3773],[171.4661,-41.7464,2.4109],[171.4593,-41.7528,0.955],[171.4644,-41.7549,9.4069],[171.4642,-41.7583,34.5499],[171.4595,-41.7601,4.1114],[171.4558,-41.7646,1.0771],[171.4587,-41.7648,1.7505],[171.4602,-41.7671,0.0],[171.4604,-41.7726,0.0],[171.4572,-41.7749,9.0235],[171.4526,-41.7731,8.8006],[171.4506,-41.7748,2.0442],[171.4551,-41.776,8.3491],[171.4566,-41.779,11.4691],[171.4592,-41.8207,0.0],[171.4613,-41.8332,0.5357],[171.4591,-41.8612,0.0],[171.4552,-41.8851,0.0],[171.4532,-41.8901,4.0503],[171.4456,-41.8912,0.0],[171.4476,-41.892,2.8161],[171.4446,-41.8971,8.9333],[171.4361,-41.8966,23.9183],[171.4335,-41.9005,0.0],[171.4371,-41.9024,3.7188],[171.4343,-41.902,1.3388],[171.4332,-41.9028,0.0],[171.4353,-41.9035,4.2554],[171.4347,-41.9046,18.1865],[171.4324,-41.9035,7.1442],[171.4288,-41.9057,5.8315],[171.4247,-41.9112,0.0],[171.4253,-41.9123,0.0],[171.4175,-41.9183,67.5338],[171.4157,-41.922,12.041],[171.4178,-41.9253,61.2659],[171.4133,-41.9327,22.7466],[171.4143,-41.9407,3.1803],[171.4098,-41.9507,26.112],[171.4113,-41.9554,35.7839],[171.4087,-41.9586,6.1663],[171.4085,-41.9659,24.0825],[171.4047,-41.9746,3.7236],[171.4034,-41.9746,3.7236],[171.4047,-41.9756,3.7236],[171.4031,-41.9777,10.562],[171.4031,-41.9816,38.3746],[171.4007,-41.9821,0.0],[171.4044,-41.9838,6.6303],[171.4056,-41.9865,10.01],[171.4033,-41.9919,13.451],[171.3975,-41.9958,0.9092],[171.3966,-42.0001,2.5129],[171.3946,-42.0014,1.9959],[171.3971,-42.0029,32.5765],[171.3965,-42.0094,0.0],[171.3916,-42.0213,10.989],[171.3835,-42.0306,0.7623],[171.3686,-42.0356,9.3848],[171.3656,-42.0349,1.8787],[171.3644,-42.0402,5.3865],[171.3667,-42.0402,14.7709],[171.3675,-42.0419,0.0],[171.3651,-42.0486,8.764],[171.3658,-42.057,43.6011],[171.3652,-42.0597,40.1128],[171.3628,-42.0609,0.0],[171.3643,-42.0636,77.0207],[171.3607,-42.0677,0.0],[171.3605,-42.0722,6.9282],[171.3524,-42.0747,7.1064],[171.3529,-42.0787,1.9287],[171.3479,-42.0845,31.5158],[171.3415,-42.0838,6.2691],[171.3421,-42.0855,10.1622],[171.3403,-42.0856,4.6882],[171.338,-42.089,9.4116],[171.3394,-42.0968,33.3293],[171.3378,-42.0978,2.9965],[171.3412,-42.0995,35.0042],[171.3392,-42.1041,29.7223],[171.3357,-42.1056,2.102],[171.334,-42.1107,4.5462],[171.3313,-42.1127,12.3312],[171.3258,-42.1139,2.3319],[171.3302,-42.118899999999996,8.1081],[171.3295,-42.1222,3.2756],[171.3268,-42.1245,4.1146],[171.3285,-42.1265,0.0],[171.3268,-42.1407,6.7789],[171.32,-42.1579,0.0],[171.3189,-42.1778,2.4234],[171.3143,-42.1964,0.0],[171.3062,-42.26,1.7545],[171.3036,-42.2707,1.2516],[171.3006,-42.2758,1.9102],[171.2923,-42.2803,0.0],[171.288,-42.2943,29.4538],[171.2839,-42.3,0.6899],[171.2843,-42.3026,0.8346],[171.2805,-42.3131,6.7411],[171.2735,-42.3206,37.6083],[171.2665,-42.3242,0.0],[171.2646,-42.331,2.4608],[171.2604,-42.3345,0.0],[171.2577,-42.3466,3.6482],[171.2514,-42.3528,33.4836],[171.2464,-42.3641,0.0],[171.2397,-42.3742,0.0],[171.2294,-42.3806,0.0],[171.222,-42.3819,15.0168],[171.2186,-42.3796,14.1188],[171.2157,-42.395,56.9408],[171.2047,-42.427,0.0],[171.1978,-42.4384,7.6416],[171.1898,-42.44,0.0],[171.194,-42.4426,2.4661],[171.1906,-42.4544,3.8709],[171.1759,-42.491,2.8874],[171.1639,-42.5142,2.1223],[171.14,-42.5477,2.248],[171.1172,-42.5717,2.579],[171.0964,-42.6028,1.1756],[171.0929,-42.6052,1.9357],[171.0778,-42.6241,4.2348],[171.0484,-42.6529,0.0],[171.0276,-42.6654,1.5371],[171.0241,-42.6626,0.0],[171.0218,-42.6639,0.0],[170.9919,-42.6918,2.0815],[170.9624,-42.7146,2.1321],[170.9476,-42.7235,0.0],[170.9023,-42.7737,1.3958],[170.876,-42.8123,0.0],[170.8596,-42.8309,0.0],[170.8384,-42.8437,0.0],[170.791,-42.8863,3.9292],[170.7758,-42.8952,1.6513],[170.7644,-42.8989,0.0],[170.7208,-42.9302,1.8535],[170.6931,-42.9409,11.1813],[170.6787,-42.9488,8.0839],[170.6717,-42.9497,0.0],[170.6618,-42.9539,0.0],[170.6163,-42.983,0.5662],[170.5945,-42.9934,1.0485],[170.5715,-43.0036,1.0154],[170.549,-43.0085,10.6881],[170.5244,-43.0174,6.1976],[170.5015,-43.0187,7.9609],[170.4919,-43.0156,0.0],[170.4773,-43.0212,0.0],[170.4584,-43.0227,0.0],[170.4449,-43.0278,0.0],[170.4349,-43.0339,4.0032],[170.4204,-43.0362,0.0],[170.4144,-43.0408,0.8379],[170.4109,-43.0416,16.1306],[170.4034,-43.0508,0.4835],[170.3786,-43.0732,4.5839],[170.3489,-43.0937,0.0],[170.3286,-43.1003,4.1942],[170.3155,-43.1018,24.3302],[170.3072,-43.1053,18.1221],[170.2875,-43.1089,8.097],[170.2805,-43.1068,37.0925],[170.2601,-43.1081,18.127],[170.2568,-43.1123,0.0],[170.2572,-43.1192,1.2526],[170.2483,-43.1296,4.677],[170.247,-43.1314,2.8847],[170.2479,-43.1327,2.8847],[170.2397,-43.1371,0.2771],[170.2365,-43.1409,2.6106],[170.2279,-43.1448,23.9818],[170.2155,-43.1642,3.3372],[170.1968,-43.1887,0.0],[170.1664,-43.2184,0.9163],[170.1724,-43.2147,0.0],[170.1815,-43.2055,1.2631],[170.1929,-43.2012,0.0],[170.1933,-43.1952,0.2884],[170.1981,-43.1966,0.0],[170.1999,-43.196,0.2554],[170.1999,-43.194,0.4058],[170.2048,-43.1939,0.641],[170.2127,-43.1898,0.2809],[170.2128,-43.1848,0.7113],[170.2097,-43.184,0.0],[170.209,-43.1821,0.7856],[170.2132,-43.1811,0.8484],[170.2121,-43.1798,0.8484],[170.214,-43.1769,0.7918],[170.2115,-43.1735,1.6066],[170.219,-43.1786,0.8626],[170.2233,-43.1704,1.2603],[170.2216,-43.1675,0.6873],[170.2176,-43.1666,1.1676],[170.2176,-43.1649,1.668],[170.2234,-43.1669,0.0],[170.2319,-43.165,0.9185],[170.2299,-43.1628,0.0],[170.2251,-43.1616,0.6147],[170.224,-43.1597,0.0],[170.2265,-43.1572,2.6966],[170.224,-43.1553,3.0634],[170.2302,-43.157,8.5975],[170.2263,-43.1609,0.4602],[170.2292,-43.1606,0.4916],[170.2293,-43.1593,0.9908],[170.2405,-43.1603,0.4791],[170.2483,-43.1578,1.638],[170.2536,-43.1589,0.5353],[170.2575,-43.1565,0.3435],[170.2643,-43.1677,0.4452],[170.2645,-43.1709,0.0],[170.2681,-43.171,1.9325],[170.2708,-43.173,3.2877],[170.2742,-43.1702,2.4202],[170.2723,-43.1722,2.6305],[170.2744,-43.1723,3.5482],[170.271,-43.1735,3.2877],[170.2715,-43.1762,1.4579],[170.273,-43.176,1.4579],[170.2722,-43.1765,8.1764],[170.2714,-43.1764,8.1764],[170.2675,-43.1715,2.0637],[170.2611,-43.1735,0.9546],[170.2512,-43.1785,8.0057],[170.2524,-43.1812,3.1977],[170.2496,-43.183,0.0],[170.2518,-43.188,1.8149],[170.2507,-43.1895,1.8149],[170.249,-43.1866,9.12],[170.2449,-43.1855,0.619],[170.2441,-43.1837,1.2104],[170.2399,-43.1887,1.915],[170.2267,-43.1937,1.9435],[170.2287,-43.2014,7.9985],[170.2144,-43.2053,2.6781],[170.2085,-43.2086,1.3386],[170.2109,-43.2117,2.3957],[170.2077,-43.2141,0.1458],[170.2116,-43.2149,1.4564],[170.2126,-43.2168,1.7529],[170.2076,-43.2169,0.7836],[170.2097,-43.2195,5.7235],[170.2076,-43.2208,1.3129],[170.2102,-43.2212,3.4262],[170.209,-43.2231,2.8321],[170.2069,-43.2224,1.3111],[170.205,-43.224,0.0],[170.2054,-43.2265,18.331],[170.1911,-43.2243,0.0],[170.1925,-43.2262,9.4299],[170.1908,-43.2257,9.4299],[170.19,-43.2283,2.8553],[170.1946,-43.2312,13.4414],[170.1886,-43.2292,7.2409],[170.1911,-43.2324,19.15],[170.1908,-43.236,19.8571],[170.1877,-43.231,4.0381],[170.1844,-43.2343,17.3695],[170.187,-43.2271,2.7102],[170.1809,-43.2256,6.2769],[170.1825,-43.2293,3.9539],[170.1809,-43.2295,3.9539],[170.1791,-43.2288,12.2623],[170.1777,-43.2252,10.5342],[170.1789,-43.2238,3.9322],[170.169,-43.2229,0.3926],[170.1668,-43.22,1.7131],[170.1536,-43.2257,0.0],[170.1342,-43.2306,0.0],[170.1151,-43.2521,5.5254],[170.1062,-43.2588,8.0639],[170.1011,-43.26,17.8072],[170.0842,-43.2745,6.3758],[170.0684,-43.2833,21.2755],[170.0551,-43.2842,7.657],[170.0509,-43.2919,3.9242],[170.0442,-43.2994,2.6131],[170.0402,-43.303,3.8603],[170.0341,-43.3053,9.9964],[170.033,-43.3103,7.2715],[170.0304,-43.3141,2.7915],[170.0288,-43.3136,0.0],[170.0272,-43.3152,0.0],[170.0205,-43.3264,2.8072],[170.0034,-43.339,0.7611],[169.9828,-43.3574,3.1687],[169.9786,-43.358,0.0],[169.974,-43.3624,3.4335],[169.9451,-43.3779,0.0],[169.9172,-43.3903,12.8494],[169.9008,-43.3914,33.2924],[169.8929,-43.3904,14.6655],[169.8749,-43.3959,0.0],[169.8625,-43.3947,64.3802],[169.8463,-43.3963,12.754],[169.8419,-43.3954,1.486],[169.8108,-43.4206,2.7567],[169.8002,-43.424,6.514],[169.7937,-43.4214,8.8511],[169.782,-43.4419,0.8825],[169.7736,-43.4465,33.4275],[169.7622,-43.4631,7.6443],[169.7561,-43.4679,0.0],[169.7406,-43.4874,0.0],[169.7271,-43.4963,0.0],[169.7222,-43.5076,1.2857],[169.7123,-43.5209,2.0601],[169.6897,-43.5446,1.3544],[169.6778,-43.5524,0.0],[169.6676,-43.5566,31.9471],[169.6588,-43.5563,45.9765],[169.6492,-43.5535,17.131],[169.6396,-43.5628,0.0],[169.635,-43.5647,0.0],[169.631,-43.572,0.0],[169.6086,-43.5921,2.1844],[169.5869,-43.6006,0.2282],[169.5707,-43.6024,0.0],[169.5629,-43.6006,51.7116],[169.5597,-43.5946,31.9287],[169.5592,-43.5879,0.0],[169.5549,-43.5863,45.3684],[169.5518,-43.5877,9.9568],[169.5504,-43.5904,19.2358],[169.551,-43.5927,70.536],[169.5473,-43.5981,7.439],[169.5401,-43.6044,0.0],[169.5144,-43.6214,11.1887],[169.5023,-43.6267,3.1389],[169.4967,-43.6281,12.1304],[169.4904,-43.6228,0.0],[169.4826,-43.6212,0.0],[169.47,-43.6235,54.4573],[169.4572,-43.6235,42.2709],[169.4482,-43.6297,27.8011],[169.437,-43.6327,0.0],[169.4293,-43.6309,21.6986],[169.4297,-43.6268,0.0],[169.4263,-43.6253,12.0862],[169.4196,-43.6266,16.9036],[169.4151,-43.6298,16.6069],[169.4109,-43.63,8.6986],[169.4044,-43.6345,0.0],[169.3929,-43.6348,15.1786],[169.3707,-43.643,12.827],[169.3665,-43.6459,2.3975],[169.3666,-43.6496,13.3585],[169.3575,-43.6626,7.5552],[169.3479,-43.6678,0.0],[169.3462,-43.6701,6.5388],[169.3184,-43.6754,7.1482],[169.3166,-43.6776,9.6467],[169.3063,-43.6795,0.0],[169.3048,-43.682,20.7541],[169.2789,-43.694,0.0],[169.2726,-43.6955,9.1048],[169.2679,-43.6942,0.0],[169.2605,-43.6988,0.0],[169.2536,-43.7005,5.6584],[169.2488,-43.7051,5.5001],[169.239,-43.7061,0.0],[169.2336,-43.7117,0.791],[169.225,-43.7129,2.8416],[169.2211,-43.7166,27.2461],[169.2152,-43.7191,0.0],[169.2094,-43.7193,0.0],[169.1961,-43.7297,21.0477],[169.1806,-43.7356,11.4275],[169.153,-43.7513,6.0643],[169.1286,-43.7765,5.2372],[169.1066,-43.7949,2.2189],[169.0317,-43.8411,0.0],[169.0181,-43.8527,3.652],[168.9733,-43.8771,6.5544],[168.9353,-43.8881,0.0],[168.9286,-43.8888,0.0],[168.9142,-43.8941,0.0],[168.8995,-43.9023,0.632],[168.8871,-43.9061,0.0],[168.8776,-43.9169,0.0],[168.8735,-43.9182,0.0],[168.874,-43.9195,2.1953],[168.8538,-43.9423,4.0144],[168.8363,-43.956,1.1301],[168.8049,-43.9719,0.0],[168.7882,-43.9768,0.0],[168.7801,-43.9768,0.0],[168.7551,-43.9847,6.8865],[168.7093,-43.9943,0.0],[168.6495,-43.9955,0.0],[168.6415,-43.9946,35.1176],[168.6301,-43.9902,23.5564],[168.6249,-43.9832,2.9383],[168.6154,-43.9769,27.0028],[168.614,-43.9716,6.7283],[168.6194,-43.9691,0.0],[168.6239,-43.9593,0.0],[168.6169,-43.9578,0.0],[168.6149,-43.9604,14.8182],[168.6061,-43.9652,12.5216],[168.5899,-43.9647,3.507],[168.5937,-43.9658,25.9646],[168.595,-43.9699,10.0091],[168.5967,-43.9706,31.2987],[168.5949,-43.9731,7.5064],[168.5814,-43.9718,4.2806],[168.5767,-43.9729,0.0],[168.5775,-43.974,1.8175],[168.5754,-43.9756,0.0575],[168.5715,-43.9758,0.0],[168.5692,-43.9752,14.6146],[168.5688,-43.9725,0.0],[168.5532,-43.9886,6.3121],[168.5467,-43.9926,0.0],[168.5407,-43.9917,3.9582],[168.5276,-43.9944,0.0],[168.5126,-44.0019,8.1585],[168.4808,-44.0058,0.0],[168.4724,-44.0037,1.7468],[168.4576,-44.0068,12.7488],[168.4331,-44.0085,41.455],[168.4166,-44.0043,14.4886],[168.3893,-44.0025,5.3817],[168.3668,-44.0087,2.0508],[168.3705,-44.0103,31.6769],[168.3704,-44.0165,2.7917],[168.3614,-44.0313,5.9717],[168.3526,-44.0336,7.0587],[168.3497,-44.0373,55.9701],[168.3298,-44.0478,0.0],[168.3264,-44.0509,0.0],[168.3251,-44.0546,9.863],[168.328,-44.0623,0.0],[168.323,-44.0661,4.4457],[168.3212,-44.0707,18.1123],[168.3267,-44.0766,0.8903],[168.3272,-44.0805,2.163],[168.3256,-44.0843,0.0],[168.3128,-44.0897,12.5167],[168.3119,-44.092,1.2092],[168.2855,-44.1026,17.3534],[168.2838,-44.1047,3.7151],[168.2845,-44.1074,4.9854],[168.2757,-44.1123,3.1459],[168.2731,-44.1154,20.0814],[168.2719,-44.1221,46.4276],[168.2664,-44.1259,8.8756],[168.2671,-44.1328,2.1767],[168.2649,-44.1385,5.6115],[168.2591,-44.1455,18.886],[168.2545,-44.146,0.1463],[168.2552,-44.1502,4.1084],[168.2517,-44.1539,1.0328],[168.2457,-44.158,17.3424],[168.2408,-44.1573,0.1098],[168.238,-44.1594,0.0],[168.2255,-44.1603,0.0],[168.2232,-44.1652,7.2929],[168.2177,-44.1706,39.1223],[168.2009,-44.1792,0.0],[168.1985,-44.1821,1.5414],[168.1902,-44.1852,2.107],[168.1859,-44.1893,3.1334],[168.1805,-44.1898,31.7546],[168.1695,-44.1939,0.0],[168.1533,-44.2024,0.0],[168.1507,-44.2101,2.7691],[168.1458,-44.216,3.6377],[168.1372,-44.2197,7.9355],[168.1355,-44.2228,0.0],[168.1257,-44.2276,0.6722],[168.1036,-44.2432,9.4567],[168.0721,-44.2466,1.1031],[168.0599,-44.2515,0.9528],[168.0575,-44.2556,7.2292],[168.0521,-44.2586,0.1354],[168.0783,-44.261,142.0431],[168.1314,-44.2811,485.6248],[168.1505,-44.2807,706.4443],[168.1577,-44.2822,735.3694],[168.1657,-44.2795,894.058],[168.1693,-44.2754,966.371],[168.1798,-44.2774,974.019],[168.1951,-44.2743,951.3479],[168.2023,-44.2667,914.0094],[168.2117,-44.2648,912.7678],[168.2219,-44.2602,1023.3592],[168.2258,-44.2564,979.0176],[168.2436,-44.2581,1061.5284],[168.2503,-44.2551,1004.3364],[168.2551,-44.2567,925.5195],[168.2612,-44.2627,829.6545],[168.2709,-44.2603,482.9655],[168.2804,-44.2601,336.6432],[168.3068,-44.2796,1064.4905],[168.3221,-44.2776,1058.5609],[168.3278,-44.2819,1175.4238],[168.3454,-44.2821,1247.3259],[168.3474,-44.2842,1209.8792],[168.3477,-44.2904,1192.1328],[168.3505,-44.2958,1280.4918],[168.3488,-44.3023,1300.9618],[168.3536,-44.3053,1257.7528],[168.3499,-44.3135,1519.0647],[168.3506,-44.3172,1542.3966],[168.345,-44.3211,1650.7549],[168.3482,-44.3291,1455.7771],[168.3564,-44.3362,1396.4222],[168.367,-44.3405,1045.7174],[168.3814,-44.3381,638.1906],[168.3706,-44.3465,953.8789],[168.3684,-44.3545,1177.3539],[168.4094,-44.3603,1845.7321],[168.4117,-44.3637,1793.0471],[168.4081,-44.3683,1744.2661],[168.4074,-44.3751,1842.4993],[168.4049,-44.3771,1810.6187],[168.3978,-44.3795,1788.4799],[168.3856,-44.3788,1802.0693],[168.3856,-44.3855,1497.7198],[168.3839,-44.3884,1611.552],[168.3662,-44.3944,2021.9177],[168.3518,-44.4042,1937.2095],[168.3516,-44.4072,2073.27],[168.3551,-44.4131,2125.7639],[168.366,-44.4179,1974.5256],[168.366,-44.4244,2043.6841],[168.3597,-44.433,2034.2107],[168.3612,-44.4388,1813.7373],[168.3577,-44.4424,1819.0087],[168.3539,-44.4437,1928.8745],[168.3487,-44.4519,2082.4062],[168.3531,-44.4584,2107.2114],[168.3529,-44.4605,2095.7075],[168.3445,-44.47,1907.0289],[168.3436,-44.4728,1841.069],[168.3369,-44.4759,2070.1995],[168.3375,-44.4781,1996.8173],[168.3337,-44.4892,1969.1152],[168.337,-44.495,2210.1128],[168.3345,-44.4968,2294.3596],[168.3393,-44.4956,2114.5737],[168.345,-44.497,2040.8164],[168.3585,-44.4919,2160.551],[168.3658,-44.4948,2043.8933],[168.378,-44.4959,1906.312],[168.3902,-44.4991,1964.8752],[168.3991,-44.4961,1713.0927],[168.4155,-44.4974,1897.9377],[168.4416,-44.4922,1734.6189],[168.4525,-44.4926,1797.4805],[168.4609,-44.4954,2139.1401],[168.4878,-44.4789,2103.5876],[168.5009,-44.4754,2245.1531],[168.5035,-44.4698,2192.8713],[168.5068,-44.4668,2297.0918],[168.5235,-44.4604,2042.0957],[168.5478,-44.4565,2111.1292],[168.5574,-44.4517,1998.9823],[168.5736,-44.4513,2158.8459],[168.5861,-44.4538,2357.499],[168.5901,-44.4502,2305.4758],[168.5935,-44.4418,2390.7656],[168.6069,-44.4362,2367.8745],[168.6255,-44.4339,2407.8962],[168.6316,-44.425,1662.8773],[168.6416,-44.4166,1790.0259],[168.6548,-44.4114,2145.9365],[168.6653,-44.4012,1656.4083],[168.6802,-44.396,1585.6455],[168.6867,-44.3919,1919.7533],[168.6937,-44.3956,1895.0436],[168.6998,-44.405,1939.1479],[168.7115,-44.4095,2211.8228],[168.7284,-44.4195,2128.4155],[168.7426,-44.421,2251.6572],[168.7446,-44.4181,2094.3145],[168.7412,-44.4093,1970.8915],[168.7413,-44.4054,1947.4337],[168.7534,-44.3922,2084.9739],[168.757,-44.39,2203.9775],[168.7696,-44.3911,2220.0933],[168.7779,-44.3879,2160.7598],[168.784,-44.383,1924.6758],[168.7876,-44.377,1626.6083],[168.8079,-44.3627,2299.7441],[168.8112,-44.3617,2302.2749],[168.8178,-44.3561,1934.5449],[168.8318,-44.3518,1799.6022],[168.8361,-44.3399,2052.5942],[168.8319,-44.3228,2135.5603],[168.8332,-44.3192,2064.5071],[168.8376,-44.3168,1922.4785],[168.8414,-44.3119,1608.6401],[168.84,-44.3024,1552.6366],[168.8443,-44.2897,1804.62],[168.8427,-44.2833,1680.6423],[168.8463,-44.2785,1662.6602],[168.8547,-44.2742,1935.0358],[168.8573,-44.2697,2028.9742],[168.8516,-44.2586,2015.2632],[168.8518,-44.2537,1999.7599],[168.8494,-44.2461,2103.3091],[168.8561,-44.2425,2046.9049],[168.871,-44.2389,2108.4661],[168.8733,-44.234,2377.7134],[168.8722,-44.2302,2339.0999],[168.8737,-44.2259,2138.2109],[168.8772,-44.2228,2178.1716],[168.8933,-44.2175,1964.4335],[168.9048,-44.2182,2031.9919],[168.9109,-44.2098,2091.5254],[168.919,-44.2095,1838.3665],[168.9446,-44.2035,1822.4004],[168.9592,-44.2058,1847.0043],[168.9633,-44.2004,1647.6804],[168.9613,-44.1824,1637.1658],[168.9652,-44.1738,1845.6798],[168.9743,-44.173,1725.705],[168.9874,-44.1689,2222.5022],[168.9858,-44.1634,2209.1543],[168.9767,-44.1508,1838.6354],[168.9751,-44.144,1983.1975],[168.9811,-44.1415,1826.9529],[169.0008,-44.1396,1886.7131],[169.0088,-44.1361,1739.2941],[169.0159,-44.1309,1811.4462],[169.0098,-44.124,1846.0642],[169.0132,-44.1149,1811.8428],[169.0203,-44.1146,1634.3341],[169.0381,-44.1182,1898.2891],[169.046,-44.1161,1601.1855],[169.0581,-44.1093,1321.5665],[169.0736,-44.1096,1777.0748],[169.0752,-44.1028,1451.1639],[169.0815,-44.097,1545.5845],[169.0887,-44.0953,1500.7179],[169.0958,-44.0973,1621.2355],[169.1045,-44.0954,1798.9375],[169.1108,-44.0932,1687.0505],[169.119,-44.0875,1611.2749],[169.1301,-44.0869,1807.4731],[169.1389,-44.0807,1615.7504],[169.1459,-44.0799,1746.9183],[169.148,-44.0827,1616.4005],[169.1477,-44.0861,1571.589],[169.1514,-44.0946,1294.0691],[169.1597,-44.1049,1540.9907],[169.169,-44.1046,1570.0228],[169.1881,-44.1105,1559.7535],[169.1988,-44.1095,1420.5132],[169.2062,-44.1069,1629.1516],[169.2192,-44.1094,1421.2928],[169.2328,-44.1086,1445.8855],[169.2421,-44.1061,1533.4355],[169.2573,-44.1081,1789.8705],[169.2714,-44.101,1628.3131],[169.2795,-44.0938,1678.9583],[169.2847,-44.0799,1536.9623],[169.2902,-44.0739,1713.0726],[169.2908,-44.0627,1744.6202],[169.309,-44.0606,1639.3351],[169.321,-44.0641,1670.2797],[169.3231,-44.0717,1355.9149],[169.3284,-44.0751,1322.2311],[169.3287,-44.0778,1420.699],[169.3306,-44.0794,1504.2896],[169.3297,-44.0888,1306.9185],[169.3387,-44.1025,1183.6329],[169.3541,-44.1069,608.3612],[169.373,-44.117,1259.9073],[169.3868,-44.1188,1645.2965],[169.3885,-44.118,1652.6995],[169.3906,-44.1127,1740.8722],[169.4084,-44.107,1914.447],[169.4074,-44.1046,1959.6534],[169.4096,-44.102,1920.8545],[169.4236,-44.0965,1946.5278],[169.4285,-44.0965,2045.8888],[169.4333,-44.0897,1950.9679],[169.4438,-44.0841,1994.3623],[169.4455,-44.0765,2048.3501],[169.4502,-44.0728,2212.2002],[169.4505,-44.0662,2439.9048],[169.4573,-44.0636,2108.0532],[169.4626,-44.0593,1769.0214],[169.4863,-44.0553,1773.0402],[169.5067,-44.0592,1991.9167],[169.5117,-44.058,2068.3794],[169.5168,-44.0536,1964.7826],[169.5285,-44.0387,1663.7485],[169.5411,-44.0333,1671.0012],[169.5506,-44.0319,1715.2876],[169.5571,-44.0332,1747.8145],[169.5623,-44.0323,1874.0422],[169.5716,-44.0355,2226.5793],[169.5787,-44.0343,2227.2852],[169.5806,-44.0324,2159.8022],[169.5821,-44.0223,1959.361],[169.5914,-44.0125,2093.8384],[169.592,-44.0102,1945.3632],[169.592,-43.9913,1576.0337],[169.5829,-43.9851,1990.8657],[169.5842,-43.9832,1833.1196],[169.5826,-43.9805,1868.1743],[169.5868,-43.9732,1721.1703],[169.5868,-43.9651,1901.635],[169.5928,-43.9581,2016.1152],[169.6233,-43.957,2172.3398],[169.6329,-43.9638,2149.9009],[169.6557,-43.9568,2058.3787],[169.6694,-43.9554,2008.4988],[169.6919,-43.9579,2064.499],[169.6985,-43.9633,2215.8657],[169.7023,-43.9639,2122.6553],[169.72,-43.9599,1592.3866],[169.7251,-43.955,1748.2765],[169.7276,-43.9484,2061.1704],[169.7342,-43.947,1977.689],[169.7365,-43.9438,2043.5022],[169.7429,-43.9406,1920.069],[169.7429,-43.9364,1849.5906],[169.7453,-43.9317,2182.312],[169.7583,-43.9337,2137.9441],[169.76,-43.9261,2005.0507],[169.7581,-43.9221,2175.3799],[169.7611,-43.9202,2089.8953],[169.7651,-43.9084,2029.1381],[169.7693,-43.905,1897.7719],[169.7709,-43.8993,2161.2729],[169.7821,-43.8941,2109.0737],[169.7862,-43.8947,2108.8306],[169.7934,-43.8924,2247.3777],[169.7984,-43.8833,2212.4087],[169.809,-43.8747,1906.9935],[169.8138,-43.8728,2124.6541],[169.8268,-43.8717,2161.292],[169.8379,-43.8666,2444.1504],[169.8404,-43.8618,2295.3721],[169.838,-43.8542,2291.1436],[169.8454,-43.8473,2324.4126],[169.8533,-43.8431,2210.1611],[169.8584,-43.837,2219.3994],[169.8675,-43.8321,2204.2751],[169.8792,-43.8333,2170.9978],[169.8878,-43.8363,2413.9922],[169.8944,-43.8337,2177.6614],[169.8961,-43.8293,2068.5012],[169.893,-43.8231,2376.4019],[169.8982,-43.8197,2240.032],[169.9,-43.813,2320.8716],[169.913,-43.8088,2043.3928],[169.9281,-43.8008,2130.1782],[169.9333,-43.8005,2173.2048],[169.9433,-43.7892,2534.5464],[169.9583,-43.7889,2348.8301],[169.9655,-43.7918,2484.9158],[169.9727,-43.7873,2224.2737],[169.9752,-43.781,2156.1475],[169.9704,-43.7732,2302.8833],[169.9739,-43.7684,2292.2756],[169.9798,-43.7649,2138.4829],[169.9847,-43.7594,2247.4485],[169.9766,-43.7521,2250.78],[169.9788,-43.7471,2594.5498],[169.9988,-43.741,2474.2107],[170.0062,-43.7408,2448.302],[170.013,-43.7323,2443.3616],[170.0189,-43.7307,2467.4514],[170.0305,-43.7232,2214.2395],[170.0282,-43.7127,2364.3535],[170.0229,-43.7061,2505.3193],[170.0302,-43.6973,2455.8733],[170.0281,-43.6942,2470.0344],[170.0285,-43.6908,2512.9319],[170.0416,-43.6825,3020.8389],[170.0591,-43.679,2564.8975],[170.0737,-43.6721,2378.0142],[170.0914,-43.6604,2208.3843],[170.0952,-43.6555,2059.5969],[170.094,-43.6493,2274.9878],[170.0995,-43.6452,2131.3389],[170.1012,-43.6387,2149.2759],[170.0986,-43.6302,2252.0481],[170.0929,-43.6254,2460.1064],[170.0941,-43.6193,2278.4128],[170.0977,-43.6154,2187.8772],[170.0977,-43.6119,2172.1057],[170.0956,-43.6084,2310.0864],[170.0923,-43.6069,2510.1765],[170.0921,-43.6023,2925.3643],[170.093,-43.5997,2944.1948],[170.0981,-43.5955,2828.6116],[170.115,-43.589,2596.0742],[170.1237,-43.5874,2860.8306],[170.1398,-43.5895,3301.8071],[170.1466,-43.5738,3046.5273],[170.1577,-43.5718,3216.7839],[170.1574,-43.5655,3384.1963],[170.1607,-43.5631,3321.0049],[170.1658,-43.5629,3035.9141],[170.1695,-43.5599,3116.0667],[170.1827,-43.5613,2736.6406],[170.1895,-43.5562,2797.8994],[170.1985,-43.5532,2883.114],[170.2031,-43.5492,2892.3401],[170.2029,-43.5412,2832.0701],[170.2133,-43.5344,2768.2417],[170.2142,-43.5313,2807.8962],[170.218,-43.5313,2625.6982],[170.2209,-43.5248,2626.6951],[170.2261,-43.5226,2583.5793],[170.2286,-43.5192,2614.8137],[170.2383,-43.5139,2484.0564],[170.2512,-43.5131,2524.1885],[170.2574,-43.5108,2618.1062],[170.2671,-43.5127,2893.6819],[170.2721,-43.51,2959.4983],[170.2762,-43.5102,2891.2007],[170.2869,-43.5047,2651.614],[170.2992,-43.5017,2538.7483],[170.3169,-43.4922,2724.0039],[170.3219,-43.4914,2684.5176],[170.3281,-43.4818,3033.2798],[170.3323,-43.4835,2830.6196],[170.3297,-43.4851,2814.5903],[170.334,-43.4919,2539.8872],[170.3348,-43.498,2523.8899],[170.3463,-43.5002,2732.4136],[170.356,-43.5061,2525.2344],[170.3632,-43.5073,2552.7375],[170.3677,-43.5043,2298.9272],[170.395,-43.4982,2484.7815],[170.411,-43.4877,2539.75],[170.4183,-43.4777,2154.9697],[170.4267,-43.4741,2130.4741],[170.4338,-43.4658,2366.4321],[170.4517,-43.4614,2440.2588],[170.4592,-43.4613,2475.6965],[170.4607,-43.4514,2244.3203],[170.4709,-43.4421,2190.2778],[170.4725,-43.4367,2420.7891],[170.4755,-43.433,2435.0474],[170.4967,-43.4266,2310.6282],[170.5113,-43.4284,2408.4404],[170.5177,-43.4244,2304.6533],[170.5183,-43.419,2377.4114],[170.5217,-43.4183,2365.6138],[170.5297,-43.41,2430.0544],[170.5335,-43.4103,2407.97],[170.5352,-43.4145,2274.9961],[170.5439,-43.4183,1927.4712],[170.546,-43.4218,1763.118],[170.5528,-43.4219,1757.9205],[170.5567,-43.4242,1778.2041],[170.5653,-43.4229,2174.5234],[170.5725,-43.419,2197.1362],[170.5802,-43.4185,2257.7549],[170.5838,-43.4227,2025.2996],[170.5804,-43.4261,1918.2102],[170.5808,-43.4302,1982.688],[170.5913,-43.434,2129.7385],[170.6006,-43.4323,2187.2607],[170.6031,-43.4305,2207.25],[170.6116,-43.4326,2295.895],[170.6151,-43.4319,2390.9382],[170.6171,-43.4298,2312.0869],[170.6136,-43.4241,2029.0525],[170.6156,-43.418,2049.748],[170.635,-43.4014,2021.2101],[170.6329,-43.3968,1985.7686],[170.64,-43.3931,1940.3558],[170.6482,-43.3923,2048.1042],[170.6517,-43.3887,2030.9694],[170.6566,-43.3869,2275.5703],[170.6576,-43.3774,2014.049],[170.646,-43.374,2111.6191],[170.6467,-43.3693,2209.3887],[170.6683,-43.3563,1955.5142],[170.6707,-43.3507,2238.2461],[170.6774,-43.3476,2138.1294],[170.7124,-43.345,2045.9901],[170.7161,-43.3432,2012.0259],[170.7147,-43.3386,2000.4652],[170.7168,-43.3328,2197.8987],[170.7103,-43.3266,2103.6663],[170.7053,-43.3188,2330.8726],[170.7168,-43.3165,2463.9863],[170.7246,-43.3184,2355.6521],[170.7313,-43.3152,2418.4434],[170.7519,-43.3187,2196.9878],[170.7598,-43.3183,1969.6561],[170.7618,-43.3178,1974.2867],[170.7645,-43.3132,1925.9764],[170.7688,-43.3129,1932.9465],[170.7769,-43.3074,1864.8372],[170.7816,-43.3065,1835.8481],[170.7825,-43.3042,2041.4438],[170.7883,-43.3031,1884.0581],[170.7928,-43.2991,2138.395],[170.7991,-43.3003,2159.2537],[170.8057,-43.3045,2271.2012],[170.8119,-43.3011,2206.2283],[170.8199,-43.2997,2376.5732],[170.824,-43.2942,2190.1426],[170.8228,-43.2895,2203.0359],[170.8312,-43.2831,2173.8113],[170.8605,-43.2813,2300.292],[170.8643,-43.2764,2199.6309],[170.8707,-43.2725,2272.8923],[170.8689,-43.2673,2140.5952],[170.8652,-43.2648,2226.1104],[170.8678,-43.2589,2167.7151],[170.8758,-43.2525,1831.9314],[170.8731,-43.2458,1980.9204],[170.8872,-43.2416,1956.2059],[170.8921,-43.239,2025.5881],[170.8936,-43.2353,2167.0376],[170.8968,-43.233,2197.7676],[170.9068,-43.2287,2362.2905],[170.9122,-43.2217,2535.5591],[170.913,-43.216,2467.575],[170.9214,-43.2132,2367.3411],[170.9287,-43.2065,2242.5679],[170.9372,-43.2041,2141.2227],[170.9482,-43.206,2229.3054],[170.9479,-43.2118,2063.7363],[170.9443,-43.2214,2077.1086],[170.9485,-43.2273,2427.6924],[170.9646,-43.2251,1410.131],[170.9713,-43.2222,1249.3057],[170.9798,-43.2226,1670.5869],[170.9877,-43.2179,1967.9852],[170.9917,-43.2176,2002.5143],[170.9933,-43.2112,1889.3809],[171.0042,-43.1953,1880.1881],[171.0137,-43.1916,1914.1809],[171.0134,-43.186,2089.1133],[171.0169,-43.1836,2144.9829],[171.02,-43.1745,2012.9574],[171.0473,-43.1636,2206.5034],[171.0471,-43.1592,2156.8892],[171.0444,-43.1583,2065.3528],[171.0379,-43.1514,2033.7843],[171.0374,-43.1459,1981.3403],[171.0415,-43.1397,2043.8442],[171.0567,-43.1317,1879.6826],[171.0676,-43.1283,1908.1577],[171.069,-43.1256,2011.7498],[171.0629,-43.1185,1738.585],[171.0636,-43.1146,1852.1935],[171.0676,-43.1125,1772.1094],[171.0766,-43.1119,1491.9968],[171.0793,-43.1023,1947.1351],[171.0847,-43.1011,1821.6455],[171.0952,-43.1008,2050.3159],[171.0967,-43.1058,1927.1115],[171.1,-43.1068,1854.6249],[171.1002,-43.109,1852.2761],[171.1054,-43.1121,2022.7795],[171.1082,-43.1104,1915.353],[171.1154,-43.0996,1530.1868],[171.1148,-43.0974,1501.0122]]],
[[[170.1884,-43.2141,0.5272],[170.1885,-43.2092,1.4055],[170.1848,-43.207,1.4488],[170.1695,-43.218,0.0],[170.1691,-43.2199,0.4069],[170.1729,-43.2213,1.325],[170.1786,-43.2209,1.3119],[170.1857,-43.2176,0.8974],[170.1884,-43.2141,0.5272]]],
[[[170.1931,-43.2095,0.0],[170.1917,-43.2088,0.45],[170.1911,-43.2115,0.0],[170.1923,-43.2113,0.0],[170.1931,-43.2095,0.0]]],
[[[170.1962,-43.2002,1.1364],[170.1957,-43.1984,0.3759],[170.1943,-43.2016,0.0],[170.1962,-43.2016,0.0],[170.1962,-43.2002,1.1364]]],
[[[170.2185,-43.181399999999996,0.0],[170.2196,-43.1812,0.8881],[170.2205,-43.1801,0.0],[170.2179,-43.1805,0.8881],[170.2185,-43.181399999999996,0.0]]],
[[[170.2162,-43.177,0.946],[170.2143,-43.1776,0.7918],[170.2132,-43.1797,0.8484],[170.2169,-43.1792,1.0775],[170.2162,-43.177,0.946]]],
[[[170.2414,-43.1657,0.7222],[170.2359,-43.1601,0.0],[170.2316,-43.1614,0.0],[170.2321,-43.1658,1.252],[170.2253,-43.1678,0.7233],[170.2223,-43.1769,0.3833],[170.241,-43.1706,1.2394],[170.2446,-43.1679,0.3434],[170.2397,-43.1693,1.2229],[170.2528,-43.1631,0.0],[170.245,-43.1622,0.7118],[170.2414,-43.1657,0.7222]]],
[[[171.3672,-42.0339,0.0],[171.3678,-42.0336,0.0],[171.367,-42.0307,0.0],[171.3658,-42.0332,0.0],[171.3672,-42.0339,0.0]]],
[[[172.1031,-41.2608,0.6611],[172.1044,-41.2591,0.7324],[172.1041,-41.2567,0.0],[172.1027,-41.2578,0.0],[172.1031,-41.2608,0.6611]]],
[[[172.0948,-41.2661,0.0],[172.0961,-41.2603,0.0],[172.0997,-41.256,0.0],[172.0994,-41.2493,0.0],[172.0976,-41.2482,1.8605],[172.0952,-41.2552,0.0],[172.0948,-41.2661,0.0]]]]}
,"properties": {"GID_1": "NZL.19_1","GID_0": "NZL","country": "NewZealand","province": "WestCoast","VARNAME_1": "NA","NL_NAME_1": "NA","TYPE_1": "Region","ENGTYPE_1": "Region","CC_1": "12","HASC_1": "NZ.WC","ISO_1": "NZ-WTC","name": "West_Coast.province","area_km2": 23290.17,"hist_schema_id": "Elevation0-9000","hist_area_km2": {"0": 629.83,"25": 1138.41,"50": 801.56,"75": 665.95,"100": 678.17,"125": 671.97,"150": 648.41,"175": 605.36,"200": 597.76,"225": 574.51,"250": 528.77,"275": 518.89,"300": 474.37,"325": 447.53,"350": 422.73,"375": 393.47,"400": 367.78,"425": 357.54,"450": 345.51,"475": 344.34,"500": 339.17,"525": 324.85,"550": 320.41,"575": 315.76,"600": 315.1,"625": 315.34,"650": 319.17,"675": 312.78,"700": 311.74,"725": 311.88,"750": 313.14,"775": 314.62,"800": 313.69,"825": 310.04,"850": 304.72,"875": 303.53,"900": 302.09,"925": 302.21,"950": 302.03,"975": 293.78,"1000": 288.25,"1025": 290.24,"1050": 282.35,"1075": 280.07,"1100": 267.69,"1125": 265.41,"1150": 255.66,"1175": 243.26,"1200": 233.0,"1225": 223.94,"1250": 213.38,"1275": 202.2,"1300": 190.36,"1325": 177.81,"1350": 167.74,"1375": 158.77,"1400": 144.91,"1425": 137.48,"1450": 125.34,"1475": 118.18,"1500": 109.91,"1525": 100.95,"1550": 94.4,"1575": 89.99,"1600": 83.9,"1625": 78.33,"1650": 74.91,"1675": 68.77,"1700": 64.66,"1725": 59.21,"1750": 56.16,"1775": 54.33,"1800": 50.24,"1825": 44.24,"1850": 43.53,"1875": 42.08,"1900": 39.09,"1925": 37.36,"1950": 32.23,"1975": 30.73,"2000": 28.6,"2025": 25.7,"2050": 23.26,"2075": 23.48,"2100": 22.43,"2125": 19.69,"2150": 18.55,"2175": 16.61,"2200": 14.56,"2225": 13.28,"2250": 12.96,"2275": 11.59,"2300": 9.46,"2325": 8.48,"2350": 7.58,"2375": 6.78,"2400": 5.86,"2425": 4.8,"2450": 4.44,"2475": 3.95,"2500": 3.76,"2525": 3.1,"2550": 2.75,"2575": 2.3,"2600": 1.72,"2625": 1.78,"2650": 1.5,"2675": 1.4,"2700": 1.04,"2725": 1.06,"2750": 1.08,"2775": 0.72,"2800": 0.6,"2825": 0.75,"2850": 0.54,"2875": 0.61,"2900": 0.55,"2925": 0.6,"2950": 0.45,"2975": 0.23,"3000": 0.34}}}