{"type": "Feature","bbox": [173.1806,-42.5654,174.0634,-41.9074],"geometry": {"type": "MultiPolygon","coordinates": [[[[173.501,-42.5654,18.3048],[173.5047,-42.5641,30.1939],[173.5093,-42.565,0.0],[173.5094,-42.56,24.8126],[173.5171,-42.5557,11.684],[173.5176,-42.5541,0.0],[173.5137,-42.5545,0.0],[173.5052,-42.5507,6.3581],[173.5019,-42.5486,15.2514],[173.5007,-42.5456,33.5466],[173.5037,-42.5357,33.8354],[173.5023,-42.5263,6.4162],[173.5046,-42.5242,0.0],[173.505,-42.5193,18.2126],[173.5077,-42.5163,7.7898],[173.5067,-42.5134,1.2492],[173.509,-42.5058,13.7489],[173.5193,-42.4982,2.5932],[173.5245,-42.4876,3.4264],[173.5303,-42.4841,15.7536],[173.5285,-42.4825,5.3864],[173.5287,-42.4787,5.1986],[173.533,-42.4766,0.0],[173.5387,-42.4666,54.6265],[173.5479,-42.4591,17.9044],[173.5568,-42.4585,1.6584],[173.5699,-42.4508,35.7591],[173.5766,-42.4504,4.1067],[173.5777,-42.4483,25.7753],[173.5832,-42.4477,0.0],[173.5865,-42.4423,1.3369],[173.5887,-42.4332,1.9986],[173.5947,-42.4284,3.4071],[173.6421,-42.4147,9.4073],[173.6644,-42.4122,6.7412],[173.6716,-42.413,4.462],[173.6803,-42.4196,0.7091],[173.6818,-42.4264,0.0],[173.6862,-42.4247,0.5315],[173.6875,-42.4263,0.0],[173.6915,-42.4257,13.4968],[173.6921,-42.4292,3.885],[173.6937,-42.43,27.9257],[173.6915,-42.4319,28.2163],[173.6916,-42.4346,0.0],[173.6967,-42.4305,43.4977],[173.7016,-42.431,23.9746],[173.7039,-42.433,0.256],[173.7035,-42.4299,3.345],[173.7123,-42.4275,15.1109],[173.7137,-42.425,2.1458],[173.7165,-42.4241,2.0273],[173.7162,-42.4225,0.0],[173.7069,-42.4197,4.4661],[173.7055,-42.4181,0.0],[173.708,-42.416,-0.0199],[173.7027,-42.4145,1.1259],[173.7027,-42.413,1.1259],[173.6966,-42.4153,4.3057],[173.6915,-42.4142,0.6593],[173.6851,-42.4075,1.4795],[173.6825,-42.4008,3.7937],[173.6811,-42.3932,1.4531],[173.6821,-42.3811,7.6483],[173.6858,-42.3684,5.1982],[173.6869,-42.3669,1.6263],[173.6886,-42.3676,1.6263],[173.6934,-42.3596,0.0],[173.6916,-42.3591,5.1354],[173.6923,-42.3579,8.7921],[173.6979,-42.3511,8.7111],[173.7063,-42.3452,1.5036],[173.7237,-42.3346,6.056],[173.7404,-42.3276,4.0247],[173.7486,-42.3212,9.6297],[173.7522,-42.3143,2.6047],[173.7525,-42.3104,4.612],[173.7517,-42.3059,0.0],[173.7474,-42.3033,18.3192],[173.7472,-42.3011,11.1728],[173.753,-42.2921,1.1203],[173.7589,-42.2868,25.7429],[173.7697,-42.2794,44.9669],[173.7883,-42.2754,6.6922],[173.7926,-42.272,16.8852],[173.8078,-42.2653,1.2587],[173.8118,-42.259,2.141],[173.8095,-42.2556,55.9925],[173.8306,-42.2481,2.8283],[173.8305,-42.2449,40.8468],[173.8355,-42.2434,3.1825],[173.8425,-42.2361,55.6844],[173.8466,-42.2362,0.2374],[173.8504,-42.2279,19.9446],[173.8573,-42.2249,0.2006],[173.8577,-42.2192,2.6441],[173.8632,-42.2169,3.0156],[173.8682,-42.2183,0.3515],[173.8735,-42.2144,0.4155],[173.8721,-42.2113,0.0],[173.8762,-42.2081,0.0],[173.8762,-42.2033,19.7268],[173.8845,-42.1947,0.0],[173.8926,-42.1892,9.1652],[173.9288,-42.1726,0.626],[173.9398,-42.1622,2.546],[173.94,-42.1584,4.9206],[173.9262,-42.1406,0.376],[173.9243,-42.1305,1.8466],[173.9286,-42.1103,0.0],[173.9397,-42.0853,2.1484],[173.9371,-42.0846,5.0795],[173.9379,-42.0831,6.2374],[173.9434,-42.0766,4.2393],[173.9519,-42.0619,10.8203],[173.9666,-42.0447,11.7628],[173.9982,-42.0143,0.0],[174.0119,-42.0045,5.6127],[174.012,-42.0002,19.1931],[174.0214,-41.9885,2.6008],[174.0474,-41.9699,0.0],[174.0498,-41.9638,9.6861],[174.0602,-41.9544,18.0704],[174.0611,-41.9448,132.3759],[174.0574,-41.9393,204.5635],[174.0634,-41.9347,133.4838],[174.0546,-41.9337,120.1073],[174.0549,-41.9323,115.1305],[174.0494,-41.9291,131.71],[174.0461,-41.9295,186.1149],[174.0426,-41.9336,174.4704],[174.0389,-41.9349,203.6951],[174.0355,-41.9348,225.3912],[174.0292,-41.9312,326.4758],[174.0223,-41.9386,673.7164],[174.0195,-41.9396,707.155],[174.0035,-41.9321,795.6462],[173.9771,-41.9334,547.0536],[173.9793,-41.9256,845.7476],[173.9698,-41.9262,558.9777],[173.9653,-41.9229,543.6512],[173.9587,-41.9085,368.7013],[173.9543,-41.9133,528.1117],[173.9437,-41.9123,581.5471],[173.9305,-41.9208,628.6872],[173.9239,-41.9212,598.5366],[173.9239,-41.9198,598.5366],[173.9192,-41.9181,732.6828],[173.9176,-41.9154,909.0085],[173.9145,-41.9152,927.8475],[173.8765,-41.9267,964.2207],[173.8587,-41.9297,888.0324],[173.8512,-41.9331,652.4838],[173.8495,-41.9318,728.7568],[173.8339,-41.9304,480.396],[173.8173,-41.933,691.486],[173.8128,-41.9361,635.0782],[173.8075,-41.9446,671.4279],[173.7931,-41.9531,550.0927],[173.7894,-41.9582,441.6379],[173.7668,-41.9218,867.3323],[173.7539,-41.9145,1182.863],[173.7621,-41.9119,1208.1875],[173.7444,-41.9074,1392.9556],[173.7367,-41.9113,1537.907],[173.7343,-41.9149,1571.272],[173.7285,-41.9187,1758.2944],[173.7284,-41.9213,1805.8413],[173.7233,-41.927,1790.3706],[173.7237,-41.9316,1978.8777],[173.7171,-41.9355,1894.0502],[173.7142,-41.9405,1888.7606],[173.7155,-41.9475,1928.6937],[173.7134,-41.9504,1956.4956],[173.7188,-41.9566,1955.5966],[173.718,-41.9585,1941.7345],[173.7204,-41.9593,1927.3983],[173.7202,-41.9607,1954.3152],[173.7114,-41.9642,1849.4225],[173.7002,-41.972,1568.3333],[173.682,-41.9743,1795.5808],[173.6764,-41.9795,2371.3076],[173.6632,-41.9821,2590.947],[173.6601,-41.9866,2545.5166],[173.6608,-41.9907,2712.4277],[173.6634,-41.9931,2751.6074],[173.6628,-41.9959,2827.7642],[173.6582,-41.9971,2698.5901],[173.6571,-41.9993,2643.418],[173.6453,-42.0043,2534.0083],[173.6382,-42.0094,2743.2917],[173.6319,-42.0085,2701.1914],[173.6242,-42.0107,2377.2319],[173.6186,-42.0062,2223.6064],[173.6097,-42.0045,2512.3594],[173.607,-42.0077,2446.4136],[173.6038,-42.0176,2294.2788],[173.6006,-42.0202,2126.7112],[173.6008,-42.0229,2137.4429],[173.5964,-42.0252,2112.4067],[173.5945,-42.0293,2104.834],[173.5822,-42.0291,2163.729],[173.5713,-42.033,2343.4697],[173.5639,-42.0417,2218.8518],[173.5551,-42.0459,2142.7327],[173.553,-42.0535,2226.793],[173.5474,-42.0569,2230.2017],[173.5446,-42.0613,2214.5757],[173.5468,-42.0698,2198.3054],[173.5404,-42.0683,1932.0967],[173.5335,-42.07,1657.3823],[173.5176,-42.0694,2228.6387],[173.4991,-42.0787,2125.7502],[173.4945,-42.0856,2096.3186],[173.4909,-42.0881,2057.3867],[173.4865,-42.0976,2085.6301],[173.484,-42.0994,2119.8296],[173.4853,-42.104,2058.9324],[173.4882,-42.1068,2241.0654],[173.4865,-42.1105,2189.3413],[173.4765,-42.1165,2137.3335],[173.4697,-42.1157,2109.1255],[173.463,-42.1178,2105.1204],[173.4668,-42.1208,1849.3577],[173.467,-42.1251,1518.509],[173.4721,-42.1338,1194.627],[173.4713,-42.1383,1111.6089],[173.4733,-42.1423,1098.8315],[173.4738,-42.1506,770.6157],[173.4779,-42.153,730.455],[173.4761,-42.1557,693.6422],[173.478,-42.163,613.8794],[173.4828,-42.1661,582.1782],[173.4805,-42.1723,533.2393],[173.4814,-42.176,501.3211],[173.4848,-42.1786,467.574],[173.4841,-42.1815,443.0882],[173.4799,-42.1791,445.3792],[173.464,-42.1798,453.1266],[173.4659,-42.1914,452.5113],[173.4645,-42.1957,459.3312],[173.4569,-42.1987,458.4476],[173.4496,-42.1989,460.0627],[173.4434,-42.2021,463.2118],[173.4407,-42.2046,461.9169],[173.44,-42.2113,490.9571],[173.4375,-42.214,465.6826],[173.4323,-42.2138,470.3628],[173.4216,-42.2091,472.4588],[173.417,-42.2105,475.6346],[173.4037,-42.2196,484.7881],[173.3915,-42.2219,481.778],[173.3877,-42.2179,489.9651],[173.3843,-42.217,491.8148],[173.3756,-42.2238,490.6802],[173.3687,-42.224,497.0671],[173.3672,-42.2291,497.3706],[173.3691,-42.2333,538.3347],[173.3757,-42.233,498.8762],[173.3732,-42.2368,525.1329],[173.3681,-42.2356,538.4498],[173.3614,-42.2377,513.9009],[173.3571,-42.2367,511.4026],[173.356,-42.2417,524.7205],[173.3511,-42.2427,527.3293],[173.3443,-42.2396,541.0685],[173.3481,-42.2341,529.379],[173.3458,-42.2289,543.1771],[173.3416,-42.2279,522.8459],[173.3392,-42.2302,547.4819],[173.3399,-42.2333,524.9915],[173.3375,-42.2364,532.4745],[173.3378,-42.2411,532.5924],[173.3333,-42.2467,551.3084],[173.3248,-42.2471,520.6979],[173.3122,-42.2504,536.7914],[173.3053,-42.2486,542.6788],[173.3037,-42.2461,529.0822],[173.2964,-42.248,541.5425],[173.2958,-42.2498,531.3909],[173.302,-42.2563,547.8816],[173.2959,-42.2658,541.4996],[173.2698,-42.2843,548.9019],[173.2602,-42.2893,551.6993],[173.2551,-42.2957,554.3668],[173.2445,-42.3031,577.152],[173.2359,-42.3047,564.1953],[173.2166,-42.3151,569.6367],[173.2072,-42.3171,571.1881],[173.2057,-42.3226,577.2272],[173.2072,-42.3307,577.5245],[173.205,-42.334,584.8119],[173.1921,-42.3316,584.9431],[173.191,-42.3358,615.115],[173.1865,-42.3347,587.8964],[173.1833,-42.3367,589.3485],[173.1825,-42.3397,598.9883],[173.1842,-42.345,591.3723],[173.1806,-42.3464,595.6132],[173.2259,-42.3463,1513.0464],[173.2433,-42.3561,949.7302],[173.2485,-42.3566,958.8793],[173.2521,-42.3631,1084.1365],[173.2625,-42.3565,1075.4248],[173.2676,-42.3559,1172.2656],[173.2766,-42.3606,1265.0952],[173.2777,-42.3643,1253.3718],[173.2823,-42.3672,1343.5919],[173.2973,-42.3703,1538.3438],[173.2993,-42.3699,1527.3032],[173.3029,-42.3646,1430.521],[173.312,-42.3621,1523.4011],[173.3148,-42.3571,1426.5298],[173.3148,-42.3527,1453.7095],[173.3201,-42.3499,1258.7219],[173.33,-42.3462,1128.1187],[173.334,-42.3462,1152.5315],[173.3518,-42.3388,1226.1934],[173.3609,-42.3382,1316.7275],[173.3703,-42.3401,1356.1039],[173.3736,-42.3479,1261.778],[173.3732,-42.3519,1125.4849],[173.3681,-42.3627,1047.1362],[173.373,-42.3695,1022.6748],[173.3814,-42.3714,972.8134],[173.3805,-42.3758,824.5424],[173.3842,-42.3796,880.0834],[173.3732,-42.3844,909.386],[173.3838,-42.398,370.9113],[173.387,-42.3982,349.2515],[173.3848,-42.4004,416.3456],[173.3854,-42.4015,436.3555],[173.3787,-42.4049,449.6766],[173.3828,-42.4082,440.8875],[173.3862,-42.4152,422.7399],[173.3947,-42.4112,419.5154],[173.4029,-42.4111,267.0903],[173.4051,-42.416,283.6773],[173.4118,-42.4193,366.0826],[173.4005,-42.4251,509.9913],[173.4109,-42.4349,501.9207],[173.4096,-42.4354,501.9207],[173.4132,-42.4397,539.4115],[173.4182,-42.4408,601.7565],[173.4205,-42.4428,601.4863],[173.4202,-42.4461,633.4938],[173.4221,-42.4491,698.4114],[173.4339,-42.4545,706.3809],[173.4349,-42.4636,607.0929],[173.4389,-42.4664,651.0277],[173.4408,-42.4701,695.2626],[173.435,-42.4725,702.3398],[173.4353,-42.4778,710.3389],[173.433,-42.4796,735.0676],[173.4329,-42.4861,686.4531],[173.4297,-42.4886,731.3311],[173.4311,-42.4966,710.7659],[173.4277,-42.5148,409.2338],[173.4152,-42.5111,776.9559],[173.4097,-42.5122,752.6489],[173.4084,-42.5095,707.2805],[173.3985,-42.5089,525.1016],[173.3947,-42.5031,575.5129],[173.3815,-42.5094,439.3957],[173.3805,-42.5145,343.7008],[173.3847,-42.5189,419.5026],[173.3875,-42.5249,549.5182],[173.3976,-42.5249,608.8225],[173.3995,-42.5277,599.4515],[173.4046,-42.528,623.3567],[173.4147,-42.5262,729.3044],[173.4161,-42.5302,728.8436],[173.4294,-42.5346,532.8191],[173.4353,-42.5392,406.8152],[173.4466,-42.5387,290.5589],[173.4489,-42.5427,130.466],[173.4561,-42.541,184.483],[173.4589,-42.5425,156.5877],[173.4577,-42.5414,134.8612],[173.4654,-42.5362,164.6166],[173.4735,-42.5409,211.6075],[173.4705,-42.5442,80.3436],[173.4725,-42.5465,86.5518],[173.4804,-42.5505,51.6835],[173.4834,-42.5551,74.2896],[173.4866,-42.554,38.8246],[173.4902,-42.5556,58.6347],[173.501,-42.5654,18.3048]]]]}
,"properties": {"GID_2": "NZL.3.4_1","GID_0": "NZL","country": "NewZealand","GID_1": "NZL.3_1","province": "Canterbury","NL_NAME_1": "NA","county": "Kaikoura","VARNAME_2": "NA","NL_NAME_2": "NA","TYPE_2": "District","ENGTYPE_2": "District","CC_2": "054","HASC_2": "NZ.CA.KK","name": "Kaikoura.county","area_km2": 2046.0,"hist_schema_id": "Elevation0-9000","hist_area_km2": {"0": 24.7,"25": 43.969,"50": 43.698,"75": 42.181,"100": 44.037,"125": 45.683,"150": 47.846,"175": 46.464,"200": 41.793,"225": 36.523,"250": 33.368,"275": 33.681,"300": 34.365,"325": 35.631,"350": 37.407,"375": 38.293,"400": 39.636,"425": 40.525,"450": 40.621,"475": 41.471,"500": 40.29,"525": 39.614,"550": 40.349,"575": 39.589,"600": 39.995,"625": 38.851,"650": 39.049,"675": 39.051,"700": 40.089,"725": 38.567,"750": 37.856,"775": 37.512,"800": 37.476,"825": 36.222,"850": 35.592,"875": 33.265,"900": 33.531,"925": 31.13,"950": 30.452,"975": 27.092,"1000": 26.712,"1025": 25.787,"1050": 25.317,"1075": 23.101,"1100": 21.061,"1125": 20.244,"1150": 19.772,"1175": 16.898,"1200": 16.822,"1225": 15.691,"1250": 15.425,"1275": 14.387,"1300": 13.449,"1325": 12.539,"1350": 12.396,"1375": 11.393,"1400": 11.141,"1425": 10.874,"1450": 10.874,"1475": 10.263,"1500": 10.012,"1525": 9.367,"1550": 9.211,"1575": 9.181,"1600": 8.332,"1625": 7.876,"1650": 7.688,"1675": 6.901,"1700": 7.139,"1725": 6.729,"1750": 6.604,"1775": 6.273,"1800": 6.037,"1825": 5.991,"1850": 5.771,"1875": 5.299,"1900": 5.22,"1925": 4.843,"1950": 4.89,"1975": 4.606,"2000": 4.166,"2025": 3.993,"2050": 4.213,"2075": 3.773,"2100": 3.6,"2125": 3.035,"2150": 3.13,"2175": 2.799,"2200": 2.233,"2225": 2.075,"2250": 2.296,"2275": 2.06,"2300": 1.148,"2325": 1.117,"2350": 1.038,"2375": 1.101,"2400": 0.692,"2425": 0.787,"2450": 0.551,"2475": 0.456,"2500": 0.425,"2525": 0.362,"2550": 0.252,"2575": 0.268,"2600": 0.189,"2625": 0.142,"2650": 0.142,"2675": 0.079,"2700": 0.047,"2725": 0.095,"2775": 0.079,"2800": 0.032}}}