{"type":"Feature","properties":{"GID_2":"NZL.18.2_1","GID_0":"NZL","country":"NewZealand","GID_1":"NZL.18_1","province":"Wellington","NL_NAME_1":"NA","county":"KapitiCoast","VARNAME_2":"NA","NL_NAME_2":"NA","TYPE_2":"District","ENGTYPE_2":"District","CC_2":"043","HASC_2":"NZ.WG.KC","name":"Kapiti_Coast.county"},
"geometry":{"type": "MultiPolygon","coordinates": [[[[174.9267,-40.8812,0.0],[174.9273,-40.8809,0.0],[174.9275,-40.8803,0.0],[174.9264,-40.8802,0.0],[174.9267,-40.8812,0.0]]],
[[[175.1371,-40.7005,5.4651],[175.1241,-40.7236,2.1376],[175.1239,-40.7282,1.5855],[175.1207,-40.7298,0.0],[175.0981,-40.7644,0.0],[175.0846,-40.7895,2.5367],[175.0633,-40.8204,0.0],[175.0631,-40.8243,4.049],[175.0589,-40.8268,3.3317],[175.0478,-40.8399,3.9985],[175.0308,-40.8555,5.5455],[175.03,-40.8585,2.7459],[175.0262,-40.8589,0.0],[175.0071,-40.8707,1.5731],[174.9906,-40.8782,3.6405],[174.9834,-40.8848,4.6841],[174.9782,-40.8959,4.14],[174.9779,-40.9185,6.7776],[174.974,-40.939,1.0143],[174.9687,-40.9561,0.0],[174.9598,-40.9729,3.3177],[174.9479,-40.9899,3.2195],[174.9388,-41.0003,8.8457],[174.932,-41.004,7.6938],[174.9372,-41.005,254.0588],[174.9366,-41.0063,291.203],[174.9797,-41.0133,619.3165],[174.9965,-41.0076,272.2626],[175.0016,-40.9991,390.866],[175.0173,-40.9988,402.0034],[175.0285,-40.9946,464.2819],[175.0394,-40.9841,530.1758],[175.0506,-40.9682,697.9504],[175.0591,-40.9623,596.5215],[175.063,-40.9664,451.2539],[175.0617,-40.9703,582.4008],[175.0676,-40.9738,556.2332],[175.0744,-40.9833,497.5178],[175.0756,-40.9831,497.5178],[175.075,-40.9821,472.2615],[175.0988,-40.9821,404.55],[175.0917,-40.9613,444.6915],[175.1144,-40.9568,432.9953],[175.1116,-40.9528,421.5383],[175.1292,-40.9493,650.0169],[175.1345,-40.9646,748.7357],[175.1448,-40.9645,680.7928],[175.1473,-40.9672,652.6057],[175.1536,-40.9666,682.3143],[175.1572,-40.9688,688.2247],[175.1625,-40.967,697.083],[175.1647,-40.9677,704.5334],[175.1643,-40.9656,775.1185],[175.1693,-40.9651,667.9352],[175.1737,-40.971,679.3166],[175.1786,-40.9729,677.2743],[175.182,-40.9728,716.4056],[175.187,-40.9696,762.9689],[175.1935,-40.9735,884.7378],[175.1984,-40.9799,747.7214],[175.2028,-40.9789,881.3086],[175.2076,-40.9684,795.8506],[175.2163,-40.966,839.169],[175.2195,-40.9672,835.9144],[175.2245,-40.9723,929.8177],[175.2284,-40.9734,944.1857],[175.2339,-40.9728,1065.7053],[175.2389,-40.9694,1009.4479],[175.2461,-40.9719,881.6171],[175.2611,-40.9709,1324.2207],[175.2619,-40.9675,1332.1284],[175.2672,-40.9672,1317.436],[175.2765,-40.9615,1430.4124],[175.2807,-40.9569,1438.8008],[175.2817,-40.9522,1498.5323],[175.2798,-40.9491,1386.5961],[175.2748,-40.9445,1431.2581],[175.2711,-40.9445,1391.6497],[175.2726,-40.9412,1418.0308],[175.2702,-40.9389,1403.7738],[175.271,-40.9374,1399.3289],[175.2851,-40.9341,1099.0183],[175.3,-40.9258,1139.2256],[175.3106,-40.9255,1119.8169],[175.3177,-40.9179,1202.6265],[175.3332,-40.9145,1297.8701],[175.3342,-40.908,1200.5776],[175.3376,-40.9003,1106.3884],[175.3493,-40.8973,1150.9873],[175.3564,-40.8888,1317.5569],[175.3611,-40.8729,1269.8423],[175.3587,-40.8684,1267.1738],[175.3605,-40.8613,1268.9751],[175.3583,-40.8595,1162.2595],[175.3561,-40.8478,1172.7573],[175.3555,-40.8384,1222.4351],[175.3578,-40.834,1307.679],[175.3539,-40.8266,1302.1256],[175.3542,-40.8233,1305.6221],[175.3577,-40.8182,1423.6556],[175.3567,-40.8147,1364.1636],[175.3597,-40.8122,1289.2834],[175.377,-40.8091,1209.4406],[175.376,-40.794,1010.578],[175.379,-40.7884,1025.1868],[175.38,-40.781,1051.928],[175.3846,-40.7783,1075.884],[175.3887,-40.7708,1073.9049],[175.3931,-40.7674,1060.1609],[175.3928,-40.7643,1023.7418],[175.3958,-40.7588,1039.3406],[175.405,-40.7522,1083.7423],[175.4187,-40.7499,1166.1703],[175.4229,-40.7485,1309.6809],[175.425,-40.7455,1392.835],[175.416,-40.7418,1135.9008],[175.4074,-40.7358,937.717],[175.4043,-40.7353,921.3004],[175.3983,-40.7375,877.1498],[175.3888,-40.731,751.3478],[175.3773,-40.7325,833.1192],[175.3715,-40.7268,942.8621],[175.3676,-40.7277,828.3019],[175.3604,-40.7328,1061.6942],[175.3557,-40.7302,1070.0557],[175.3519,-40.7348,936.2517],[175.3529,-40.7462,967.181],[175.3464,-40.7522,1061.6687],[175.3411,-40.7493,817.8148],[175.3361,-40.7517,905.9896],[175.3316,-40.7459,850.0039],[175.3283,-40.7442,890.6603],[175.3266,-40.7494,870.7469],[175.3093,-40.7497,901.2489],[175.3051,-40.7524,932.0558],[175.3,-40.7533,906.2437],[175.2977,-40.7521,879.111],[175.2914,-40.7541,724.8915],[175.2768,-40.7663,654.6027],[175.2689,-40.7687,678.7131],[175.2648,-40.7681,678.7125],[175.2611,-40.7655,655.6059],[175.2531,-40.7644,640.9024],[175.2436,-40.7583,583.0796],[175.2348,-40.7559,417.5068],[175.2281,-40.7566,374.99],[175.2187,-40.7626,290.0633],[175.2129,-40.7632,217.3926],[175.2079,-40.761,200.4282],[175.2011,-40.7612,102.4656],[175.2014,-40.7593,101.3046],[175.193,-40.7573,171.5747],[175.1931,-40.7526,188.1779],[175.1882,-40.7451,183.5805],[175.1898,-40.7418,199.2764],[175.1987,-40.7434,125.1095],[175.202,-40.739,131.6773],[175.2043,-40.7394,124.6876],[175.2065,-40.7321,51.3898],[175.2029,-40.7315,58.6575],[175.2044,-40.7303,54.8304],[175.1838,-40.7179,18.0928],[175.1784,-40.7214,20.2885],[175.1694,-40.7183,23.6735],[175.1707,-40.7107,20.7132],[175.1371,-40.7005,5.4651]]],
[[[174.9034,-40.8892,0.0],[174.9022,-40.8894,1.3918],[174.9023,-40.89,1.1705],[174.9034,-40.89,0.0],[174.9034,-40.8892,0.0]]],
[[[174.9014,-40.8883,1.3918],[174.9016,-40.8879,0.0],[174.9014,-40.8855,0.0],[174.9009,-40.8873,0.0],[174.9014,-40.8883,1.3918]]],
[[[174.9432,-40.8222,2.145],[174.9387,-40.8202,9.7426],[174.9324,-40.8227,0.9389],[174.9238,-40.8227,0.0],[174.9226,-40.821,0.0],[174.9201,-40.8222,0.0],[174.9192,-40.8235,0.0],[174.921,-40.8257,0.0],[174.9208,-40.8281,18.1873],[174.9153,-40.8309,0.0],[174.9154,-40.8379,135.4305],[174.9121,-40.843,51.3921],[174.9096,-40.8456,43.0225],[174.9073,-40.8458,3.6627],[174.9072,-40.8482,155.0914],[174.9008,-40.855,48.4595],[174.891,-40.8572,6.3662],[174.8907,-40.8611,109.8657],[174.8877,-40.8645,0.0],[174.8851,-40.8652,6.3891],[174.8845,-40.8676,1.9848],[174.8797,-40.8686,0.0],[174.8804,-40.8701,144.0528],[174.873,-40.8755,68.3013],[174.869,-40.876,0.7111],[174.8708,-40.8812,7.9583],[174.8688,-40.8862,5.5124],[174.8757,-40.8905,0.0],[174.8792,-40.8887,8.1614],[174.8827,-40.8904,0.0],[174.8841,-40.8884,1.7762],[174.8866,-40.8902,0.0],[174.9024,-40.8806,11.4142],[174.9113,-40.8707,5.7094],[174.9181,-40.8683,0.0],[174.9259,-40.8598,0.0],[174.9351,-40.8533,0.0],[174.9335,-40.8498,72.3797],[174.9441,-40.8324,6.7319],[174.9512,-40.8315,0.0],[174.9544,-40.8288,2.1627],[174.9514,-40.8255,0.0],[174.9432,-40.8222,2.145]]]]}}