{"type":"Feature","properties":{"GID_2":"NZL.6.2_1","GID_0":"NZL","country":"NewZealand","GID_1":"NZL.6_1","province":"Hawke'sBay","NL_NAME_1":"NA","county":"Hastings","VARNAME_2":"NA","NL_NAME_2":"NA","TYPE_2":"District","ENGTYPE_2":"District","CC_2":"030","HASC_2":"NZ.HB.HS","name":"Hastings.county"},
"geometry":{"type": "MultiPolygon","coordinates": [[[[176.9889,-39.8583,4.0735],[176.9889,-39.858,4.0735],[176.9873,-39.8575,1.874],[176.9881,-39.8581,4.0735],[176.9889,-39.8583,4.0735]]],
[[[177.0973,-39.6421,0.0],[177.0976,-39.6421,0.0],[177.0975,-39.6417,0.0],[177.0972,-39.6419,0.0],[177.0973,-39.6421,0.0]]],
[[[176.9586,-39.8819,268.3642],[176.9665,-39.883,44.2368],[176.9749,-39.8722,42.2402],[176.9812,-39.8675,47.8539],[176.9813,-39.8611,39.2492],[176.9871,-39.8575,1.874],[176.9865,-39.8559,2.3834],[176.9905,-39.8529,14.4164],[176.992,-39.8478,24.1785],[176.9953,-39.8481,0.0],[176.9965,-39.8422,1.5054],[177.0053,-39.8412,0.0],[177.0051,-39.8359,0.0],[176.9983,-39.8268,0.0],[176.9953,-39.8178,0.3836],[176.9935,-39.8107,2.0251],[176.9942,-39.7977,0.0],[176.998,-39.7861,0.0],[177.0046,-39.7782,0.0],[177.0076,-39.7707,34.9655],[177.0067,-39.7617,12.4729],[177.0148,-39.7322,1.4778],[177.0399,-39.7006,1.4836],[177.0491,-39.6928,6.0377],[177.0648,-39.683,0.0],[177.0661,-39.6805,6.535],[177.0755,-39.6733,1.4627],[177.0788,-39.6679,2.065],[177.079,-39.6637,68.2562],[177.0854,-39.6582,1.2068],[177.0929,-39.6449,11.0774],[177.096,-39.6425,0.0],[177.0858,-39.643,34.6226],[177.081,-39.6405,18.0365],[177.0764,-39.6355,3.4555],[177.0633,-39.6432,62.2728],[177.0538,-39.6435,31.0584],[177.0329,-39.6499,107.5046],[177.0264,-39.6486,45.1326],[177.0166,-39.6448,38.6125],[177.0095,-39.6401,34.3392],[177.0001,-39.6386,1.19],[176.9873,-39.6319,1.1211],[176.9791,-39.6318,2.7817],[176.9661,-39.6233,3.2356],[176.9528,-39.6085,0.0],[176.9395,-39.5873,1.4242],[176.9265,-39.5617,0.0],[176.9169,-39.5614,2.317],[176.8943,-39.5697,3.0839],[176.8846,-39.5705,4.4822],[176.8733,-39.5659,4.1585],[176.8675,-39.5564,7.2333],[176.8667,-39.5526,6.9741],[176.8633,-39.5503,9.9186],[176.8534,-39.5503,10.3746],[176.8421,-39.5477,13.5536],[176.8287,-39.5551,15.5123],[176.8219,-39.556,12.5821],[176.8131,-39.5533,14.1071],[176.8113,-39.5516,13.435],[176.8151,-39.5484,21.8929],[176.8309,-39.5267,82.5784],[176.8287,-39.5237,78.1616],[176.8309,-39.5202,79.1253],[176.8307,-39.5176,77.6999],[176.8264,-39.5148,63.4243],[176.8258,-39.5122,33.0761],[176.8163,-39.508,22.1826],[176.8174,-39.5064,21.2435],[176.8125,-39.5035,21.4917],[176.8135,-39.4949,26.3996],[176.829,-39.488,27.1908],[176.8228,-39.4864,33.5543],[176.8236,-39.4827,39.0954],[176.8265,-39.4827,43.9275],[176.8325,-39.4772,3.3307],[176.8365,-39.4769,1.3327],[176.8255,-39.4627,1.2395],[176.826,-39.4607,30.935],[176.8281,-39.4601,3.5267],[176.8275,-39.4568,4.2766],[176.8313,-39.4543,19.5407],[176.84,-39.4529,20.6342],[176.842,-39.4473,8.5855],[176.8389,-39.4431,2.4969],[176.8369,-39.4481,17.5568],[176.8336,-39.449,7.4841],[176.8318,-39.4467,4.1814],[176.8344,-39.4455,16.6282],[176.8346,-39.4432,2.9894],[176.8314,-39.4385,0.9653],[176.8442,-39.4337,15.1098],[176.8474,-39.434,8.6292],[176.8498,-39.425,1.3632],[176.8455,-39.4187,27.8026],[176.8482,-39.4179,2.5525],[176.8483,-39.416,13.9739],[176.8518,-39.4176,5.1333],[176.8543,-39.4151,3.5765],[176.8565,-39.416,37.8154],[176.8539,-39.4101,25.5579],[176.8583,-39.4083,84.3838],[176.8558,-39.4071,58.5471],[176.8541,-39.4035,31.468],[176.8523,-39.4035,43.9786],[176.8539,-39.3928,34.822],[176.8629,-39.3942,21.892],[176.8673,-39.3924,21.8178],[176.8708,-39.3882,8.1764],[176.874,-39.3919,8.8928],[176.8775,-39.3932,7.3949],[176.8794,-39.3992,5.3397],[176.886,-39.3973,0.0],[176.9,-39.3667,1.3158],[176.92,-39.3393,3.7619],[176.9303,-39.3353,18.0789],[176.9362,-39.3393,1.1636],[176.936,-39.3365,11.849],[176.941,-39.3357,34.1406],[176.9456,-39.3274,26.9577],[176.9539,-39.3184,31.4229],[176.9587,-39.3151,73.6655],[176.9661,-39.3137,30.0524],[176.9709,-39.307,47.134],[176.9742,-39.3059,44.8266],[176.9777,-39.3002,8.7544],[176.9827,-39.2988,82.9779],[176.9894,-39.2941,66.4494],[176.992,-39.2904,15.2505],[176.9933,-39.2841,72.6102],[176.9974,-39.2784,3.2449],[177.0062,-39.2741,0.9841],[177.0107,-39.27,0.9692],[177.0106,-39.2653,16.0052],[177.0152,-39.2649,1.3431],[177.0187,-39.261,6.1371],[177.0218,-39.246,4.6077],[177.0308,-39.2408,3.5],[177.0343,-39.2371,11.623],[177.036,-39.2322,12.1894],[177.0346,-39.2217,60.2692],[177.0376,-39.2191,0.0],[177.0363,-39.218,11.731],[177.0375,-39.2132,0.0],[177.0365,-39.2119,24.1545],[177.039,-39.2093,0.0],[177.0388,-39.2033,0.0],[177.0405,-39.1996,0.0],[177.0509,-39.1906,68.1298],[177.086,-39.17,5.0813],[177.0801,-39.1675,33.256],[177.0866,-39.1655,15.9922],[177.0875,-39.1633,5.3051],[177.0847,-39.1567,23.0503],[177.08,-39.1584,21.5697],[177.078,-39.1575,21.049],[177.0804,-39.1533,20.196],[177.0797,-39.1507,14.3982],[177.0782,-39.1502,14.3982],[177.0756,-39.154,10.2574],[177.0713,-39.1551,32.369],[177.0695,-39.1534,30.3822],[177.0698,-39.1503,20.345],[177.0644,-39.1475,34.1078],[177.0633,-39.153,19.1351],[177.0583,-39.1536,18.5315],[177.0575,-39.1572,55.5754],[177.0557,-39.1577,15.1438],[177.0447,-39.1507,16.8686],[177.0405,-39.1499,19.1145],[177.0388,-39.1525,17.572],[177.0418,-39.1562,37.3258],[177.0404,-39.1584,32.7645],[177.0381,-39.1596,63.6314],[177.0303,-39.1589,37.1851],[177.0302,-39.1561,21.0992],[177.0337,-39.1511,22.7818],[177.0332,-39.1491,42.3421],[177.0271,-39.1483,24.9467],[177.0237,-39.1523,29.8708],[177.0215,-39.1522,25.8849],[177.0203,-39.1494,36.5924],[177.0227,-39.1471,57.4792],[177.0185,-39.1395,67.1482],[177.0127,-39.1348,44.8657],[177.0094,-39.1345,39.9311],[177.0057,-39.1306,54.0873],[176.9949,-39.1289,54.3023],[176.9957,-39.1246,61.2017],[176.9897,-39.1219,70.9844],[176.9914,-39.119,90.0208],[176.9906,-39.1176,77.2449],[176.9887,-39.117,73.4474],[176.9861,-39.1192,70.5605],[176.9818,-39.1187,65.3321],[176.9848,-39.115,78.3538],[176.9833,-39.1125,133.6369],[176.9854,-39.1111,85.9787],[176.975,-39.1059,138.0429],[176.9746,-39.103,84.975],[176.9694,-39.1025,79.5249],[176.9718,-39.1012,102.3016],[176.9709,-39.0998,76.7081],[176.9625,-39.0991,108.6088],[176.9631,-39.0954,130.1969],[176.9588,-39.0959,113.7179],[176.9564,-39.09,136.5435],[176.9544,-39.0903,145.9061],[176.9506,-39.0949,204.1341],[176.9475,-39.0916,147.9142],[176.944,-39.0907,163.2431],[176.9365,-39.0992,165.981],[176.9318,-39.0974,185.6066],[176.9309,-39.0992,169.7942],[176.9333,-39.1007,172.6156],[176.9306,-39.1047,194.7034],[176.9266,-39.1045,168.3544],[176.9271,-39.1018,169.9256],[176.9236,-39.1031,181.0263],[176.9205,-39.1069,177.9469],[176.9129,-39.1067,184.3062],[176.9052,-39.1089,205.664],[176.9038,-39.1056,201.2893],[176.9002,-39.1071,217.4935],[176.8975,-39.1054,203.954],[176.8957,-39.1003,206.9062],[176.8924,-39.103,225.3394],[176.8901,-39.1021,225.1712],[176.8901,-39.1005,231.2157],[176.8865,-39.1015,231.3894],[176.8838,-39.0989,229.6609],[176.8772,-39.0964,256.9293],[176.8785,-39.0948,252.1109],[176.8775,-39.0923,249.7525],[176.8723,-39.0924,269.8707],[176.8696,-39.0855,336.9806],[176.8706,-39.0833,361.4682],[176.8693,-39.079,398.4956],[176.8579,-39.0741,509.6028],[176.8553,-39.0747,562.4716],[176.8496,-39.0725,667.1276],[176.8449,-39.069,680.7173],[176.8395,-39.0624,563.9049],[176.8387,-39.0589,490.8485],[176.8359,-39.058,500.8564],[176.8394,-39.0551,468.2249],[176.8365,-39.0547,523.8795],[176.8409,-39.0488,306.4431],[176.8376,-39.0467,295.7599],[176.8393,-39.045,281.357],[176.8388,-39.0436,286.5541],[176.8375,-39.0415,244.3396],[176.8351,-39.0415,253.3155],[176.8262,-39.0463,397.7581],[176.8198,-39.0383,177.2943],[176.8243,-39.0302,185.4887],[176.8191,-39.0274,215.463],[176.8188,-39.0226,177.4395],[176.8059,-39.0208,191.6152],[176.8014,-39.0235,197.0532],[176.7983,-39.0235,195.716],[176.7952,-39.0183,191.2693],[176.7911,-39.0163,234.2084],[176.7896,-39.0175,295.1736],[176.7779,-39.011,493.0687],[176.7772,-38.9999,670.5721],[176.7165,-38.9995,704.2463],[176.7136,-38.9427,1308.5574],[176.6977,-38.856,1174.4438],[176.5985,-38.9333,655.0954],[176.5995,-38.9342,641.3221],[176.5971,-38.9414,616.833],[176.5981,-38.9467,606.7536],[176.5964,-38.9534,624.0516],[176.598,-38.9577,593.5818],[176.5967,-38.9592,580.1324],[176.6026,-38.965,582.6323],[176.5988,-38.9694,570.0859],[176.601,-38.9723,590.3811],[176.5999,-38.976,557.7524],[176.603,-38.9769,563.3835],[176.6019,-38.9794,542.1248],[176.6061,-38.9806,536.1375],[176.6058,-38.9857,541.7943],[176.6092,-38.9875,543.2383],[176.6119,-38.9871,543.6363],[176.6129,-38.9891,533.2886],[176.6081,-38.996,586.7518],[176.6103,-38.9983,540.8556],[176.541,-38.9977,569.2781],[176.541,-38.9992,508.7729],[176.547,-39.0018,532.0581],[176.4492,-39.0016,936.1613],[176.4202,-39.0619,987.8561],[176.4435,-39.1208,1082.4011],[176.4168,-39.1163,1200.6016],[176.3696,-39.1326,605.8109],[176.3702,-39.134,561.3735],[176.3759,-39.134,582.8184],[176.3783,-39.1384,612.5994],[176.3822,-39.1341,579.6921],[176.3872,-39.137,592.8894],[176.3869,-39.1409,575.8367],[176.3894,-39.1422,670.7438],[176.3863,-39.1445,658.1096],[176.3862,-39.1466,566.9275],[176.3899,-39.1513,554.4342],[176.3969,-39.1509,594.244],[176.3909,-39.1561,558.2778],[176.3953,-39.1619,543.2344],[176.3404,-39.1731,1111.1655],[176.2332,-39.0979,686.9826],[176.2318,-39.1044,695.8262],[176.2284,-39.1084,708.377],[176.2265,-39.1083,700.3959],[176.2258,-39.1107,709.9167],[176.2215,-39.1104,753.1556],[176.2118,-39.1172,735.6388],[176.1838,-39.1274,809.0809],[176.1826,-39.1294,866.4316],[176.1847,-39.1336,1029.2507],[176.1761,-39.1439,947.9336],[176.1755,-39.1493,944.389],[176.1809,-39.1691,965.6642],[176.1782,-39.1699,956.0559],[176.1822,-39.1739,953.9642],[176.1801,-39.1768,928.3033],[176.1824,-39.1794,926.7314],[176.18,-39.1806,925.8295],[176.1798,-39.1851,923.051],[176.1865,-39.1894,968.3309],[176.1905,-39.1949,926.8108],[176.1947,-39.1964,928.2437],[176.1955,-39.1987,970.4667],[176.1932,-39.2018,989.1946],[176.1958,-39.2083,940.8711],[176.1929,-39.2114,974.7588],[176.1961,-39.2149,909.7067],[176.1961,-39.2214,925.4075],[176.2004,-39.2259,901.5233],[176.2041,-39.2253,927.1172],[176.2085,-39.2277,901.5107],[176.2095,-39.2315,996.6273],[176.2115,-39.2324,901.4849],[176.2151,-39.2309,933.5281],[176.2195,-39.2313,897.4513],[176.2232,-39.2357,892.145],[176.2308,-39.2322,875.5985],[176.2397,-39.2329,973.0358],[176.2421,-39.236,881.7535],[176.2445,-39.2344,1001.3862],[176.2489,-39.2346,839.4495],[176.2513,-39.2388,856.0383],[176.2554,-39.2367,892.3411],[176.2552,-39.24,861.4116],[176.258,-39.2406,885.8287],[176.2573,-39.2446,853.3383],[176.2766,-39.24,851.5883],[176.2785,-39.2425,863.5081],[176.2897,-39.2464,811.3525],[176.2923,-39.251,801.1542],[176.2873,-39.2514,795.3651],[176.2881,-39.2548,770.0323],[176.2917,-39.2554,790.089],[176.288,-39.2591,808.4805],[176.293,-39.2586,806.523],[176.2928,-39.2638,763.8204],[176.2954,-39.2669,755.5656],[176.2933,-39.2772,780.6706],[176.2993,-39.276,765.0973],[176.301,-39.2838,788.5106],[176.2992,-39.2851,734.3964],[176.3042,-39.2856,735.562],[176.3051,-39.2919,719.6469],[176.3017,-39.2976,715.2758],[176.3026,-39.3006,756.6783],[176.2987,-39.3054,706.3793],[176.2935,-39.3079,716.2379],[176.2913,-39.3069,725.8615],[176.2865,-39.3103,679.3109],[176.2815,-39.3093,709.3771],[176.2799,-39.3126,672.4417],[176.2823,-39.3145,677.1993],[176.2816,-39.3186,660.7286],[176.2775,-39.3194,699.5338],[176.2774,-39.327,641.6017],[176.2725,-39.3288,639.3645],[176.2763,-39.3299,651.8503],[176.271,-39.3346,649.1432],[176.2728,-39.3377,619.1945],[176.2638,-39.3373,610.1398],[176.2664,-39.3415,626.7614],[176.266,-39.3444,636.3089],[176.2701,-39.3461,607.9766],[176.2654,-39.3493,613.0416],[176.2715,-39.3525,612.5453],[176.2708,-39.3584,607.8881],[176.2732,-39.3596,653.6738],[176.2756,-39.3585,609.2233],[176.2759,-39.3623,583.7108],[176.2784,-39.3616,581.1694],[176.2784,-39.3595,573.1688],[176.2804,-39.3585,578.8947],[176.2829,-39.3602,612.6606],[176.285,-39.3597,573.5693],[176.2865,-39.3623,574.1677],[176.2916,-39.363,631.9652],[176.2936,-39.3579,559.9333],[176.2984,-39.3587,553.8875],[176.3024,-39.3566,559.4931],[176.3033,-39.3598,557.8891],[176.3067,-39.3612,548.3812],[176.305,-39.3654,543.5633],[176.3115,-39.3665,541.312],[176.3109,-39.3703,526.731],[176.3216,-39.3706,525.1079],[176.3284,-39.3686,551.9773],[176.3292,-39.3731,516.9537],[176.3321,-39.375,511.7323],[176.3315,-39.3771,538.9539],[176.3276,-39.3785,511.7745],[176.3285,-39.3799,541.8513],[176.3306,-39.3783,499.4308],[176.3319,-39.379,507.1915],[176.3328,-39.3838,490.4114],[176.3313,-39.3867,505.7822],[176.327,-39.388,500.2491],[176.3234,-39.3868,495.4812],[176.3208,-39.3902,498.2224],[176.3222,-39.3937,489.2742],[176.3257,-39.3919,505.2863],[176.3282,-39.3934,489.1333],[176.3276,-39.3966,485.6306],[176.324,-39.3986,475.2448],[176.3258,-39.4001,469.1153],[176.3239,-39.403,515.7125],[176.3267,-39.4061,474.0894],[176.3211,-39.4054,489.7469],[176.3196,-39.4066,478.2602],[176.3246,-39.4094,470.1601],[176.324,-39.4109,469.8669],[176.3207,-39.4106,486.8644],[176.3219,-39.4147,533.5346],[176.3176,-39.415,538.2586],[176.3143,-39.4134,459.0319],[176.3092,-39.4181,499.5219],[176.3161,-39.4198,458.0746],[176.3058,-39.429,471.7375],[176.3084,-39.4317,452.4553],[176.3023,-39.4372,425.9676],[176.3083,-39.4409,435.2225],[176.3058,-39.4415,404.1103],[176.3051,-39.4439,418.8515],[176.3104,-39.4452,451.5662],[176.3139,-39.4533,397.6668],[176.31,-39.4551,456.3809],[176.3132,-39.4588,411.1017],[176.3098,-39.4598,425.67],[176.3073,-39.4628,430.728],[176.3115,-39.4688,403.9439],[176.3088,-39.4706,379.2148],[176.3143,-39.472,367.1873],[176.3127,-39.4748,372.7194],[176.3184,-39.4748,413.8866],[176.3215,-39.4791,403.1436],[176.3182,-39.4809,376.0716],[176.3165,-39.4792,423.2712],[176.3135,-39.4828,360.2572],[176.3192,-39.4877,422.3318],[176.3154,-39.4928,363.2979],[176.3177,-39.4938,341.5202],[176.3158,-39.4973,344.5467],[176.3206,-39.4976,337.8125],[176.3219,-39.4934,347.8194],[176.3253,-39.4936,345.1919],[176.3255,-39.488,316.5582],[176.334,-39.4893,314.1392],[176.3372,-39.4883,298.2815],[176.3375,-39.4906,322.3771],[176.3352,-39.4913,369.6842],[176.336,-39.4934,294.9899],[176.3322,-39.4984,294.2157],[176.3337,-39.4991,281.252],[176.3396,-39.4966,288.0506],[176.338,-39.5011,253.0747],[176.3407,-39.5024,255.3613],[176.3327,-39.5044,299.836],[176.3241,-39.5014,296.4824],[176.3236,-39.5059,291.18],[176.3185,-39.5081,390.2252],[176.313,-39.5076,317.5155],[176.3128,-39.5061,340.1366],[176.3162,-39.5039,336.837],[176.31,-39.5021,352.6368],[176.3066,-39.504,330.3173],[176.302,-39.5022,333.6995],[176.2989,-39.5042,377.4123],[176.3013,-39.505,345.6964],[176.3,-39.5071,364.7869],[176.2918,-39.5016,348.7675],[176.285,-39.5049,367.2817],[176.2812,-39.5025,366.4472],[176.278,-39.5033,387.3543],[176.2784,-39.5068,370.0864],[176.2717,-39.5071,366.4768],[176.2695,-39.5115,409.7486],[176.2651,-39.5149,417.1466],[176.2574,-39.5123,376.6133],[176.2568,-39.515,384.2797],[176.2514,-39.5183,405.7552],[176.2477,-39.5231,402.6511],[176.2389,-39.5255,414.3094],[176.2353,-39.5304,420.923],[176.2279,-39.533,442.5219],[176.225,-39.5321,427.291],[176.223,-39.5339,433.8435],[176.2198,-39.5319,440.8829],[176.2105,-39.5334,527.2289],[176.2065,-39.5407,651.6698],[176.2,-39.5464,663.7599],[176.2001,-39.5535,695.4926],[176.1982,-39.5545,743.2811],[176.1992,-39.5571,764.509],[176.1897,-39.5596,777.2983],[176.1868,-39.5646,777.4915],[176.1835,-39.5665,785.4435],[176.1823,-39.5717,811.3108],[176.1741,-39.5766,846.7755],[176.1744,-39.5787,845.5504],[176.1703,-39.5815,903.8464],[176.1664,-39.5828,919.0334],[176.1603,-39.5807,991.1279],[176.1547,-39.5836,991.5348],[176.1448,-39.5824,1090.6636],[176.1427,-39.5847,1150.2744],[176.1472,-39.5925,1172.645],[176.1527,-39.5983,1211.9982],[176.1576,-39.5968,1241.7139],[176.1614,-39.6029,1142.6921],[176.1735,-39.6021,1141.9983],[176.179,-39.6053,1164.1738],[176.1813,-39.6169,1193.8955],[176.1651,-39.6487,1280.1003],[176.1959,-39.6636,1496.7365],[176.2009,-39.673,1444.4922],[176.1927,-39.6798,1424.4695],[176.1842,-39.6838,1433.8448],[176.1839,-39.6862,1380.2416],[176.2689,-39.7485,422.1334],[176.3156,-39.7521,579.6385],[176.3273,-39.764,597.8978],[176.3263,-39.7682,558.8672],[176.336,-39.7699,472.5615],[176.3478,-39.7772,424.1967],[176.3569,-39.7494,450.8249],[176.3594,-39.7486,446.0827],[176.3579,-39.7465,449.0294],[176.3639,-39.7266,487.0918],[176.3593,-39.7176,511.8195],[176.3747,-39.7085,477.4514],[176.3759,-39.7047,449.1994],[176.3849,-39.6958,411.3293],[176.3884,-39.6885,347.2579],[176.409,-39.6813,447.6849],[176.4094,-39.6801,450.4304],[176.4326,-39.6877,464.0034],[176.4454,-39.6886,418.4894],[176.4469,-39.6934,395.4672],[176.4508,-39.6972,388.3548],[176.459,-39.6986,378.309],[176.4652,-39.6974,376.8709],[176.4692,-39.7019,349.7657],[176.4788,-39.7036,344.6473],[176.4789,-39.7063,338.838],[176.4813,-39.7086,338.149],[176.4859,-39.7083,337.0872],[176.4882,-39.71,341.7679],[176.486,-39.7118,321.9901],[176.4871,-39.712,321.9901],[176.4861,-39.714,317.7878],[176.4884,-39.7157,313.4737],[176.4868,-39.7172,312.8345],[176.4948,-39.72,319.0388],[176.494,-39.7216,312.2929],[176.4952,-39.7235,314.8434],[176.4938,-39.7241,314.8434],[176.4948,-39.7254,319.6209],[176.4925,-39.7266,307.8327],[176.4929,-39.729,297.3757],[176.4912,-39.7286,310.2738],[176.4906,-39.7321,291.2465],[176.4873,-39.7341,289.4058],[176.4837,-39.7336,294.5388],[176.4834,-39.7363,304.3637],[176.4819,-39.7353,288.5783],[176.4798,-39.7377,282.3705],[176.4813,-39.7398,278.3964],[176.4799,-39.7429,286.454],[176.4807,-39.7462,290.1271],[176.4779,-39.7481,287.6385],[176.4788,-39.7521,278.6815],[176.4812,-39.7539,272.1669],[176.4813,-39.7575,288.184],[176.4872,-39.7558,256.1275],[176.492,-39.7603,253.4919],[176.4944,-39.7607,312.1693],[176.4916,-39.7633,267.4821],[176.4948,-39.7648,246.2026],[176.4942,-39.7672,242.8203],[176.5476,-39.7855,357.9858],[176.571,-39.7924,281.2132],[176.5715,-39.7912,288.0171],[176.5842,-39.8014,284.1005],[176.6024,-39.8113,421.1003],[176.6208,-39.816,171.6046],[176.6345,-39.821,142.7037],[176.6398,-39.8246,80.8095],[176.6423,-39.8206,96.2785],[176.6524,-39.8259,102.2027],[176.6586,-39.8255,86.0711],[176.67,-39.8345,190.9912],[176.6676,-39.8401,198.6034],[176.671,-39.8479,138.9345],[176.671,-39.8538,143.7861],[176.6774,-39.8559,135.9071],[176.6787,-39.8603,109.394],[176.6817,-39.8616,87.0437],[176.6929,-39.8632,92.7253],[176.705,-39.8579,108.463],[176.7144,-39.8574,72.7374],[176.7194,-39.8545,72.2705],[176.7298,-39.8577,72.0],[176.7324,-39.8551,73.4492],[176.7318,-39.85,72.4165],[176.7345,-39.8468,75.6449],[176.7337,-39.8418,71.6392],[176.7355,-39.8379,69.8952],[176.7448,-39.827,64.4627],[176.7601,-39.8171,62.2431],[176.7692,-39.8074,60.9941],[176.7748,-39.8073,60.7466],[176.7822,-39.8182,55.6679],[176.7871,-39.8201,60.4589],[176.7939,-39.8171,55.8068],[176.8028,-39.8063,53.1402],[176.8059,-39.8072,57.1777],[176.8099,-39.8059,95.2538],[176.811,-39.8086,76.603],[176.8091,-39.8107,141.4673],[176.813,-39.8117,86.3136],[176.8141,-39.8136,91.2898],[176.8126,-39.8175,111.9161],[176.8166,-39.8222,83.0383],[176.8158,-39.8261,95.1389],[176.8206,-39.8285,119.1465],[176.8213,-39.8303,163.7687],[176.8212,-39.8331,196.4377],[176.8135,-39.8427,149.886],[176.8208,-39.8482,328.8298],[176.833,-39.852,178.9409],[176.8402,-39.8435,149.1363],[176.8593,-39.8442,300.0227],[176.8534,-39.8889,289.2222],[176.9063,-39.8926,509.9291],[176.9074,-39.8886,520.6593],[176.9112,-39.8858,565.0301],[176.9116,-39.8833,567.4288],[176.9173,-39.8763,526.6918],[176.9586,-39.8819,268.3642]]]]}}