{"type": "Feature","id": "3404","bbox": [172.67408,-36.39951,174.65622,-34.39764],"geometry": {"type": "Polygon","coordinates": [[[174.65622,-36.13347,0.0],[174.65154,-36.12916,0.0],[174.63673,-36.11956,0.0],[174.62615,-36.10735,0.0],[174.6211,-36.08375,0.0],[174.62403,-36.07293,0.0],[174.62965,-36.06439,0.0],[174.63087,-36.05511,0.0],[174.6211,-36.04225,0.0],[174.6102,-36.0372,0.0],[174.58497,-36.0372,0.0],[174.57276,-36.03533,0.0],[174.55397,-36.02711,0.0],[174.50913,-36.0001,0.0],[174.49692,-35.98756,0.0],[174.49537,-35.96941,0.0],[174.49659,-35.94378,0.0],[174.49301,-35.91937,0.0],[174.47657,-35.90504,0.0],[174.49903,-35.88698,0.0],[174.51612,-35.86712,0.0],[174.52027,-35.84743,0.0],[174.50375,-35.83001,6.5408],[174.48219,-35.82383,0.0],[174.41586,-35.81683,0.0],[174.39772,-35.81943,1.1587],[174.39015,-35.8305,66.1452],[174.38404,-35.84344,17.9123],[174.37525,-35.85182,14.8711],[174.35987,-35.84979,40.0337],[174.35271,-35.84197,1.4103],[174.34995,-35.82969,0.975],[174.35125,-35.81658,0.0],[174.35646,-35.80633,0.0],[174.36004,-35.78948,0.0],[174.35524,-35.73528,15.807],[174.35987,-35.71331,55.068],[174.37094,-35.72381,57.6351],[174.37892,-35.7348,58.6645],[174.38396,-35.74684,82.7843],[174.38705,-35.761,24.2802],[174.38673,-35.77923,0.0],[174.38347,-35.78753,0.0],[174.38551,-35.78948,0.0],[174.40138,-35.789,0.0],[174.40594,-35.78574,0.0],[174.41131,-35.77166,147.3911],[174.41814,-35.76849,80.7256],[174.42449,-35.77068,70.1506],[174.43474,-35.77996,0.0],[174.44174,-35.78151,0.0],[174.45623,-35.77842,0.0],[174.48194,-35.76946,37.6892],[174.49692,-35.76849,31.7798],[174.49578,-35.7846,39.4595],[174.52442,-35.79144,33.6837],[174.51743,-35.81015,324.274],[174.53989,-35.82244,14.2725],[174.55885,-35.83904,15.8212],[174.57927,-35.84954,245.2431],[174.60678,-35.84352,0.0],[174.58302,-35.80633,0.0],[174.58058,-35.7973,0.0],[174.58725,-35.77337,0.0],[174.58644,-35.761,0.0],[174.57618,-35.75026,0.0],[174.51743,-35.7208,5.5278],[174.52833,-35.71836,3.1176],[174.53932,-35.71396,18.9678],[174.54811,-35.7068,0.0],[174.55161,-35.69647,0.0],[174.54737,-35.68792,0.0],[174.53688,-35.68401,0.0],[174.51124,-35.67913,0.0],[174.52573,-35.67295,0.0],[174.53102,-35.67164,0.0],[174.49317,-35.65472,13.791],[174.47657,-35.64324,0.0],[174.48707,-35.63812,0.0],[174.50514,-35.63877,1.4179],[174.55006,-35.64479,0.0],[174.56528,-35.65179,0.0],[174.57838,-35.61793,0.0],[174.56951,-35.59433,0.0],[174.52117,-35.5525,0.0],[174.46892,-35.51767,0.0],[174.46437,-35.50563,19.8433],[174.50375,-35.50107,0.0],[174.4983,-35.48895,0.0],[174.47478,-35.45379,0.0],[174.46632,-35.44638,0.0],[174.46363,-35.44459,0.0],[174.46013,-35.43613,0.0],[174.45607,-35.43271,0.0],[174.452,-35.43239,0.0],[174.44947,-35.43467,0.0],[174.44842,-35.43743,0.0],[174.44923,-35.4389,0.0],[174.42872,-35.43467,6.8348],[174.40821,-35.43271,0.0],[174.38575,-35.41855,0.0],[174.34913,-35.35125,0.0],[174.33253,-35.32903,30.7239],[174.34213,-35.33709,24.0495],[174.37355,-35.35703,160.8624],[174.40162,-35.38112,0.0],[174.40756,-35.38437,0.0],[174.42237,-35.37371,0.0],[174.39177,-35.34319,0.0],[174.40138,-35.32903,0.0],[174.40138,-35.32285,0.0],[174.37892,-35.32391,0.0],[174.35711,-35.32195,0.0],[174.34018,-35.31178,0.0],[174.33253,-35.28802,0.0],[174.33872,-35.26474,0.0],[174.35222,-35.2444,0.0],[174.36085,-35.22405,0.0],[174.35304,-35.1994,0.0],[174.32228,-35.22015,0.0],[174.29493,-35.24432,142.4442],[174.28972,-35.25408,93.4363],[174.28989,-35.25888,52.9773],[174.28834,-35.2623,64.0676],[174.27719,-35.26767,44.8926],[174.27711,-35.26442,67.1585],[174.26694,-35.26149,32.7599],[174.25359,-35.25986,0.6547],[174.24317,-35.26084,90.8514],[174.24562,-35.26442,45.9949],[174.25066,-35.27451,75.8056],[174.19972,-35.26865,0.0],[174.17579,-35.26979,3.6504],[174.16188,-35.28135,123.9447],[174.15504,-35.27451,119.8203],[174.16456,-35.29013,0.4259],[174.18914,-35.30055,1.5652],[174.21778,-35.30674,26.0354],[174.24,-35.30869,127.1702],[174.24822,-35.31292,236.9481],[174.25164,-35.32252,131.6349],[174.2492,-35.33221,65.5163],[174.24,-35.33652,24.7256],[174.23194,-35.33343,7.6657],[174.22576,-35.32708,1.5662],[174.2173,-35.32204,10.6773],[174.20281,-35.32285,2.3711],[174.2046,-35.32733,54.6212],[174.20753,-35.33831,32.4847],[174.20973,-35.34271,3.8952],[174.19825,-35.34157,90.452],[174.18775,-35.33815,52.5317],[174.16798,-35.32903,3.0959],[174.16481,-35.34287,48.2437],[174.15797,-35.35898,100.3233],[174.15113,-35.36972,9.8454],[174.1482,-35.36688,12.7811],[174.14601,-35.34002,43.3302],[174.14283,-35.32781,0.0],[174.13754,-35.31911,9.6191],[174.09986,-35.28704,11.9762],[174.09352,-35.27451,0.0],[174.09645,-35.26181,0.0],[174.10369,-35.24912,0.0],[174.10572,-35.23553,0.0],[174.09352,-35.21982,0.0],[174.08351,-35.22601,0.0],[174.07252,-35.22812,0.0],[174.06178,-35.22601,0.0],[174.05201,-35.21982,66.6735],[174.03053,-35.22723,29.5744],[174.01498,-35.21697,13.9212],[174.01808,-35.20289,0.0],[174.05201,-35.1994,0.0],[174.03305,-35.17547,0.0],[174.02361,-35.16912,0.0],[174.03386,-35.16253,18.746],[174.05812,-35.15154,18.1144],[174.07,-35.1653,31.2863],[174.08033,-35.16546,57.7723],[174.08863,-35.16033,53.9504],[174.09352,-35.15895,65.6635],[174.09791,-35.16912,39.2008],[174.09889,-35.18027,0.0],[174.10206,-35.18939,0.0],[174.11345,-35.19305,0.0],[174.15504,-35.18231,0.0],[174.14715,-35.15716,0.0],[174.12794,-35.13649,0.0],[174.10328,-35.12265,0.0],[174.07927,-35.11736,62.7474],[174.02166,-35.12282,69.3091],[173.99,-35.11875,0.0],[173.97633,-35.10036,0.0],[173.96998,-35.07586,0.0],[173.95427,-35.05999,0.0],[173.91391,-35.03476,0.4933],[173.89674,-35.01775,25.0545],[173.88819,-35.00604,0.0],[173.89088,-35.00066,0.0],[173.86183,-34.99896,0.0],[173.84685,-34.99977,4.8951],[173.82887,-35.0075,62.4611],[173.81202,-35.0097,176.3442],[173.80494,-35.01491,94.958],[173.80348,-35.02077,14.9243],[173.80584,-35.03558,82.0166],[173.80494,-35.04168,145.7068],[173.78443,-35.07578,103.6505],[173.78386,-35.08514,187.9995],[173.78582,-35.09173,83.4498],[173.7811,-35.09564,42.6385],[173.76026,-35.09694,41.8498],[173.72608,-35.07269,0.0],[173.72446,-35.06422,0.0],[173.73414,-35.0556,0.0],[173.7566,-35.04168,32.0534],[173.76197,-35.0324,0.0],[173.76547,-35.02215,0.0],[173.77149,-35.01312,159.8134],[173.78443,-35.0075,12.9272],[173.77125,-35.00286,0.0],[173.76466,-35.00123,0.0],[173.75685,-35.00066,27.7967],[173.7483,-34.99863,115.2571],[173.7444,-34.9931,0.0],[173.74147,-34.9861,0.0],[173.73601,-34.97967,0.0],[173.73357,-34.97405,0.0],[173.73414,-34.96746,0.0],[173.73243,-34.96201,0.0],[173.72267,-34.95973,0.0],[173.7151,-34.96185,0.0],[173.71111,-34.96649,0.0],[173.70867,-34.97129,0.0],[173.70533,-34.9734,27.3776],[173.67498,-34.97332,165.2478],[173.66066,-34.96852,44.4523],[173.65008,-34.94647,0.0],[173.63868,-34.94134,0.0],[173.62501,-34.9428,0.0],[173.61305,-34.95289,21.6488],[173.6019,-34.93776,121.7509],[173.58823,-34.9275,0.0],[173.57504,-34.92816,0.0],[173.56528,-34.94549,118.6629],[173.56666,-34.9612,95.1752],[173.57635,-34.97275,115.8838],[173.5892,-34.9826,38.7485],[173.60011,-34.99383,60.2243],[173.59783,-34.99871,13.9843],[173.58644,-35.01491,14.4851],[173.56788,-34.99456,44.0187],[173.54868,-34.98919,0.0],[173.50017,-34.99383,46.9352],[173.47828,-34.99041,5.1673],[173.45875,-34.98122,0.0],[173.44191,-34.96803,0.0],[173.42823,-34.95289,0.0],[173.41896,-34.94004,0.0],[173.40895,-34.9223,0.0],[173.40406,-34.90342,0.0],[173.4109,-34.88738,0.0],[173.42042,-34.88397,0.0],[173.46225,-34.88397,0.0],[173.50318,-34.86981,0.0],[173.48813,-34.8541,0.0],[173.48512,-34.84588,0.0],[173.49024,-34.83563,0.0],[173.47901,-34.83733,0.0],[173.44874,-34.84987,55.1179],[173.45493,-34.83375,0.0],[173.45639,-34.82464,0.0],[173.45541,-34.81569,0.0],[173.45053,-34.80332,0.0],[173.4441,-34.79632,0.0],[173.43572,-34.79648,0.0],[173.42482,-34.80527,0.0],[173.42482,-34.81178,0.0],[173.42945,-34.82138,0.0],[173.43165,-34.8331,83.4519],[173.42482,-34.84645,35.3411],[173.40138,-34.85833,62.8111],[173.37672,-34.86191,9.7476],[173.35792,-34.86875,3.9859],[173.35239,-34.8908,7.534],[173.36622,-34.93914,10.4275],[173.3685,-34.96722,3.1082],[173.3558,-34.97967,6.6175],[173.34148,-34.98406,17.6916],[173.33619,-34.99424,47.5282],[173.33302,-35.00604,38.3832],[173.32521,-35.01491,2.1934],[173.31715,-35.01539,2.4338],[173.28419,-35.0075,1.5983],[173.27312,-35.00701,1.9499],[173.26661,-35.00775,2.6087],[173.26385,-35.00221,2.6851],[173.2645,-34.96087,0.0],[173.26775,-34.95078,0.0],[173.27394,-34.94232,0.0],[173.29526,-34.92099,0.0],[173.29819,-34.90944,0.0],[173.16489,-34.84482,0.0],[173.12306,-34.80967,0.0],[173.11915,-34.7741,2.5797],[173.13998,-34.78786,3.398],[173.18865,-34.83563,0.0],[173.17921,-34.79363,0.0],[173.14552,-34.7597,0.0],[173.10426,-34.72967,13.4216],[173.07179,-34.69899,0.0],[173.06072,-34.65984,0.0],[173.05079,-34.60133,0.0],[173.03582,-34.55234,0.0],[173.00978,-34.54144,0.0],[173.02508,-34.56276,0.0],[173.0311,-34.59157,0.0],[173.02858,-34.62103,0.0],[173.01734,-34.64446,15.53],[173.0075,-34.65114,23.6873],[173.00367,-34.64422,17.9672],[173.00408,-34.5866,0.0],[173.00229,-34.57366,0.0],[172.99684,-34.56178,0.0],[172.99147,-34.57195,4.9629],[172.98308,-34.57659,0.0],[172.97291,-34.57594,0.0],[172.96209,-34.56992,16.3748],[172.96705,-34.56316,0.0],[172.97047,-34.55633,1.3383],[172.97576,-34.54144,6.9846],[172.96437,-34.54323,3.0546],[172.95672,-34.54949,0.0],[172.95183,-34.55877,16.2337],[172.94899,-34.56992,34.9336],[172.91733,-34.55047,0.3864],[172.90748,-34.54144,0.0],[172.91668,-34.53729,0.0],[172.92311,-34.53143,0.0],[172.92701,-34.52353,0.0],[172.92791,-34.51344,0.0],[172.94435,-34.52191,0.0],[172.95167,-34.51556,0.0],[172.95509,-34.49358,37.8935],[172.96258,-34.46844,124.3534],[172.97006,-34.46657,86.5268],[172.99,-34.47243,75.1352],[172.98797,-34.47723,23.7193],[172.98512,-34.48895,17.9012],[172.98316,-34.49358,56.6698],[172.99741,-34.49847,18.6354],[173.00465,-34.51035,28.6368],[173.00864,-34.52223,0.0],[173.01352,-34.52776,0.0],[173.02955,-34.52654,0.0],[173.0381,-34.52207,0.0],[173.042,-34.51377,0.0],[173.04461,-34.50042,0.0],[173.04274,-34.44687,0.0],[173.05047,-34.42685,0.0],[173.07927,-34.41172,0.0],[173.06373,-34.39764,0.0],[173.05226,-34.40016,0.0],[173.042,-34.41009,118.7414],[173.03094,-34.4179,0.0],[173.01336,-34.42059,17.9605],[172.89967,-34.41229,0.0],[172.86948,-34.42897,32.9915],[172.83823,-34.43483,0.0],[172.82545,-34.4459,0.0],[172.8003,-34.43336,0.0],[172.74171,-34.43125,0.0],[172.719,-34.42132,0.0],[172.70281,-34.4118,0.0],[172.69809,-34.42181,0.0],[172.69947,-34.43776,73.5998],[172.70135,-34.4459,152.265],[172.69093,-34.46445,52.2091],[172.68434,-34.47186,7.8607],[172.67408,-34.47991,60.2452],[172.75896,-34.52215,89.1673],[172.79933,-34.55096,67.7065],[173.00318,-34.77321,47.6099],[173.02101,-34.78094,59.4647],[173.03395,-34.79127,65.9694],[173.06495,-34.85662,26.0058],[173.08334,-34.87802,39.4632],[173.14357,-34.9284,54.8767],[173.15675,-34.945,50.9683],[173.18865,-35.0075,63.3602],[173.202,-35.05779,32.6851],[173.19842,-35.10906,17.3771],[173.17937,-35.15602,16.4047],[173.14698,-35.19305,227.8697],[173.12908,-35.18524,169.2542],[173.10955,-35.18174,189.7887],[173.09523,-35.18727,144.4369],[173.09295,-35.2068,34.5648],[173.10027,-35.21998,9.3445],[173.14015,-35.25457,63.3166],[173.16375,-35.28053,135.5212],[173.1775,-35.29046,0.0],[173.19483,-35.29485,2.6499],[173.21339,-35.29127,89.7932],[173.24204,-35.27744,35.2136],[173.25685,-35.28135,80.4071],[173.24513,-35.29315,59.7088],[173.20981,-35.31463,81.4695],[173.20167,-35.32285,177.0645],[173.20729,-35.33343,71.1957],[173.23862,-35.36321,244.8246],[173.24936,-35.3707,230.6634],[173.25847,-35.34482,1.0585],[173.2697,-35.32195,132.7843],[173.28785,-35.30633,75.396],[173.31837,-35.30234,128.3682],[173.31251,-35.31357,39.8968],[173.30405,-35.32391,71.7255],[173.28419,-35.34271,6.9804],[173.29103,-35.34222,6.0189],[173.3047,-35.34303,48.9132],[173.31153,-35.34271,209.705],[173.27735,-35.37469,371.817],[173.27215,-35.39137,388.4733],[173.28419,-35.41839,268.844],[173.36997,-35.51653,41.8582],[173.3781,-35.52304,0.0],[173.38722,-35.52142,0.0],[173.39064,-35.51312,53.2653],[173.39405,-35.4389,0.0],[173.39234,-35.43922,0.0],[173.38941,-35.43621,22.8612],[173.38697,-35.43108,1.8249],[173.38722,-35.42523,2.799],[173.39666,-35.41668,44.3889],[173.40919,-35.41204,0.0],[173.41578,-35.40537,0.0],[173.40699,-35.39121,16.8313],[173.42652,-35.37851,29.3568],[173.43775,-35.37347,104.9611],[173.44532,-35.37371,80.5875],[173.45704,-35.38885,112.9896],[173.46363,-35.39227,21.5775],[173.47291,-35.38779,3.2173],[173.48162,-35.3847,1.8839],[173.49269,-35.3825,0.0],[173.49903,-35.3777,0.0],[173.48959,-35.35809,70.9713],[173.49513,-35.35442,51.2055],[173.50514,-35.3554,60.4911],[173.53077,-35.36907,56.9122],[173.5503,-35.36932,0.0],[173.56642,-35.36053,62.7946],[173.57211,-35.34271,0.0],[173.56446,-35.32659,71.2929],[173.55193,-35.30788,29.8914],[173.5477,-35.28948,89.0852],[173.56528,-35.27451,54.368],[173.58155,-35.32155,58.1718],[173.59262,-35.33652,53.1327],[173.59278,-35.30023,77.2983],[173.59636,-35.29485,52.4877],[173.60743,-35.29599,79.1452],[173.61215,-35.2999,41.5944],[173.61329,-35.30731,11.3696],[173.61305,-35.31911,4.3636],[173.62428,-35.32195,3.0798],[173.6609,-35.31292,67.4463],[173.64454,-35.33563,18.3716],[173.63819,-35.35654,184.4402],[173.63413,-35.36321,198.3371],[173.62143,-35.37021,223.3964],[173.61524,-35.36777,186.1897],[173.60955,-35.36289,190.871],[173.60011,-35.36321,101.1277],[173.58277,-35.37713,51.6045],[173.57846,-35.39593,43.2995],[173.57781,-35.41562,4.2788],[173.57211,-35.43271,83.2713],[173.54493,-35.39788,118.3281],[173.54184,-35.41074,46.7738],[173.54371,-35.44549,14.8714],[173.54151,-35.45257,92.3171],[173.52719,-35.44842,69.9217],[173.51645,-35.43865,79.7731],[173.50709,-35.42734,83.2389],[173.49708,-35.41839,2.0694],[173.49586,-35.42278,1.3042],[173.49024,-35.43271,3.8823],[173.47071,-35.4249,6.4726],[173.45786,-35.43792,54.4931],[173.45086,-35.46103,26.9571],[173.44874,-35.48358,60.6202],[173.44117,-35.50026,339.9369],[173.40821,-35.53639,169.3848],[173.40089,-35.5525,99.5544],[173.40724,-35.57122,187.6663],[173.63274,-35.81841,94.1956],[173.85825,-36.06561,84.7016],[173.89422,-36.1242,5.9709],[174.0241,-36.26816,114.9214],[174.05592,-36.36452,10.7262],[174.07984,-36.39951,0.0],[174.12827,-36.39853,0.0],[174.17482,-36.38209,0.0],[174.19467,-36.36858,0.0],[174.20281,-36.34759,0.0],[174.19174,-36.32578,0.0],[174.17156,-36.30885,0.0],[174.16188,-36.29681,0.0],[174.1823,-36.28924,0.0],[174.17335,-36.27663,0.0],[174.15895,-36.27614,0.0],[174.14373,-36.27793,53.5568],[174.13111,-36.27191,38.2773],[174.07618,-36.20355,0.0],[174.06861,-36.19769,0.0],[174.05844,-36.19158,0.0],[174.04957,-36.18467,0.0],[174.04086,-36.1653,0.0],[174.02955,-36.15887,0.0],[174.01677,-36.15423,0.0],[174.00733,-36.14861,5.2308],[173.99952,-36.13795,0.0],[173.98707,-36.11582,0.7485],[173.97999,-36.10711,0.6472],[173.97218,-36.08856,0.0],[173.96778,-36.06219,0.0],[173.95916,-36.03875,24.0945],[173.93832,-36.0285,1.2346],[173.93149,-36.01816,1.7345],[173.88014,-35.95965,1.4426],[173.88429,-35.94354,2.7536],[173.92237,-35.92685,4.0518],[173.92848,-35.90504,40.4442],[173.92311,-35.90016,2.912],[173.91326,-35.89316,33.9778],[173.90594,-35.88348,4.9502],[173.90797,-35.87029,3.1212],[173.91489,-35.86972,2.9235],[173.92579,-35.87591,1.9006],[173.93637,-35.8847,36.1837],[173.94215,-35.89137,30.3816],[173.94679,-35.91644,2.8388],[173.93727,-35.9319,42.9523],[173.90056,-35.95965,2.992],[173.93149,-35.97812,70.2925],[173.94386,-35.98984,23.254],[173.95533,-36.01971,30.3797],[173.98406,-36.04412,47.3062],[173.99041,-36.05926,43.2796],[173.99122,-36.09808,0.8245],[173.99806,-36.11639,0.7886],[174.01385,-36.1242,0.9135],[174.02711,-36.129,1.1763],[174.04444,-36.13991,1.1563],[174.05934,-36.1526,1.1131],[174.0656,-36.16204,1.1834],[174.07521,-36.16806,5.8509],[174.12289,-36.16937,10.5183],[174.14137,-36.17254,127.617],[174.15854,-36.18524,134.9206],[174.16961,-36.19948,139.0243],[174.17848,-36.21413,70.7794],[174.2024,-36.24277,0.0],[174.20883,-36.24635,17.1273],[174.2199,-36.24765,34.3386],[174.22967,-36.25075,29.8169],[174.24269,-36.26458,0.0],[174.25066,-36.26816,0.0],[174.26059,-36.26824,0.0],[174.26905,-36.26629,0.0],[174.27491,-36.261,32.8934],[174.27719,-36.2514,0.0],[174.28289,-36.24928,0.0],[174.31886,-36.24147,0.0],[174.30112,-36.21941,0.0],[174.29021,-36.21063,0.0],[174.28102,-36.21054,0.0],[174.27296,-36.22096,27.1939],[174.26791,-36.22576,108.294],[174.26051,-36.2278,81.222],[174.25115,-36.22373,114.1008],[174.25115,-36.21413,32.4995],[174.25733,-36.19988,22.5819],[174.24692,-36.18719,0.0],[174.23707,-36.18125,0.0],[174.22438,-36.17946,9.0523],[174.20631,-36.17938,0.0],[174.19288,-36.17506,35.2055],[174.19288,-36.15342,0.0],[174.1823,-36.1452,4.5632],[174.22608,-36.11688,13.1044],[174.24122,-36.11745,35.3093],[174.23699,-36.1452,25.8111],[174.25799,-36.12518,34.9834],[174.26881,-36.11875,6.5126],[174.28468,-36.11793,17.1432],[174.27565,-36.13738,37.7292],[174.27215,-36.14772,77.4705],[174.27101,-36.15887,59.9958],[174.27182,-36.17295,30.4581],[174.27491,-36.17636,0.0],[174.28126,-36.17604,0.0],[174.29217,-36.17938,0.8856],[174.30112,-36.17995,9.5975],[174.30974,-36.17783,2.4304],[174.31617,-36.18076,27.9076],[174.31886,-36.19647,1.6521],[174.32228,-36.20525,27.2442],[174.33074,-36.20566,37.3298],[174.34181,-36.20403,24.1156],[174.35304,-36.20729,0.0],[174.34791,-36.2112,0.0],[174.33253,-36.2278,0.7399],[174.36118,-36.21624,17.264],[174.38551,-36.18873,29.1134],[174.39877,-36.15488,5.4484],[174.39389,-36.1242,197.7003],[174.43181,-36.13299,33.3045],[174.44174,-36.13836,28.0891],[174.45346,-36.15423,26.961],[174.45045,-36.16326,28.8086],[174.438,-36.16481,28.0107],[174.4214,-36.1583,2.9382],[174.41684,-36.17303,58.8108],[174.4157,-36.18174,69.5819],[174.41375,-36.1889,80.1151],[174.40756,-36.19988,72.3857],[174.38429,-36.22438,32.6002],[174.36891,-36.25652,66.6858],[174.36354,-36.28191,14.6068],[174.35613,-36.28086,15.5987],[174.33937,-36.26816,29.133],[174.31007,-36.26051,60.5504],[174.30014,-36.26458,153.649],[174.30519,-36.2824,84.7294],[174.31349,-36.28777,95.9426],[174.32781,-36.29217,36.0238],[174.35304,-36.29608,18.1771],[174.37127,-36.28786,0.0],[174.39088,-36.27264,27.4733],[174.40724,-36.26393,66.8433],[174.41505,-36.27557,0.0],[174.42604,-36.26979,0.0],[174.44972,-36.25156,30.7177],[174.45948,-36.24765,28.1639],[174.46974,-36.24684,7.0954],[174.47364,-36.24651,0.0],[174.48764,-36.24293,57.5486],[174.50066,-36.23675,41.793],[174.51124,-36.2278,24.0977],[174.5407,-36.21024,152.5011],[174.63805,-36.14265,0.0],[174.65622,-36.13347,0.0]]]}
,"properties": {"ISO3166-1-Alpha-3": "NZL","country": "New Zealand","fill": "#FF0","name": "Northland","area_km2": 12261.366,"hist_schema_id": "Elevation0-9000","hist_area_km2": {"0": 1865.055,"25": 1388.679,"50": 1582.821,"75": 1487.164,"100": 1332.838,"125": 968.218,"150": 744.169,"175": 568.848,"200": 448.31,"225": 381.4,"250": 296.205,"275": 216.537,"300": 167.492,"325": 137.554,"350": 105.816,"375": 83.517,"400": 70.566,"425": 63.031,"450": 56.923,"475": 49.338,"500": 47.728,"525": 40.48,"550": 35.971,"575": 30.039,"600": 21.624,"625": 20.342,"650": 19.916,"675": 19.489,"700": 8.865,"725": 1.966,"750": 0.431}}}