{"type": "Feature","bbox": [174.9586,-41.6135,175.8098,-40.9211],"geometry": {"type": "MultiPolygon","coordinates": [[[[175.28,-40.9495,1386.5961],[175.2817,-40.9522,1498.5323],[175.2807,-40.9569,1438.8008],[175.2766,-40.9614,1430.4124],[175.267,-40.9673,1317.436],[175.2617,-40.9678,1332.1284],[175.261,-40.9706,1341.736],[175.2633,-40.9723,1343.2549],[175.2638,-40.9769,1287.0061],[175.2716,-40.9858,1321.0664],[175.2798,-40.9868,1151.7012],[175.297,-40.9838,1167.9503],[175.3047,-40.9871,1089.1782],[175.3063,-40.9895,1077.6342],[175.2953,-41.0013,929.9747],[175.2931,-41.0059,914.3545],[175.2795,-41.0167,897.8754],[175.2753,-41.0225,972.687],[175.2648,-41.0265,997.4221],[175.2615,-41.033,855.4974],[175.2616,-41.0366,750.2828],[175.2588,-41.0397,780.1205],[175.2559,-41.0519,587.3358],[175.243,-41.0639,506.3481],[175.2419,-41.0714,487.0013],[175.2499,-41.0889,740.0323],[175.2456,-41.0906,680.652],[175.229,-41.1043,613.7898],[175.2327,-41.1176,661.96],[175.2302,-41.1191,663.4084],[175.225,-41.1182,665.4063],[175.2215,-41.123,602.0009],[175.2214,-41.1266,664.4725],[175.2072,-41.1395,499.9885],[175.2057,-41.1497,599.2748],[175.2022,-41.1511,560.8148],[175.1991,-41.1494,507.2255],[175.1891,-41.1496,554.5664],[175.1835,-41.1554,618.9515],[175.1775,-41.166,602.567],[175.1684,-41.1708,460.2968],[175.1656,-41.179,564.2373],[175.1623,-41.1778,435.9906],[175.158,-41.1831,498.9146],[175.1516,-41.203,602.4798],[175.1429,-41.2057,695.2286],[175.1375,-41.2112,696.0089],[175.129,-41.2155,754.28],[175.1274,-41.2153,754.28],[175.1242,-41.2107,598.2675],[175.1151,-41.211,645.7686],[175.1102,-41.2134,616.5264],[175.1042,-41.2113,652.6212],[175.0956,-41.2123,537.3872],[175.0838,-41.222,714.4999],[175.0816,-41.2259,612.0157],[175.0835,-41.2281,753.5217],[175.0796,-41.2374,748.3572],[175.0802,-41.2409,792.6891],[175.0742,-41.2448,781.075],[175.0761,-41.2524,792.7603],[175.087,-41.2625,453.2299],[175.0808,-41.2691,451.143],[175.087,-41.278,672.2842],[175.0858,-41.2802,639.0343],[175.0824,-41.281,673.2866],[175.083,-41.2843,771.6928],[175.0769,-41.286,751.6969],[175.0727,-41.2911,814.3678],[175.0732,-41.2944,808.3293],[175.0653,-41.2967,767.7046],[175.0621,-41.3021,837.0082],[175.0563,-41.3058,805.7582],[175.0551,-41.3096,832.4631],[175.0477,-41.3133,877.6427],[175.0481,-41.3189,873.483],[175.0454,-41.3224,745.4979],[175.0422,-41.3227,685.7889],[175.0409,-41.3249,678.4982],[175.0442,-41.3298,716.0042],[175.0332,-41.3317,718.9134],[175.0298,-41.3361,755.9799],[175.0228,-41.3409,786.1066],[175.024,-41.3461,617.7316],[175.0224,-41.3482,668.7987],[175.0144,-41.3506,797.3322],[175.0039,-41.3446,732.5068],[174.9933,-41.3451,670.9883],[174.9891,-41.3529,662.0676],[174.9846,-41.3566,742.5848],[174.9809,-41.3647,739.8349],[174.9709,-41.3704,832.2034],[174.9586,-41.3829,655.0492],[174.9865,-41.3962,7.2852],[174.9944,-41.3904,23.5177],[175.0147,-41.3898,0.0],[175.0182,-41.3866,22.549],[175.034,-41.3798,0.335],[175.0408,-41.3739,2.8069],[175.0485,-41.3737,2.1516],[175.1207,-41.3893,4.7831],[175.1514,-41.4013,0.0],[175.1496,-41.3983,4.3046],[175.1558,-41.4026,18.717],[175.1946,-41.4181,1.2019],[175.214,-41.4286,78.5785],[175.2168,-41.4317,12.1579],[175.2155,-41.4409,0.0],[175.2213,-41.453,0.0],[175.2182,-41.4624,7.8373],[175.211,-41.4678,0.0],[175.2111,-41.4709,0.0],[175.2077,-41.4749,3.7014],[175.2086,-41.4999,3.3204],[175.1949,-41.5265,0.0],[175.207,-41.5316,3.0413],[175.2175,-41.5402,0.0],[175.2179,-41.5469,3.3033],[175.2223,-41.5518,3.4211],[175.2209,-41.5602,0.0],[175.2222,-41.5708,3.4013],[175.2247,-41.5739,3.4741],[175.2266,-41.5814,1.2806],[175.2339,-41.5848,1.7061],[175.2319,-41.5911,0.0],[175.2367,-41.6077,1.0967],[175.2419,-41.6034,0.0],[175.2557,-41.6029,25.9597],[175.2699,-41.6071,21.9132],[175.2737,-41.6096,4.0433],[175.2735,-41.6116,2.777],[175.2856,-41.6107,9.4885],[175.2909,-41.6135,2.0602],[175.3095,-41.6076,6.967],[175.3248,-41.6064,1.8192],[175.3364,-41.5956,14.8833],[175.3479,-41.5926,2.6934],[175.3474,-41.5908,60.1177],[175.3491,-41.5922,2.6934],[175.3556,-41.5849,0.0],[175.3609,-41.586,0.0],[175.3582,-41.5825,1.6258],[175.3624,-41.5738,2.2376],[175.3661,-41.5716,2.2399],[175.3837,-41.5678,3.6904],[175.3909,-41.5675,4.7653],[175.3957,-41.5692,0.552],[175.3968,-41.5669,4.9653],[175.4075,-41.5659,4.0324],[175.4249,-41.5672,0.0],[175.4295,-41.5722,2.2516],[175.4317,-41.5723,3.7696],[175.4333,-41.5689,8.3862],[175.4415,-41.5663,1.1847],[175.4448,-41.5626,3.0853],[175.4525,-41.558,0.0],[175.4563,-41.5526,7.5389],[175.4648,-41.5519,0.418],[175.4761,-41.5422,5.138],[175.4799,-41.5367,0.2742],[175.4976,-41.5279,4.7748],[175.5075,-41.5106,4.1954],[175.5125,-41.5095,0.0],[175.5196,-41.5046,0.0],[175.5276,-41.5043,4.0209],[175.5311,-41.5058,0.0],[175.5327,-41.4975,0.0],[175.5344,-41.4955,14.8782],[175.544,-41.4975,0.6543],[175.5495,-41.4952,1.996],[175.5508,-41.4961,1.996],[175.5529,-41.493899999999996,5.3771],[175.5668,-41.4916,0.622],[175.5724,-41.4884,2.4605],[175.5729,-41.4855,46.3848],[175.5758,-41.4842,2.0383],[175.5795,-41.4868,0.0],[175.5852,-41.4874,1.955],[175.5934,-41.4789,2.3959],[175.5972,-41.4786,2.1085],[175.6036,-41.4748,0.7417],[175.6079,-41.4665,6.2487],[175.6132,-41.4621,1.6417],[175.6221,-41.4598,0.9487],[175.6343,-41.4533,1.7709],[175.639,-41.4482,0.6942],[175.6397,-41.4453,0.9848],[175.649,-41.4417,1.743],[175.6537,-41.4374,1.8228],[175.6578,-41.4304,5.0692],[175.6639,-41.4286,0.0],[175.6639,-41.4256,4.2398],[175.6744,-41.4143,24.8351],[175.6844,-41.4145,61.4532],[175.6902,-41.4081,0.0],[175.702,-41.4053,2.5315],[175.7102,-41.4054,0.2189],[175.711,-41.4016,2.0524],[175.7166,-41.401,2.8071],[175.7234,-41.3954,3.4333],[175.7398,-41.3911,13.1786],[175.7443,-41.3913,0.468],[175.7608,-41.3808,16.1188],[175.767,-41.3788,5.0427],[175.7704,-41.3702,4.6619],[175.7827,-41.3682,0.3857],[175.8029,-41.3614,0.4712],[175.8002,-41.3571,39.5245],[175.8021,-41.355,23.8901],[175.8016,-41.3517,27.8871],[175.799,-41.3512,48.3924],[175.799,-41.3488,45.6497],[175.7847,-41.3432,340.9438],[175.8098,-41.3252,419.4579],[175.7669,-41.3167,603.6465],[175.7735,-41.298,338.9705],[175.7956,-41.3024,407.476],[175.8018,-41.2856,387.9367],[175.7504,-41.2754,301.7128],[175.7556,-41.2609,209.0374],[175.7495,-41.2547,154.6793],[175.7453,-41.2512,111.7004],[175.7422,-41.2524,84.0389],[175.738,-41.2508,107.3214],[175.7355,-41.2532,91.556],[175.7395,-41.255,69.4267],[175.7346,-41.259,58.062],[175.7269,-41.254,80.4287],[175.7279,-41.2511,128.72],[175.7324,-41.2481,140.4753],[175.7326,-41.2453,117.271],[175.744,-41.2381,95.7764],[175.744,-41.2353,80.8053],[175.74,-41.2351,117.8877],[175.7394,-41.2334,84.6347],[175.7466,-41.2349,136.624],[175.7559,-41.209,398.0357],[175.7512,-41.2036,423.2542],[175.7439,-41.2025,457.4947],[175.7401,-41.2045,403.5744],[175.7302,-41.2031,295.4254],[175.7209,-41.2294,91.2747],[175.7152,-41.2283,84.324],[175.7077,-41.2311,85.466],[175.7078,-41.2339,83.2281],[175.7027,-41.2325,109.1897],[175.7019,-41.237,82.0381],[175.7002,-41.2338,79.6504],[175.6961,-41.2367,110.6301],[175.6974,-41.234,74.1505],[175.696,-41.2283,94.3385],[175.6941,-41.2304,80.0464],[175.6917,-41.2287,82.5772],[175.6908,-41.231,76.8207],[175.6882,-41.231,76.8166],[175.6842,-41.2285,93.5357],[175.6871,-41.2273,84.5604],[175.6877,-41.225,83.4803],[175.6792,-41.2243,81.1061],[175.6808,-41.2216,84.2415],[175.6774,-41.2212,88.7446],[175.6788,-41.2197,82.2175],[175.6768,-41.2179,82.3064],[175.6465,-41.2136,277.9993],[175.6478,-41.2109,319.5446],[175.6469,-41.2089,357.313],[175.6367,-41.2119,319.0848],[175.6135,-41.2061,262.4068],[175.6069,-41.2066,230.1265],[175.6047,-41.2036,279.5735],[175.6007,-41.2062,261.5453],[175.5947,-41.2055,209.0963],[175.5894,-41.2006,193.4942],[175.5818,-41.1982,108.3914],[175.585,-41.1961,107.0192],[175.5823,-41.1927,102.947],[175.5863,-41.1878,103.8692],[175.5841,-41.1838,104.6554],[175.5909,-41.181399999999996,109.6125],[175.5917,-41.177,120.3299],[175.5908,-41.1753,125.6249],[175.587,-41.1758,108.684],[175.5884,-41.1732,112.6468],[175.5845,-41.1741,116.5844],[175.5833,-41.172,183.774],[175.5762,-41.1701,175.2226],[175.5753,-41.1689,195.3932],[175.5776,-41.1608,210.5967],[175.5648,-41.1596,343.7256],[175.5636,-41.1616,332.9721],[175.53,-41.1552,93.6507],[175.5213,-41.1515,93.2079],[175.5229,-41.1494,101.0796],[175.5175,-41.147,127.4011],[175.5143,-41.1487,140.0478],[175.493,-41.1452,32.6364],[175.4899,-41.1498,25.8215],[175.4876,-41.1476,30.4733],[175.4808,-41.1456,28.2176],[175.4752,-41.142,29.9299],[175.4758,-41.1367,29.0197],[175.4778,-41.1346,30.0177],[175.4869,-41.1338,30.9635],[175.4882,-41.1309,32.819],[175.4841,-41.1246,34.1154],[175.4787,-41.1228,35.314],[175.4768,-41.1203,33.6794],[175.4798,-41.1184,35.1195],[175.4903,-41.1177,36.0492],[175.4963,-41.1093,40.6381],[175.503,-41.1069,36.2716],[175.513,-41.0966,38.6577],[175.5126,-41.0945,39.6887],[175.5076,-41.0917,43.4983],[175.5031,-41.0859,46.7622],[175.5033,-41.0828,42.3692],[175.5064,-41.0796,44.5528],[175.5062,-41.0761,43.1863],[175.5084,-41.0721,43.5404],[175.4991,-41.0694,46.6886],[175.4985,-41.0627,48.6302],[175.4938,-41.0583,49.8939],[175.4809,-41.0643,56.937],[175.4648,-41.0612,59.3938],[175.441,-41.0597,67.0162],[175.4221,-41.0608,75.4121],[175.4137,-41.0637,78.2709],[175.399,-41.0562,86.9274],[175.3973,-41.0488,99.3695],[175.4006,-41.0415,97.3238],[175.3936,-41.0416,97.9773],[175.3959,-41.038,105.6567],[175.3953,-41.0338,111.8293],[175.3968,-41.0309,106.5097],[175.394,-41.031,105.7117],[175.3933,-41.0292,108.7053],[175.402,-41.0201,128.9465],[175.3975,-41.0135,119.4177],[175.3907,-41.008,164.7492],[175.394,-41.0046,145.9317],[175.3898,-41.0014,149.1585],[175.3918,-40.9981,176.3466],[175.3877,-40.9958,184.1843],[175.3895,-40.9912,167.373],[175.3933,-40.9878,197.088],[175.39,-40.9817,180.4142],[175.3819,-40.9738,168.6484],[175.3862,-40.9657,171.6915],[175.3839,-40.9647,184.0854],[175.387,-40.9569,183.2873],[175.3846,-40.9528,187.1384],[175.3913,-40.9509,185.0987],[175.3929,-40.9455,186.9681],[175.4041,-40.9347,204.1984],[175.404,-40.9327,204.9757],[175.394,-40.9265,272.403],[175.3924,-40.9237,240.9193],[175.3816,-40.9253,260.0143],[175.3774,-40.9211,274.2596],[175.3712,-40.923,300.1448],[175.3688,-40.9263,367.231],[175.3617,-40.9292,389.5523],[175.3617,-40.9305,370.342],[175.3555,-40.9327,374.2502],[175.3514,-40.932,420.0654],[175.3419,-40.9364,470.1088],[175.3399,-40.9355,455.8465],[175.3319,-40.9377,486.1033],[175.3253,-40.9354,507.5872],[175.322,-40.9365,529.5394],[175.3039,-40.9341,673.7006],[175.298,-40.9368,816.0471],[175.292,-40.9429,949.9869],[175.2839,-40.9452,1180.2091],[175.28,-40.9495,1386.5961]]]]}
,"properties": {"GID_2": "NZL.18.6_1","GID_0": "NZL","country": "NewZealand","GID_1": "NZL.18_1","province": "Wellington","NL_NAME_1": "NA","county": "SouthWairarapa","VARNAME_2": "NA","NL_NAME_2": "NA","TYPE_2": "District","ENGTYPE_2": "District","CC_2": "050","HASC_2": "NZ.WG.SP","name": "South_Wairarapa.county","area_km2": 2454.344,"hist_schema_id": "Elevation0-9000","hist_area_km2": {"0": 320.342,"25": 202.172,"50": 188.2,"75": 144.839,"100": 125.393,"125": 128.565,"150": 126.181,"175": 121.89,"200": 119.671,"225": 112.175,"250": 100.495,"275": 91.712,"300": 79.633,"325": 70.601,"350": 58.139,"375": 50.354,"400": 43.434,"425": 40.569,"450": 37.485,"475": 33.364,"500": 31.885,"525": 28.785,"550": 25.583,"575": 23.213,"600": 20.779,"625": 18.07,"650": 15.874,"675": 13.771,"700": 12.701,"725": 10.154,"750": 8.548,"775": 8.053,"800": 5.981,"825": 5.554,"850": 4.119,"875": 3.595,"900": 2.909,"925": 2.75,"950": 2.351,"975": 1.76,"1000": 1.841,"1025": 1.649,"1050": 1.521,"1075": 0.993,"1100": 0.817,"1125": 0.688,"1150": 0.8,"1175": 0.624,"1200": 0.544,"1225": 0.448,"1250": 0.56,"1275": 0.496,"1300": 0.512,"1325": 0.4,"1350": 0.224,"1375": 0.224,"1400": 0.08,"1425": 0.096,"1450": 0.096,"1475": 0.048,"1500": 0.032}}}