{"type": "Feature","bbox": [174.5641,-38.0155,175.5441,-37.0159],"geometry": {"type": "MultiPolygon","coordinates": [[[[174.5661,-37.9717,0.0],[174.5641,-37.9721,0.0],[174.5658,-37.9739,0.0],[174.5692,-37.9728,0.0],[174.5683,-37.9719,0.0],[174.5661,-37.9717,0.0]]],
[[[174.7582,-37.8865,2.1918],[174.7583,-37.8865,2.1918],[174.7584,-37.8864,2.1918],[174.7582,-37.8864,2.1918],[174.7582,-37.8865,2.1918]]],
[[[174.6597,-37.2924,4.471],[174.6916,-37.3572,0.0],[174.7093,-37.3663,0.0],[174.7203,-37.3798,0.0],[174.7258,-37.3804,2.8757],[174.7307,-37.3787,4.0767],[174.7404,-37.3725,20.7757],[174.7449,-37.3672,0.0],[174.744,-37.3638,19.5246],[174.7459,-37.3591,5.1928],[174.7438,-37.3555,23.7644],[174.745,-37.352,3.1617],[174.7432,-37.3491,0.0],[174.7374,-37.3464,19.9067],[174.7407,-37.3418,0.1277],[174.7754,-37.345,0.0],[174.7684,-37.3512,3.3531],[174.7675,-37.358,61.0095],[174.7638,-37.3609,3.0007],[174.7635,-37.363,55.6477],[174.7583,-37.365,10.8054],[174.7556,-37.368899999999996,5.3652],[174.7526,-37.3691,2.0215],[174.7523,-37.3729,2.987],[174.7465,-37.3779,0.0],[174.7466,-37.381,0.0],[174.741,-37.3857,35.7691],[174.7335,-37.3862,0.0],[174.7306,-37.3849,4.1599],[174.7289,-37.3896,14.4103],[174.7225,-37.3896,3.7924],[174.7214,-37.3872,0.0],[174.7232,-37.3866,0.0],[174.7139,-37.3821,0.0],[174.707,-37.3763,4.1096],[174.706,-37.3811,6.099],[174.7105,-37.3983,9.8026],[174.7086,-37.4008,4.2435],[174.7029,-37.4028,0.0],[174.7045,-37.4115,15.0531],[174.702,-37.4123,2.641],[174.7029,-37.4135,8.2576],[174.7,-37.417,17.315],[174.7027,-37.4213,3.4923],[174.7029,-37.4257,0.0],[174.7048,-37.427,3.4773],[174.7036,-37.4284,23.8811],[174.705,-37.4379,18.4578],[174.7123,-37.4447,0.0],[174.7131,-37.444,6.8307],[174.718,-37.4613,5.1782],[174.7234,-37.463,13.6415],[174.7214,-37.4665,0.0],[174.725,-37.4728,48.2776],[174.7282,-37.4739,12.2525],[174.7274,-37.4761,0.0],[174.7296,-37.4778,10.7705],[174.7396,-37.4973,0.0],[174.7392,-37.5012,19.82],[174.7409,-37.5017,88.1255],[174.7409,-37.5037,26.0468],[174.7475,-37.5048,3.3838],[174.745,-37.5082,12.9348],[174.7467,-37.5156,54.9985],[174.7447,-37.5202,13.6035],[174.7473,-37.52,76.6905],[174.7559,-37.531,14.7297],[174.7636,-37.5508,0.0],[174.766,-37.5536,6.8583],[174.7667,-37.5601,0.3877],[174.7687,-37.5609,47.8845],[174.7704,-37.5756,20.7542],[174.7734,-37.5771,33.6061],[174.7697,-37.5819,43.8555],[174.7705,-37.5892,26.6807],[174.7733,-37.593,0.0],[174.7709,-37.5999,3.2881],[174.7737,-37.6006,39.0169],[174.7792,-37.6105,3.9217],[174.7861,-37.6159,5.7199],[174.7841,-37.6195,35.8004],[174.7855,-37.6236,3.4748],[174.7908,-37.632,10.5749],[174.7939,-37.6329,27.5734],[174.7934,-37.6388,3.9343],[174.796,-37.6452,7.1383],[174.797,-37.655,47.2598],[174.8,-37.6572,16.4805],[174.8013,-37.6643,0.0],[174.8082,-37.6762,1.0976],[174.8096,-37.6764,3.7915],[174.8097,-37.6809,0.0],[174.8124,-37.6855,3.6555],[174.8117,-37.6971,13.4145],[174.816,-37.7036,63.524],[174.8165,-37.7095,0.0],[174.8209,-37.7205,5.0185],[174.825,-37.7206,10.898],[174.8213,-37.7222,22.8989],[174.8201,-37.7353,17.3648],[174.8228,-37.7376,44.0893],[174.823,-37.7405,34.6292],[174.8252,-37.7414,18.8384],[174.8307,-37.7568,8.0465],[174.8344,-37.7723,6.4591],[174.8344,-37.7772,5.6538],[174.833,-37.7783,0.0],[174.8353,-37.7809,23.633],[174.8384,-37.7963,0.0],[174.8426,-37.799,0.0],[174.8548,-37.7982,0.0],[174.8613,-37.7941,26.1975],[174.8617,-37.7902,35.3932],[174.8639,-37.7918,4.1149],[174.8709,-37.789,6.3576],[174.8689,-37.787,15.8859],[174.8738,-37.7835,6.1513],[174.8701,-37.783,23.6275],[174.8707,-37.7821,5.2314],[174.8648,-37.778,17.3303],[174.8655,-37.7764,5.8431],[174.8601,-37.7775,3.1712],[174.8583,-37.7761,8.9157],[174.8598,-37.7752,8.9157],[174.8609,-37.7766,3.1712],[174.8647,-37.7739,19.2542],[174.869,-37.7753,10.7557],[174.868,-37.7782,0.0],[174.8734,-37.7808,10.7431],[174.8805,-37.7772,0.0],[174.882,-37.7743,17.4813],[174.8851,-37.7785,12.6197],[174.8802,-37.7794,1.261],[174.8771,-37.7858,5.7253],[174.8761,-37.7853,0.0],[174.8765,-37.7884,2.1472],[174.8856,-37.7824,10.9929],[174.888,-37.7874,4.9901],[174.892,-37.7872,22.5597],[174.8952,-37.7906,17.9993],[174.8992,-37.7917,0.0],[174.9011,-37.7906,0.0],[174.9015,-37.7885,5.8868],[174.8985,-37.7836,39.8206],[174.8993,-37.7801,0.0],[174.9036,-37.7766,3.6256],[174.9014,-37.7749,5.7046],[174.9072,-37.7714,0.0],[174.9102,-37.7664,1.7274],[174.9058,-37.7639,0.0],[174.9024,-37.7689,10.0322],[174.9037,-37.7639,1.5815],[174.9005,-37.7651,8.4713],[174.8973,-37.7636,11.2448],[174.9021,-37.7639,0.0],[174.9057,-37.7621,3.9373],[174.906,-37.759,3.4782],[174.9043,-37.7581,11.6264],[174.9138,-37.7596,0.0],[174.916,-37.7541,0.0],[174.915,-37.7523,21.4526],[174.9196,-37.7534,0.0],[174.9173,-37.7453,2.473],[174.9144,-37.7457,16.0514],[174.9127,-37.7431,31.9581],[174.9219,-37.7423,21.377],[174.9219,-37.7452,3.2269],[174.9259,-37.7466,15.1634],[174.9241,-37.7486,28.0181],[174.9249,-37.7518,5.4811],[174.9278,-37.7527,23.1459],[174.9275,-37.7547,0.0],[174.9292,-37.7553,9.3093],[174.9338,-37.7494,36.8841],[174.9339,-37.7458,0.9596],[174.9368,-37.7398,0.0],[174.9338,-37.7383,16.4147],[174.9366,-37.7364,0.0],[174.9325,-37.733,13.9643],[174.9336,-37.7324,27.2934],[174.9378,-37.7344,19.2642],[174.94,-37.7393,0.0],[174.939,-37.7422,3.6827],[174.9404,-37.7431,17.7792],[174.9374,-37.7481,0.0],[174.9389,-37.7525,8.0396],[174.9453,-37.753,0.0],[174.9476,-37.7499,3.976],[174.9456,-37.7482,18.8279],[174.9471,-37.7475,18.4184],[174.953,-37.7503,2.0254],[174.9478,-37.7466,18.4184],[174.9481,-37.7452,24.0305],[174.9505,-37.7452,5.3051],[174.946,-37.7445,14.3798],[174.9454,-37.7423,19.3472],[174.9514,-37.7442,8.1663],[174.9526,-37.7403,3.5744],[174.9544,-37.7396,3.5744],[174.9529,-37.7335,2.5424],[174.9492,-37.7346,29.3422],[174.9527,-37.7318,3.0051],[174.9527,-37.728,7.9413],[174.9501,-37.7255,22.1755],[174.9525,-37.7244,36.6821],[174.9542,-37.7272,8.6406],[174.956,-37.7413,1.7932],[174.958,-37.7435,3.0436],[174.9564,-37.7447,20.1275],[174.9531,-37.7423,5.0428],[174.9517,-37.7479,8.87],[174.9534,-37.7479,7.5996],[174.9537,-37.7447,6.0516],[174.9543,-37.745,6.0516],[174.9539,-37.7471,7.5996],[174.957,-37.7463,8.8046],[174.9556,-37.7493,3.4867],[174.9586,-37.7526,64.7321],[174.9568,-37.7529,8.0701],[174.9548,-37.7504,5.5504],[174.951,-37.7518,16.9373],[174.9525,-37.7531,37.6766],[174.9513,-37.7544,14.0566],[174.9529,-37.7553,27.7432],[174.952,-37.7568,3.9465],[174.9558,-37.7579,18.737],[174.9524,-37.7591,2.049],[174.9521,-37.7659,1.5621],[174.9533,-37.7672,6.7321],[174.9593,-37.7659,34.1116],[174.9624,-37.7689,10.9943],[174.9621,-37.771,5.4615],[174.9675,-37.7735,15.5028],[174.9661,-37.775,26.8895],[174.9649,-37.7734,3.4177],[174.9607,-37.7732,9.3064],[174.9586,-37.7758,12.0977],[174.951,-37.778,11.1095],[174.9367,-37.7754,6.348],[174.9319,-37.7754,4.2775],[174.9317,-37.777,32.4871],[174.9295,-37.7716,21.7597],[174.9275,-37.7707,0.0],[174.9265,-37.7724,19.8273],[174.92,-37.7749,19.9134],[174.918,-37.7787,18.9736],[174.9112,-37.7802,0.0],[174.9128,-37.7861,0.0],[174.9167,-37.7885,0.0],[174.921,-37.7843,17.0549],[174.9225,-37.7866,0.0],[174.926,-37.7857,37.1577],[174.9276,-37.7887,5.9211],[174.9251,-37.7897,14.4649],[174.9247,-37.7935,20.5173],[174.9274,-37.7959,15.9859],[174.9334,-37.7927,26.3085],[174.9324,-37.7908,16.9275],[174.9334,-37.7856,34.4921],[174.9511,-37.7793,11.1095],[174.9548,-37.7823,11.5134],[174.9613,-37.784,22.0522],[174.9633,-37.7866,0.0],[174.9693,-37.788,16.8854],[174.9677,-37.794,0.0],[174.9744,-37.7972,8.5127],[174.9731,-37.7974,8.5127],[174.9742,-37.7987,3.7412],[174.9728,-37.8046,16.4028],[174.9723,-37.8027,2.1425],[174.9698,-37.8029,3.4944],[174.9647,-37.7992,11.007],[174.9648,-37.7961,0.0],[174.9635,-37.7963,7.3597],[174.964,-37.7984,11.007],[174.9625,-37.7979,14.0446],[174.9637,-37.7917,3.1751],[174.9564,-37.7921,0.0],[174.9561,-37.7963,16.7393],[174.9534,-37.7934,6.4748],[174.9543,-37.7914,7.698],[174.9473,-37.7889,0.0],[174.947,-37.7948,0.0],[174.9518,-37.7993,7.407],[174.9506,-37.801,7.4085],[174.9538,-37.8036,5.1268],[174.9519,-37.8059,7.0136],[174.9492,-37.8057,0.0],[174.9486,-37.8087,5.534],[174.9458,-37.8088,13.92],[174.9469,-37.8045,1.1793],[174.9444,-37.8039,7.0885],[174.9459,-37.8026,3.0724],[174.944,-37.8022,8.2734],[174.9459,-37.8003,3.22],[174.9443,-37.7997,3.22],[174.9451,-37.7982,1.9344],[174.9404,-37.7966,5.9094],[174.9388,-37.7995,0.0],[174.9402,-37.8008,7.3536],[174.9378,-37.8026,21.6079],[174.9387,-37.7889,0.0],[174.9379,-37.7898,0.0],[174.9377,-37.7937,2.1042],[174.9344,-37.7985,23.5513],[174.9328,-37.7967,3.1567],[174.9295,-37.8005,17.435],[174.93,-37.7969,3.0824],[174.927,-37.7995,10.8529],[174.9277,-37.7971,2.8426],[174.9235,-37.799,27.2006],[174.924,-37.7955,1.8057],[174.9225,-37.7935,2.224],[174.9187,-37.7964,0.0],[174.921,-37.7985,1.8527],[174.9202,-37.8025,1.62],[174.9286,-37.806,10.2769],[174.9286,-37.8081,13.9264],[174.9156,-37.809,7.7935],[174.914,-37.8103,2.8502],[174.9147,-37.8122,20.0053],[174.9142,-37.8121,20.0053],[174.9133,-37.8106,21.7841],[174.9125,-37.8104,21.7841],[174.9144,-37.806,7.4937],[174.9134,-37.8048,7.4937],[174.9152,-37.8036,2.5329],[174.9076,-37.8013,6.5068],[174.8994,-37.8048,13.4698],[174.8993,-37.8076,4.3614],[174.9012,-37.8065,14.4572],[174.8997,-37.8092,18.2482],[174.9039,-37.8124,10.0761],[174.9023,-37.8129,0.0],[174.902,-37.8169,12.6399],[174.9013,-37.8123,0.0],[174.899,-37.8118,6.1154],[174.898,-37.8096,12.3414],[174.8967,-37.8114,28.2872],[174.8978,-37.8082,14.1717],[174.8952,-37.8048,17.041],[174.896,-37.802,11.1551],[174.8911,-37.7992,0.0],[174.8885,-37.8017,17.4015],[174.8798,-37.7943,0.0],[174.876,-37.7951,1.3098],[174.8749,-37.7962,1.3098],[174.8762,-37.7996,9.4089],[174.8729,-37.796,0.0],[174.8679,-37.7978,0.0],[174.8668,-37.7996,3.5368],[174.8683,-37.8032,18.6066],[174.8649,-37.8069,8.7971],[174.8671,-37.8104,2.0252],[174.8693,-37.8068,10.0719],[174.8751,-37.8082,0.0],[174.8747,-37.8063,7.6796],[174.8794,-37.8063,5.947],[174.878,-37.8072,0.0],[174.8774,-37.8114,15.1562],[174.8727,-37.8105,5.3187],[174.8708,-37.8122,0.0],[174.8726,-37.8174,15.6803],[174.8781,-37.8188,9.8063],[174.8763,-37.821,10.101],[174.8807,-37.8218,14.1477],[174.8765,-37.8238,8.8716],[174.8762,-37.8252,0.0],[174.8787,-37.8273,9.8722],[174.8775,-37.8288,8.606],[174.8743,-37.8257,0.0],[174.8712,-37.8312,1.2301],[174.8691,-37.8313,17.519],[174.8708,-37.8275,10.5343],[174.8748,-37.8241,0.0],[174.8731,-37.8193,0.0],[174.8669,-37.8152,10.9114],[174.8656,-37.8124,2.0786],[174.8639,-37.815,7.3654],[174.8647,-37.8174,12.8463],[174.8634,-37.8173,5.9015],[174.8627,-37.8195,0.0],[174.8641,-37.822,15.3092],[174.863,-37.8239,11.1149],[174.862,-37.8231,11.1149],[174.8602,-37.8187,6.2624],[174.8623,-37.817,5.9015],[174.8625,-37.8141,9.4071],[174.861,-37.8124,2.4926],[174.8592,-37.813,11.2269],[174.8594,-37.8114,13.7193],[174.8633,-37.8113,3.7173],[174.8602,-37.8063,6.8785],[174.8544,-37.8085,7.3806],[174.8508,-37.8078,1.6575],[174.85,-37.8113,10.7336],[174.8463,-37.8112,4.0528],[174.8479,-37.8107,2.2751],[174.8498,-37.811,4.1564],[174.8503,-37.8069,1.6575],[174.862,-37.8054,1.141],[174.8654,-37.8017,0.7702],[174.8638,-37.8003,0.0],[174.8579,-37.8051,3.0043],[174.8503,-37.8057,2.5394],[174.8439,-37.8039,2.3906],[174.8355,-37.8075,0.0],[174.8251,-37.8217,30.8572],[174.818,-37.8236,22.9037],[174.8109,-37.821,0.0],[174.8006,-37.8228,0.0],[174.7982,-37.8249,32.908],[174.7958,-37.8241,5.7078],[174.797,-37.823,0.0],[174.7909,-37.824,0.0],[174.7882,-37.827,49.9943],[174.7767,-37.8314,78.7206],[174.7667,-37.8421,8.1372],[174.763,-37.8532,3.8903],[174.7603,-37.8585,57.11],[174.7582,-37.8589,11.4788],[174.7592,-37.8611,86.5203],[174.7568,-37.8638,0.0],[174.7581,-37.8662,54.3856],[174.7635,-37.8692,92.5249],[174.7618,-37.8715,2.5803],[174.7637,-37.8718,49.8805],[174.7653,-37.876,88.1936],[174.7643,-37.8808,22.7263],[174.7632,-37.8835,59.2094],[174.7568,-37.8853,0.0],[174.76,-37.8862,71.206],[174.7591,-37.889,44.7745],[174.7637,-37.8889,42.797],[174.7652,-37.8912,21.7908],[174.7707,-37.9048,1.4831],[174.7733,-37.9162,0.0],[174.7745,-37.9165,0.0],[174.7827,-37.9386,0.0],[174.781,-37.9395,0.0],[174.7846,-37.9433,9.1947],[174.7858,-37.9569,24.5726],[174.7878,-37.9597,38.8261],[174.7844,-37.9598,55.3046],[174.7819,-37.9639,30.4581],[174.7815,-37.9743,11.7507],[174.7801,-37.9773,7.4796],[174.7857,-37.9798,6.244],[174.7858,-37.9827,47.3325],[174.7881,-37.9846,11.4934],[174.7921,-38.0073,1.0137],[174.7957,-38.0155,0.0],[174.7979,-38.0153,0.0],[174.798,-38.0091,0.0],[174.7995,-38.0068,0.0],[174.806,-38.0022,1.5808],[174.8161,-37.9992,4.7169],[174.8171,-37.9957,41.2349],[174.8305,-37.9933,0.0],[174.8338,-37.9897,0.4981],[174.834,-37.9862,0.6533],[174.8304,-37.983,12.89],[174.821,-37.9847,31.8134],[174.8174,-37.9832,9.9647],[174.8164,-37.9801,7.2443],[174.8203,-37.9755,1.6186],[174.8188,-37.9728,0.0],[174.816,-37.9718,25.2898],[174.8143,-37.9645,4.3506],[174.8161,-37.9622,4.2016],[174.8194,-37.9625,0.3455],[174.82,-37.9603,1.2937],[174.8252,-37.9562,3.0718],[174.8239,-37.9547,13.7811],[174.8268,-37.9536,11.1589],[174.828,-37.957,7.4521],[174.8314,-37.9572,2.5339],[174.8334,-37.9546,0.8414],[174.8376,-37.9542,0.0],[174.8379,-37.9522,2.6654],[174.8435,-37.9511,8.7749],[174.8426,-37.9493,18.2864],[174.8464,-37.9471,0.0],[174.8431,-37.9443,21.6141],[174.8437,-37.9441,24.0607],[174.8454,-37.9449,41.5941],[174.8468,-37.9428,6.6181],[174.8462,-37.9414,6.6181],[174.8441,-37.9417,45.7855],[174.845,-37.9409,53.0694],[174.8467,-37.9404,8.5194],[174.8479,-37.9408,0.0],[174.8478,-37.9379,10.9266],[174.8507,-37.9364,1.8279],[174.8481,-37.936,10.4514],[174.852,-37.9319,5.7661],[174.8516,-37.934,8.1522],[174.849,-37.9356,10.4514],[174.8524,-37.9368,4.667],[174.8514,-37.9386,12.8867],[174.8488,-37.9381,1.5019],[174.85,-37.9403,16.1353],[174.8488,-37.9433,1.9575],[174.8519,-37.9452,11.1651],[174.8501,-37.9467,5.6094],[174.8508,-37.9518,0.0],[174.8588,-37.9516,0.0],[174.8673,-37.9465,7.2172],[174.8671,-37.9479,7.2172],[174.8703,-37.9475,9.2848],[174.8719,-37.9517,0.0],[174.8752,-37.9528,10.6661],[174.8786,-37.9595,11.9367],[174.8841,-37.9602,5.2869],[174.888,-37.9578,28.0283],[174.8899,-37.9591,5.7191],[174.8891,-37.9627,14.5633],[174.8938,-37.9618,9.2442],[174.8955,-37.963,6.0988],[174.8914,-37.965,12.1909],[174.8872,-37.9617,3.8435],[174.8818,-37.9626,7.5485],[174.8804,-37.9675,15.3994],[174.8819,-37.969,7.3669],[174.878,-37.9664,6.4311],[174.8732,-37.969,2.4795],[174.8769,-37.9758,10.2001],[174.8738,-37.9736,3.8796],[174.8698,-37.9763,0.0],[174.8706,-37.9782,6.4914],[174.8938,-37.9761,50.1675],[174.9099,-37.9844,175.2696],[174.9136,-37.9828,144.7684],[174.914,-37.9841,190.5712],[174.9214,-37.9846,166.6553],[174.926,-37.9903,195.9098],[174.9352,-37.9877,334.4227],[174.9375,-37.981,315.1805],[174.9414,-37.9785,328.3904],[174.941,-37.9751,317.9473],[174.9475,-37.9717,305.032],[174.9539,-37.9705,332.8876],[174.9531,-37.963,286.7982],[174.9577,-37.9626,209.9074],[174.9697,-37.9685,322.7504],[174.9766,-37.9693,359.2656],[174.9759,-37.9729,310.1205],[174.9773,-37.9734,338.6451],[174.9775,-37.9765,282.2037],[174.9908,-37.9724,482.2585],[174.9954,-37.9785,348.8766],[175.0061,-37.9759,396.8273],[175.0076,-37.979,340.0051],[175.0129,-37.9791,228.8727],[175.0154,-37.9772,236.8243],[175.0157,-37.9743,244.6429],[175.0324,-37.9782,509.5371],[175.0402,-37.9783,515.7195],[175.0401,-37.9868,423.2895],[175.099,-37.9838,836.4581],[175.1017,-37.9783,771.868],[175.056,-37.9048,115.6416],[175.0665,-37.8983,79.7258],[175.062,-37.8841,91.9567],[175.0647,-37.862,180.1817],[175.0957,-37.8618,237.156],[175.0946,-37.8612,244.5261],[175.095,-37.8566,229.6888],[175.0918,-37.8529,253.687],[175.0929,-37.8508,231.1906],[175.0879,-37.8472,214.6688],[175.0912,-37.8459,160.9178],[175.0954,-37.8487,189.9769],[175.1014,-37.8442,157.8275],[175.106,-37.8457,110.1791],[175.1057,-37.8304,136.0546],[175.123,-37.8304,38.054],[175.1216,-37.8245,67.0973],[175.1347,-37.8179,24.5448],[175.1368,-37.821,17.4455],[175.1379,-37.8274,22.1401],[175.1387,-37.8344,18.6176],[175.1374,-37.8366,16.8358],[175.1422,-37.8384,15.3765],[175.1431,-37.8403,22.1394],[175.1703,-37.8321,25.7421],[175.1678,-37.8248,24.1577],[175.1722,-37.8241,30.4847],[175.1747,-37.8217,46.0255],[175.1719,-37.819,31.3269],[175.1776,-37.8166,22.5552],[175.1836,-37.8217,23.5312],[175.1912,-37.8215,24.5839],[175.1906,-37.8198,30.8157],[175.1917,-37.8212,23.8301],[175.2115,-37.821,54.086],[175.2113,-37.8144,34.8775],[175.2182,-37.8144,63.1876],[175.2197,-37.8114,76.738],[175.2288,-37.8066,54.8294],[175.2316,-37.8033,62.9909],[175.233,-37.7973,40.226],[175.2281,-37.7967,33.6949],[175.2295,-37.7872,31.1229],[175.2236,-37.7847,27.6073],[175.2211,-37.7852,27.1353],[175.2214,-37.783,36.0495],[175.2185,-37.7825,55.9768],[175.2198,-37.78,50.224],[175.2176,-37.7742,59.899],[175.2182,-37.7672,52.9579],[175.2139,-37.7659,46.7078],[175.2085,-37.7699,35.736],[175.206,-37.7694,30.8148],[175.2021,-37.7644,23.4366],[175.2096,-37.7625,45.1914],[175.2066,-37.7572,42.6305],[175.203,-37.7534,34.3946],[175.1994,-37.7537,32.4129],[175.1981,-37.751,37.7943],[175.1908,-37.7502,30.9974],[175.191,-37.7458,39.0858],[175.1843,-37.743,30.6373],[175.2056,-37.7406,31.0002],[175.2066,-37.7359,29.8444],[175.2098,-37.7328,33.0647],[175.2072,-37.7253,31.3775],[175.2085,-37.7173,25.3387],[175.2074,-37.7078,23.4969],[175.2107,-37.6992,14.2882],[175.216,-37.7027,21.3781],[175.2189,-37.7135,14.6322],[175.2227,-37.7191,17.7226],[175.2279,-37.7229,15.4942],[175.2294,-37.7206,21.8187],[175.2278,-37.7198,24.5011],[175.2345,-37.7165,30.4426],[175.2486,-37.7184,40.3657],[175.252,-37.7173,35.3973],[175.2575,-37.7105,54.2159],[175.2622,-37.7097,53.2361],[175.2763,-37.7138,43.4158],[175.2792,-37.7169,46.2839],[175.2782,-37.7195,41.0348],[175.2864,-37.7226,43.9179],[175.2899,-37.7218,59.1343],[175.2874,-37.7328,39.052],[175.2934,-37.7482,36.9807],[175.3067,-37.7451,36.7227],[175.3159,-37.7594,39.7731],[175.3305,-37.7702,42.4357],[175.3364,-37.785,41.6986],[175.3448,-37.7928,38.866],[175.3412,-37.7957,30.874],[175.3354,-37.7958,33.6202],[175.3335,-37.7973,27.1897],[175.3343,-37.7991,29.6065],[175.3323,-37.8006,29.3218],[175.3317,-37.8057,32.4203],[175.3303,-37.806399999999996,26.8791],[175.3315,-37.8096,39.834],[175.3281,-37.8151,41.2952],[175.3249,-37.8136,28.4934],[175.3234,-37.8109,25.2901],[175.3236,-37.815,17.6544],[175.3304,-37.8226,22.0447],[175.3265,-37.8294,29.7096],[175.3352,-37.8356,23.0751],[175.3475,-37.8399,29.3989],[175.3501,-37.8485,25.519],[175.3476,-37.8601,25.3223],[175.3568,-37.8706,20.6843],[175.3629,-37.8731,35.3381],[175.3768,-37.8698,29.0848],[175.3821,-37.8705,27.4481],[175.3921,-37.875,25.1513],[175.3972,-37.883,36.2346],[175.3993,-37.884,27.0448],[175.403,-37.8846,36.4026],[175.4093,-37.8748,61.4686],[175.4244,-37.8748,63.7259],[175.4245,-37.8454,58.7107],[175.4209,-37.8454,57.7807],[175.4207,-37.838,56.8523],[175.4256,-37.8397,58.0349],[175.4258,-37.8353,57.062],[175.4337,-37.8354,57.3503],[175.4338,-37.8316,56.1365],[175.4464,-37.8308,59.2666],[175.4464,-37.8248,58.7347],[175.4537,-37.8248,60.7408],[175.4538,-37.8212,59.6616],[175.4604,-37.8213,58.8783],[175.4601,-37.8234,59.5079],[175.4655,-37.8254,61.7091],[175.4666,-37.829,65.0556],[175.474,-37.8313,63.1556],[175.476,-37.8271,66.4962],[175.4809,-37.8273,74.189],[175.4877,-37.8166,251.7698],[175.4824,-37.8093,312.5204],[175.4923,-37.8102,286.3314],[175.4993,-37.8072,305.1099],[175.5047,-37.8028,282.2263],[175.5071,-37.7947,311.1589],[175.5164,-37.7955,306.8594],[175.5258,-37.7927,364.4123],[175.5412,-37.7871,438.1159],[175.5394,-37.7844,339.0797],[175.5437,-37.783,352.3245],[175.5441,-37.769,109.9003],[175.5291,-37.7631,83.8021],[175.5275,-37.7643,96.4972],[175.5123,-37.7327,164.5667],[175.5059,-37.7392,196.3614],[175.5051,-37.7437,204.5166],[175.5024,-37.7449,214.1411],[175.5016,-37.7429,157.483],[175.4986,-37.7427,152.8934],[175.4945,-37.7465,147.3702],[175.4887,-37.7414,148.2176],[175.4886,-37.739,144.8784],[175.471,-37.7354,175.8319],[175.457,-37.7258,104.9462],[175.3815,-37.4751,488.1279],[175.3772,-37.473,477.7652],[175.3732,-37.4668,472.5662],[175.3817,-37.4571,303.4802],[175.3873,-37.4547,309.7755],[175.3838,-37.4446,365.2474],[175.3894,-37.4405,407.7036],[175.3883,-37.4367,414.7756],[175.391,-37.4329,451.1512],[175.3913,-37.4258,450.1779],[175.3952,-37.4243,452.993],[175.3969,-37.4218,460.0056],[175.3935,-37.4082,389.5211],[175.3886,-37.4047,285.634],[175.3879,-37.4008,326.7617],[175.3859,-37.4006,356.9723],[175.3847,-37.3974,374.371],[175.3774,-37.3931,428.4343],[175.3763,-37.3896,412.1676],[175.3817,-37.3816,352.5578],[175.382,-37.3764,351.3344],[175.3839,-37.3742,388.0099],[175.3791,-37.3703,374.0114],[175.3757,-37.3698,387.4683],[175.3602,-37.3539,387.2465],[175.3417,-37.3248,280.8373],[175.3058,-37.2513,113.9234],[175.3105,-37.2511,163.1004],[175.317,-37.2464,169.7529],[175.3161,-37.2327,179.8641],[175.3039,-37.2264,150.8962],[175.3205,-37.1839,1.507],[175.318,-37.1852,1.0367],[175.3119,-37.184,1.6917],[175.3094,-37.185,18.9131],[175.3019,-37.1831,14.7701],[175.2807,-37.1893,67.3215],[175.2717,-37.1866,110.0933],[175.2636,-37.1923,133.2014],[175.2628,-37.183,92.0977],[175.2614,-37.1831,92.0977],[175.2576,-37.1358,66.1772],[175.2492,-37.1364,70.0571],[175.2428,-37.1404,123.9733],[175.2314,-37.1263,139.6432],[175.2266,-37.1283,129.7008],[175.2277,-37.1223,253.2979],[175.2263,-37.1192,308.9057],[175.2204,-37.1198,271.1085],[175.2171,-37.1172,340.8487],[175.2218,-37.1113,405.4795],[175.2209,-37.1102,382.5603],[175.2226,-37.107,337.028],[175.2247,-37.1095,283.1437],[175.2299,-37.1086,230.3709],[175.2344,-37.1108,186.0357],[175.2373,-37.1091,241.889],[175.2419,-37.1116,172.9385],[175.2509,-37.1098,131.7572],[175.2505,-37.0866,263.3476],[175.2397,-37.0868,266.1303],[175.2395,-37.0671,397.9755],[175.2618,-37.0664,181.2867],[175.2575,-37.0648,162.926],[175.261,-37.0606,138.0307],[175.2592,-37.0529,288.3497],[175.2637,-37.0478,176.2101],[175.272,-37.0456,93.1086],[175.2679,-37.0274,216.0802],[175.2077,-37.0301,484.6054],[175.2027,-37.036,438.6738],[175.2067,-37.0373,585.7311],[175.2021,-37.0387,569.1994],[175.1971,-37.0359,482.2721],[175.1929,-37.0395,445.8693],[175.1898,-37.0387,456.4825],[175.1848,-37.0408,477.9172],[175.1787,-37.034,452.1517],[175.1785,-37.0303,432.0296],[175.1687,-37.0233,423.6285],[175.1677,-37.0211,405.5178],[175.166,-37.0214,414.9239],[175.1639,-37.0161,408.3705],[175.1608,-37.0159,412.8674],[175.1521,-37.0216,421.5718],[175.1516,-37.0245,409.3761],[175.1556,-37.0298,428.6245],[175.1531,-37.0373,419.8096],[175.1548,-37.0379,412.4593],[175.1535,-37.0432,453.1717],[175.1556,-37.047,446.6842],[175.1476,-37.0549,357.7662],[175.1466,-37.0632,301.5276],[175.149,-37.0673,254.1955],[175.1455,-37.0684,263.1481],[175.1477,-37.0702,210.5678],[175.1466,-37.0712,210.5678],[175.1505,-37.0703,186.8188],[175.1483,-37.0759,267.6251],[175.146,-37.0759,321.7379],[175.1447,-37.0791,358.2698],[175.1445,-37.0872,298.4182],[175.1464,-37.0898,232.1507],[175.1408,-37.0987,376.7672],[175.1446,-37.1013,287.7599],[175.1434,-37.1086,295.838],[175.1473,-37.1099,330.1312],[175.15,-37.1197,302.1658],[175.1542,-37.121,248.3759],[175.1524,-37.1275,234.8735],[175.1539,-37.1361,293.8506],[175.1522,-37.143,337.312],[175.1482,-37.1428,218.5822],[175.1452,-37.1446,252.891],[175.1463,-37.1523,231.2809],[175.1442,-37.1677,178.3301],[175.1339,-37.1682,111.5064],[175.1402,-37.1719,115.7779],[175.1398,-37.1736,97.7052],[175.1419,-37.1758,92.4737],[175.1317,-37.1817,71.8439],[175.1326,-37.1854,53.5991],[175.1307,-37.1864,67.8606],[175.1233,-37.1848,119.6646],[175.1209,-37.1896,92.2395],[175.1135,-37.1864,168.2531],[175.1103,-37.1879,189.9155],[175.1052,-37.1814,225.0269],[175.0963,-37.1822,134.4996],[175.0956,-37.1796,124.6693],[175.0928,-37.1808,110.11],[175.0896,-37.1795,138.2795],[175.0869,-37.1822,105.5737],[175.0869,-37.1923,105.9165],[175.0738,-37.1947,194.3611],[175.0722,-37.1923,241.2709],[175.0667,-37.1909,239.5473],[175.0661,-37.1819,231.5333],[175.0545,-37.1808,281.6049],[175.0453,-37.1828,271.2974],[175.045,-37.1881,238.7888],[175.0379,-37.1884,217.4822],[175.0373,-37.1921,198.7087],[175.0327,-37.1908,228.454],[175.0326,-37.1887,241.1629],[175.0292,-37.1888,214.4019],[175.0296,-37.1962,285.117],[175.0204,-37.1996,326.7605],[175.0184,-37.1955,355.6328],[175.0142,-37.1969,291.9894],[175.0111,-37.2012,249.7371],[175.0075,-37.203,241.2296],[175.0071,-37.2055,235.5021],[174.9903,-37.2166,150.3278],[174.9812,-37.2081,157.9218],[174.9796,-37.2091,157.9218],[174.9732,-37.1948,147.3342],[174.9569,-37.1986,137.7268],[174.9526,-37.1962,111.1398],[174.948,-37.1957,131.0878],[174.9486,-37.198,99.2383],[174.9378,-37.1997,91.5406],[174.9385,-37.2024,74.2588],[174.9299,-37.2062,73.6687],[174.9364,-37.2146,76.1851],[174.932,-37.219,59.5445],[174.9309,-37.2246,59.212],[174.9325,-37.225,60.074],[174.9314,-37.2289,59.8435],[174.9328,-37.2316,58.7932],[174.9308,-37.2331,57.9886],[174.9243,-37.2308,50.8465],[174.9231,-37.2343,51.7185],[174.9193,-37.2366,56.0604],[174.9165,-37.2308,69.5993],[174.8893,-37.2333,172.8876],[174.8868,-37.2306,183.9494],[174.8791,-37.2346,116.021],[174.8815,-37.237,115.6597],[174.8757,-37.2406,91.6435],[174.8726,-37.2383,90.2326],[174.869,-37.245,86.3273],[174.8637,-37.2439,76.951],[174.8589,-37.2454,76.241],[174.8553,-37.2442,66.4133],[174.8504,-37.2512,107.5764],[174.8478,-37.2471,85.2591],[174.851,-37.2397,76.7308],[174.8465,-37.2385,48.1966],[174.8481,-37.2342,61.9942],[174.8435,-37.2331,58.511],[174.843,-37.2354,46.6862],[174.8274,-37.2312,53.8002],[174.8237,-37.2326,63.8402],[174.8138,-37.2284,73.5071],[174.8117,-37.2309,59.5124],[174.8063,-37.2268,65.0358],[174.8009,-37.2325,117.1883],[174.7926,-37.2345,87.5871],[174.7916,-37.2398,73.8753],[174.7846,-37.2419,68.9173],[174.7775,-37.2413,85.4217],[174.7731,-37.243,76.4316],[174.7693,-37.2477,80.0089],[174.7568,-37.2516,46.7664],[174.756,-37.2541,34.9497],[174.7389,-37.2679,20.6531],[174.7328,-37.2686,17.0979],[174.7315,-37.2629,19.298],[174.7271,-37.2629,13.5855],[174.726,-37.2648,12.4756],[174.7225,-37.2581,20.104],[174.713,-37.2593,30.8948],[174.7092,-37.2618,33.7973],[174.6999,-37.2616,38.1433],[174.6893,-37.2662,67.3495],[174.6779,-37.2737,112.7793],[174.6582,-37.282,53.5539],[174.6577,-37.2839,51.9032],[174.6617,-37.2884,62.5958],[174.6597,-37.2924,4.471]]]]}
,"properties": {"GID_2": "NZL.17.8_1","GID_0": "NZL","country": "NewZealand","GID_1": "NZL.17_1","province": "Waikato","NL_NAME_1": "NA","county": "Waikato","VARNAME_2": "NA","NL_NAME_2": "NA","TYPE_2": "District","ENGTYPE_2": "District","CC_2": "013","HASC_2": "NZ.WK.WT","name": "Waikato.county","area_km2": 4446.807,"hist_schema_id": "Elevation0-9000","hist_area_km2": {"-50": 0.084,"-25": 1.247,"0": 593.154,"25": 1063.965,"50": 712.733,"75": 422.377,"100": 393.417,"125": 328.461,"150": 246.571,"175": 166.729,"200": 122.566,"225": 91.406,"250": 67.235,"275": 48.95,"300": 38.109,"325": 28.145,"350": 24.393,"375": 21.881,"400": 19.778,"425": 15.662,"450": 10.159,"475": 7.982,"500": 5.356,"525": 4.629,"550": 2.89,"575": 2.519,"600": 1.983,"625": 1.496,"650": 1.023,"675": 0.787,"700": 0.451,"725": 0.184,"750": 0.201,"775": 0.084,"800": 0.117,"825": 0.084}}}