{"type":"Feature","properties":{"featurecla":"River","scalerank":10,"rivernum":2021,"dissolve":"2021River","name":"Motueka2","name_alt":null,"note":null,"min_zoom":7.2,"strokeweig":0.15,"name_en":"Motueka Right Branch","min_label":8.2},
"geometry":{"type": "LineString","coordinates": [[173.03659548490182,-41.623964540368057,1477.0717],[173.0348006002111,-41.632877071246149,1429.3577],[173.03360916813193,-41.639437684253636,1380.326],[173.03302118866426,-41.65014509982246,1255.9286],[173.03360916813193,-41.659645610168212,1461.3215],[173.03302118866426,-41.668001107866424,1289.0842],[173.03244868234049,-41.67697553132006,1307.0537],[173.0263367905057,-41.682607755694413,1315.9498],[173.02076645870687,-41.687713893176657,1416.1589],[173.01672796815274,-41.691396501421423,1322.7224],[173.00826415844733,-41.699164019651988,1132.7534],[173.00089894195779,-41.698916449349817,936.9771],[172.99107349559046,-41.698761717910962,752.7675],[172.98250137387782,-41.694955324515107,624.4094],[172.97793679643161,-41.689044583550817,597.2599],[172.97470290935951,-41.680658139564834,587.2112],[172.96594510992026,-41.679698804643927,554.183],[172.96252554512154,-41.674190365420657,557.4072],[172.96156621020066,-41.663916197880631,538.4387],[172.95909050717896,-41.6526826954197,498.0754],[172.95243705530817,-41.643367862800574,578.4064],[172.94436007419989,-41.642222850153047,477.9068]]}}