{"type":"Feature","properties":{"featurecla":"River","scalerank":9,"rivernum":2003,"dissolve":"2003River","name":"Awatere","name_alt":null,"note":null,"min_zoom":7.1,"strokeweig":0.2,"name_en":"Awatere","min_label":8.1},
"geometry":{"type": "LineString","coordinates": [[173.22686669120719,-42.120689632400016,915.2764],[173.24288343918442,-42.108119212547926,890.3879],[173.28617729577627,-42.0843215172519,839.2786],[173.33948227646209,-42.055758093639113,799.1635],[173.38327127365829,-42.04242024360974,760.0261],[173.41277855904809,-42.031960398343088,769.6356],[173.42610093593359,-42.008162703047063,704.8961],[173.44322970621494,-41.985324342671944,675.5183],[173.47083379490681,-41.968211045534488,652.0521],[173.50414747369246,-41.959638923821878,600.7452],[173.53840501425515,-41.941535345475749,548.0771],[173.58790360154512,-41.903471411517216,545.5035],[173.60599170674737,-41.893011566250564,464.642],[173.64311177892887,-41.88252077469614,437.0778],[173.69355422799589,-41.853028962450217,415.5173],[173.72210217846478,-41.847303899212548,396.0419],[173.75351266055253,-41.822577815283388,349.7981],[173.77254462753177,-41.810199300174922,358.7596],[173.7963423228278,-41.805433571858167,311.7349],[173.82108387990087,-41.794973726591515,289.5219],[173.83250306008841,-41.7864016048789,251.2266],[173.84011584688011,-41.769257361453676,213.8071],[173.86296968039912,-41.762603909582872,199.1092],[173.86771993557198,-41.754031787870261,205.0792],[173.87152632896786,-41.74072488412866,206.0528],[173.88200164737839,-41.723580640703439,164.9373],[173.91531532616403,-41.710273736961838,161.744],[173.93150023466836,-41.699782945407406,135.8395],[173.98194268373538,-41.681710313349051,120.3678],[174.01008833246323,-41.671807501262279,85.5182],[174.05113858319169,-41.665277834542565,65.0257],[174.08681965299184,-41.650980649592285,69.2137],[174.11046261684902,-41.634176815332538,37.0121],[174.14571043862037,-41.612916715633752,14.0156],[174.17902411740602,-41.605180143690959,0.0]]}}