{"type":"Feature","properties":{"featurecla":"River","scalerank":9,"rivernum":2003,"dissolve":"2003River","name":"Awatere1","name_alt":null,"note":null,"min_zoom":7.1,"strokeweig":0.15,"name_en":"Awatere","min_label":8.1},
"geometry":{"type": "LineString","coordinates": [[173.18244533916732,-42.189972143702654,1153.0355],[173.18719559434021,-42.170940176723391,1051.9216],[173.19005812595904,-42.151413069139785,1015.2297],[173.21099328963624,-42.130957572923045,942.5811],[173.22289213728425,-42.123808980447905,939.2183],[173.22686669120719,-42.120689632400016,915.2764]]}}