{"type":"Feature","properties":{"featurecla":"River","scalerank":6,"rivernum":2041,"dissolve":"2041River","name":"Wairau","name_alt":null,"note":null,"min_zoom":5.0,"strokeweig":0.2,"name_en":"Wairau","min_label":6.0},
"geometry":{"type": "LineString","coordinates": [[172.9118200526085,-42.118950413267832,982.5441],[172.90824575637095,-42.105272154072978,957.6168],[172.923115447645,-42.0767087304602,962.7167],[172.92192401556579,-42.067208220114445,1112.2434],[172.90111263703966,-42.05529389932255,967.7122],[172.89634690872293,-42.037437891278586,851.0964],[172.90050918442813,-42.022583673148425,814.2383],[172.89693488819057,-41.999373957320053,820.9552],[172.89218463301768,-41.979166031405484,820.2549],[172.8987297728813,-41.959515138670795,743.802],[172.90170061650733,-41.941102097446951,716.5485],[172.91657030778137,-41.9155095174602,692.76],[172.9171737603929,-41.891123842696523,671.6735],[172.92192401556579,-41.876826657746243,645.2692],[172.93263143113461,-41.84591131626285,610.5166],[172.93560227476064,-41.835203900694026,599.1407],[172.94453027878262,-41.80843536177197,569.7939],[172.9623708136827,-41.78225480231756,545.0549],[172.98794792052556,-41.762015930115219,508.0044],[173.01115763635394,-41.746573732517412,486.0505],[173.03970558682283,-41.731100588631826,459.5676],[173.08134381701893,-41.719805193595356,426.4414],[173.11168665217855,-41.709685757494185,402.6286],[173.13726375902144,-41.693624634140946,378.4813],[173.16463575055502,-41.682329239104476,356.4026],[173.17950544182906,-41.668063000441968,349.607],[173.20330313712509,-41.655560700182413,326.3372],[173.22946822343562,-41.643646379390518,310.8457],[173.25564878289003,-41.639499576829181,297.2638],[173.28835900906415,-41.635909807447725,278.3285],[173.30680299657575,-41.626997276569632,266.0961],[173.33654237912384,-41.612731037907125,245.964],[173.36510580273662,-41.606170424899638,233.7626],[173.39662459683154,-41.595463009330814,219.47],[173.41387715226398,-41.586550478452722,208.6298],[173.44124914379756,-41.5770190218192,190.6614],[173.47812164567694,-41.560369918998312,175.8698],[173.50666959614583,-41.5550162112139,159.3772],[173.52632048888051,-41.543720816177427,148.4459],[173.54355757116906,-41.541337952019049,141.8664],[173.57270897424948,-41.529454577514919,124.4266],[173.59590321693398,-41.527659692824194,119.2167],[173.61792150068317,-41.522305985039779,108.7467],[173.64824886269889,-41.524688849198164,100.4022],[173.6768122863117,-41.526452787601116,86.4503],[173.68691624926896,-41.522305985039779,83.2102],[173.70238939315456,-41.518747161946095,77.2954],[173.71547967288177,-41.516952277255371,74.489],[173.72915793207662,-41.507420820621853,68.521],[173.73986534764543,-41.493742561427,60.5],[173.7588973146247,-41.489595758865661,56.05],[173.78388644199993,-41.488976833110236,47.8739],[173.80350638844683,-41.483035145858175,46.7752],[173.81422927715954,-41.473534635512429,38.0458],[173.82790753635439,-41.471151771354045,36.219],[173.84693950333366,-41.466386043037289,29.1701],[173.86716290239212,-41.46220829418818,24.979],[173.883812005213,-41.449148960748751,17.7469],[173.89869716963094,-41.447354076058019,14.158],[173.92128795970388,-41.439617504115226,10.2854],[173.94449767553226,-41.437234639956849,7.7663],[173.97007478237512,-41.441412388805958,1.3354],[173.97245764653351,-41.453295763310088,6.7681],[173.98613590572836,-41.4717397508217,0.9692],[174.0010055970024,-41.4806522816998,1.4923],[174.01825815243484,-41.483623125325828,1.9234],[174.03253986424122,-41.489595758865661,1.0763],[174.0414678682632,-41.497301384520682,1.793],[174.05692553900491,-41.5068328411542,0.0],[174.06246492451595,-41.506306754262091,2.0618]]}}