{"type": "Feature","bbox": [172.51417076914626,-43.913872979693437,173.1263533863337,-43.48638274531838],"geometry": {"type": "MultiPolygon","coordinates": [[[[172.91114367628484,-43.621360146305562,0.0],[172.92017662852118,-43.625420831255894,0.0],[172.92603600352118,-43.633965753130951,92.1934],[172.92774498789618,-43.650689385943394,311.7003],[172.92457115977118,-43.678521417193451,433.0899],[172.92823326914629,-43.684502862505951,584.666],[172.94202721445902,-43.681695245318394,434.7422],[172.95069420664618,-43.674004815630838,463.8043],[172.95777428477118,-43.662286065630951,186.443],[172.9663192066464,-43.651543878130894,236.3659],[172.97925865977129,-43.646905206256008,119.3298],[172.9941512378964,-43.648125909380894,129.079],[173.00916588633402,-43.652642510943338,0.0],[173.02051842539618,-43.661187432818394,163.2917],[173.02454674570879,-43.674859307818338,234.744],[173.05274498789618,-43.652032159380894,0.0],[173.0648299488339,-43.646905206256008,0.0],[173.06885826914652,-43.664483331255951,0.0],[173.08057701914618,-43.674615167193451,0.0],[173.09461510508402,-43.682793878130951,0.0],[173.10596764414618,-43.694756768755894,4.1357],[173.10694420664629,-43.702691339068394,44.9127],[173.1040145191464,-43.710870050005894,67.8791],[173.10035240977129,-43.717828057818394,131.9006],[173.09913170664629,-43.722710870318394,17.0206],[173.10169518320868,-43.728570245318451,59.2308],[173.10999596445879,-43.738824151568394,28.4109],[173.11268151133379,-43.743829034380951,220.7584],[173.1162215503964,-43.770928643755951,168.7943],[173.113806851891,-43.795915523940721,0.1259],[173.12317955820876,-43.779595635943437,0.0],[173.1263533863337,-43.71135833125588,0.0],[173.09485924570876,-43.652520440630894,0.0],[173.0293074878962,-43.614068292193465,0.0],[172.98939049570876,-43.610284112505894,0.0],[172.91114367628484,-43.621360146305562,0.0]]],
[[[173.08558948102143,-43.845048006764614,0.0],[173.08045494883379,-43.839410089068451,116.0136],[173.05579674570868,-43.862969659380951,0.0],[173.03748619883368,-43.859795831255951,236.8571],[173.0312606128964,-43.881036065630838,0.0],[173.03099819135079,-43.884644361881669,0.0],[173.0849715503962,-43.846123956255894,0.0],[173.08558948102143,-43.845048006764614,0.0]]],
[[[173.02909857974487,-43.886000101284992,0.0],[173.02271569102129,-43.879327081255838,0.0],[173.01392662852152,-43.877740167193451,0.0],[173.0050154957089,-43.881036065630838,215.049],[172.99659264414629,-43.887749932818281,30.5805],[172.9924422535214,-43.875054620318451,17.5958],[172.97962487070868,-43.852593682818394,416.6848],[172.97559655039652,-43.839410089068451,648.1711],[172.97571862070879,-43.823907159381008,280.8069],[172.9785262378964,-43.815484307818394,178.2932],[172.9771834644589,-43.807915948443451,139.7779],[172.96558678477118,-43.794976495318394,33.3036],[172.96033776133402,-43.781914971880894,0.0],[172.96216881602129,-43.767022393755951,2.2867],[172.96143639414629,-43.754937432818394,162.1626],[172.94849694102152,-43.749932550005951,28.7668],[172.93299401133379,-43.754327081255781,0.0],[172.92628014414618,-43.764458917193394,1.5678],[172.92908776133368,-43.775933526568394,2.7649],[172.94202721445902,-43.784722589068338,6.7206],[172.92774498789618,-43.811700128131008,0.0],[172.92652428477129,-43.839165948443508,0.0],[172.93726647227129,-43.865899346880951,0.0],[172.96876061289618,-43.902032159380951,0.0],[172.96546471445902,-43.904229425005951,0.0],[172.94202721445902,-43.900811456255781,0.0],[172.87659752695902,-43.900811456255781,0.0],[172.86280358164629,-43.895196221880951,0.0],[172.8398543628964,-43.875054620318451,19.2396],[172.8171492847714,-43.880303643755951,0.0],[172.80506432383402,-43.873345635943281,0.0],[172.78370201914652,-43.853081964068394,7.2208],[172.74500573008379,-43.823663018755781,159.6596],[172.74402916758402,-43.810235284380894,124.2064],[172.76331627695879,-43.791558526568394,1.5],[172.7456160816464,-43.792535089068338,220.9941],[172.71839440195868,-43.802178643755838,134.3521],[172.6367293628964,-43.810845635943338,2.1694],[172.60889733164618,-43.821465753130781,6.8513],[172.55103600352129,-43.825738214068451,6.9257],[172.51439815895029,-43.83529149392885,7.0485],[172.5144149097712,-43.83818938594338,6.504],[172.5556746753962,-43.837579034380937,6.5081],[172.63184655039626,-43.81462981563088,6.9698],[172.6716414722712,-43.813897393755909,6.8465],[172.7063094410212,-43.828423760943437,0.0],[172.75562584727126,-43.875542901568437,0.0],[172.79004967539626,-43.896416925005923,0.0],[172.8670760425837,-43.913872979693437,0.0],[172.94959557383376,-43.910943292193451,0.0],[173.0261336597712,-43.888116143755923,0.0],[173.02909857974487,-43.886000101284992,0.0]]],
[[[172.74747420757322,-43.487915217220291,0.0],[172.75025475352118,-43.497369073443394,0.0],[172.7788192066464,-43.556573175005894,0.0],[172.77686608164629,-43.572442315630838,41.3225],[172.76417076914618,-43.561211846880781,0.0],[172.75245201914629,-43.559380792193451,1.0718],[172.74756920664618,-43.565972589068451,0.0],[172.75586998789652,-43.579888604693451,5.8778],[172.7710067066464,-43.588067315630838,60.0347],[172.8320418628964,-43.600396417193451,0.0],[172.80384362070868,-43.609795831255894,0.0],[172.73768151133379,-43.612969659380838,0.0],[172.70801842539618,-43.620293878130894,0.0],[172.68128502695902,-43.638116143755894,27.3562],[172.69288170664629,-43.645806573443451,0.0],[172.72071373789629,-43.649224542193451,208.8486],[172.74280846445868,-43.654351495318338,175.6772],[172.76343834727129,-43.634698175006008,153.2596],[172.80079186289618,-43.627740167193338,364.8923],[172.83668053477129,-43.628106378130894,0.0],[172.85267174570868,-43.630181573443394,327.3445],[172.85694420664652,-43.645318292193451,308.9253],[172.86634362070879,-43.659600518755838,471.9493],[172.8756209644589,-43.667779229693394,302.1704],[172.88001549570902,-43.664361260943338,234.53],[172.8847762378964,-43.638604425005894,280.3268],[172.89146679815295,-43.619461988716481,106.9854],[172.86939537852126,-43.61675383906838,170.4314],[172.8326522144587,-43.589532159380937,0.0],[172.7846785816462,-43.50908782344338,0.0],[172.75660240977126,-43.48638274531838,0.0],[172.74747420757322,-43.487915217220291,0.0]]],
[[[172.51426414672315,-43.812107378610463,0.0],[172.6174422535214,-43.786187432818451,0.0],[172.63294518320868,-43.784722589068338,0.0],[172.64747155039629,-43.781426690630951,0.0],[172.64002526133379,-43.773858331255951,0.1773],[172.6123153003964,-43.760552667193394,0.0],[172.59986412852129,-43.758477471880894,0.0],[172.56812584727129,-43.761895440630894,1.2787],[172.55103600352129,-43.756768487506008,1.3526],[172.54395592539652,-43.751275323443281,2.3126],[172.5384358932572,-43.744807406997552,2.21],[172.51417076914626,-43.795953057818394,0.0],[172.51426414672315,-43.812107378610463,0.0]]]]}
,"properties": {"featurecla": "Pen/cape","name": "Banks Pen.","namealt": null,"region": "Oceania","subregion": "New Zealand","min_label": 6.0,"max_label": 10.0,"scalerank": 5,"area_km2": 343.4856,"hist_schema_id": "Elevation0-9000","hist_area_km2": {"0": 238.2557,"25": 8.8564,"50": 9.5455,"75": 9.8213,"100": 9.9131,"125": 10.1431,"150": 9.0251,"175": 7.5074,"200": 6.3282,"225": 5.0725,"250": 3.9388,"275": 3.4023,"300": 2.8962,"325": 3.065,"350": 2.7589,"375": 2.2831,"400": 2.3446,"425": 1.5627,"450": 1.4708,"475": 1.0256,"500": 0.7808,"525": 0.8111,"550": 0.5817,"575": 0.7803,"600": 0.4592,"625": 0.3671,"650": 0.2752,"675": 0.1988,"700": 0.0153}}}