{"type":"Feature","properties":{"featurecla":"Pen/cape","name":"Coromandel","namealt":null,"region":"Oceania","subregion":"New Zealand","min_label":5.4,"max_label":10.0,"scalerank":5},
"geometry":{"type": "Polygon","coordinates": [[[175.95461676440178,-37.337997449275143,0.0],[176.02487224993354,-37.360183392074646,0.0],[176.00702629238981,-37.1210475609887,0.0],[175.88567378109246,-36.685606196921754,0.0],[175.58586169435785,-36.482162280923262,0.0],[175.4645091830605,-36.417916833765844,0.0],[175.33601828874566,-36.410778450748353,0.0],[175.3074647566757,-36.564253685624408,0.0],[175.38241777835935,-36.849789006324045,0.0],[175.54322350352129,-37.185967706255781,0.6345],[175.54859459727152,-37.180840753130951,3.1009],[175.56251061289652,-37.178765557818394,1.7411],[175.5708113941464,-37.183282159380894,10.083],[175.57374108164629,-37.193902276568451,1.9937],[175.57360257788815,-37.200273449442953,0.7922],[175.59538787173975,-37.2105323143226,2.4943],[175.5914412769589,-37.180352471880951,99.3721],[175.58216393320902,-37.153497003130894,77.6793],[175.5799666675839,-37.140923760943394,231.7673],[175.56251061289652,-37.110650323443451,412.8376],[175.55945885508402,-37.096123956255838,375.7012],[175.5605574878964,-37.043389581255838,347.2872],[175.55579674570879,-37.031060479693394,239.504],[175.5511580738339,-37.023003839068451,221.3519],[175.5275985035214,-36.961236260943394,107.4632],[175.52076256602152,-36.949639581255838,282.0445],[175.51099694102129,-36.937920831255838,137.5665],[175.4989119800839,-36.928155206255894,154.6163],[175.47364342539652,-36.913384698443394,238.4329],[175.4632674488339,-36.904473565630951,241.5957],[175.4571639332089,-36.893609307818451,141.0817],[175.45399010508402,-36.882989190630838,217.6354],[175.4487410816464,-36.872857354693394,265.3517],[175.4360457691464,-36.863457940630951,198.0813],[175.4571639332089,-36.857232354693338,83.5944],[175.4812117847714,-36.860772393755951,13.686],[175.5029403003964,-36.860650323443394,86.701],[175.5178328785214,-36.843560479693394,214.23],[175.4849959644589,-36.844170831255838,53.7516],[175.4696151050839,-36.842217706255894,0.4911],[175.4558211597714,-36.836114190630894,25.676],[175.46815026133368,-36.832330010943394,13.7165],[175.4806014332089,-36.830132745318394,73.2535],[175.4910994800839,-36.825738214068394,173.0085],[175.49732506602118,-36.815606378130894,33.9502],[175.48890221445902,-36.815484307818451,62.6393],[175.48218834727129,-36.813164971880838,106.1764],[175.47632897227152,-36.810357354693451,49.6536],[175.4701033863339,-36.808160089068451,0.0],[175.5202742847714,-36.796685479693451,67.0134],[175.53699791758368,-36.784966729693451,187.3406],[175.5321151050839,-36.760430596880838,258.3021],[175.51612389414629,-36.769219659380951,61.7848],[175.51099694102129,-36.774102471880781,10.5682],[175.50416100352152,-36.764336846880838,10.2237],[175.4992781910214,-36.754082940630951,15.7334],[175.4985457691464,-36.743829034380894,45.1666],[175.50489342539629,-36.733697198443394,121.2696],[175.48218834727129,-36.703545831255951,241.6234],[175.4893904957089,-36.676934503130951,304.5931],[175.50220787852129,-36.652642510943394,118.908],[175.49732506602118,-36.630059503130838,334.8148],[175.4890242847714,-36.626641534380838,201.7475],[175.47767174570902,-36.625054620318451,49.0208],[175.46753990977152,-36.621758721880894,0.0],[175.4632674488339,-36.612969659380894,0.153],[175.46033776133379,-36.610406182818394,6.5652],[175.4421492847714,-36.589654229693451,119.8358],[175.42444908945902,-36.581719659380838,38.5013],[175.38709557383379,-36.570367120318338,39.8883],[175.37049401133368,-36.558038018755894,107.7309],[175.36182701914629,-36.544732354693451,228.2985],[175.35694420664618,-36.528374932818394,588.0771],[175.35401451914629,-36.489800714068451,108.6953],[175.3623153003964,-36.475640557818394,43.5517],[175.38245690195902,-36.475640557818394,81.1414],[175.4069930347714,-36.479180596880894,74.5718],[175.4403182300839,-36.473443292193394,0.0],[175.44678795664618,-36.478448175005951,0.0],[175.45093834727152,-36.486504815630894,0.0],[175.45704186289652,-36.495538018755951,0.0],[175.46107018320902,-36.503472589068394,0.0],[175.4632674488339,-36.506524346880894,0.0],[175.4670516285214,-36.509698175005894,0.0],[175.4751082691464,-36.513360284380951,40.795],[175.4958602222714,-36.529351495318338,110.9528],[175.50586998789652,-36.530328057818451,163.682],[175.5321151050839,-36.506524346880894,0.0],[175.55030358164652,-36.525323175005894,0.0],[175.56190026133379,-36.550591729693394,0.0],[175.56006920664652,-36.576226495318451,0.0],[175.53834069102118,-36.595879815630894,0.0],[175.5592147144589,-36.609551690630894,119.7058],[175.58179772227152,-36.609917901568394,0.0],[175.59986412852129,-36.614556573443451,0.0],[175.60718834727118,-36.640923760943394,0.0],[175.60987389414629,-36.666436456255951,0.0],[175.60718834727118,-36.679375909380838,0.0],[175.59669030039652,-36.675103448443451,0.0],[175.5836287769589,-36.666558526568394,0.0],[175.57398522227152,-36.668633721880951,77.5126],[175.57056725352118,-36.677300714068451,0.0],[175.5765486988339,-36.688775323443394,49.5075],[175.58790123789652,-36.692803643755894,244.9144],[175.61670983164652,-36.689263604693394,0.0],[175.6276961597714,-36.692071221880951,0.0],[175.63428795664629,-36.703423760943451,0.0],[175.6308699878964,-36.713677667193394,0.0],[175.62415612070902,-36.723687432818394,0.0],[175.62086022227129,-36.733697198443394,0.0],[175.62794030039652,-36.762749932818451,25.392],[175.64185631602152,-36.765435479693451,1.0502],[175.6823836597714,-36.739922784380838,55.9929],[175.6679793628964,-36.734795831255951,10.5277],[175.6618758472714,-36.733697198443394,3.5388],[175.66895592539652,-36.724663995318338,0.0],[175.68152916758402,-36.721123956255894,0.0],[175.6955672535214,-36.723077081255951,0.0],[175.70655358164652,-36.730035089068451,2.793],[175.71888268320879,-36.734673760943394,42.228],[175.73340905039652,-36.728936456255894,23.8897],[175.75806725352118,-36.712701104693451,1.6596],[175.7762557300839,-36.707207940630894,43.2193],[175.7905379566464,-36.706353448443338,1.5445],[175.80323326914652,-36.710992120318394,0.0],[175.81641686289652,-36.722832940630894,7.8447],[175.8277694019589,-36.724419854693451,0.0],[175.84119713633402,-36.718316339068451,0.0],[175.8515731128964,-36.717095635943394,0.0],[175.8535262378964,-36.733697198443394,0.0],[175.8481551441464,-36.746880792193394,0.0],[175.83777916758402,-36.750420831255838,0.0],[175.8095809253964,-36.747369073443338,0.0],[175.8046981128964,-36.752251885943451,0.0],[175.7854110035214,-36.781548760943451,0.0],[175.77234948008402,-36.788506768755951,0.0],[175.74659264414652,-36.796929620318394,0.0],[175.73414147227129,-36.805108331255951,0.0],[175.7182723316464,-36.822686456255894,0.0],[175.70350182383402,-36.843560479693394,0.0],[175.71546471445879,-36.851495050005894,163.7696],[175.71473229258402,-36.858697198443451,170.6531],[175.71094811289618,-36.866021417193451,60.7652],[175.71338951914652,-36.873955987505951,1.2397],[175.72461998789629,-36.882989190630838,138.8444],[175.7365828785214,-36.889214776568451,211.7092],[175.74463951914629,-36.888848565630894,184.304],[175.7437850269589,-36.877740167193338,126.5679],[175.7595320972714,-36.867364190630951,7.7542],[175.7518416675839,-36.835992120318451,0.0],[175.76490319102152,-36.822442315630951,35.6726],[175.78687584727129,-36.831719659380951,89.7624],[175.8277694019589,-36.824517510943338,0.0],[175.8505965503964,-36.839898370318451,0.0],[175.8542586597714,-36.850762628130951,0.0],[175.85303795664652,-36.876641534380894,0.0],[175.85743248789618,-36.887383721880951,0.0],[175.87305748789652,-36.903741143755894,0.0],[175.87745201914652,-36.911675714068394,0.0],[175.8816024097714,-36.924859307818451,0.0],[175.8878279957089,-36.972710870318394,0.0],[175.88453209727129,-37.004571221880838,0.0],[175.8847762378964,-37.010186456255894,0.0],[175.88672936289629,-37.020074151568394,0.0],[175.8803817066464,-37.030816339068451,179.5675],[175.87208092539652,-37.041802667193451,312.0884],[175.86793053477118,-37.052178643755951,238.3476],[175.8729354175839,-37.059136651568451,265.7048],[175.88367760508379,-37.053643487505894,225.7362],[175.8950301441464,-37.042901300005894,0.0],[175.90149987070868,-37.034722589068451,0.0],[175.9194442066464,-37.053399346880838,0.0],[175.91614830820902,-37.078667901568338,0.0],[175.90149987070868,-37.104913018755951,0.0],[175.8847762378964,-37.127496026568338,57.0312],[175.88355553477152,-37.135918878130951,9.0692],[175.8938094410214,-37.139336846880838,0.0],[175.9071151050839,-37.141045831255838,0.0],[175.91578209727152,-37.144585870318451,0.0],[175.91920006602152,-37.157037042193394,0.0],[175.9177352222714,-37.186089776568281,0.0],[175.92261803477152,-37.199273370318394,0.0],[175.9129744800839,-37.193780206255838,0.0],[175.9055281910214,-37.185845635943394,0.0],[175.8999129566464,-37.176080010943451,0.0],[175.8952742847714,-37.165093682818451,0.0],[175.8878279957089,-37.165093682818451,0.0],[175.8922225269589,-37.190240167193394,0.0],[175.8996688160214,-37.212090753130838,0.0],[175.9011336597714,-37.229424737505894,0.0],[175.8878279957089,-37.240777276568394,112.5862],[175.9217635425839,-37.253594659380951,0.0],[175.93336022227129,-37.262994073443394,0.0],[175.94300377695879,-37.281182550005951,0.0],[175.9528914722714,-37.320367120318281,0.0],[175.95461676440178,-37.337997449275143,0.0]]]}}