{"type": "Feature","bbox": [170.50932898661191,-45.954796545133718,170.8164303965882,-45.715660714047772],"geometry": {"type": "Polygon","coordinates": [[[170.50932898661191,-45.920505777343145,0.0],[170.5416026504148,-45.954796545133718,0.0],[170.74861575792215,-45.919104630046263,0.0],[170.80929201357071,-45.87805892769569,0.0],[170.8164303965882,-45.788829139977,0.0],[170.73969277915035,-45.721014501310833,0.0],[170.65403218294045,-45.715660714047772,0.0],[170.62570538141989,-45.727090826942,0.0],[170.6259871753964,-45.728570245318394,0.0],[170.63025963633379,-45.730767510943394,0.0],[170.63929283945879,-45.731255792193508,0.0],[170.65430748789629,-45.735039971880894,0.0],[170.66773522227118,-45.741265557818394,0.0],[170.6805526050839,-45.742608331255838,0.0],[170.69385826914618,-45.731255792193508,0.0],[170.71216881602118,-45.742364190630951,0.0],[170.73829186289629,-45.751885675005951,0.0],[170.7585555347714,-45.762261651568338,0.0],[170.75904381602152,-45.775567315630894,0.0],[170.74146569102129,-45.785210870318394,119.8925],[170.69263756602129,-45.792046807818281,0.0],[170.67274010508368,-45.799493096880951,0.0],[170.6534529957089,-45.821099542193338,0.0],[170.64612877695902,-45.827447198443394,50.609],[170.63746178477118,-45.829766534380894,0.0],[170.6259871753964,-45.831475518755894,0.0],[170.61609948008368,-45.835137628130951,0.0],[170.60352623789618,-45.860528253130951,54.2301],[170.56617272227129,-45.877984307818451,0.0],[170.55665123789629,-45.895074151568394,100.6085],[170.5754500660214,-45.888116143755894,170.95],[170.61146080820868,-45.881524346880894,198.8063],[170.64185631602118,-45.862847589068394,162.0374],[170.6870223316464,-45.850396417193451,0.0],[170.7009383472714,-45.840997003130894,0.0],[170.71607506602129,-45.818169854693451,95.2368],[170.7280379566464,-45.806329034380951,105.2614],[170.74183190195879,-45.799859307818451,6.9922],[170.75440514414618,-45.797539971880838,0.0],[170.76587975352129,-45.792779229693338,0.0],[170.77637780039629,-45.778985284380951,0.0],[170.78675377695868,-45.791680596880951,0.0],[170.79053795664652,-45.807183526568338,0.0],[170.78724205820879,-45.861871026568451,0.0],[170.77845299570879,-45.874932550005951,0.0],[170.76368248789629,-45.880059503130951,0.0],[170.74232018320879,-45.881402276568281,0.0],[170.7219344410214,-45.880547784380781,0.0],[170.7180281910214,-45.881890557818451,0.0],[170.70740807383368,-45.887627862505894,0.0],[170.70215905039629,-45.894341729693338,0.0],[170.70264733164629,-45.901177667193394,0.0],[170.70045006602129,-45.906548760943338,0.0],[170.50932898661191,-45.920505777343145,0.0]]]}
,"properties": {"featurecla": "Pen/cape","name": "Otago Pen.","namealt": null,"region": "Oceania","subregion": "New Zealand","min_label": 6.0,"max_label": 10.0,"scalerank": 5,"area_km2": 182.5386,"hist_schema_id": "Elevation0-9000","hist_area_km2": {"0": 150.5476,"25": 4.8155,"50": 4.86,"75": 4.5202,"100": 3.8256,"125": 2.9098,"150": 2.4664,"175": 2.5106,"200": 2.0527,"225": 1.2991,"250": 1.0777,"275": 0.6052,"300": 0.5314,"325": 0.31,"350": 0.1624,"375": 0.0443}}}