{"type": "Feature","bbox": [166.39673912852126,-46.036431573443394,168.17993871349168,-44.1496505064317],"geometry": {"type": "Polygon","coordinates": [[[166.71653938387064,-45.946542813518093,64.8271],[166.70655358164618,-45.944634698443281,325.2947],[166.69105065195902,-45.939019464068451,740.6829],[166.68824303477118,-45.932671807818508,535.3657],[166.74293053477152,-45.885796807818451,719.0809],[166.75171959727152,-45.875298760943281,863.9457],[166.75367272227129,-45.867852471880951,439.3479],[166.7437850269589,-45.859673760943451,20.0],[166.7324324878964,-45.861138604693394,151.3661],[166.72120201914652,-45.867608331255894,136.6243],[166.71216881602129,-45.874566339068394,20.0],[166.70789635508379,-45.879082940630838,179.6492],[166.70374596445868,-45.885796807818451,361.8425],[166.70045006602118,-45.892876885943394,272.0628],[166.69922936289629,-45.898492120318451,309.9645],[166.68067467539618,-45.907769464068394,41.2387],[166.67469323008368,-45.912163995318394,0.0],[166.64747155039618,-45.943169854693338,87.808],[166.64380944102129,-45.953057550005894,0.0],[166.62916100352118,-45.964043878130894,0.0],[166.53394615977129,-45.983819268755951,44.2595],[166.52076256602129,-45.989556573443451,82.7905],[166.49732506602129,-46.007867120318451,0.0],[166.48963463633402,-46.011773370318281,0.0],[166.4821883472714,-46.006646417193394,0.0],[166.47461998789618,-45.994805596880951,5.2123],[166.46937096445879,-45.982232354693394,86.9],[166.46924889414652,-45.974297784380951,114.8401],[166.4730330738339,-45.962701104693394,102.8255],[166.47169030039629,-45.949029229693451,172.6004],[166.4664412769589,-45.929253839068338,152.7003],[166.46668541758368,-45.839288018755894,118.5349],[166.47315514414618,-45.816216729693394,0.0],[166.48963463633402,-45.806329034380951,86.8625],[166.55445397227129,-45.799493096880951,158.9596],[166.6234236988339,-45.799493096880951,441.362],[166.6159774097714,-45.806329034380951,332.8094],[166.6234236988339,-45.813775323443451,394.9752],[166.6482039722714,-45.799004815630781,656.2327],[166.67774498789618,-45.793023370318394,830.0847],[166.74012291758368,-45.792657159380894,615.775],[166.76587975352129,-45.789483331255951,425.0046],[166.7692937597179,-45.788578698277561,539.5469],[166.74366295664626,-45.718316339068423,138.7625],[166.76172710689647,-45.576786947599459,0.0],[166.7515975269589,-45.578789971880951,0.0],[166.74012291758368,-45.579766534380951,0.0],[166.72254479258402,-45.578545831255894,180.0716],[166.71448815195879,-45.574517510943451,423.6628],[166.70228112070879,-45.556206964068451,592.3498],[166.70228112070879,-45.541192315630838,633.6497],[166.73951256602152,-45.484185479693451,475.6022],[166.75733483164618,-45.424004815630951,713.3694],[166.76734459727152,-45.408379815630781,559.605],[166.81214440195879,-45.391656182818338,0.0],[166.82573262049854,-45.3956747537149,0.0],[166.8362702781412,-45.374800394951947,714.3567],[166.82203209727129,-45.367486260943451,353.7979],[166.80909264414629,-45.356133721880951,554.4141],[166.80591881602118,-45.345147393755951,658.1698],[166.81153405039618,-45.332452081255951,329.267],[166.82545006602118,-45.315972589068281,533.7464],[166.85950768320879,-45.290337823443394,232.4228],[166.8811141285214,-45.278374932818451,0.0],[166.88995201397026,-45.281468192725569,0.0],[167.00841630650552,-45.140028419559371,395.1644],[167.01197350352118,-45.131768487505894,661.2889],[167.01760105278893,-45.129062343595777,663.4313],[167.0225936207087,-45.123101495318409,800.4525],[167.08332679235346,-45.067558813872708,410.238],[167.09437096445868,-45.054742120318451,0.0],[167.10676868577011,-45.046120354736416,469.8792],[167.15552972776447,-45.001526618741536,203.8373],[167.16468346445879,-44.990777276568451,816.0396],[167.16840970931887,-44.989747409898541,897.8191],[167.18970787852126,-44.970269464068437,637.4715],[167.19897071664579,-44.962990617192986,9.6028],[167.19874108164629,-44.962823175005781,4.7266],[167.20337975352152,-44.948785089068451,401.2767],[167.21998131602152,-44.934869073443451,536.5063],[167.27003014414618,-44.904351495318451,151.2645],[167.27681459612629,-44.90181998338555,130.3862],[167.2791854175837,-44.899956964068423,389.805],[167.31226611934468,-44.877323705579514,570.2991],[167.30860436289629,-44.874078057818394,499.7556],[167.33104355061411,-44.864476503644426,524.1537],[167.5138045582087,-44.739434503130894,56.267],[167.9780379566462,-44.362603448443451,0.0],[168.14661705820876,-44.177666925005937,0.0],[168.17993871349168,-44.1496505064317,0.0],[168.14747155039626,-44.149712823443423,0.0],[168.1080428394587,-44.163506768755894,0.0],[167.9284774097712,-44.25713469844338,0.0],[167.8243514332087,-44.320489190630909,0.0],[166.93555748789626,-45.02446868281838,0.0],[166.86048424570876,-45.093194268755937,0.0],[166.7913924488337,-45.167657159380923,0.0],[166.7334090503962,-45.24639251094338,0.0],[166.4954940113337,-45.655938409380923,0.0],[166.39673912852126,-45.907891534380909,0.0],[166.4405623707087,-46.036431573443394,0.0],[166.46119225352126,-46.03630950313088,0.0],[166.4737654957087,-46.028619073443409,0.0],[166.4846297535212,-46.017510675005951,0.0],[166.50037682383376,-46.007500909380951,0.0],[166.58240807383376,-45.977715753130923,0.0],[166.62378990977126,-45.965874932818409,0.0],[166.71653938387064,-45.946542813518093,64.8271]]]}
,"properties": {"featurecla": "Coast","name": "Fiordland","namealt": null,"region": "Oceania","subregion": "New Zealand","min_label": 5.4,"max_label": 10.0,"scalerank": 5,"area_km2": 2902.185,"hist_schema_id": "Elevation0-9000","hist_area_km2": {"0": 2352.518,"25": 33.01,"50": 33.973,"75": 33.595,"100": 29.332,"125": 25.993,"150": 23.17,"175": 22.337,"200": 22.439,"225": 22.35,"250": 22.724,"275": 19.764,"300": 18.753,"325": 19.689,"350": 18.603,"375": 17.092,"400": 16.524,"425": 16.326,"450": 15.318,"475": 14.639,"500": 13.685,"525": 12.248,"550": 11.528,"575": 10.626,"600": 10.087,"625": 8.881,"650": 8.479,"675": 7.988,"700": 7.498,"725": 6.413,"750": 5.775,"775": 4.781,"800": 4.097,"825": 3.459,"850": 2.774,"875": 2.048,"900": 1.456,"925": 0.877,"950": 0.608,"975": 0.268,"1000": 0.223,"1025": 0.119,"1050": 0.074,"1075": 0.03}}}