{"type":"Feature","properties":{"featurecla":"Coast","name":"Marlborough Sounds","namealt":null,"region":"Oceania","subregion":"New Zealand","min_label":6.0,"max_label":10.0,"scalerank":5},
"geometry":{"type": "Polygon","coordinates": [[[174.10288813092311,-41.363507771689804,0.0],[174.15294036222588,-41.365361558034351,0.0],[174.30284640559319,-41.315392876911915,0.0],[174.43133729990802,-41.158348450527114,0.0],[174.37066104425935,-41.001304024142314,0.0],[174.22075500089204,-40.858536363792496,0.0],[174.03872623394602,-40.701491937407695,0.0],[173.85566281809963,-40.708137299808186,0.0],[173.72463738117642,-40.797860108143823,0.0],[173.60328486987908,-40.919212619441168,0.0],[173.464086401038,-41.108379769404678,0.0],[173.47762835646219,-41.150510297391016,0.0],[173.48316490977118,-41.148736260943394,0.0],[173.5000106128964,-41.140191339068338,5.7256],[173.51368248789618,-41.129082940630894,138.5105],[173.5297957691464,-41.105157159380894,82.468],[173.5379744800839,-41.098443292193281,0.0],[173.54664147227152,-41.097955010943451,147.4967],[173.5553084644589,-41.102105401568394,43.1009],[173.5637313160214,-41.102715753130951,213.4059],[173.57203209727152,-41.091607354693394,266.2126],[173.56190026133402,-41.080743096880894,125.588],[173.57105553477152,-41.066949151568338,38.7705],[173.58838951914629,-41.055108331255838,0.0],[173.6030379566464,-41.049981378130951,0.0],[173.6207381519589,-41.054986260943394,0.0],[173.63648522227152,-41.068047784380894,0.0],[173.6464949878964,-41.085870050005951,0.0],[173.6477156910214,-41.105279229693338,166.3732],[173.65455162852129,-41.105279229693338,5.9633],[173.6594344410214,-41.095635675005894,0.0],[173.66456139414618,-41.092583917193394,32.6227],[173.6695662769589,-41.095635675005894,19.1918],[173.6743270191464,-41.105279229693338,38.3564],[173.68873131602152,-41.098443292193281,262.0659],[173.6746932300839,-41.074761651568338,0.0],[173.6888533863339,-41.063653253130894,0.0],[173.71583092539652,-41.056817315630894,0.0],[173.73951256602118,-41.046929620318451,0.0],[173.74744713633379,-41.035943292193338,0.0],[173.74634850352152,-41.025933526568338,159.1877],[173.73853600352152,-41.018609307818451,340.6205],[173.7258406910214,-41.015801690630894,27.4315],[173.6875106128964,-41.036187432818394,138.4554],[173.6812850269589,-41.033257745318394,152.5834],[173.6810408863339,-41.019830010943338,0.0],[173.68226158945902,-41.014458917193394,0.0],[173.69861901133379,-40.998833917193394,0.0],[173.70704186289652,-40.993096612505894,0.0],[173.7301131519589,-40.984063409380838,0.0],[173.73951256602118,-40.978326104693394,0.0],[173.75049889414629,-40.974419854693394,0.0],[173.80128014414652,-40.968072198443451,0.0],[173.80665123789618,-40.963677667193451,0.0],[173.8286238941464,-40.937310479693394,0.0],[173.8534041675839,-40.924615167193394,0.0],[173.8496199878964,-40.970635675005951,0.0],[173.8736678394589,-40.974908135943338,106.6157],[173.87732994883379,-40.971123956255951,37.9359],[173.90784752695879,-40.947564385943451,0.0],[173.91041100352118,-40.942559503130894,0.0],[173.91285240977152,-40.929620050005838,145.7199],[173.9132186207089,-40.928887628130951,105.9368],[173.9137069019589,-40.927300714068394,5.9324],[173.91395104258379,-40.926446221880894,5.9324],[173.91956627695868,-40.923882745318338,81.2221],[173.93445885508379,-40.920342706255894,68.7341],[173.9835311207089,-40.899834893755894,0.0],[173.9919539722714,-40.898736260943451,0.0],[174.00379479258379,-40.898736260943451,0.0],[174.01563561289629,-40.900811456255838,0.0],[174.0239363941464,-40.905938409380894,0.0],[174.0346785816464,-40.932427667193394,0.0],[174.01734459727129,-40.935967706255894,0.0],[173.9692488941464,-40.926446221880894,90.3261],[173.97559655039652,-40.939751885943281,0.0],[173.96973717539618,-40.946709893755951,3.5297],[173.96033776133402,-40.954034112505838,0.0],[173.95557701914652,-40.968072198443451,0.0],[173.9442244800839,-40.964776300005894,43.437],[173.93360436289629,-40.964288018755894,0.0],[173.9235945972714,-40.967583917193451,0.0],[173.91395104258379,-40.974908135943338,0.0],[173.9201766285214,-40.980767510943451,90.468],[173.92225182383379,-40.984795831255894,131.1656],[173.9255477222714,-40.987237237505951,33.0415],[173.93445885508379,-40.988580010943281,0.0],[173.9177352222714,-41.000664971880838,0.0],[173.88538658945902,-41.008965753130838,0.0],[173.85377037852118,-41.009698175005894,255.0037],[173.8394881519589,-40.998833917193394,187.6952],[173.8242293628964,-40.997124932818338,0.0],[173.7956649097714,-41.000176690630838,300.9132],[173.7804061207089,-41.010308526568451,29.7726],[173.8048201832089,-41.030083917193394,117.7478],[173.7905379566464,-41.037286065630838,219.0724],[173.78065026133379,-41.045342706255894,0.0],[173.78101647227129,-41.052666925005781,0.0],[173.79798424570879,-41.057427667193451,0.0],[173.79456627695879,-41.070245050005894,22.9458],[173.78797448008379,-41.081719659380838,0.0],[173.7794295582089,-41.091363214068338,0.0],[173.77003014414618,-41.098443292193281,101.0556],[173.7784529957089,-41.106499932818394,52.1796],[173.79004967539652,-41.109063409380894,54.0121],[173.80054772227118,-41.103570245318338,302.6815],[173.8048201832089,-41.087823175005838,0.0],[173.82801354258368,-41.062188409380951,284.5087],[173.8286238941464,-41.057427667193451,123.4147],[173.89454186289652,-41.048150323443338,0.0],[173.9296981128964,-41.047051690630951,0.0],[173.95557701914652,-41.057427667193451,0.0],[173.9445906910214,-41.056206964068451,0.0],[173.93592369883402,-41.058282159380951,0.0],[173.9303084644589,-41.064263604693338,89.6809],[173.92835533945879,-41.074151300005894,0.0],[173.9248153003964,-41.083428643755894,0.0],[173.9167586597714,-41.082818292193451,0.0],[173.90748131602129,-41.078912042193394,111.373],[173.9004012378964,-41.077935479693451,197.7801],[173.8953963550839,-41.076592706255951,128.4727],[173.88868248789629,-41.073052667193338,128.8238],[173.8824569019589,-41.072808526568394,99.9764],[173.87989342539618,-41.080987237505951,24.8264],[173.8811141285214,-41.085015557818394,3.813],[173.88599694102118,-41.090874932818338,0.0],[173.88733971445868,-41.095025323443451,0.0],[173.8857528003964,-41.104668878130894,76.4551],[173.88135826914629,-41.109063409380894,155.0503],[173.87452233164652,-41.108819268755951,282.7422],[173.8662215503964,-41.105279229693338,331.3665],[173.85901940195879,-41.128350518755838,0.0],[173.84461510508368,-41.135064385943281,0.0],[173.8289901050839,-41.138848565630838,21.9875],[173.8183699878964,-41.153619073443394,0.0],[173.8338729175839,-41.153863214068451,0.0],[173.85206139414629,-41.159600518755894,0.0],[173.86732018320879,-41.169976495318451,0.0],[173.8736678394589,-41.184014581255894,0.0],[173.87147057383402,-41.194390557818451,0.0],[173.86158287852118,-41.216607354693451,0.0],[173.8593856128964,-41.228692315630838,0.0],[173.8469344410214,-41.240411065630838,57.0658],[173.8186141285214,-41.251275323443394,0.0],[173.7638045582089,-41.263482354693394,0.0],[173.76734459727152,-41.274834893755838,4.5675],[173.77418053477152,-41.282769464068451,0.1813],[173.7828475269589,-41.287530206255838,132.3082],[173.7911483082089,-41.290215753130951,316.5465],[173.8967391285214,-41.243218682818451,194.0383],[173.93445885508379,-41.235528253130894,409.0157],[173.93445885508379,-41.228692315630838,242.3161],[173.9198104175839,-41.225152276568338,0.0],[173.9062606128964,-41.225396417193394,6.1157],[173.89527428477129,-41.223809503130894,22.4864],[173.88733971445868,-41.215142510943338,0.0],[173.92920983164629,-41.211114190630894,67.5862],[173.9503279957089,-41.211602471880894,0.0],[173.96583092539629,-41.218560479693394,87.7804],[173.98170006602152,-41.222955010943338,223.3397],[174.00574791758402,-41.220879815630951,126.8415],[174.0300399097714,-41.214898370318451,11.0461],[174.0455428394589,-41.208306573443281,101.9651],[174.03931725352152,-41.205376885943394,394.1977],[174.0239363941464,-41.194024346880894,0.0],[174.0832625660214,-41.198296807818451,286.77],[174.1120711597714,-41.192315362505894,234.3647],[174.1337996753964,-41.174126885943338,281.2469],[174.0211287769589,-41.176324151568338,0.0],[174.00403893320902,-41.180352471880951,0.0],[174.0012313160214,-41.183526300005951,0.0],[174.0012313160214,-41.188042901568394,0.0],[173.99927819102152,-41.192193292193451,63.077],[173.9900008472714,-41.194024346880894,0.0],[173.9834090503964,-41.193780206255838,0.0],[173.9787703785214,-41.193047784380781,0.0],[173.97461998789629,-41.191216729693451,57.0888],[173.9692488941464,-41.187798760943451,65.6868],[173.9760848316464,-41.174126885943338,21.0677],[173.92261803477118,-41.191460870318394,223.9936],[173.89625084727152,-41.190606378130894,195.0814],[173.88733971445868,-41.159844659380951,355.5638],[173.8923445972714,-41.144097589068338,335.1622],[173.9028426441464,-41.134698175005951,182.2522],[173.9156600269589,-41.127862237505894,67.3037],[173.92835533945879,-41.119561456255894,129.9416],[173.93018639414629,-41.113213800005951,14.292],[173.9282332691464,-41.106255792193451,0.0],[173.9278670582089,-41.100762628130894,0.0],[173.9350692066464,-41.098443292193281,120.1766],[173.9438582691464,-41.097588800005951,275.5312],[173.94886315195879,-41.094414971880838,262.9852],[173.9503279957089,-41.088189385943394,316.7767],[173.94874108164652,-41.077935479693451,0.0],[173.9835311207089,-41.084161065630894,0.0],[173.97291100352129,-41.100030206255838,0.0],[173.97046959727152,-41.115533135943394,0.0],[173.9760848316464,-41.146172784380894,150.4632],[173.99354088633402,-41.122124932818394,118.0729],[174.0022078785214,-41.102959893755894,105.3264],[174.01526940195902,-41.091729425005838,0.0],[174.0455428394589,-41.091607354693394,525.9175],[174.0286971363339,-41.071954034380894,152.7365],[174.0241805347714,-41.062188409380951,133.1737],[174.0411483082089,-41.041802667193451,0.0],[174.0418807300839,-41.027032159380894,0.0],[174.0334578785214,-41.016045831255781,106.3365],[174.0171004566464,-41.015801690630894,34.7916],[174.0106307300839,-41.025567315630951,0.0],[174.00635826914618,-41.041192315630838,0.0],[174.00001061289652,-41.051812432818451,0.0],[173.9869490894589,-41.046929620318451,79.9434],[173.95618737070868,-41.021416925005894,41.0004],[173.94874108164652,-41.009698175005894,0.0],[173.9835311207089,-41.009698175005894,85.3456],[173.9754744800839,-40.996880792193451,189.9924],[173.9742537769589,-40.986748956255951,0.0],[173.9812117847714,-40.982842706255951,0.0],[173.99659264414652,-40.988580010943281,0.0],[173.9984236988339,-40.967583917193451,0.0],[174.01563561289629,-40.973321221880781,190.0532],[174.0517684253964,-41.002251885943394,0.0],[174.0730086597714,-41.012994073443281,0.0],[174.09400475352129,-41.017876885943394,0.0],[174.11292565195902,-41.013238214068394,535.1962],[174.12818444102152,-40.995415948443338,0.0],[174.14503014414629,-41.008111260943451,0.0],[174.1618758472714,-41.002618096880894,286.8377],[174.17151940195902,-40.986748956255951,0.0],[174.16785729258402,-40.968072198443451,0.0],[174.1828719410214,-40.971856378130838,0.0],[174.19874108164629,-40.983330987505951,0.0],[174.21119225352152,-40.998345635943394,0.0],[174.21631920664652,-41.012749932818394,0.0],[174.2164412769589,-41.024468682818394,0.0],[174.21522057383379,-41.031792901568451,0.0],[174.21021569102152,-41.035332940630894,0.0],[174.18885338633402,-41.037896417193451,23.4159],[174.18409264414652,-41.042168878130951,0.0],[174.18445885508402,-41.048760675005951,0.0],[174.1889754566464,-41.057427667193451,0.0],[174.2070418628964,-41.069390557818394,69.7416],[174.2263289722714,-41.064019464068451,81.4546],[174.24317467539629,-41.050957940630951,130.0129],[174.2641707691464,-41.030205987505894,0.0],[174.30445397227152,-40.999444268755951,0.0],[174.31873619883402,-40.995415948443338,0.0],[174.3263045582089,-41.008111260943451,0.0],[174.3186141285214,-41.025445245318394,0.0],[174.26710045664629,-41.087823175005838,0.0],[174.26136315195868,-41.097588800005951,0.0],[174.2602645191464,-41.116997979693394,0.0],[174.2572127613339,-41.125664971880894,0.0],[174.25403893320879,-41.123223565630951,0.0],[174.2398787769589,-41.129327081255951,0.0],[174.2275496753964,-41.137017510943394,0.0],[174.22816002695902,-41.137505792193338,0.0],[174.2293807300839,-41.138726495318394,0.0],[174.22986901133402,-41.139336846880951,0.0],[174.22608483164618,-41.142022393755951,0.0],[174.2165633472714,-41.146172784380894,0.0],[174.2070418628964,-41.146172784380894,0.0],[174.2026473316464,-41.135918878130951,64.3085],[174.2026473316464,-41.095025323443451,423.7828],[174.1995955738339,-41.090386651568394,276.4794],[174.19263756602129,-41.097588800005951,154.0239],[174.18555748789629,-41.109795831255951,93.9755],[174.18213951914629,-41.119561456255894,28.1529],[174.16724694102129,-41.114800714068394,0.0],[174.16688073008379,-41.122979425005894,0.0],[174.17432701914629,-41.136163018755894,0.0],[174.18213951914629,-41.146172784380894,0.0],[174.2031356128964,-41.163628839068394,0.0],[174.21021569102152,-41.172417901568338,0.0],[174.21631920664652,-41.187798760943451,0.0],[174.2118026050839,-41.189507745318451,0.0],[174.19910729258379,-41.192681573443451,0.0],[174.1958113941464,-41.194024346880894,0.0],[174.19556725352118,-41.193413995318451,0.0],[174.19556725352118,-41.192437432818338,0.0],[174.19532311289652,-41.191949151568394,0.0],[174.17530358164652,-41.201470635943394,0.0],[174.16724694102129,-41.207818292193451,0.0],[174.16199791758368,-41.214532159380894,0.0],[174.1547957691464,-41.219781182818394,0.0],[174.1408797535214,-41.221978448443394,0.0],[174.0883895191464,-41.222100518755838,0.0],[174.06177819102129,-41.227959893755951,0.0],[174.0455428394589,-41.242364190630951,0.0],[174.03357994883402,-41.236016534380894,0.0],[174.0214949878964,-41.234673760943394,65.402],[174.0109969410214,-41.238824151568281,0.0],[174.00403893320902,-41.249200128130951,0.0],[173.98853600352129,-41.244561456255951,0.0],[173.9699813160214,-41.248223565630894,0.0],[173.95215905039652,-41.256768487505951,0.0],[173.93824303477152,-41.266656182818451,0.0],[173.9350692066464,-41.278374932818338,306.5831],[173.9585067066464,-41.277886651568338,127.1888],[173.98670494883368,-41.271783135943338,297.3804],[173.99720299570868,-41.266656182818451,152.9109],[174.01905358164629,-41.272149346880894,13.068],[174.03394615977129,-41.267754815630894,54.1361],[174.0476180347714,-41.258355401568451,0.0],[174.06544030039652,-41.249200128130951,0.0],[174.07691490977152,-41.248589776568394,0.0],[174.0876570972714,-41.251153253130894,182.3483],[174.09839928477129,-41.251885675005951,230.8841],[174.11793053477118,-41.241875909380781,216.7548],[174.1388045582089,-41.238335870318451,127.8866],[174.1479598316464,-41.235528253130894,0.0],[174.1584578785214,-41.245171807818394,0.0],[174.1721297535214,-41.254205010943394,154.5155],[174.1866561207089,-41.260918878130838,0.0],[174.1992293628964,-41.263482354693394,103.8367],[174.2116805347714,-41.261285089068394,161.9599],[174.22608483164618,-41.251519464068451,36.2146],[174.2364608082089,-41.249200128130951,0.0],[174.26319420664629,-41.246514581255838,16.3167],[174.2843123707089,-41.239190362505951,98.4575],[174.32557213633379,-41.215142510943338,0.0],[174.3131209644589,-41.240044854693451,0.0],[174.29761803477129,-41.263482354693394,0.0],[174.2900496753964,-41.270562432818451,0.0],[174.2702742847714,-41.284356378130894,0.0],[174.26038658945902,-41.293877862505894,0.0],[174.25538170664629,-41.303521417193394,0.0],[174.25184166758379,-41.313409112505951,0.0],[174.2450057300839,-41.321221612505781,0.0],[174.21387780039618,-41.327691339068451,0.0],[174.19019615977152,-41.342217706255951,0.0],[174.17530358164652,-41.345391534380894,0.0],[174.1801863941464,-41.335381768755894,0.0],[174.19739830820879,-41.313653253130838,0.0],[174.1992293628964,-41.307549737505838,197.6705],[174.18921959727152,-41.305108331255951,350.8234],[174.16846764414652,-41.320977471880894,59.0504],[174.1547957691464,-41.318169854693281,0.0],[174.1616317066464,-41.303887628130894,0.0],[174.13282311289629,-41.318902276568338,0.0],[174.11365807383379,-41.343804620318451,0.0],[174.10288813092311,-41.363507771689804,0.0]]]}}