{"type":"Feature","properties":{"featurecla":"River","scalerank":10,"rivernum":2046,"dissolve":"2046River","name":"Whakatane1","name_alt":null,"note":null,"min_zoom":7.2,"strokeweig":0.15,"name_en":"Whakatane","min_label":8.2},
"geometry":{"type": "LineString","coordinates": [[176.92737940750703,-38.636286133788751,393.84],[176.93452799998218,-38.624866953601192,391.3947],[176.94498784524882,-38.610600714938684,400.5998],[176.95021776788215,-38.599181534751125,431.8222],[176.95571788677742,-38.590024580049793,381.4983]]}}