{"type":"Feature","properties":{"featurecla":"River","scalerank":10,"rivernum":2046,"dissolve":"2046River","name":"Whakatane","name_alt":null,"note":null,"min_zoom":7.2,"strokeweig":0.2,"name_en":"Whakatane","min_label":8.2},
"geometry":{"type": "LineString","coordinates": [[176.95571788677742,-38.590024580049793,381.4983],[176.95594283111981,-38.5896500781176,381.4983],[176.96545881460946,-38.573465169613286,346.4228],[176.97497479809908,-38.559663125267342,357.5755],[176.98829717498458,-38.551091003554731,275.0818],[176.98877684244502,-38.530171313021427,230.3051],[176.98829717498458,-38.512562875279635,220.5974],[176.97782185657402,-38.492571573379458,212.4726],[176.96640267638648,-38.467814543162525,370.6966],[176.96165242121361,-38.447823241262356,274.6695],[176.95688669289683,-38.425944215808144,305.5905],[176.95783055467388,-38.411677977145636,191.8691],[176.97020906978233,-38.408799972382916,353.3419],[176.98733784006367,-38.404065190353933,204.4557],[176.99971635517213,-38.3935743987995,116.6483],[177.00923233866177,-38.379308160137,113.8237],[177.00923233866177,-38.355510464840975,109.5629],[177.01399806697853,-38.342203561099375,83.9394],[177.01399806697853,-38.313640137486587,91.1985],[177.003522748568,-38.264157023340495,59.252],[177.00448208348888,-38.222255749698334,138.3355],[176.99306290330134,-38.180385422343953,37.6782],[176.9978131584742,-38.152781333652072,29.6258],[176.99590996177628,-38.128983638356047,24.5229],[176.9902003716825,-38.107104612901836,18.0837],[176.99496609999926,-38.076653465735006,37.9873],[176.99685382355329,-38.068081344022396,10.9313],[176.98733784006367,-38.054743493993023,9.9246],[176.98733784006367,-38.039517920409608,8.5941],[176.99210356838043,-38.027139405301142,7.3473],[176.99590996177628,-38.006219714767838,58.4396],[176.98829717498458,-37.991922529817558,6.4654],[176.98068438819286,-37.975737621313243,6.04],[176.96926520800531,-37.965277776046584,4.072],[176.97116840470323,-37.955777265700839,3.8761],[176.9868736457471,-37.946214862779549,1.1912],[176.98839001384789,-37.946988519973829,0.6485]]}}