{"type":"Feature","properties":{"featurecla":"River","scalerank":9,"rivernum":1091,"dissolve":"1091River","name":"Rangitaiki","name_alt":null,"note":null,"min_zoom":7.1,"strokeweig":0.2,"name_en":"Rangitaiki","min_label":8.1},
"geometry":{"type": "LineString","coordinates": [[176.3784994610115,-38.917758026222785,720.7142],[176.3725743603456,-38.908706305038308,717.6625],[176.36695760911513,-38.89762753401623,711.7695],[176.36264060197107,-38.886084568677589,708.3294],[176.36093855614365,-38.875996078864191,713.4385],[176.35572410665421,-38.8646078449644,702.7101],[176.34351579612849,-38.857768715366973,703.5469],[176.33339636002731,-38.845792501999533,703.11],[176.3248242383147,-38.834373321811974,709.5289],[176.31934674537919,-38.822923195336642,711.5448],[176.32928050375375,-38.793307597939638,680.2144],[176.33837871235846,-38.758709648211472,671.6543],[176.36551860673376,-38.748002232642655,641.493],[176.39620185105889,-38.747290468023913,625.3202],[176.41261885672148,-38.733705047692375,623.4767],[176.43189839400293,-38.700159271748433,592.0814],[176.44189404495302,-38.694465154798536,595.3905],[176.45188969590311,-38.68518126846719,618.8636],[176.46544416994686,-38.681622445373506,622.4652],[176.47901411713451,-38.668037025041961,588.7328],[176.49756641665334,-38.645198664666843,556.3314],[176.53111219259728,-38.623783833529195,517.4998],[176.53826078507242,-38.61592347643532,501.5321],[176.54110784354737,-38.608094065629217,489.805],[176.5561013199725,-38.578818877397694,439.5495],[176.56753597330393,-38.571670284922554,453.3209],[176.58393750582266,-38.56811146182887,426.0294],[176.61463622329165,-38.568823226447613,378.1331],[176.63391576057307,-38.562386398591208,352.3661],[176.6506422291134,-38.560467728749394,355.6465],[176.66586780269682,-38.54019791025928,371.8473],[176.67725603659659,-38.531904305136607,474.29],[176.68457483365449,-38.52930481696383,445.4127],[176.68873710935969,-38.525312745841354,440.0878],[176.68995948772667,-38.512872338157344,408.9779],[176.6933635793815,-38.500988963653214,319.6952],[176.70673237569864,-38.481740372659551,199.9491],[176.70815590493612,-38.468154952328014,197.8045],[176.70529337331726,-38.452465184428029,186.9608],[176.71029119879233,-38.441757768859205,177.8189],[176.71315373041114,-38.427491530196704,169.776],[176.72171037897988,-38.419631173102822,169.9103],[176.73312955916742,-38.396081048108968,159.7753],[176.74170168088006,-38.386797161777622,157.4308],[176.75027380259266,-38.37466621697132,153.5387],[176.75669515730519,-38.365382330639974,152.4915],[176.77739822382409,-38.346814557977275,149.7363],[176.78614055011946,-38.338242436264665,149.9717],[176.78711535818422,-38.331558038106088,145.8619],[176.78614055011946,-38.309895636666276,179.6432],[176.78858530685335,-38.3016020315436,187.9501],[176.79420205808384,-38.295412773989369,161.4243],[176.80104118768125,-38.289966227341644,192.8708],[176.80665793891171,-38.282879527442049,217.0402],[176.82626241221476,-38.232282346936195,143.8468],[176.8318017977258,-38.205018667409796,80.7359],[176.83497379222234,-38.170575449120491,215.2681],[176.83449412476187,-38.164076728688549,233.0881],[176.83235883090566,-38.15835166545088,218.0469],[176.82951177243072,-38.153369313119725,231.3009],[176.82431279608517,-38.144209211939462,147.0417],[176.82015052037997,-38.139010235593908,78.4989],[176.81959348720008,-38.1289217457805,167.484],[176.8166535898618,-38.117657297031805,76.0],[176.81807711909929,-38.102679293750555,37.7501],[176.82165141533685,-38.09054834894426,108.0853],[176.81479681259555,-38.081233516325142,23.3626],[176.80918006136508,-38.067895666295769,11.8933],[176.80566765770305,-38.052670092712354,10.2275],[176.7998188093143,-38.03713505625123,9.3681],[176.81397673596962,-38.025406413185962,11.2209],[176.83522136252452,-37.967041714449543,2.9862],[176.85592442904343,-37.928513586174446,1.1262],[176.87477071829605,-37.917899009468933,1.287]]}}