{"type":"Feature","properties":{"featurecla":"River","scalerank":6,"rivernum":274,"dissolve":"274River","name":"Waikato1","name_alt":null,"note":null,"min_zoom":5.0,"strokeweig":0.2,"name_en":"Waikato","min_label":6.0},
"geometry":{"type": "LineString","coordinates": [[174.83302749001794,-37.291669930131647,9.7689],[174.85716559447945,-37.274618525569736,3.5555],[174.88429001571086,-37.270440776720633,4.8638],[174.90392543530169,-37.272854587166783,1.8928],[174.92141008789238,-37.276784765713721,3.7121],[174.95362517346217,-37.292505479901472,50.601],[174.97531852118976,-37.289627475138751,2.0],[175.03784549563139,-37.279136683584326,19.0759],[175.05567055738757,-37.286068652045067,40.3639],[175.06738372730896,-37.303553304635777,3.3294],[175.06168961035905,-37.322461486463958,3.6804],[175.05382925326518,-37.350653554623491,2.6968],[175.06775508276223,-37.384199330567434,12.7702],[175.0909493254467,-37.413103163345696,7.9807],[175.13778653198835,-37.437179375231665,8.9304],[175.15381670905384,-37.456551751376416,10.1791],[175.15270264269407,-37.478059421377374,9.3901],[175.16125929126278,-37.502692666443217,9.8061],[175.16662847219109,-37.601225646706609,22.6924],[175.18145174403347,-37.621186002319007,12.5681],[175.16625711673782,-37.642600833456655,18.4642],[175.16376594057226,-37.656898018406935,19.6212],[175.17732041461602,-37.677941494091321,19.1414],[175.23300825946023,-37.727919748841757,20.2281],[175.30867193306074,-37.804295187060987,53.7212],[175.34579200524223,-37.844618200026815,33.218],[175.38433560666124,-37.869622800545919,41.1277],[175.41110414558329,-37.884600803827162,43.4668],[175.43573739064914,-37.88744786230211,63.7378],[175.48785093925579,-37.892461160921037,68.6604],[175.51104518194026,-37.902456811871126,67.8718],[175.5292570722936,-37.909574458058493,79.2536],[175.54030489702791,-37.922448113771296,75.1067],[175.56958008525942,-37.938509237124528,91.6207],[175.65706524078851,-37.955405910247585,52.0136],[175.65916958835695,-37.962771126737124,51.5],[175.65881370604757,-37.973818951471429,52.0],[175.66166076452254,-37.994522017990334,96.408],[175.65916958835695,-38.020578792293655,68.3871],[175.66201664683189,-38.041281858812567,70.1938],[175.64559964116927,-38.071268811662826,120.438],[175.63811063952866,-38.091600522728484,136.0323],[175.63240104943489,-38.123722769434949,114.9706],[175.64405232678072,-38.151203072975747,109.0],[175.66987700392576,-38.185831968991678,131.6837],[175.68247214304864,-38.248869557181536,146.6356],[175.6850716312214,-38.2669421892399,175.5549],[175.68531920152358,-38.2921634137734,182.6519],[175.6848704803509,-38.305779780392712,202.1582],[175.71793658883439,-38.331001004926208,271.2182],[175.77801880654209,-38.362875681330507,189.4483],[175.78088133816092,-38.398556751130663,271.5813],[175.80730946791749,-38.420095367419393,217.6131],[175.83228312214885,-38.434609176384072,221.0],[175.97790087925605,-38.414617874483895,253.043],[176.00787235896243,-38.398928106583917,273.8786],[176.033217368647,-38.38608539715888,256.4409],[176.0682176201162,-38.400413528396932,263.5877],[176.09959715591617,-38.411059051390211,297.1456],[176.11958845781632,-38.417495879246616,286.0],[176.13065175569452,-38.423189996196506,286.0],[176.14100328895398,-38.438539354931009,308.7338],[176.1452893498103,-38.463884364615588,286.0],[176.1528866634581,-38.475520168817546,360.0006],[176.17368256884032,-38.484618377422272,388.763],[176.18951159503527,-38.500400984185568,385.1507],[176.19981670886307,-38.509530139078059,315.8796],[176.23330059223147,-38.509437300214742,339.0816],[176.24928434986526,-38.507518630372935,292.374],[176.26531452693075,-38.502629116905091,292.4789],[176.27458294011819,-38.4972444628329,304.964],[176.29021081544263,-38.485546766055407,289.9519],[176.29941733605457,-38.482111728112805,291.0247],[176.31287897123502,-38.482204566976122,314.5793],[176.32643344527878,-38.486320423249687,294.1895],[176.33686234425767,-38.494397404357962,295.2209],[176.34110198568231,-38.506064154847685,300.1126],[176.33902858440166,-38.518226045941752,298.1735],[176.33355109146618,-38.526426812201116,298.1316],[176.31680914978196,-38.540228856547053,304.8765],[176.31031042935,-38.551864660749011,328.2371],[176.30781925318445,-38.562541130030063,323.0623],[176.28877181306129,-38.58417258518211,296.1655],[176.26522168806741,-38.602369002391555,296.5102],[176.1734968911137,-38.609146239413434,316.4881],[176.14682119105495,-38.606794321542829,373.0309],[176.12452439071583,-38.622081787701781,356.4433],[176.09639421513185,-38.64306337081063,398.1868],[176.08495956180039,-38.665901731185755,373.4567],[176.06818667382842,-38.686604797704661,370.9484],[176.05975381041077,-38.693815282755345,355.5]]}}