{"type":"Feature","properties":{"featurecla":"River","scalerank":6,"rivernum":2017,"dissolve":"2017River","name":"Mohaka1","name_alt":null,"note":null,"min_zoom":5.0,"strokeweig":0.15,"name_en":"Mohaka","min_label":6.0},
"geometry":{"type": "LineString","coordinates": [[176.30135147904025,-39.078941834067486,630.2658],[176.30992360075288,-39.085595285938282,619.8856],[176.31895991678206,-39.092279684096859,626.625],[176.33847155122177,-39.097045412413614,584.097],[176.3489468696323,-39.105122393521889,674.856],[176.35941686892519,-39.112516517424432,583.8727]]}}