{"type":"Feature","properties":{"featurecla":"River","scalerank":6,"rivernum":2017,"dissolve":"2017River","name":"Mohaka","name_alt":null,"note":null,"min_zoom":5.0,"strokeweig":0.2,"name_en":"Mohaka","min_label":6.0},
"geometry":{"type": "LineString","coordinates": [[176.35941686892519,-39.112516517424432,583.8727],[176.36511630499274,-39.116541573709448,575.8218],[176.37607129086373,-39.13319067653034,582.8184],[176.38797013851175,-39.143650521796992,587.1672],[176.39700645454093,-39.16602468785554,556.2751],[176.40033318047634,-39.172678139726344,563.6689],[176.4246105432328,-39.179362537884913,587.6476],[176.45840388947892,-39.182209596359861,462.321],[176.48600797817079,-39.191741052993379,447.3943],[176.50313674845214,-39.20077736902256,427.931],[176.51217306448132,-39.20077736902256,407.581],[176.51724825567578,-39.207956907785473,420.4722],[176.5226019634602,-39.212722636102228,416.984],[176.53688367526661,-39.216281459195912,399.9478],[176.55591564224585,-39.21451752079296,392.6478],[176.56840246936153,-39.204398084691789,419.5838],[176.5850670453263,-39.202015220533404,460.2786],[176.60173162129107,-39.193690669122965,338.9018],[176.62254299981717,-39.190719825496934,337.4387],[176.63682471162358,-39.177629545769726,329.9596],[176.64573724250167,-39.1538318504737,348.5185],[176.66240181846644,-39.140153591278846,341.5529],[176.67131434934453,-39.131210114112982,294.6427],[176.67488864558212,-39.120502698544158,292.6053],[176.68797892530932,-39.105648480414,285.0608],[176.70165718450417,-39.097911908471211,298.8081],[176.70701089228857,-39.08482162874401,297.4315],[176.71951319254813,-39.065201682297086,335.7023],[176.72961715550542,-39.047933653720776,257.5448],[176.74151600315344,-39.039609102310337,271.4546],[176.75578224181592,-39.029489666209166,322.2519],[176.76769656260782,-39.030077645676819,339.1708],[176.7843456654287,-39.025930843115482,230.0485],[176.79624451307672,-39.021753094266373,190.8513],[176.80814336072473,-39.021753094266373,191.9527],[176.82063018784041,-39.027725727806207,215.463],[176.82420448407797,-39.034255394525921,177.2819],[176.82836675978319,-39.039609102310337,210.4055],[176.83967762796357,-39.042579945936367,194.8311],[176.85156100246769,-39.046757694785477,348.3948],[176.85750268971975,-39.042579945936367,304.4104],[176.86523926166254,-39.034255394525921,242.6305],[176.87178440152616,-39.0223720200218,209.3458],[176.87774156192208,-39.015223427546658,196.1704],[176.89677352890135,-39.0092817402946,259.7803],[176.90808439708172,-39.006310896668559,163.7535],[176.93424948339225,-39.00272112728711,237.2435],[176.95685574660908,-39.001545168351804,102.0617],[176.97410830204149,-39.00272112728711,144.0916],[176.98719858176869,-39.006310896668559,92.8089],[177.00146482043121,-39.00272112728711,139.903],[177.01158425653239,-38.997955398970348,227.2135],[177.02645394780643,-39.000338263128725,98.3051],[177.04014768014517,-39.003928032510181,159.7269],[177.05263450726082,-39.012840563388281,46.468],[177.06273847021811,-39.024754884180176,40.9244],[177.06988706269325,-39.036050279216653,87.6403],[177.08594818604649,-39.048521633188429,88.8189],[177.09783156055062,-39.05149247681446,131.453],[177.1109218402778,-39.05149247681446,135.4244],[177.11865841222061,-39.0574651103543,32.6458],[177.12342414053737,-39.066965620700046,54.0039],[177.13233667141546,-39.073526233707533,71.4777],[177.14245610751664,-39.074702192642839,63.9032],[177.14958922684787,-39.0806438798949,46.3204],[177.16387093865427,-39.091351295463724,13.6365],[177.17635776576995,-39.096735949535905,24.7428],[177.18409433771274,-39.102058711032548,27.0001],[177.18587374925957,-39.110414208730759,18.8317],[177.18468231718037,-39.118150780673552,4.1458],[177.19302234173472,-39.130034155177675,0.0],[177.2043177367712,-39.13241701933606,0.0],[177.2061126214619,-39.135975842429744,0.0],[177.20855737819585,-39.145692976789888,0.0]]}}