{"type": "Feature","bbox": [168.7686,-45.8131,170.4395,-44.4486],"geometry": {"type": "MultiPolygon","coordinates": [[[[169.5425,-44.4486,1882.5431],[169.5405,-44.4496,1752.8055],[169.5384,-44.4564,1565.0143],[169.5313,-44.4657,1686.6672],[169.5329,-44.4685,1679.4828],[169.5329,-44.4741,1592.2671],[169.5271,-44.4784,1587.7229],[169.5227,-44.4845,1611.8514],[169.5207,-44.4842,1507.9423],[169.524,-44.4914,1522.9038],[169.5231,-44.4936,1596.9528],[169.5277,-44.4952,1724.8154],[169.5276,-44.4975,1720.2104],[169.5246,-44.4979,1670.0774],[169.5203,-44.503,1663.4493],[169.5195,-44.5087,1584.8645],[169.5172,-44.5066,1636.0372],[169.5071,-44.5144,1606.4609],[169.5061,-44.5187,1511.0068],[169.5006,-44.5218,1409.2362],[169.4998,-44.5277,1399.4673],[169.4945,-44.536,1521.847],[169.491,-44.5494,1630.1218],[169.4708,-44.5463,1480.1202],[169.4245,-44.5534,1391.7002],[169.4096,-44.5611,1422.0557],[169.4008,-44.56,1470.4082],[169.3828,-44.5622,1408.8936],[169.3788,-44.5595,1322.9926],[169.3579,-44.5614,1548.7908],[169.3556,-44.5672,1488.7184],[169.3575,-44.5747,1407.8666],[169.3536,-44.5795,1332.2002],[169.3582,-44.5837,1299.231],[169.3678,-44.5842,1277.4547],[169.3699,-44.5858,1344.4224],[169.3645,-44.5968,1404.8741],[169.3639,-44.6053,1286.262],[169.372,-44.6142,1259.1102],[169.3745,-44.6295,1356.6158],[169.3813,-44.6334,1438.5444],[169.3804,-44.6398,1438.251],[169.3714,-44.6457,1421.8503],[169.364,-44.6467,1333.6844],[169.3596,-44.649,1394.7494],[169.358,-44.655,1273.1877],[169.36,-44.6615,1142.7582],[169.352,-44.6726,1213.5521],[169.3513,-44.6758,1161.5298],[169.356,-44.6857,1068.0536],[169.3621,-44.6925,1107.4773],[169.3611,-44.7019,951.288],[169.364,-44.7194,1013.4221],[169.3687,-44.72,1038.2656],[169.3697,-44.7237,988.9563],[169.3751,-44.7276,930.1892],[169.3736,-44.7372,884.9667],[169.3762,-44.7421,808.7417],[169.3728,-44.7504,887.0728],[169.3816,-44.7563,998.6046],[169.3801,-44.7585,973.5854],[169.3713,-44.76,774.6552],[169.3638,-44.7573,691.137],[169.358,-44.76,529.6655],[169.3383,-44.7599,238.9001],[169.3414,-44.7574,249.2119],[169.3389,-44.7545,252.5968],[169.3243,-44.7621,253.9686],[169.3204,-44.7591,256.2604],[169.32,-44.7612,257.3467],[169.3071,-44.7629,346.3652],[169.2819,-44.7954,1060.802],[169.2741,-44.8086,1192.6184],[169.2744,-44.8143,1200.2401],[169.2578,-44.8209,1463.6047],[169.2592,-44.8294,1386.9435],[169.2419,-44.8374,1566.3558],[169.2226,-44.8493,1690.2163],[169.2217,-44.8511,1699.9722],[169.2029,-44.8615,1923.976],[169.1975,-44.8629,1936.4268],[169.1905,-44.8725,1949.8002],[169.1806,-44.8715,1895.7009],[169.1755,-44.8749,1804.3942],[169.1695,-44.8749,1752.4873],[169.1576,-44.8696,1668.6377],[169.1501,-44.8714,1653.3066],[169.1309,-44.8678,1545.7977],[169.1187,-44.8678,1493.8256],[169.1133,-44.8747,1480.0605],[169.1101,-44.8755,1488.8694],[169.1104,-44.8791,1449.2256],[169.1053,-44.8848,1432.9006],[169.1059,-44.8861,1432.9006],[169.1037,-44.8858,1446.0962],[169.0957,-44.8907,1412.8486],[169.0964,-44.8926,1424.2939],[169.0932,-44.8968,1408.0635],[169.0766,-44.9012,1200.1033],[169.0733,-44.9007,1222.0447],[169.068,-44.8966,1211.7386],[169.059,-44.8986,1081.4657],[169.0563,-44.9063,1026.2826],[169.0582,-44.9123,1020.986],[169.06,-44.9131,1026.1471],[169.0574,-44.9146,1007.5007],[169.0561,-44.9186,980.1964],[169.0577,-44.9208,1042.5928],[169.0542,-44.9215,982.5088],[169.0511,-44.9273,1000.4152],[169.0427,-44.9267,948.7686],[169.048,-44.931399999999996,967.6562],[169.0503,-44.9358,929.4888],[169.0468,-44.9454,864.9061],[169.044,-44.9663,719.6056],[169.0524,-44.9729,706.5053],[169.0547,-44.9772,632.0628],[169.0661,-44.9885,408.4789],[169.0705,-45.0015,231.804],[169.0649,-45.006,273.4877],[169.0654,-45.0139,237.7252],[169.0623,-45.0182,256.7859],[169.0471,-45.0241,248.8211],[169.0447,-45.031,248.0655],[169.0393,-45.0352,246.99],[169.0478,-45.0541,257.6946],[169.0446,-45.0606,259.9321],[169.029,-45.0626,388.8806],[169.0175,-45.0596,493.1703],[168.9992,-45.0507,919.164],[168.9935,-45.0498,1026.9381],[168.9846,-45.0565,1024.8544],[168.974,-45.0598,1273.3313],[168.9559,-45.06,1251.4001],[168.9513,-45.0617,1191.7141],[168.9256,-45.0598,1313.4719],[168.905,-45.0632,1392.7909],[168.8992,-45.0681,1478.6913],[168.887,-45.0718,1635.0629],[168.8761,-45.0637,1660.9863],[168.8678,-45.061,1741.4521],[168.8577,-45.0602,1971.1281],[168.8545,-45.0514,1878.6233],[168.8508,-45.0498,1838.5712],[168.8329,-45.0516,2028.599],[168.8302,-45.0561,1906.4877],[168.8247,-45.0606,1919.0703],[168.8208,-45.0702,1841.3033],[168.8342,-45.0833,1828.7203],[168.8347,-45.0866,1974.4423],[168.8315,-45.091,1971.6232],[168.8338,-45.0993,1965.5547],[168.829,-45.1014,2053.519],[168.8263,-45.1065,1971.4227],[168.826,-45.1142,1986.3483],[168.828,-45.1187,2065.7051],[168.8258,-45.1273,2130.4451],[168.8289,-45.1312,2019.1364],[168.8341,-45.1323,2029.5122],[168.8413,-45.141,2187.0361],[168.8351,-45.1442,1995.6333],[168.8382,-45.1518,1936.4752],[168.8349,-45.1541,1903.2527],[168.8358,-45.1618,2017.6478],[168.8283,-45.1665,1879.6735],[168.8293,-45.1703,1762.8301],[168.8262,-45.1785,1922.0789],[168.8238,-45.1806,2025.4994],[168.8291,-45.1843,1863.5972],[168.8382,-45.1861,1880.4404],[168.8412,-45.1976,1687.5999],[168.8448,-45.2022,1830.5726],[168.8466,-45.209,1863.2045],[168.8458,-45.2185,1838.6967],[168.8479,-45.2217,1834.3855],[168.8438,-45.2273,1880.9639],[168.8509,-45.2344,1822.1296],[168.8508,-45.2377,1852.1936],[168.8486,-45.2465,1890.9639],[168.8261,-45.2659,1798.4858],[168.819,-45.2813,1712.3896],[168.8185,-45.2873,1653.4915],[168.8125,-45.2943,1485.3259],[168.8115,-45.2977,1504.321],[168.8127,-45.306,1529.7491],[168.811,-45.3138,1536.2269],[168.8119,-45.3208,1668.2622],[168.8086,-45.3265,1632.2665],[168.7977,-45.3349,1432.6108],[168.795,-45.3419,1536.92],[168.7862,-45.3476,1538.9548],[168.7768,-45.3492,1447.9832],[168.7727,-45.3561,1538.6195],[168.7714,-45.3607,1560.7731],[168.7747,-45.3653,1628.5083],[168.7728,-45.371,1573.1638],[168.7751,-45.3773,1604.678],[168.7726,-45.383,1567.0728],[168.7739,-45.3918,1513.4414],[168.7686,-45.4027,1455.5735],[168.7739,-45.4148,1300.4203],[168.7739,-45.4205,1250.0162],[168.7777,-45.4243,1163.5582],[168.7797,-45.4336,1046.1749],[168.7787,-45.4366,1062.2012],[168.7823,-45.4371,1029.5571],[168.7896,-45.4339,1004.7584],[168.7962,-45.4334,998.5017],[168.8252,-45.4461,1531.7864],[168.8256,-45.4411,1489.6731],[168.8305,-45.4376,1411.5142],[168.854,-45.4321,1388.666],[168.8601,-45.4383,1467.6628],[168.8588,-45.452,1447.1356],[168.8869,-45.4628,1639.9963],[168.8929,-45.457,1667.3032],[168.8996,-45.4557,1750.6406],[168.9068,-45.4495,1797.4939],[168.9596,-45.3591,1833.4668],[169.0128,-45.3035,1683.0273],[169.0655,-45.2696,1712.4491],[169.0729,-45.2711,1724.1956],[169.0902,-45.2861,1618.7434],[169.0881,-45.287,1635.8174],[169.0882,-45.2908,1632.2749],[169.0928,-45.2982,1586.3016],[169.0993,-45.3199,1561.4216],[169.1057,-45.3219,1547.549],[169.114,-45.3287,1504.2855],[169.1216,-45.3318,1515.4513],[169.1295,-45.3376,1563.6019],[169.1482,-45.3388,1621.8003],[169.1547,-45.3493,1613.252],[169.1532,-45.3535,1626.0195],[169.1614,-45.3633,1618.0109],[169.1645,-45.3707,1586.9829],[169.1683,-45.3735,1593.801],[169.1707,-45.3805,1594.8755],[169.1748,-45.3823,1620.0533],[169.1809,-45.3904,1630.2175],[169.1965,-45.3884,1660.875],[169.1991,-45.393,1638.5637],[169.2093,-45.4024,1611.1898],[169.2109,-45.4172,1574.9728],[169.1996,-45.4343,1485.4702],[169.1858,-45.4387,1377.4033],[169.1721,-45.44,1348.7036],[169.1738,-45.4477,1209.3251],[169.1731,-45.4525,1170.157],[169.1681,-45.4586,1059.8943],[169.1543,-45.4652,1008.1496],[169.1535,-45.469,998.2807],[169.1634,-45.4765,912.2786],[169.1644,-45.4854,887.3507],[169.1683,-45.4871,884.4728],[169.1698,-45.4909,877.6003],[169.1737,-45.4916,836.0427],[169.1736,-45.4934,836.4161],[169.1801,-45.4978,823.0493],[169.1782,-45.4996,834.9917],[169.1787,-45.5027,810.3455],[169.1766,-45.5031,800.9369],[169.1768,-45.5057,808.0781],[169.1798,-45.5099,819.2006],[169.1844,-45.5117,760.788],[169.1823,-45.5132,769.4394],[169.1803,-45.5199,768.1212],[169.1727,-45.5251,768.286],[169.1727,-45.5281,807.4818],[169.1712,-45.529,744.2822],[169.1724,-45.5307,802.6765],[169.1693,-45.5318,747.6695],[169.1714,-45.533,741.7636],[169.1685,-45.5344,741.8884],[169.171,-45.5357,735.9546],[169.1694,-45.5372,733.0361],[169.174,-45.5402,729.3337],[169.1717,-45.5416,747.5946],[169.1735,-45.5432,735.8048],[169.173,-45.5453,749.9532],[169.1672,-45.5486,702.4011],[169.1674,-45.5501,704.7501],[169.1729,-45.5512,762.6149],[169.1738,-45.555,691.1198],[169.1812,-45.5574,732.579],[169.1884,-45.5655,640.8884],[169.1964,-45.567,598.4825],[169.198,-45.5686,605.7687],[169.1958,-45.5726,572.4424],[169.1979,-45.5743,574.2155],[169.1951,-45.5787,549.8683],[169.1843,-45.5814,503.1137],[169.1776,-45.5888,503.7079],[169.1741,-45.5906,504.1846],[169.1778,-45.6026,460.8034],[169.1832,-45.6075,461.3931],[169.1825,-45.6096,458.6066],[169.1794,-45.6109,468.5842],[169.1791,-45.6136,419.2347],[169.181,-45.6163,470.4597],[169.1767,-45.621,379.405],[169.1814,-45.6261,403.8383],[169.1751,-45.6306,367.9082],[169.1773,-45.6349,361.4844],[169.1757,-45.6408,357.9031],[169.1731,-45.6428,359.839],[169.1769,-45.6475,359.1556],[169.1757,-45.6528,349.894],[169.1777,-45.6567,348.1119],[169.1964,-45.661,540.1008],[169.2115,-45.6715,596.1104],[169.2221,-45.6726,573.1846],[169.2235,-45.6795,621.3971],[169.2285,-45.6833,681.5524],[169.2356,-45.6925,676.9852],[169.2403,-45.6951,629.9997],[169.248,-45.695,585.8152],[169.2659,-45.6899,430.8192],[169.2695,-45.6905,347.5407],[169.273,-45.6932,429.9131],[169.2744,-45.6995,466.8486],[169.2789,-45.7026,462.9086],[169.2879,-45.701,487.9178],[169.2885,-45.6901,498.7749],[169.2901,-45.6882,488.2448],[169.3261,-45.6911,277.2014],[169.3491,-45.6895,179.4051],[169.3549,-45.6873,169.323],[169.3678,-45.6909,308.824],[169.374,-45.6898,348.0349],[169.3793,-45.6915,376.3887],[169.403,-45.6866,346.9569],[169.402,-45.6901,295.3453],[169.4034,-45.6954,251.0503],[169.4005,-45.6979,211.7052],[169.4,-45.701,301.7638],[169.4046,-45.713,463.5191],[169.4021,-45.7196,475.3656],[169.3989,-45.723,518.1437],[169.4019,-45.7255,515.6576],[169.4011,-45.7305,552.4473],[169.4002,-45.7342,578.1385],[169.3945,-45.7417,397.5551],[169.3951,-45.7429,397.5551],[169.4001,-45.7443,414.7191],[169.4119,-45.7413,570.3732],[169.4179,-45.737,641.5775],[169.437,-45.7576,583.8211],[169.4351,-45.7605,588.5609],[169.4355,-45.7667,471.5056],[169.4382,-45.773,490.94],[169.4424,-45.7748,348.0483],[169.4476,-45.7747,302.2745],[169.4474,-45.7903,161.483],[169.4516,-45.7907,153.7696],[169.4678,-45.7858,127.2437],[169.4773,-45.7874,131.2169],[169.4801,-45.7901,143.582],[169.4801,-45.7931,172.8877],[169.4843,-45.7968,200.5027],[169.5026,-45.7969,43.3438],[169.5245,-45.8131,40.0],[169.5315,-45.8123,92.8149],[169.5345,-45.8093,111.7914],[169.5475,-45.8087,123.5985],[169.5497,-45.8058,135.3803],[169.5574,-45.8052,153.6768],[169.5577,-45.803,136.342],[169.5644,-45.8029,186.6074],[169.5764,-45.7986,304.2157],[169.5748,-45.7968,327.5186],[169.5777,-45.7968,320.2861],[169.5779,-45.7953,292.1722],[169.5813,-45.7942,315.7952],[169.5865,-45.7893,284.1128],[169.5874,-45.7843,298.5905],[169.5899,-45.7841,290.0089],[169.5867,-45.781,295.1637],[169.5939,-45.7784,315.7898],[169.595,-45.7753,322.9014],[169.5996,-45.7771,331.8309],[169.6031,-45.7744,384.0299],[169.6093,-45.7737,399.4377],[169.6131,-45.77,417.327],[169.6208,-45.7722,454.3951],[169.62,-45.7709,437.3472],[169.6216,-45.7686,444.847],[169.6258,-45.772,476.4804],[169.6331,-45.7709,523.5003],[169.6343,-45.7694,551.877],[169.6428,-45.7693,582.7143],[169.648,-45.764,663.3619],[169.6471,-45.7604,643.0322],[169.6485,-45.7586,659.6857],[169.6468,-45.7583,650.0952],[169.6487,-45.7572,664.4376],[169.6479,-45.7563,664.4376],[169.651,-45.7503,673.5196],[169.649,-45.749,682.8302],[169.6514,-45.7486,677.3353],[169.6503,-45.7468,684.8057],[169.6537,-45.7455,705.8245],[169.6526,-45.7426,716.731],[169.6562,-45.7394,744.5282],[169.6565,-45.7368,738.4863],[169.6598,-45.7348,755.3479],[169.662,-45.7295,819.1764],[169.6617,-45.725,836.5831],[169.6641,-45.7203,873.3064],[169.6632,-45.7186,851.7248],[169.666,-45.7127,889.0569],[169.6639,-45.7051,957.8311],[169.6669,-45.6993,1047.9352],[169.6733,-45.6949,1067.0055],[169.673,-45.6934,1069.1146],[169.6754,-45.6927,1082.9659],[169.6741,-45.6975,1067.5221],[169.6831,-45.7073,1088.5291],[169.688,-45.7084,1085.8164],[169.6925,-45.7067,1100.6628],[169.6944,-45.7108,1107.5983],[169.7146,-45.7083,1130.2157],[169.7179,-45.7148,1129.9646],[169.7309,-45.7182,1130.666],[169.7322,-45.721,1140.0251],[169.7394,-45.7198,1154.8853],[169.7405,-45.7169,1151.407],[169.7365,-45.7137,1142.7368],[169.737,-45.7116,1144.1469],[169.7415,-45.7081,1137.1443],[169.7397,-45.7039,1120.4585],[169.741,-45.7022,1114.9475],[169.751,-45.6989,1124.9968],[169.7504,-45.6972,1119.9333],[169.7541,-45.6934,1108.9907],[169.7538,-45.6906,1102.5537],[169.7574,-45.6887,1115.3795],[169.7569,-45.6849,1120.8281],[169.7583,-45.6835,1116.0153],[169.7572,-45.6795,1111.1425],[169.7615,-45.6744,1105.2253],[169.7717,-45.6694,1092.0361],[169.7809,-45.668,1094.8344],[169.7822,-45.6624,1085.8455],[169.7782,-45.6606,1104.3608],[169.778,-45.6558,1110.4014],[169.7801,-45.6532,1114.1884],[169.7871,-45.6499,1126.983],[169.7887,-45.6458,1119.1863],[169.7957,-45.6422,1109.8328],[169.7964,-45.6376,1101.8054],[169.794,-45.6367,1106.7018],[169.7953,-45.6352,1108.5984],[169.7938,-45.6328,1097.9126],[169.798,-45.6297,1095.6763],[169.7991,-45.6248,1087.9684],[169.803,-45.6216,1082.9254],[169.8033,-45.617,1067.1536],[169.8016,-45.616,1062.0076],[169.8017,-45.6138,1045.2921],[169.8042,-45.611,1023.3275],[169.8017,-45.6034,1011.1756],[169.804,-45.6013,999.1933],[169.8043,-45.5968,999.3601],[169.8091,-45.5949,988.4299],[169.8119,-45.5819,950.4639],[169.8188,-45.5759,934.7895],[169.8184,-45.574,937.183],[169.8119,-45.5713,908.9808],[169.813,-45.5665,909.6797],[169.8115,-45.5643,901.9248],[169.8137,-45.5608,869.8525],[169.8252,-45.5544,853.073],[169.8426,-45.5493,849.6595],[169.8559,-45.5478,829.4786],[169.8621,-45.5488,825.5],[169.8973,-45.5397,825.5],[169.9061,-45.5422,825.5],[169.9138,-45.5232,844.6903],[169.9133,-45.5154,922.684],[169.91,-45.5114,945.7288],[169.9091,-45.5014,821.087],[169.9064,-45.4971,915.9979],[169.9313,-45.4993,966.2951],[169.9399,-45.496,963.415],[169.9506,-45.495,994.0655],[169.9641,-45.4896,1013.3889],[169.9797,-45.4867,1148.429],[169.9842,-45.4852,1173.9478],[169.9881,-45.4795,1221.7458],[169.9941,-45.4779,1256.0497],[169.9964,-45.4775,1270.079],[170.0052,-45.4839,1240.3193],[170.0063,-45.4811,1230.2755],[170.0158,-45.4804,1264.191],[170.0295,-45.4765,1240.15],[170.0307,-45.4737,1226.8778],[170.0527,-45.4538,1352.7112],[170.0642,-45.4408,1326.4993],[170.0726,-45.4238,1411.8721],[170.0862,-45.4089,1370.2131],[170.1077,-45.3963,1277.3351],[170.1282,-45.3802,1196.4462],[170.1292,-45.3674,1250.0421],[170.1201,-45.3525,1295.0157],[170.1367,-45.3424,1221.5774],[170.1563,-45.3276,1182.4404],[170.1593,-45.3234,1194.4636],[170.1628,-45.3103,1122.3524],[170.1772,-45.2877,1010.3485],[170.1817,-45.2768,809.1204],[170.1858,-45.2721,731.5076],[170.1865,-45.265,931.9655],[170.2165,-45.2573,755.8007],[170.2166,-45.2347,676.3091],[170.2281,-45.2317,563.3691],[170.2319,-45.2325,552.8615],[170.2545,-45.229,341.1901],[170.2578,-45.2295,324.371],[170.2586,-45.2363,366.7911],[170.3138,-45.2358,493.9003],[170.3137,-45.2425,463.0068],[170.3166,-45.2427,499.7301],[170.3284,-45.2367,526.9796],[170.3346,-45.2391,575.5264],[170.3396,-45.2392,638.4152],[170.343,-45.2429,651.6343],[170.3499,-45.2414,742.8158],[170.347,-45.2363,815.7259],[170.3545,-45.2363,811.1479],[170.353,-45.2319,824.4833],[170.3543,-45.2291,763.1819],[170.3686,-45.223,721.6103],[170.3831,-45.2125,652.4122],[170.3836,-45.2072,658.2229],[170.3814,-45.2016,663.3245],[170.3642,-45.187,680.3461],[170.3743,-45.1844,661.7668],[170.3766,-45.181399999999996,653.2864],[170.3772,-45.1768,627.6115],[170.3825,-45.1738,601.0103],[170.3916,-45.1773,586.2107],[170.4007,-45.1785,583.53],[170.4075,-45.1783,599.3694],[170.412,-45.1756,613.968],[170.4161,-45.1623,703.7163],[170.428,-45.1539,774.5261],[170.4289,-45.1505,815.7233],[170.4351,-45.1456,889.8725],[170.4313,-45.1403,1171.5569],[170.4395,-45.1337,1495.9713],[170.4352,-45.1282,1382.4471],[170.424,-45.1284,1244.5303],[170.4126,-45.124,1243.0079],[170.4092,-45.1247,1226.2955],[170.4039,-45.1226,1354.4412],[170.3997,-45.1153,1353.0275],[170.4053,-45.1133,1316.7087],[170.4084,-45.1023,1346.7388],[170.3972,-45.0931,1389.9244],[170.3986,-45.0865,1400.9998],[170.3978,-45.0809,1596.52],[170.3855,-45.0779,1545.666],[170.3862,-45.0733,1526.5669],[170.3792,-45.067,1526.8632],[170.3805,-45.0608,1545.1095],[170.3683,-45.0548,1515.082],[170.3633,-45.0435,1309.6974],[170.3629,-45.0368,1305.0708],[170.3558,-45.0292,1299.9623],[170.3533,-45.024,1487.2777],[170.3494,-45.0217,1522.8204],[170.3519,-45.0078,1231.7615],[170.3473,-44.9896,1342.447],[170.3541,-44.9827,1332.7585],[170.3698,-44.9723,1280.1274],[170.3689,-44.9602,1039.0079],[170.3734,-44.9524,918.2966],[170.3721,-44.948,968.3668],[170.3666,-44.9444,1184.8218],[170.3656,-44.9401,1271.3323],[170.357,-44.939,1007.3088],[170.3491,-44.9431,1144.0168],[170.3506,-44.9317,1132.0593],[170.354,-44.9281,1088.4071],[170.3522,-44.9201,1203.0825],[170.3528,-44.9151,1184.5149],[170.3502,-44.9078,1435.4127],[170.3401,-44.9039,1468.0017],[170.3194,-44.903,1544.8884],[170.3047,-44.9105,1445.9879],[170.3017,-44.9195,1500.6444],[170.2907,-44.9141,1409.5474],[170.2818,-44.9166,1316.0562],[170.2726,-44.9216,1252.9161],[170.2652,-44.9199,1209.7266],[170.2596,-44.9216,1214.7156],[170.252,-44.9188,1201.0447],[170.2469,-44.9223,1222.2001],[170.2421,-44.9307,1207.7025],[170.2252,-44.9347,1307.0491],[170.2204,-44.9334,1308.4886],[170.2105,-44.9346,1347.0195],[170.2001,-44.939,1379.3489],[170.1895,-44.94,1343.7729],[170.1793,-44.943,1428.0034],[170.1757,-44.9418,1455.7413],[170.1645,-44.946,1444.3042],[170.1584,-44.9436,1501.9553],[170.1503,-44.9433,1496.5354],[170.1475,-44.9409,1544.1165],[170.1405,-44.9428,1477.6592],[170.1309,-44.9407,1553.3112],[170.1271,-44.9411,1546.7347],[170.1205,-44.9474,1512.4969],[170.1113,-44.9469,1481.1875],[170.1037,-44.9426,1428.7644],[170.0941,-44.94,1477.2025],[170.0913,-44.9375,1545.5784],[170.0914,-44.9342,1647.5364],[170.0848,-44.9274,1635.6956],[170.0687,-44.9232,1570.5271],[170.0744,-44.916,1403.0928],[170.0819,-44.9121,1556.604],[170.0695,-44.8998,1530.3447],[170.0638,-44.8836,1636.1012],[170.0503,-44.8774,1600.0742],[170.0431,-44.8768,1552.4231],[170.0382,-44.8725,1537.181],[170.0309,-44.8701,1550.2788],[170.0267,-44.859,1614.1176],[170.0185,-44.8556,1604.0197],[170.0126,-44.8435,1611.5427],[170.0055,-44.8368,1605.468],[169.9978,-44.8247,1590.033],[169.9966,-44.8204,1602.4318],[169.9989,-44.8087,1694.515],[169.995,-44.7988,1666.7021],[169.9937,-44.7865,1690.3711],[169.9841,-44.7725,1801.5167],[169.9822,-44.7671,1844.9064],[169.9811,-44.7545,1844.0947],[169.9702,-44.7441,1867.0317],[169.9634,-44.7088,1843.5397],[169.9442,-44.654,1799.2866],[169.8913,-44.6443,1428.328],[169.8416,-44.6654,1733.9659],[169.8362,-44.6689,1633.8119],[169.8171,-44.6655,1250.3088],[169.822,-44.6636,1260.8767],[169.8056,-44.6613,1338.4958],[169.7549,-44.6389,1808.092],[169.7533,-44.631,1809.4429],[169.7537,-44.6183,1811.8745],[169.7572,-44.6121,1781.0721],[169.7554,-44.6075,1755.4738],[169.7478,-44.6001,1704.8866],[169.7486,-44.5943,1781.7773],[169.7463,-44.5861,1753.587],[169.7366,-44.5705,1692.8391],[169.7306,-44.5651,1743.2168],[169.7186,-44.5735,1707.6293],[169.7187,-44.5794,1699.9926],[169.7133,-44.598,1734.7322],[169.7085,-44.601,1712.9524],[169.6969,-44.6014,1781.8092],[169.6853,-44.6061,1794.1304],[169.6886,-44.6029,1750.4705],[169.6885,-44.6011,1718.8091],[169.6818,-44.5979,1512.9064],[169.6578,-44.5936,1133.6548],[169.641,-44.596,1252.8372],[169.6445,-44.5843,933.8235],[169.6427,-44.576,1055.3907],[169.6408,-44.5747,1044.9691],[169.6434,-44.5693,1129.356],[169.6407,-44.5648,1246.0411],[169.6452,-44.561,1328.1887],[169.6455,-44.5551,1258.5446],[169.6521,-44.5486,1252.3977],[169.653,-44.5459,1295.2422],[169.6634,-44.5372,1490.7841],[169.6523,-44.5352,1460.6163],[169.6477,-44.5311,1497.0078],[169.647,-44.5261,1489.6763],[169.6501,-44.521,1516.7263],[169.6456,-44.5192,1482.861],[169.6432,-44.5154,1432.4333],[169.6377,-44.5116,1468.1754],[169.6373,-44.5063,1391.6274],[169.6343,-44.5018,1483.2152],[169.6349,-44.4989,1440.8857],[169.6412,-44.4951,1477.7208],[169.6436,-44.4867,1368.0515],[169.6475,-44.4812,1539.123],[169.6441,-44.479,1366.5498],[169.641,-44.4719,1232.55],[169.6419,-44.4664,1485.1097],[169.6337,-44.4624,1571.5394],[169.615,-44.4606,1538.8499],[169.6033,-44.4636,1374.5453],[169.6024,-44.4618,1415.2385],[169.6004,-44.4629,1359.0444],[169.5921,-44.4591,1343.1467],[169.5739,-44.4623,1341.6719],[169.5698,-44.4597,1449.3715],[169.5623,-44.4602,1541.365],[169.5544,-44.4572,1723.3896],[169.5535,-44.4552,1721.1726],[169.5425,-44.4486,1882.5431]]]]}
,"properties": {"GID_2": "NZL.12.1_1","GID_0": "NZL","country": "NewZealand","GID_1": "NZL.12_1","province": "Otago","NL_NAME_1": "NA","county": "CentralOtago","VARNAME_2": "NA","NL_NAME_2": "NA","TYPE_2": "District","ENGTYPE_2": "District","CC_2": "069","HASC_2": "NZ.OT.CO","name": "Central_Otago.county","area_km2": 9937.052,"hist_schema_id": "Elevation0-9000","hist_area_km2": {"50": 4.867,"75": 30.113,"100": 28.565,"125": 28.618,"150": 67.72,"175": 54.322,"200": 105.42,"225": 119.876,"250": 117.524,"275": 112.862,"300": 128.518,"325": 164.45,"350": 237.425,"375": 349.886,"400": 374.609,"425": 371.389,"450": 310.946,"475": 265.04,"500": 248.742,"525": 257.862,"550": 296.376,"575": 273.956,"600": 257.919,"625": 250.956,"650": 246.483,"675": 260.74,"700": 255.965,"725": 234.468,"750": 242.824,"775": 246.025,"800": 262.691,"825": 278.885,"850": 261.651,"875": 231.552,"900": 208.115,"925": 193.156,"950": 179.102,"975": 159.723,"1000": 151.768,"1025": 136.512,"1050": 131.628,"1075": 129.155,"1100": 115.955,"1125": 105.692,"1150": 96.77,"1175": 87.796,"1200": 81.125,"1225": 80.58,"1250": 77.34,"1275": 75.024,"1300": 70.301,"1325": 73.958,"1350": 77.223,"1375": 70.981,"1400": 68.189,"1425": 62.846,"1450": 59.067,"1475": 55.277,"1500": 49.476,"1525": 44.342,"1550": 39.452,"1575": 35.86,"1600": 33.894,"1625": 30.16,"1650": 25.845,"1675": 21.09,"1700": 19.964,"1725": 18.979,"1750": 15.031,"1775": 14.122,"1800": 13.264,"1825": 11.01,"1850": 8.701,"1875": 6.285,"1900": 5.054,"1925": 4.049,"1950": 3.992,"1975": 2.669,"2000": 2.234,"2025": 1.65,"2050": 1.365,"2075": 0.854,"2100": 0.404,"2125": 0.314,"2150": 0.164,"2175": 0.12,"2200": 0.135}}}