{"type": "Feature","bbox": [175.2171,-37.5643,175.9433,-37.024],"geometry": {"type": "MultiPolygon","coordinates": [[[[175.9395,-37.3734,70.9549],[175.9378,-37.3698,59.1549],[175.9385,-37.3665,16.3649],[175.9408,-37.3659,19.2014],[175.9373,-37.3622,14.3424],[175.9388,-37.358,5.1108],[175.942,-37.357,63.7631],[175.9432,-37.3527,9.3041],[175.9411,-37.3485,117.3423],[175.9433,-37.3452,16.7318],[175.9368,-37.3393,10.9166],[175.9348,-37.3334,0.0],[175.9322,-37.3321,0.0],[175.9326,-37.3299,0.0],[175.9296,-37.329,45.6719],[175.928,-37.3239,0.0],[175.924,-37.3208,36.9093],[175.9238,-37.3134,1.0396],[175.9253,-37.3126,4.0556],[175.9223,-37.3105,12.874],[175.9229,-37.3075,7.1933],[175.9193,-37.3079,1.1856],[175.9148,-37.3024,62.0325],[175.9133,-37.292,43.6139],[175.9098,-37.2914,16.9763],[175.9031,-37.2831,1.8458],[175.8982,-37.2714,13.5993],[175.8998,-37.2688,5.439],[175.8915,-37.2528,29.1039],[175.8939,-37.2515,1.6517],[175.8919,-37.2507,26.4987],[175.8955,-37.2484,22.8758],[175.8944,-37.241,20.8023],[175.8908,-37.2407,13.9025],[175.8869,-37.2319,22.1984],[175.8802,-37.2313,51.0313],[175.874,-37.2277,0.0],[175.8692,-37.2268,0.0],[175.8652,-37.2283,0.0],[175.8591,-37.2321,0.0],[175.855,-37.2372,1.4455],[175.8561,-37.2397,1.989],[175.8598,-37.2419,1.2635],[175.8606,-37.2451,3.0576],[175.8589,-37.2492,1.3735],[175.8528,-37.2466,4.9367],[175.8474,-37.2467,5.0064],[175.847,-37.2447,4.5057],[175.8425,-37.2466,9.1289],[175.8423,-37.2483,11.0587],[175.8386,-37.2508,18.1475],[175.8373,-37.2569,92.8609],[175.8338,-37.2622,40.2642],[175.8291,-37.2637,60.0453],[175.8272,-37.2685,91.1542],[175.828,-37.2729,108.5898],[175.8255,-37.2758,105.106],[175.7785,-37.2782,509.4124],[175.7773,-37.2864,298.3318],[175.7704,-37.289,189.3834],[175.7674,-37.2865,171.1821],[175.7601,-37.2876,137.4681],[175.7529,-37.2859,119.611],[175.7513,-37.2877,105.7736],[175.7464,-37.2876,128.8652],[175.7463,-37.2897,108.6907],[175.743,-37.2895,92.9441],[175.7425,-37.2929,64.4705],[175.7407,-37.2942,61.3025],[175.7377,-37.2919,58.5989],[175.7309,-37.2926,48.3407],[175.7265,-37.2897,46.211],[175.7243,-37.2911,45.7996],[175.7201,-37.2881,35.5368],[175.7125,-37.287,45.9369],[175.7111,-37.2883,52.4773],[175.7122,-37.2929,27.159],[175.7045,-37.2909,48.5291],[175.6991,-37.2942,20.8878],[175.6977,-37.2885,15.962],[175.6934,-37.2928,12.2193],[175.6918,-37.2924,13.0174],[175.6909,-37.2955,14.0333],[175.6845,-37.2964,13.0234],[175.6765,-37.2945,10.5307],[175.6746,-37.2919,9.9192],[175.6756,-37.2912,10.1453],[175.6717,-37.289,9.1725],[175.6696,-37.2905,8.4796],[175.6635,-37.2905,9.468],[175.6643,-37.2915,8.4366],[175.6617,-37.2918,7.0898],[175.6615,-37.2932,10.8507],[175.6568,-37.2922,7.1828],[175.6585,-37.2977,6.5225],[175.6555,-37.2984,4.9209],[175.6443,-37.2941,4.4466],[175.6446,-37.2923,4.7143],[175.641,-37.2896,3.0677],[175.6416,-37.2874,2.6719],[175.6374,-37.2872,2.2382],[175.6351,-37.2822,2.0829],[175.6378,-37.2816,2.1257],[175.6367,-37.2801,1.8281],[175.6326,-37.2819,2.2994],[175.6337,-37.2843,1.5455],[175.6321,-37.2875,0.9724],[175.6255,-37.2846,0.4814],[175.6152,-37.2885,0.8012],[175.6111,-37.2876,1.4833],[175.5968,-37.2784,0.0],[175.5967,-37.2745,0.6383],[175.6028,-37.2652,0.8129],[175.617,-37.2485,0.4572],[175.6172,-37.2421,0.9402],[175.6134,-37.2397,0.0],[175.5952,-37.2385,0.0],[175.5904,-37.2389,0.0],[175.5813,-37.2437,0.0],[175.5719,-37.2412,0.3925],[175.5699,-37.2372,0.0],[175.5685,-37.2215,0.0],[175.5619,-37.2108,0.0],[175.5628,-37.1906,0.0],[175.5557,-37.1801,0.0],[175.54,-37.1687,0.0],[175.532,-37.1688,2.5557],[175.5245,-37.1712,1.892],[175.5098,-37.1873,1.2846],[175.5044,-37.1881,1.3624],[175.5014,-37.1902,2.2969],[175.5013,-37.1945,0.9846],[175.4922,-37.1947,1.1449],[175.4871,-37.1965,1.4174],[175.4402,-37.2179,1.8638],[175.4033,-37.222,1.7118],[175.3998,-37.2247,1.048],[175.399,-37.2275,0.9141],[175.3952,-37.2295,1.5669],[175.3922,-37.2282,1.5225],[175.3946,-37.2247,1.2356],[175.3917,-37.2217,1.6589],[175.3692,-37.218,1.1548],[175.3659,-37.2191,0.989],[175.367,-37.2178,1.4865],[175.3631,-37.2158,1.8231],[175.3438,-37.2095,1.4076],[175.3282,-37.1972,1.8251],[175.323,-37.1906,1.2235],[175.3209,-37.1844,1.2027],[175.3039,-37.2264,150.8962],[175.3161,-37.2327,179.8641],[175.317,-37.2464,169.7529],[175.3105,-37.2511,163.1004],[175.3058,-37.2513,113.9234],[175.3417,-37.3248,280.8373],[175.3602,-37.3539,387.2465],[175.3757,-37.3698,387.4683],[175.3791,-37.3703,374.0114],[175.3839,-37.3742,388.0099],[175.382,-37.3764,351.3344],[175.3817,-37.3816,352.5578],[175.3763,-37.3896,412.1676],[175.3774,-37.3931,428.4343],[175.3847,-37.3974,374.371],[175.3859,-37.4006,356.9723],[175.3879,-37.4008,326.7617],[175.3886,-37.4047,285.634],[175.3949,-37.4108,408.4834],[175.3969,-37.4218,460.0056],[175.3952,-37.4243,452.993],[175.3913,-37.4258,450.1779],[175.3904,-37.4322,466.0911],[175.3959,-37.4392,301.7915],[175.4117,-37.4248,255.2658],[175.4125,-37.4286,214.1965],[175.4087,-37.438,161.7585],[175.4309,-37.4417,412.3585],[175.438,-37.4406,310.1561],[175.437,-37.4501,269.4168],[175.4692,-37.4361,50.1831],[175.5114,-37.4303,2.1748],[175.5113,-37.429,1.7415],[175.5205,-37.423,4.7608],[175.5207,-37.4198,4.2425],[175.5839,-37.4192,3.4756],[175.5877,-37.4241,3.0546],[175.5981,-37.419,2.5213],[175.6314,-37.4188,3.1987],[175.6326,-37.4249,3.1991],[175.6292,-37.4266,4.1383],[175.6295,-37.4332,4.1488],[175.6348,-37.4351,4.23],[175.6403,-37.4396,5.0638],[175.64,-37.4419,5.2583],[175.6372,-37.4439,5.1296],[175.6401,-37.447,4.5622],[175.6403,-37.4492,4.6726],[175.6386,-37.4499,4.7824],[175.6401,-37.4538,7.0791],[175.6462,-37.4547,5.8466],[175.6721,-37.4509,265.2301],[175.6847,-37.4571,187.0319],[175.6904,-37.4631,226.3301],[175.7017,-37.4586,291.6042],[175.7061,-37.4693,134.7511],[175.7076,-37.4687,134.7511],[175.7062,-37.4593,262.1603],[175.7121,-37.4625,181.7155],[175.7549,-37.4631,160.1102],[175.7552,-37.479,244.3818],[175.7534,-37.482,255.9201],[175.7551,-37.4867,325.0263],[175.7506,-37.4938,328.2687],[175.7522,-37.4965,345.6452],[175.7509,-37.4998,370.2488],[175.7526,-37.5031,397.6177],[175.7538,-37.5179,539.8895],[175.7513,-37.523,612.7141],[175.7533,-37.5266,654.0553],[175.7435,-37.5334,878.9709],[175.7647,-37.5232,779.28],[175.8117,-37.5643,787.4271],[175.8129,-37.5552,663.7358],[175.8266,-37.5457,633.629],[175.831,-37.5368,600.0076],[175.829,-37.5318,577.1237],[175.8237,-37.5268,718.6422],[175.8246,-37.5201,557.8992],[175.8233,-37.5158,589.6404],[175.8091,-37.5137,568.9805],[175.806,-37.5107,570.4309],[175.8085,-37.5011,500.7001],[175.8169,-37.4955,479.8039],[175.8179,-37.4929,474.4504],[175.8167,-37.4887,483.5338],[175.8135,-37.4849,518.6398],[175.8328,-37.4716,298.1856],[175.8437,-37.487,382.5406],[175.8576,-37.4973,345.6135],[175.8656,-37.5004,196.1206],[175.8707,-37.5005,134.7797],[175.8707,-37.4956,148.5477],[175.8993,-37.4956,136.66],[175.8961,-37.4867,155.2291],[175.8806,-37.4695,131.925],[175.872,-37.4735,198.9226],[175.8609,-37.4611,163.291],[175.8754,-37.4495,124.6779],[175.8775,-37.4511,127.6305],[175.8788,-37.4461,137.9164],[175.8775,-37.4432,129.3732],[175.8824,-37.44,179.7879],[175.8908,-37.4437,106.1421],[175.9101,-37.4303,210.6197],[175.9136,-37.425,203.9467],[175.9083,-37.4226,173.7071],[175.9089,-37.4197,138.2239],[175.9057,-37.4163,125.1588],[175.9067,-37.4162,127.0838],[175.9064,-37.41,154.6259],[175.9042,-37.4101,155.9908],[175.9039,-37.4057,116.4029],[175.9052,-37.4041,122.735],[175.9245,-37.4044,140.7805],[175.9172,-37.4028,187.6004],[175.9168,-37.3986,188.7509],[175.9198,-37.3921,234.418],[175.922,-37.392,244.1529],[175.921,-37.3869,253.269],[175.9259,-37.3865,198.567],[175.926,-37.3833,156.6776],[175.9214,-37.3813,228.2065],[175.9184,-37.3827,246.0911],[175.9169,-37.3815,277.1689],[175.9184,-37.3799,225.2344],[175.9166,-37.3793,239.0818],[175.9217,-37.3752,262.1975],[175.9229,-37.376,262.1975],[175.9228,-37.3742,281.632],[175.9289,-37.3761,178.7644],[175.9395,-37.3734,70.9549]]],
[[[175.2728,-37.0267,188.5073],[175.2679,-37.0274,216.0802],[175.272,-37.0456,93.1086],[175.2637,-37.0478,176.2101],[175.2592,-37.0529,288.3497],[175.261,-37.0606,138.0307],[175.2575,-37.0648,162.926],[175.2618,-37.0664,181.2867],[175.2395,-37.0671,397.9755],[175.2397,-37.0868,266.1303],[175.2505,-37.0866,263.3476],[175.2509,-37.1098,131.7572],[175.2419,-37.1116,172.9385],[175.2373,-37.1091,241.889],[175.2344,-37.1108,186.0357],[175.2299,-37.1086,230.3709],[175.2247,-37.1095,283.1437],[175.2226,-37.107,337.028],[175.2209,-37.1102,382.5603],[175.2218,-37.1113,405.4795],[175.2171,-37.1172,340.8487],[175.2204,-37.1198,271.1085],[175.2263,-37.1192,308.9057],[175.2277,-37.1223,253.2979],[175.2266,-37.1283,129.7008],[175.2314,-37.1263,139.6432],[175.2428,-37.1404,123.9733],[175.2492,-37.1364,70.0571],[175.2576,-37.1358,66.1772],[175.2614,-37.1831,92.0977],[175.2628,-37.183,92.0977],[175.2639,-37.1923,133.2014],[175.2717,-37.1866,110.0933],[175.2807,-37.1893,67.3215],[175.3019,-37.1831,14.7701],[175.318,-37.1852,1.0367],[175.3237,-37.1808,1.2882],[175.318,-37.1671,1.0063],[175.3106,-37.1583,0.4473],[175.3099,-37.155,1.5843],[175.3079,-37.1542,1.5814],[175.3106,-37.1546,0.2944],[175.3015,-37.1391,1.647],[175.3004,-37.1321,0.0],[175.3014,-37.1293,0.0],[175.2988,-37.1247,0.0],[175.2963,-37.1247,0.0],[175.2949,-37.1208,0.0],[175.296,-37.1128,2.5579],[175.2992,-37.1102,0.7071],[175.3,-37.0973,1.9112],[175.3058,-37.0916,1.4355],[175.3042,-37.0867,2.1682],[175.298,-37.0799,2.3375],[175.2966,-37.0737,0.2006],[175.2977,-37.0667,1.76],[175.3026,-37.0581,0.0],[175.303,-37.0526,0.0],[175.2965,-37.0419,1.4418],[175.2969,-37.0383,1.0641],[175.2928,-37.0342,0.0],[175.2936,-37.0312,0.31],[175.2912,-37.0275,29.1492],[175.2913,-37.024,24.2885],[175.2728,-37.0267,188.5073]],
[[175.301,-37.084,1.9101],[175.3009,-37.0838,1.9101],[175.3013,-37.0843,1.9101],[175.3011,-37.0843,1.9101],[175.301,-37.084,1.9101]]]]}
,"properties": {"GID_2": "NZL.17.2_1","GID_0": "NZL","country": "NewZealand","GID_1": "NZL.17_1","province": "Waikato","NL_NAME_1": "NA","county": "Hauraki","VARNAME_2": "NA","NL_NAME_2": "NA","TYPE_2": "District","ENGTYPE_2": "District","CC_2": "012","HASC_2": "NZ.WK.HK","name": "Hauraki.county","area_km2": 1269.2784,"hist_schema_id": "Elevation0-9000","hist_area_km2": {"-75": 0.0168,"-50": 0.0337,"-25": 0.0337,"0": 559.3112,"25": 68.816,"50": 43.7703,"75": 42.8395,"100": 70.3184,"125": 72.9223,"150": 55.566,"175": 47.5387,"200": 43.7257,"225": 37.1058,"250": 32.9252,"275": 28.9992,"300": 25.5604,"325": 21.2136,"350": 19.4078,"375": 16.1566,"400": 14.1004,"425": 12.6343,"450": 11.4369,"475": 9.549,"500": 6.8528,"525": 7.1889,"550": 5.2521,"575": 3.7705,"600": 2.7607,"625": 2.3566,"650": 1.4139,"675": 1.6319,"700": 1.1269,"725": 1.1772,"750": 0.8911,"775": 0.6388,"800": 0.1681,"825": 0.0504,"900": 0.0168}}}