{"type":"Feature","properties":{"GID_2":"NZL.3.3_1","GID_0":"NZL","country":"NewZealand","GID_1":"NZL.3_1","province":"Canterbury","NL_NAME_1":"NA","county":"Hurunui","VARNAME_2":"NA","NL_NAME_2":"NA","TYPE_2":"District","ENGTYPE_2":"District","CC_2":"058","HASC_2":"NZ.CA.HN","name":"Hurunui.county"},
"geometry":{"type": "MultiPolygon","coordinates": [[[[173.501,-42.5654,18.3048],[173.4902,-42.5556,58.6347],[173.4866,-42.554,38.8246],[173.4834,-42.5551,74.2896],[173.4804,-42.5505,51.6835],[173.4725,-42.5465,86.5518],[173.4705,-42.5442,80.3436],[173.4735,-42.5409,211.6075],[173.4654,-42.5362,164.6166],[173.4577,-42.5414,134.8612],[173.4589,-42.5425,156.5877],[173.4561,-42.541,184.483],[173.4489,-42.5427,130.466],[173.4466,-42.5387,290.5589],[173.4353,-42.5392,406.8152],[173.4294,-42.5346,532.8191],[173.4161,-42.5302,728.8436],[173.4147,-42.5262,729.3044],[173.4046,-42.528,623.3567],[173.3995,-42.5277,599.4515],[173.3976,-42.5249,608.8225],[173.3875,-42.5249,549.5182],[173.3847,-42.5189,419.5026],[173.3805,-42.5145,343.7008],[173.3815,-42.5094,439.3957],[173.3947,-42.5031,575.5129],[173.3985,-42.5089,525.1016],[173.4084,-42.5095,707.2805],[173.4097,-42.5122,752.6489],[173.4152,-42.5111,776.9559],[173.4277,-42.5148,409.2338],[173.4311,-42.4966,710.7659],[173.4297,-42.4886,731.3311],[173.4329,-42.4861,686.4531],[173.433,-42.4796,735.0676],[173.4353,-42.4778,710.3389],[173.435,-42.4725,702.3398],[173.4408,-42.4701,695.2626],[173.4389,-42.4664,651.0277],[173.4349,-42.4636,607.0929],[173.4339,-42.4545,706.3809],[173.4221,-42.4491,698.4114],[173.4202,-42.4461,633.4938],[173.4205,-42.4428,601.4863],[173.4182,-42.4408,601.7565],[173.4132,-42.4397,539.4115],[173.4096,-42.4354,501.9207],[173.4109,-42.4349,501.9207],[173.4005,-42.4251,509.9913],[173.4118,-42.4193,366.0826],[173.4051,-42.416,283.6773],[173.4029,-42.4111,267.0903],[173.3947,-42.4112,419.5154],[173.3862,-42.4152,422.7399],[173.3828,-42.4082,440.8875],[173.3788,-42.405,449.6766],[173.3854,-42.4015,436.3555],[173.3848,-42.4004,416.3456],[173.387,-42.3982,349.2515],[173.3838,-42.398,370.9113],[173.3732,-42.3844,909.386],[173.3842,-42.3796,880.0834],[173.3805,-42.3758,824.5424],[173.3814,-42.3714,972.8134],[173.373,-42.3695,1022.6748],[173.3681,-42.3627,1047.1362],[173.3724,-42.3552,1089.4901],[173.3736,-42.348,1192.0023],[173.3716,-42.3421,1324.6044],[173.369,-42.3393,1398.0685],[173.3518,-42.3388,1226.1934],[173.334,-42.3462,1152.5315],[173.33,-42.3462,1128.1187],[173.3201,-42.3499,1258.7219],[173.3148,-42.3527,1453.7095],[173.3148,-42.3571,1426.5298],[173.312,-42.3621,1523.4011],[173.3029,-42.3646,1430.521],[173.2976,-42.3703,1538.3438],[173.2823,-42.3672,1343.5919],[173.2777,-42.3643,1253.3718],[173.2766,-42.3606,1265.0952],[173.2679,-42.356,1172.2656],[173.2624,-42.3566,1075.4248],[173.2527,-42.3632,1084.1365],[173.2477,-42.3562,968.7466],[173.2358,-42.3546,1142.9863],[173.2245,-42.3561,1450.7373],[173.2189,-42.3641,1408.0686],[173.2215,-42.3748,1539.991],[173.2204,-42.3804,1471.0488],[173.2091,-42.3831,1298.8704],[173.2049,-42.3887,1393.9409],[173.2058,-42.3914,1366.2073],[173.2033,-42.3976,1387.7533],[173.1901,-42.4104,1359.7021],[173.171,-42.4151,1211.6292],[173.1643,-42.4185,1397.5258],[173.16,-42.4254,1590.8416],[173.1606,-42.4306,1644.2905],[173.1522,-42.4497,1631.1956],[173.1433,-42.4513,1596.8568],[173.1358,-42.4502,1446.4019],[173.1256,-42.4512,1297.8461],[173.1194,-42.4503,1447.1384],[173.1117,-42.4459,1712.213],[173.1062,-42.4477,1661.9766],[173.1003,-42.4584,1529.6262],[173.0958,-42.4608,1450.8408],[173.0761,-42.4609,1319.2109],[173.0768,-42.4679,1290.9795],[173.0692,-42.4807,1138.0039],[173.0556,-42.4877,1068.4502],[173.0495,-42.4877,1033.939],[173.0358,-42.4835,1207.6083],[173.035,-42.4783,1193.6572],[173.0393,-42.4708,1053.9214],[173.0331,-42.4652,914.1442],[173.0333,-42.4581,882.8798],[173.0145,-42.4463,1154.2675],[173.0077,-42.4459,1478.3048],[172.9991,-42.4524,1652.2666],[172.9865,-42.4507,1604.0021],[172.9823,-42.452,1574.761],[172.9695,-42.4487,1675.5535],[172.9749,-42.4437,1633.3494],[172.9758,-42.4397,1588.1309],[172.9747,-42.4371,1547.0613],[172.9764,-42.4335,1543.8149],[172.9836,-42.433,1535.5442],[172.9865,-42.425,1418.8579],[172.9847,-42.4194,1100.3395],[172.9897,-42.4138,1056.0841],[172.9931,-42.4035,858.0649],[173.001,-42.3995,724.772],[173.0029,-42.3933,687.4196],[172.9881,-42.3916,690.5049],[172.9785,-42.3957,691.1245],[172.9745,-42.3953,694.5781],[172.9414,-42.3778,1293.7471],[172.9382,-42.373,1304.4122],[172.9411,-42.3678,1337.8204],[172.9409,-42.3595,1387.6156],[172.9438,-42.3512,1041.7855],[172.925,-42.3505,1449.7244],[172.9196,-42.3458,1251.5078],[172.9182,-42.3296,1286.2385],[172.922,-42.3258,1422.2117],[172.9173,-42.318,1420.4639],[172.9163,-42.3111,1422.7916],[172.9141,-42.3086,1529.0878],[172.9031,-42.3095,1593.0054],[172.899,-42.3111,1662.3955],[172.8959,-42.3146,1666.2855],[172.8894,-42.3099,1679.4316],[172.8736,-42.3139,1691.6284],[172.8695,-42.3177,1643.0088],[172.8553,-42.3103,1691.6641],[172.847,-42.3081,1794.5447],[172.8433,-42.2984,1652.041],[172.8423,-42.2895,1619.0656],[172.8447,-42.2844,1593.0979],[172.8509,-42.2822,1635.3717],[172.8527,-42.2756,1588.5215],[172.857,-42.2733,1613.8914],[172.8592,-42.2699,1683.4161],[172.8615,-42.2659,1743.3275],[172.8609,-42.2572,1945.0709],[172.8635,-42.2562,1953.2563],[172.8535,-42.2528,1782.2546],[172.8266,-42.2482,1918.6669],[172.8252,-42.2415,1732.8345],[172.8261,-42.2382,1764.42],[172.8242,-42.2347,1799.5765],[172.8254,-42.2295,1739.3091],[172.8223,-42.2236,1727.8806],[172.8227,-42.2087,1746.5353],[172.8251,-42.2025,1913.1912],[172.8298,-42.2013,1985.9058],[172.8314,-42.199,1986.9841],[172.8324,-42.1927,1838.9808],[172.8344,-42.1901,1857.3304],[172.8321,-42.1845,1783.6157],[172.821,-42.1827,1653.7537],[172.8149,-42.1852,1554.1575],[172.8104,-42.1893,1583.6592],[172.8069,-42.1895,1644.5488],[172.7958,-42.1796,1448.3713],[172.7948,-42.1714,1393.7002],[172.7991,-42.1647,1440.2375],[172.7938,-42.1617,1627.1835],[172.7857,-42.1625,1581.4329],[172.7814,-42.1675,1643.9727],[172.777,-42.1669,1636.6538],[172.7496,-42.1724,1803.4836],[172.7435,-42.1678,1766.0609],[172.7353,-42.1675,1924.5587],[172.7292,-42.1654,1943.1898],[172.7216,-42.1587,1973.6431],[172.7189,-42.1491,2047.0121],[172.7188,-42.1395,2089.3594],[172.726,-42.1348,2088.4277],[172.7226,-42.1275,1925.3722],[172.7249,-42.1223,1940.6378],[172.7186,-42.1149,1912.8544],[172.7215,-42.1035,2034.3019],[172.7177,-42.1016,1887.6447],[172.7017,-42.1013,1841.2192],[172.6911,-42.1066,1983.1394],[172.6868,-42.1042,1738.7227],[172.683,-42.0901,2033.5656],[172.6779,-42.0879,2016.5275],[172.6713,-42.0913,2083.3176],[172.669,-42.0943,1910.4998],[172.6598,-42.0977,1833.017],[172.6459,-42.1009,1853.0439],[172.6388,-42.1008,1956.601],[172.6351,-42.1032,2073.8745],[172.6328,-42.1078,1946.0098],[172.6317,-42.1219,1916.6935],[172.641,-42.1326,1920.3113],[172.6344,-42.1376,1826.2993],[172.6281,-42.1402,1923.3843],[172.6118,-42.1581,2046.6047],[172.6097,-42.1693,1998.0018],[172.6121,-42.174,2074.9768],[172.6114,-42.1802,2035.6931],[172.6172,-42.1893,2030.7968],[172.6156,-42.1948,2036.5693],[172.6095,-42.1969,1977.6973],[172.6059,-42.2038,2009.0375],[172.5968,-42.208,2086.5234],[172.5888,-42.2154,2064.5054],[172.5835,-42.2168,2168.9736],[172.578,-42.2144,1947.6006],[172.575,-42.2157,1990.2238],[172.5692,-42.215,1933.8585],[172.5594,-42.22,1853.6564],[172.5453,-42.2385,1818.8329],[172.534,-42.2414,1925.5824],[172.5304,-42.2481,1963.6987],[172.5249,-42.2503,2068.3235],[172.5171,-42.2571,2173.0884],[172.5151,-42.2641,2178.0632],[172.5023,-42.2684,2114.6611],[172.4868,-42.2658,2069.7368],[172.4785,-42.2729,1935.1128],[172.48,-42.2814,1849.719],[172.4789,-42.2829,1781.9092],[172.4798,-42.2857,1821.3375],[172.4776,-42.2881,1772.2346],[172.478,-42.2914,1784.7081],[172.4746,-42.2967,1562.4906],[172.4649,-42.3019,1197.3846],[172.4642,-42.3052,1012.526],[172.4617,-42.3075,1029.3346],[172.462,-42.3114,1140.3632],[172.4645,-42.3138,1253.9326],[172.4631,-42.3174,1451.6467],[172.4662,-42.3195,1560.9424],[172.461,-42.3236,1650.1128],[172.4542,-42.3229,1587.0874],[172.4487,-42.3286,1653.8135],[172.4431,-42.3447,1668.3176],[172.4495,-42.3555,1457.4115],[172.4436,-42.3667,1684.6012],[172.438,-42.3701,1718.6226],[172.4292,-42.3721,1698.1926],[172.4168,-42.3838,1422.4355],[172.3932,-42.3779,1061.3933],[172.3687,-42.385,1515.8123],[172.3562,-42.3906,1478.7103],[172.3472,-42.3918,1528.6868],[172.3451,-42.3936,1458.1897],[172.3446,-42.3972,1444.8848],[172.3372,-42.3997,1607.0895],[172.3337,-42.4083,1604.5701],[172.3287,-42.4106,1482.1312],[172.3248,-42.4164,1569.8566],[172.3175,-42.4198,1374.3489],[172.2998,-42.4217,1597.354],[172.3007,-42.4285,1624.4482],[172.296,-42.4339,1596.4465],[172.2933,-42.4404,1635.8342],[172.2788,-42.4499,1548.0636],[172.2728,-42.451,1468.0785],[172.2655,-42.4551,1632.006],[172.2617,-42.452,1572.144],[172.2572,-42.4535,1460.7534],[172.2548,-42.4513,1577.6024],[172.2411,-42.457,1593.8372],[172.2357,-42.4565,1653.0264],[172.2315,-42.4654,1482.8511],[172.2316,-42.473,1695.949],[172.2271,-42.4795,1587.9352],[172.2199,-42.4863,1493.9396],[172.2111,-42.4886,1581.0317],[172.2052,-42.493,1655.5922],[172.1954,-42.4965,1725.9802],[172.1933,-42.4999,1626.923],[172.1867,-42.5041,1505.5574],[172.1809,-42.5135,1431.1417],[172.1805,-42.5201,1011.0787],[172.1828,-42.5265,1429.4049],[172.1783,-42.5355,1597.9613],[172.1558,-42.5531,1613.1194],[172.1499,-42.5549,1629.6744],[172.1441,-42.5523,1620.1067],[172.1404,-42.5544,1596.1683],[172.1329,-42.5553,1605.9067],[172.1283,-42.5616,1647.8147],[172.1245,-42.5634,1653.8596],[172.1085,-42.5805,1565.3884],[172.1071,-42.5859,1669.6798],[172.1031,-42.5879,1610.0262],[172.0985,-42.5934,1570.3146],[172.1027,-42.6061,1271.8373],[172.0977,-42.6103,977.6172],[172.0937,-42.6211,1413.5293],[172.0856,-42.624,1399.6421],[172.0793,-42.6221,1392.338],[172.0756,-42.6227,1385.969],[172.0508,-42.6298,1454.9845],[172.0473,-42.6324,1496.9329],[172.0408,-42.6309,1396.1405],[172.0285,-42.6368,1414.1833],[172.0155,-42.6318,1402.812],[172.0075,-42.6349,1407.9773],[171.9968,-42.6336,1411.5123],[171.9897,-42.6372,1479.713],[171.9744,-42.6391,1520.7571],[171.9754,-42.6454,1567.4286],[171.9723,-42.6535,1648.7721],[171.9586,-42.6536,1537.807],[171.9425,-42.6635,1564.1362],[171.9259,-42.6662,1608.2196],[171.928,-42.669,1481.7964],[171.9278,-42.6715,1399.3945],[171.9228,-42.6774,1375.5195],[171.9156,-42.6817,1459.4348],[171.9157,-42.6881,1424.7303],[171.9135,-42.6905,1427.5273],[171.908,-42.7047,1414.1664],[171.9006,-42.7112,1359.0577],[171.8851,-42.7187,1401.4147],[171.8824,-42.7331,1177.1821],[171.8841,-42.7392,1422.9153],[171.883,-42.7468,1570.3331],[171.8844,-42.7496,1602.0332],[171.9077,-42.7408,1647.7352],[171.9149,-42.7458,1719.6046],[171.9147,-42.7513,1531.5771],[171.92,-42.7566,1605.5879],[171.9325,-42.7636,1502.6562],[171.941,-42.7626,1524.291],[171.9498,-42.7709,1586.5072],[171.9606,-42.7724,1323.9709],[171.966,-42.7757,1209.196],[171.9739,-42.7759,1155.8009],[171.9919,-42.7829,1516.6311],[171.997,-42.781,1550.1597],[172.0009,-42.7819,1679.4729],[172.0037,-42.7908,1776.2761],[172.0126,-42.7867,1638.9308],[172.026,-42.7849,1681.3975],[172.0298,-42.7889,1472.671],[172.0284,-42.7949,1408.8798],[172.0361,-42.7985,1675.1316],[172.037,-42.8056,1826.6926],[172.0466,-42.8077,1807.1372],[172.049,-42.8185,1909.9244],[172.0547,-42.8207,1756.116],[172.0577,-42.8263,1827.891],[172.0619,-42.8293,1901.7295],[172.0715,-42.8295,1932.4683],[172.074,-42.8363,1866.4922],[172.0775,-42.8354,1846.745],[172.0828,-42.8371,1857.9307],[172.085,-42.843,1737.4012],[172.1001,-42.8589,1326.9226],[172.0994,-42.8659,1157.8887],[172.1055,-42.873,1318.4224],[172.1072,-42.8708,1285.7001],[172.1108,-42.8698,1324.2571],[172.1196,-42.8694,1405.2749],[172.1246,-42.8711,1476.6641],[172.1266,-42.875,1569.516],[172.1293,-42.8717,1529.9277],[172.1401,-42.8685,1605.3263],[172.1483,-42.8722,1561.6193],[172.154,-42.8725,1538.4365],[172.1644,-42.8665,1551.1912],[172.169,-42.8656,1520.3682],[172.1723,-42.8682,1501.4716],[172.1768,-42.8681,1491.7578],[172.189,-42.8616,1359.3889],[172.1944,-42.8636,1339.8094],[172.2026,-42.8705,1455.2523],[172.209,-42.8736,1706.7296],[172.2114,-42.8733,1741.6195],[172.216,-42.8692,1762.5625],[172.2311,-42.8683,1743.3523],[172.2392,-42.8638,1833.4954],[172.242,-42.8661,1797.6582],[172.2502,-42.8666,1751.8051],[172.2575,-42.8709,1696.7532],[172.2584,-42.8778,1763.6385],[172.2539,-42.8864,1558.0044],[172.2439,-42.8945,1372.7725],[172.2309,-42.91,1730.9028],[172.2365,-42.914,1649.3579],[172.244,-42.9166,1584.564],[172.2474,-42.9371,1682.5552],[172.2418,-42.9463,1622.7189],[172.2336,-42.9515,1491.8945],[172.2263,-42.9526,1442.8429],[172.2231,-42.9566,1425.0884],[172.219,-42.9568,1316.9312],[172.2157,-42.9598,1259.1798],[172.2128,-42.9647,1159.0399],[172.2149,-42.9672,1273.709],[172.2106,-42.9661,1169.7865],[172.2094,-42.9675,1136.7461],[172.2117,-42.9735,1258.3663],[172.2138,-42.9704,1331.0762],[172.2166,-42.9705,1325.976],[172.2197,-42.9739,1227.3202],[172.2239,-42.9752,1120.3416],[172.2287,-42.9821,1331.4558],[172.2318,-42.9826,1319.8759],[172.2346,-42.9814,1161.8881],[172.2433,-42.9821,1051.3801],[172.2538,-42.9775,1023.8541],[172.2585,-42.9782,887.8926],[172.2611,-42.9766,951.4477],[172.2592,-42.9803,886.7843],[172.26,-42.9823,851.9175],[172.2616,-42.9821,856.5333],[172.2624,-42.9794,943.752],[172.2639,-42.983,814.1077],[172.2666,-42.9813,854.4323],[172.2664,-42.9838,801.7366],[172.2714,-42.9919,997.3935],[172.261,-42.9957,1147.3428],[172.2579,-42.9992,1282.1506],[172.2573,-43.0028,1399.3925],[172.2655,-43.007,1420.4932],[172.267,-43.0172,1139.5275],[172.2698,-43.0197,1042.7811],[172.281,-43.0231,833.9258],[172.2915,-43.0293,594.7128],[172.3114,-43.0276,547.8825],[172.3191,-43.0241,532.9117],[172.323,-43.0201,520.6971],[172.3315,-43.0178,530.5982],[172.3347,-43.0282,498.1033],[172.3291,-43.0341,490.7485],[172.3289,-43.0376,495.3286],[172.3368,-43.0469,472.3877],[172.3486,-43.0514,461.0089],[172.355,-43.0499,464.0967],[172.3616,-43.0435,487.9023],[172.3714,-43.0378,521.0543],[172.3711,-43.0322,575.1562],[172.3733,-43.0316,576.6005],[172.376,-43.025,493.8469],[172.3795,-43.023,484.2368],[172.3913,-43.025,462.7872],[172.4054,-43.0304,446.0158],[172.4132,-43.0415,395.0438],[172.4176,-43.0424,402.6656],[172.4231,-43.0489,381.5497],[172.4205,-43.0502,384.0952],[172.4135,-43.0608,458.5648],[172.4142,-43.0658,506.1874],[172.4123,-43.0698,611.5517],[172.4003,-43.078,814.0901],[172.4007,-43.0822,796.3781],[172.4054,-43.0862,606.0889],[172.4155,-43.1017,778.7952],[172.4145,-43.1101,571.2247],[172.4207,-43.1083,755.487],[172.4211,-43.1129,748.6967],[172.4278,-43.1243,604.0917],[172.4295,-43.126,543.1047],[172.4328,-43.1256,490.5215],[172.4341,-43.1293,560.6628],[172.4315,-43.1309,442.9937],[172.4287,-43.1383,379.6297],[172.4263,-43.1391,352.4859],[172.4242,-43.1494,258.2321],[172.4201,-43.1517,237.0988],[172.4335,-43.1558,230.7751],[172.4384,-43.1595,213.8391],[172.4406,-43.1583,211.8429],[172.4485,-43.1598,215.9139],[172.4528,-43.1508,231.5072],[172.4609,-43.1462,247.6129],[172.4535,-43.142,273.3427],[172.457,-43.1383,323.2478],[172.4682,-43.1384,278.0235],[172.4721,-43.1369,313.9926],[172.477,-43.1318,367.1754],[172.4774,-43.1293,397.4053],[172.4817,-43.1327,348.7545],[172.4753,-43.1383,310.5662],[172.4762,-43.1402,297.741],[172.4836,-43.1398,356.2539],[172.4834,-43.1425,354.5085],[172.4866,-43.1424,339.2166],[172.4919,-43.1465,247.5008],[172.4905,-43.1489,308.0192],[172.4856,-43.1488,374.1498],[172.4791,-43.1511,335.7948],[172.4792,-43.1585,335.6783],[172.4958,-43.159,235.8429],[172.4908,-43.1641,212.4162],[172.4894,-43.1714,192.7176],[172.4989,-43.1699,196.8702],[172.4994,-43.1684,210.6833],[172.5033,-43.1687,209.8304],[172.5046,-43.1667,209.9162],[172.5098,-43.1679,218.1971],[172.5137,-43.1665,232.9393],[172.5147,-43.164,222.0168],[172.5211,-43.1617,227.171],[172.5197,-43.1599,250.2841],[172.5258,-43.1551,244.8642],[172.5285,-43.147,266.13],[172.5379,-43.1482,361.9445],[172.5386,-43.1517,371.7521],[172.5329,-43.1618,374.7473],[172.544,-43.1728,339.8289],[172.5317,-43.1797,238.6646],[172.53,-43.1863,241.2402],[172.5335,-43.1935,193.3805],[172.532,-43.1968,188.1877],[172.5337,-43.2,184.9589],[172.5305,-43.2028,175.3929],[172.5403,-43.2054,263.1687],[172.5387,-43.2086,266.3873],[172.5506,-43.2141,291.8384],[172.5516,-43.219,266.9695],[172.5557,-43.2213,263.2148],[172.5563,-43.2253,251.5873],[172.5527,-43.2268,240.1235],[172.553,-43.2279,240.1235],[172.5596,-43.229,244.8604],[172.5665,-43.2374,181.6622],[172.5678,-43.2431,147.628],[172.5738,-43.2424,179.6833],[172.5777,-43.2443,176.2163],[172.5918,-43.2443,115.7072],[172.5943,-43.2372,112.5267],[172.5919,-43.2338,123.3447],[172.5959,-43.2341,113.5689],[172.5934,-43.2313,147.3687],[172.6031,-43.2218,179.6589],[172.6068,-43.2226,167.4857],[172.6106,-43.217,197.0872],[172.6121,-43.2086,150.8143],[172.6162,-43.2025,186.0373],[172.6177,-43.2029,189.0128],[172.6197,-43.1993,169.4699],[172.6255,-43.1962,169.204],[172.6327,-43.1974,146.668],[172.6378,-43.2008,122.285],[172.65,-43.201,88.4283],[172.6605,-43.2033,74.1766],[172.6612,-43.2009,77.9652],[172.6781,-43.2035,59.2884],[172.6759,-43.2124,52.2324],[172.6774,-43.2143,49.4687],[172.6923,-43.2101,38.7097],[172.6947,-43.2147,31.4206],[172.6936,-43.2187,27.2267],[172.6957,-43.2215,24.8681],[172.7034,-43.2186,27.1943],[172.7097,-43.2274,16.3693],[172.7175,-43.2297,9.1938],[172.7273,-43.2273,4.813],[172.719,-43.2419,4.3819],[172.7373,-43.247,0.0],[172.777,-43.178,0.0],[172.8072,-43.1417,2.9535],[172.817,-43.1332,5.9209],[172.8365,-43.1334,25.0737],[172.84,-43.1312,46.5278],[172.8447,-43.1318,12.2737],[172.8534,-43.1252,19.147],[172.8544,-43.1228,59.3023],[172.8582,-43.1218,0.0],[172.8679,-43.112,30.5577],[172.888,-43.0981,22.8381],[172.8925,-43.0974,24.9405],[172.9007,-43.0992,30.1777],[172.9077,-43.0968,4.4062],[172.9127,-43.0971,10.2992],[172.9198,-43.0936,8.3404],[172.9287,-43.0921,8.7864],[172.9391,-43.0861,56.3405],[172.9591,-43.0839,8.1438],[172.9694,-43.0787,8.2999],[172.9943,-43.0723,20.9669],[173.0113,-43.0603,27.7031],[173.044,-43.0466,12.2525],[173.0568,-43.0454,8.4318],[173.0631,-43.0487,4.2747],[173.0806,-43.0507,13.3746],[173.085,-43.048,0.0],[173.0847,-43.0437,1.4361],[173.1025,-43.0238,19.1684],[173.1343,-42.994,31.9339],[173.1452,-42.9859,47.7788],[173.1534,-42.9842,59.0797],[173.168,-42.9777,49.9527],[173.179,-42.9784,0.0],[173.1963,-42.9744,25.9951],[173.2063,-42.9692,35.9509],[173.2209,-42.9644,40.6088],[173.2442,-42.9511,57.0979],[173.245,-42.9497,14.8833],[173.2437,-42.9493,52.4328],[173.2534,-42.9422,0.7737],[173.256,-42.9376,40.1754],[173.2722,-42.923,0.5518],[173.2847,-42.909,7.6859],[173.2923,-42.9021,24.6958],[173.3004,-42.8976,36.4388],[173.3036,-42.8913,1.7891],[173.3188,-42.8842,0.0],[173.3188,-42.8803,0.0],[173.3145,-42.8794,0.0],[173.3098,-42.874,60.6343],[173.3109,-42.871,0.0],[173.3083,-42.8672,9.3596],[173.3132,-42.8521,1.2528],[173.3207,-42.8417,0.0],[173.3275,-42.8363,3.1101],[173.3328,-42.8294,43.2345],[173.348,-42.8188,0.4109],[173.3543,-42.8096,31.1086],[173.3593,-42.8065,3.7601],[173.3613,-42.802,45.2094],[173.3684,-42.7988,5.2233],[173.3708,-42.7928,5.3544],[173.3698,-42.7914,68.4748],[173.3733,-42.7859,1.2539],[173.3715,-42.7818,34.7198],[173.3759,-42.7729,9.0119],[173.391,-42.7545,0.0],[173.397,-42.7413,0.0],[173.4634,-42.621,3.115],[173.4702,-42.6143,0.0],[173.4794,-42.5927,0.0],[173.4785,-42.5918,7.0795],[173.4856,-42.5821,3.2554],[173.4898,-42.5799,0.0],[173.4956,-42.57,0.0],[173.501,-42.5654,18.3048]]]]}}