{"type": "Feature","bbox": [170.5973,-44.1894,172.1949,-43.0957],"geometry": {"type": "MultiPolygon","coordinates": [[[[172.1949,-43.9037,3.9897],[172.1885,-43.896,17.8286],[172.1881,-43.8932,19.051],[172.1818,-43.8893,20.0742],[172.1788,-43.8838,15.3548],[172.1746,-43.8811,19.8225],[172.1725,-43.8762,16.7802],[172.1492,-43.8641,35.3714],[172.1448,-43.8571,30.7082],[172.1458,-43.8549,31.7262],[172.143,-43.8496,35.2776],[172.1359,-43.847,38.6768],[172.1235,-43.834,43.625],[172.1213,-43.8352,46.9754],[172.1178,-43.8337,55.9031],[172.1136,-43.8301,52.0752],[172.1127,-43.8271,52.8695],[172.1046,-43.8228,58.9488],[172.1021,-43.8136,60.2761],[172.0986,-43.8122,63.3213],[172.097,-43.8088,65.2022],[172.0943,-43.8075,66.0546],[172.0929,-43.8033,66.8806],[172.0867,-43.7974,69.8419],[172.0838,-43.7981,72.5184],[172.0749,-43.7851,81.1291],[172.0674,-43.7796,84.3898],[172.0669,-43.7762,85.3099],[172.0622,-43.7741,92.0838],[172.0641,-43.7724,87.927],[172.0572,-43.768,92.034],[172.0523,-43.7622,92.3593],[172.053,-43.7608,93.9622],[172.0515,-43.7587,93.8172],[172.0455,-43.7565,98.3257],[172.0397,-43.751,99.0176],[172.0307,-43.7494,107.2579],[172.0371,-43.743899999999996,103.3853],[171.9538,-43.7072,137.8032],[171.9251,-43.6961,147.625],[171.8962,-43.6822,159.7968],[171.8713,-43.6677,171.1988],[171.8401,-43.6451,186.0449],[171.8075,-43.6184,202.8883],[171.7926,-43.604,213.4232],[171.7395,-43.5657,236.3362],[171.7143,-43.5435,249.3083],[171.7083,-43.5415,250.9118],[171.6855,-43.5422,259.1878],[171.6636,-43.5296,266.5],[171.6598,-43.5261,271.5522],[171.6555,-43.5174,275.5621],[171.6403,-43.5135,276.0],[171.6431,-43.5079,281.1042],[171.6317,-43.5046,297.4955],[171.6322,-43.4998,286.0789],[171.6244,-43.4948,362.4233],[171.6251,-43.4919,286.875],[171.6221,-43.4886,288.5245],[171.6221,-43.484,291.3334],[171.6068,-43.4792,296.682],[171.6087,-43.4763,298.0218],[171.623,-43.4699,297.375],[171.6244,-43.4675,301.0795],[171.6233,-43.4643,301.5843],[171.6118,-43.4535,306.8929],[171.5989,-43.4345,315.9761],[171.5862,-43.4266,322.1623],[171.5843,-43.4239,322.9961],[171.5843,-43.4178,325.8864],[171.5826,-43.4149,326.6249],[171.5737,-43.4093,330.1771],[171.5649,-43.3962,335.0],[171.5563,-43.3926,339.2725],[171.5405,-43.3897,342.5],[171.5269,-43.3811,348.125],[171.5159,-43.3678,358.4117],[171.5052,-43.3607,364.3347],[171.4722,-43.3527,377.1558],[171.427,-43.3352,395.3881],[171.4101,-43.3194,402.4238],[171.372,-43.2924,429.9562],[171.3621,-43.2833,438.1373],[171.3528,-43.2781,444.7963],[171.3382,-43.2749,452.726],[171.3041,-43.2795,467.8597],[171.2712,-43.2737,497.1134],[171.2444,-43.2628,518.3248],[171.237,-43.2574,528.556],[171.1837,-43.2289,588.6686],[171.1638,-43.2236,605.9291],[171.1581,-43.2205,611.7764],[171.156,-43.2174,616.4257],[171.1544,-43.2087,626.2525],[171.1444,-43.1987,643.0811],[171.137,-43.1834,667.0315],[171.1418,-43.1561,727.3359],[171.15,-43.1432,753.0114],[171.1505,-43.1247,803.8262],[171.1524,-43.1138,833.6471],[171.151,-43.1115,868.5188],[171.1516,-43.1081,915.7518],[171.1539,-43.1062,865.1458],[171.1402,-43.1056,1011.7865],[171.1226,-43.0992,1217.1444],[171.1185,-43.0957,1383.6169],[171.1135,-43.0957,1453.5094],[171.1154,-43.0996,1530.1868],[171.1082,-43.1104,1915.353],[171.1054,-43.1121,2022.7795],[171.1002,-43.109,1852.2761],[171.1,-43.1068,1854.6249],[171.0967,-43.1058,1927.1115],[171.0952,-43.1008,2050.3159],[171.0847,-43.1011,1821.6455],[171.0793,-43.1023,1947.1351],[171.0766,-43.1119,1491.9968],[171.0676,-43.1125,1772.1094],[171.0636,-43.1146,1852.1935],[171.0629,-43.1185,1738.585],[171.069,-43.1256,2011.7498],[171.0676,-43.1283,1908.1577],[171.0567,-43.1317,1879.6826],[171.0415,-43.1397,2043.8442],[171.0374,-43.1459,1981.3403],[171.0379,-43.1514,2033.7843],[171.0444,-43.1583,2065.3528],[171.0471,-43.1592,2156.8892],[171.0473,-43.1636,2206.5034],[171.02,-43.1745,2012.9574],[171.0169,-43.1836,2144.9829],[171.0134,-43.186,2089.1133],[171.0137,-43.1916,1914.1809],[171.0042,-43.1953,1880.1881],[170.9933,-43.2112,1889.3809],[170.9917,-43.2176,2002.5143],[170.9877,-43.2179,1967.9852],[170.9798,-43.2226,1670.5869],[170.9713,-43.2222,1249.3057],[170.9646,-43.2251,1410.131],[170.9485,-43.2273,2427.6924],[170.9443,-43.2214,2077.1086],[170.9479,-43.2118,2063.7363],[170.9482,-43.206,2229.3054],[170.9372,-43.2041,2141.2227],[170.9287,-43.2065,2242.5679],[170.9214,-43.2132,2367.3411],[170.913,-43.216,2467.575],[170.9122,-43.2217,2535.5591],[170.9068,-43.2287,2362.2905],[170.8968,-43.233,2197.7676],[170.8936,-43.2353,2167.0376],[170.8921,-43.239,2025.5881],[170.8872,-43.2416,1956.2059],[170.8731,-43.2458,1980.9204],[170.8758,-43.2525,1831.9314],[170.8678,-43.2589,2167.7151],[170.8652,-43.2648,2226.1104],[170.8689,-43.2673,2140.5952],[170.8707,-43.2725,2272.8923],[170.8643,-43.2764,2199.6309],[170.8605,-43.2813,2300.292],[170.8312,-43.2831,2173.8113],[170.8228,-43.2895,2203.0359],[170.824,-43.2942,2190.1426],[170.8199,-43.2997,2376.5732],[170.8119,-43.3011,2206.2283],[170.8057,-43.3045,2271.2012],[170.7991,-43.3003,2159.2537],[170.7928,-43.2991,2138.395],[170.7883,-43.3031,1884.0581],[170.7825,-43.3042,2041.4438],[170.7816,-43.3065,1835.8481],[170.7769,-43.3074,1864.8372],[170.7688,-43.3129,1932.9465],[170.7645,-43.3132,1925.9764],[170.7618,-43.3178,1974.2867],[170.7598,-43.3183,1969.6561],[170.7519,-43.3187,2196.9878],[170.7313,-43.3152,2418.4434],[170.7246,-43.3184,2355.6521],[170.7168,-43.3165,2463.9863],[170.7053,-43.3188,2330.8726],[170.7103,-43.3266,2103.6663],[170.7168,-43.3328,2197.8987],[170.7147,-43.3386,2000.4652],[170.7161,-43.3432,2012.0259],[170.7124,-43.345,2045.9901],[170.6774,-43.3476,2138.1294],[170.6707,-43.3507,2238.2461],[170.6683,-43.3563,1955.5142],[170.6465,-43.3695,2209.3887],[170.646,-43.374,2111.6191],[170.6576,-43.3774,2014.049],[170.6566,-43.3869,2275.5703],[170.6517,-43.3887,2030.9694],[170.6482,-43.3923,2048.1042],[170.64,-43.3931,1940.3558],[170.633,-43.3968,1985.7686],[170.635,-43.4014,2021.2101],[170.6158,-43.4175,1970.5698],[170.6136,-43.4239,2029.0525],[170.6171,-43.4298,2312.0869],[170.6154,-43.4318,2390.9382],[170.6148,-43.4423,2202.9849],[170.6033,-43.4506,2237.0527],[170.6013,-43.4585,2218.0806],[170.5973,-43.4641,2327.8745],[170.6016,-43.4667,2051.998],[170.6136,-43.4649,1767.8137],[170.6125,-43.4557,1447.5088],[170.6142,-43.4546,1462.9287],[170.6211,-43.4554,1231.1191],[170.6303,-43.462,1128.5173],[170.6422,-43.4643,994.2223],[170.6719,-43.4566,878.8848],[170.6823,-43.452,822.3164],[170.6916,-43.4522,797.0946],[170.7045,-43.461,757.7081],[170.7075,-43.4692,739.6818],[170.7173,-43.4787,717.1663],[170.7393,-43.4909,684.9547],[170.7545,-43.5068,655.3162],[170.7632,-43.5123,643.4537],[170.7743,-43.5163,630.1407],[170.8003,-43.5181,605.4941],[170.8246,-43.5257,578.0668],[170.854,-43.5319,563.8513],[170.8813,-43.5584,524.7816],[170.9006,-43.5825,498.845],[170.9127,-43.6008,484.2299],[170.9242,-43.614,473.5],[170.9248,-43.6159,472.75],[170.9223,-43.6204,472.8552],[170.9232,-43.6227,471.7979],[170.9286,-43.6273,467.9985],[170.9427,-43.6342,462.7856],[170.9648,-43.6656,445.5074],[170.9728,-43.6716,442.445],[170.9943,-43.6815,437.0],[171.0278,-43.7001,430.0915],[171.0653,-43.7034,422.7784],[171.0846,-43.7108,418.7668],[171.1026,-43.7131,416.2041],[171.1187,-43.7262,412.5802],[171.1329,-43.7306,410.9178],[171.1448,-43.7377,408.5],[171.1516,-43.7389,408.7688],[171.1746,-43.7332,402.375],[171.1812,-43.7329,419.562],[171.1823,-43.734,401.6565],[171.1815,-43.7383,405.5763],[171.1916,-43.7446,395.7446],[171.1933,-43.7483,402.2831],[171.2019,-43.7487,396.8453],[171.2055,-43.7505,420.1205],[171.2126,-43.7547,398.1097],[171.2218,-43.7639,377.9919],[171.2334,-43.7642,385.7979],[171.2375,-43.7662,362.2595],[171.2396,-43.7712,360.3906],[171.2377,-43.7773,378.2251],[171.2452,-43.7796,353.1414],[171.248,-43.7829,350.4912],[171.2492,-43.7897,344.5233],[171.2546,-43.7922,339.0395],[171.2495,-43.7985,331.3354],[171.2501,-43.8023,332.1094],[171.2611,-43.8058,323.0353],[171.2592,-43.8121,321.1537],[171.2637,-43.8161,314.7036],[171.2592,-43.8241,309.7938],[171.2607,-43.8295,305.3224],[171.2577,-43.8353,299.0901],[171.2619,-43.8391,298.4166],[171.2585,-43.8513,289.1224],[171.2648,-43.8624,278.2081],[171.2632,-43.8715,274.2299],[171.2735,-43.892,250.5406],[171.2724,-43.9014,242.4527],[171.275,-43.9119,233.7732],[171.2886,-43.9408,215.1989],[171.2958,-43.952,201.6699],[171.3001,-43.9703,186.6283],[171.3093,-43.9862,175.2229],[171.3208,-44.0003,162.981],[171.3393,-44.0145,148.3023],[171.3769,-44.0367,118.4156],[171.3905,-44.047,107.3835],[171.4062,-44.051,100.9631],[171.4155,-44.0559,95.0829],[171.4451,-44.0831,72.5624],[171.4585,-44.0881,65.9103],[171.4709,-44.095,58.9202],[171.4758,-44.0995,56.1043],[171.4845,-44.1116,47.2364],[171.4869,-44.1176,43.7679],[171.4929,-44.1391,30.0291],[171.4977,-44.1721,10.1078],[171.5068,-44.1894,1.0168],[171.5197,-44.1805,6.6402],[171.5377,-44.1727,5.4661],[171.5775,-44.1507,3.163],[171.6401,-44.1199,1.2595],[171.7903,-44.06,0.0],[171.8083,-44.0511,7.9304],[171.8241,-44.0455,4.2837],[172.0077,-43.9666,4.184],[172.1317,-43.9217,1.9692],[172.1949,-43.9037,3.9897]]]]}
,"properties": {"GID_2": "NZL.3.1_1","GID_0": "NZL","country": "NewZealand","GID_1": "NZL.3_1","province": "Canterbury","NL_NAME_1": "NA","county": "Ashburton","VARNAME_2": "NA","NL_NAME_2": "NA","TYPE_2": "District","ENGTYPE_2": "District","CC_2": "063","HASC_2": "NZ.CA.AB","name": "Ashburton.county","area_km2": 6180.224,"hist_schema_id": "Elevation0-9000","hist_area_km2": {"0": 28.278,"25": 285.911,"50": 293.755,"75": 274.163,"100": 257.99,"125": 239.983,"150": 224.264,"175": 211.849,"200": 197.654,"225": 175.718,"250": 159.12,"275": 138.014,"300": 128.396,"325": 124.332,"350": 109.265,"375": 89.233,"400": 82.601,"425": 80.761,"450": 77.331,"475": 69.411,"500": 61.258,"525": 49.084,"550": 43.82,"575": 45.091,"600": 47.504,"625": 56.606,"650": 78.853,"675": 93.174,"700": 108.13,"725": 73.656,"750": 65.355,"775": 61.33,"800": 55.612,"825": 53.127,"850": 52.052,"875": 52.576,"900": 51.933,"925": 51.92,"950": 50.646,"975": 50.724,"1000": 52.332,"1025": 51.394,"1050": 49.506,"1075": 50.018,"1100": 51.467,"1125": 50.393,"1150": 51.506,"1175": 50.556,"1200": 49.851,"1225": 49.855,"1250": 49.931,"1275": 48.765,"1300": 47.953,"1325": 47.339,"1350": 44.522,"1375": 45.421,"1400": 45.084,"1425": 43.422,"1450": 43.178,"1475": 42.333,"1500": 42.612,"1525": 40.547,"1550": 41.272,"1575": 39.441,"1600": 39.011,"1625": 38.167,"1650": 37.045,"1675": 38.127,"1700": 35.845,"1725": 34.908,"1750": 34.322,"1775": 32.582,"1800": 31.948,"1825": 28.853,"1850": 27.25,"1875": 25.863,"1900": 24.336,"1925": 22.025,"1950": 20.575,"1975": 18.773,"2000": 16.522,"2025": 14.642,"2050": 12.375,"2075": 11.019,"2100": 9.309,"2125": 8.446,"2150": 6.704,"2175": 5.842,"2200": 4.794,"2225": 3.777,"2250": 3.469,"2275": 2.76,"2300": 2.483,"2325": 1.681,"2350": 1.635,"2375": 1.249,"2400": 1.095,"2425": 0.679,"2450": 0.771,"2475": 0.524,"2500": 0.324,"2525": 0.278,"2550": 0.262,"2575": 0.216,"2600": 0.17,"2625": 0.185,"2650": 0.062,"2675": 0.077}}}