{"type": "Feature","bbox": [172.67383873789652,-41.619195245318394,178.56605065195902,-34.396538995318394],"geometry": {"type": "Polygon","coordinates": [[[175.54322350352129,-37.185967706255781,0.6345],[175.54004967539618,-37.192681573443451,0.8442],[175.5321151050839,-37.199273370318394,1.1986],[175.4934188160214,-37.214288018755838,0.7206],[175.4477645191464,-37.223687432818394,0.8124],[175.4033309253964,-37.222588800005838,1.7118],[175.3670760425839,-37.205987237505838,0.0],[175.35157311289652,-37.190972589068394,0.0],[175.3361922535214,-37.172051690630951,0.0],[175.3245955738339,-37.150445245318394,0.0],[175.31995690195879,-37.127496026568338,0.0],[175.33253014414618,-37.057793878130838,0.0],[175.3335067066464,-37.034722589068451,0.0],[175.33082115977118,-37.020074151568394,0.0],[175.3259383472714,-37.008233331255951,0.0],[175.3188582691464,-36.998345635943394,0.0],[175.2834578785214,-36.963067315630894,0.0],[175.2751570972714,-36.959038995318394,0.0],[175.2622176441464,-36.955621026568394,0.0],[175.2407332691464,-36.941094659380951,0.0],[175.23047936289652,-36.937920831255838,0.0],[175.2215682300839,-36.939629815630838,0.0],[175.1888533863339,-36.952203057818394,96.5562],[175.1838485035214,-36.950738214068451,89.5304],[175.1784774097714,-36.946831964068394,9.4302],[175.1723738941464,-36.944634698443451,0.8113],[175.14881432383402,-36.957818292193394,119.7596],[175.13221276133402,-36.962334893755838,27.0797],[175.12098229258402,-36.968560479693451,86.5846],[175.1086531910214,-36.972710870318394,34.0712],[175.09327233164629,-36.969292901568338,10.363],[175.08033287852152,-36.951958917193451,1.1533],[175.0916854175839,-36.906304620318394,0.0],[175.07960045664652,-36.883355401568338,0.0],[175.05860436289652,-36.876397393755838,0.0],[175.0268660816464,-36.873345635943338,0.0],[175.00342858164629,-36.878106378130894,17.8244],[175.00733483164618,-36.894830010943451,36.0138],[175.02369225352152,-36.919122003130838,61.3574],[175.01111901133402,-36.926568292193338,61.9151],[174.9856063160214,-36.927544854693451,21.6363],[174.96290123789629,-36.932305596880951,13.8608],[174.96461022227118,-36.906182550005951,0.0],[174.9569197925839,-36.883355401568338,0.0],[174.9350692066464,-36.836114190630894,0.0],[174.9282332691464,-36.836114190630894,0.0],[174.90088951914652,-36.945367120318451,32.348],[174.8912459644589,-36.956597589068338,14.9308],[174.8845320972714,-36.957818292193394,13.339],[174.87916100352118,-36.950860284380894,9.3976],[174.8736678394589,-36.937920831255838,17.4541],[174.86902916758402,-36.918755792193451,9.2911],[174.87415612070902,-36.909966729693338,19.6946],[174.88404381602129,-36.903497003130951,29.3322],[174.8940535816464,-36.891412042193451,5.8458],[174.8973494800839,-36.861260675005951,0.0],[174.87549889414652,-36.849786065630838,50.0159],[174.81275475352152,-36.849786065630838,0.0],[174.76636803477129,-36.841485284380894,2.4334],[174.75074303477152,-36.843560479693394,7.2045],[174.7380477222714,-36.849175714068394,24.234],[174.72730553477152,-36.856744073443394,22.4847],[174.7180281910214,-36.866387628130838,14.2079],[174.7097274097714,-36.877740167193338,29.2724],[174.70289147227152,-36.870293878130838,10.459],[174.7010604175839,-36.880669854693394,29.4869],[174.7017928394589,-36.894585870318394,40.2221],[174.7005721363339,-36.906670831255951,27.7526],[174.69239342539652,-36.911797784380951,15.7768],[174.67994225352129,-36.906182550005951,6.1787],[174.6756697925839,-36.892632745318451,3.2932],[174.67444908945902,-36.850030206255951,0.0],[174.67505944102152,-36.844292901568281,0.0],[174.67042076914629,-36.840508721880894,0.0],[174.6545516285214,-36.832696221880894,16.2449],[174.64930260508402,-36.824883721880894,13.6077],[174.6589461597714,-36.816827081255781,0.0],[174.6732283863339,-36.809258721880838,0.0],[174.6823836597714,-36.801934503130951,0.0],[174.6648055347714,-36.798394464068338,12.8551],[174.62964928477152,-36.802788995318451,17.5335],[174.6209822925839,-36.801934503130951,47.8242],[174.6209822925839,-36.795220635943394,29.5786],[174.6377059253964,-36.780450128130894,19.8616],[174.65333092539618,-36.771783135943338,0.0],[174.68897545664652,-36.757256768755894,67.159],[174.70350182383379,-36.757256768755894,72.733],[174.7176619800839,-36.784844659380838,42.6454],[174.7369490894589,-36.788384698443338,58.1434],[174.73243248789652,-36.796929620318394,31.6278],[174.73170006602152,-36.804375909380894,67.3633],[174.73548424570902,-36.810601495318338,51.1642],[174.74390709727152,-36.815606378130894,23.8275],[174.77003014414652,-36.804131768755951,1.5748],[174.78431237070902,-36.808038018755951,14.581],[174.79725182383379,-36.817437432818394,2.9293],[174.8189803394589,-36.822442315630951,0.0],[174.7590438160214,-36.672173760943394,0.0],[174.74390709727152,-36.647393487505894,0.0],[174.7233992847714,-36.630059503130838,43.9206],[174.76526940195902,-36.643121026568394,0.0],[174.78150475352118,-36.644341729693394,0.0],[174.80604088633379,-36.636895440630894,0.0],[174.85218346445879,-36.615166925005894,0.0],[174.85682213633402,-36.609795831255951,0.0],[174.8462020191464,-36.602715753130951,0.0],[174.8342391285214,-36.602959893755894,86.5173],[174.79175865977152,-36.616387628130894,3.4724],[174.76429283945902,-36.614922784380951,0.0],[174.7502547535214,-36.611626885943394,0.0],[174.74048912852118,-36.606133721880838,0.0],[174.7275496753964,-36.595269464068451,0.0],[174.72266686289629,-36.592461846880894,0.0],[174.7233992847714,-36.572076104693338,0.0],[174.72046959727118,-36.558526300005894,0.0],[174.7094832691464,-36.540826104693451,48.9711],[174.7097274097714,-36.527642510943338,0.0],[174.7155867847714,-36.520806573443281,10.5023],[174.7365828785214,-36.510064385943394,0.0],[174.74390709727152,-36.499688409380894,0.0],[174.73621666758379,-36.492364190630838,0.0],[174.7280379566464,-36.486626885943338,5.9012],[174.7193709644589,-36.482476495318451,0.0],[174.7097274097714,-36.479790948443451,6.8736],[174.7097274097714,-36.472344659380951,1.0838],[174.73243248789652,-36.471368096880838,28.2657],[174.73475182383402,-36.454400323443338,33.3793],[174.71656334727129,-36.410332940630838,39.5923],[174.7424422535214,-36.418755792193451,0.0],[174.75843346445879,-36.438653253130894,20.8657],[174.7786971363339,-36.486016534380894,0.0],[174.78284752695879,-36.470025323443394,0.0],[174.7851668628964,-36.452080987505894,0.0],[174.78321373789618,-36.434991143755951,0.0],[174.7671004566464,-36.408379815630951,0.0],[174.75318444102129,-36.367120050005894,54.7191],[174.75074303477152,-36.353204034380894,8.3326],[174.76758873789629,-36.350884698443394,0.0],[174.8502303394589,-36.354302667193451,0.0],[174.88050377695879,-36.350152276568394,0.0],[174.85645592539618,-36.344048760943394,0.0],[174.8285018238339,-36.340997003130894,0.0],[174.80628502695902,-36.333794854693451,0.0],[174.79847252695868,-36.315362237505838,0.0],[174.80054772227152,-36.304497979693451,0.2682],[174.80359948008402,-36.303399346880894,0.0],[174.8073836597714,-36.304986260943451,0.0],[174.81275475352152,-36.301690362505894,0.0],[174.8132430347714,-36.303399346880894,0.0],[174.81544030039652,-36.305596612505894,0.0],[174.81885826914652,-36.306817315630951,0.0],[174.8223983082089,-36.305108331255894,0.0],[174.82496178477152,-36.300591729693451,0.0],[174.82288658945868,-36.298882745318451,0.0],[174.8195906910214,-36.297662042193451,0.0],[174.8189803394589,-36.294854425005838,0.0],[174.82496178477152,-36.281426690630951,0.0],[174.82422936289618,-36.275811456255951,0.0],[174.79847252695868,-36.267022393755951,0.0],[174.75684655039652,-36.243829034380838,0.0],[174.7247420582089,-36.214288018755951,0.0],[174.6688338550839,-36.144097589068451,0.0],[174.65137780039652,-36.127984307818451,0.0],[174.6364852222714,-36.118340753130951,0.0],[174.62586510508368,-36.106255792193451,0.0],[174.6209822925839,-36.082574151568451,0.0],[174.62391198008402,-36.071709893755951,0.0],[174.62940514414629,-36.063164971880894,0.0],[174.63074791758379,-36.053887628130781,0.0],[174.6209822925839,-36.041070245318338,0.0],[174.6101180347714,-36.035943292193451,0.0],[174.5847274097714,-36.035943292193451,0.0],[174.5725203785214,-36.034234307818451,0.0],[174.5538436207089,-36.025933526568451,0.0],[174.50904381602129,-35.998833917193338,0.0],[174.49683678477129,-35.986382745318451,0.0],[174.49512780039629,-35.968194268755894,0.0],[174.49647057383379,-35.942559503130838,0.0],[174.4928084644589,-35.918145440630838,0.0],[174.47632897227118,-35.903863214068451,0.0],[174.49878990977152,-35.885918878130838,0.0],[174.5158797535214,-35.866021417193451,0.0],[174.5200301441464,-35.846246026568338,0.0],[174.5036727222714,-35.828789971880838,50.9725],[174.4819442066464,-35.822564385943394,0.0],[174.41578209727129,-35.815606378130894,0.0],[174.39747155039629,-35.818169854693394,1.1587],[174.38990319102152,-35.829278253130951,37.1537],[174.38379967539652,-35.842217706255894,24.4959],[174.3751326832089,-35.850640557818451,13.813],[174.3596297535214,-35.848565362505951,37.7491],[174.35254967539629,-35.840752862505951,8.772],[174.34986412852118,-35.828545831255951,0.4571],[174.3510848316464,-35.815362237505951,0.0],[174.3562117847714,-35.805108331255894,0.1281],[174.3598738941464,-35.788262628130838,0.0],[174.3551131519589,-35.734063409380894,47.2597],[174.3596297535214,-35.712090753130781,46.6382],[174.37086022227129,-35.722710870318394,75.0419],[174.37867272227118,-35.733575128130894,50.9906],[174.38379967539652,-35.745782159380894,102.6635],[174.38697350352129,-35.759942315630838,24.2802],[174.38648522227118,-35.778130792193394,0.0],[174.3831893238339,-35.786309503130894,0.0],[174.3842879566464,-35.787286065630894,0.0],[174.38477623789618,-35.787774346880838,0.0],[174.38526451914629,-35.788262628130838,0.0],[174.4012557300839,-35.787774346880838,0.0],[174.4057723316464,-35.784478448443451,0.0],[174.4111434253964,-35.770440362505951,86.7132],[174.4179793628964,-35.767266534380894,106.1488],[174.4243270191464,-35.769463800005838,89.4643],[174.4345809253964,-35.778741143755951,2.3513],[174.44153893320879,-35.780328057818394,0.0],[174.45606530039652,-35.777154229693394,0.0],[174.48182213633402,-35.768365167193451,37.6892],[174.49683678477129,-35.767266534380894,37.4086],[174.4956160816464,-35.783501885943451,37.0319],[174.52430260508379,-35.790215753130894,32.1664],[174.51734459727129,-35.808892510943451,351.0291],[174.53980553477152,-35.821221612505894,12.56],[174.55872643320868,-35.837823175005894,15.802],[174.57911217539652,-35.848321221880894,245.2431],[174.60670006602129,-35.842461846880951,0.0],[174.5827742847714,-35.805108331255894,0.0],[174.58045494883402,-35.796197198443451,0.0],[174.5871688160214,-35.772149346880838,0.0],[174.58619225352118,-35.759942315630838,0.0],[174.57606041758402,-35.749078057818451,0.0],[174.51734459727129,-35.719537042193451,0.0],[174.5280867847714,-35.717095635943394,0.0],[174.53919518320879,-35.712701104693394,8.87],[174.5479842457089,-35.705621026568451,0.0],[174.5515242847714,-35.695245050005894,0.0],[174.5471297535214,-35.686700128130838,0.0],[174.53675377695902,-35.682915948443451,0.0],[174.51099694102152,-35.677911065630838,0.0],[174.52564537852129,-35.671685479693394,0.0],[174.5308944019589,-35.670464776568394,0.0],[174.49293053477129,-35.653497003130838,27.9912],[174.47632897227118,-35.642022393755894,0.0],[174.48682701914629,-35.636895440630894,2.2942],[174.50489342539652,-35.637505792193451,3.1317],[174.5498153003964,-35.643609307818451,0.0],[174.5650740894589,-35.650689385943451,0.0],[174.5782576832089,-35.616753839068394,0.0],[174.5693465503964,-35.593072198443281,0.0],[174.5210067066464,-35.551324151568394,0.0],[174.4687606128964,-35.516534112505894,0.0],[174.46412194102118,-35.504449151568338,29.3899],[174.5036727222714,-35.499810479693451,0.0],[174.49805748789652,-35.487725518755894,0.0],[174.47461998789629,-35.452569268755838,0.0],[174.4660750660214,-35.445122979693338,0.0],[174.46412194102118,-35.443902276568451,0.0],[174.46351158945902,-35.443413995318338,0.0],[174.4599715503964,-35.434991143755894,0.0],[174.4588729175839,-35.434136651568394,0.0],[174.4569197925839,-35.432305596880894,0.0],[174.4558211597714,-35.431573175005894,0.0],[174.45191490977118,-35.431329034380781,0.0],[174.4511824878964,-35.431817315630951,0.0],[174.44996178477152,-35.432915948443338,0.0],[174.44922936289652,-35.433404229693338,0.0],[174.4491072925839,-35.434136651568394,0.0],[174.44861901133402,-35.435479425005894,0.0],[174.4483748707089,-35.436211846880894,0.0],[174.44861901133402,-35.436578057818451,0.0],[174.44886315195868,-35.437310479693338,0.0],[174.4491072925839,-35.437676690630894,0.0],[174.42859948008402,-35.433404229693338,6.3886],[174.40796959727129,-35.431573175005894,0.0],[174.3856307300839,-35.417290948443451,0.0],[174.34888756602152,-35.350030206255894,0.0],[174.3324080738339,-35.327813409380894,43.8439],[174.3419295582089,-35.335870050005951,36.1671],[174.37330162852152,-35.355767510943338,136.5726],[174.40137780039629,-35.380059503130894,0.0],[174.40748131602129,-35.383111260943394,0.0],[174.4222518238339,-35.372613214068394,0.0],[174.39161217539652,-35.341973565630951,0.0],[174.4012557300839,-35.327813409380894,0.0],[174.4012557300839,-35.321709893755894,0.0],[174.37867272227118,-35.322808526568451,0.0],[174.3569442066464,-35.320733331255894,0.0],[174.34009850352152,-35.310723565630894,0.0],[174.3324080738339,-35.286919854693338,0.0],[174.3386336597714,-35.263482354693281,0.0],[174.3520613941464,-35.243218682818394,0.0],[174.36072838633402,-35.222832940630838,0.0],[174.3527938160214,-35.198174737505894,0.0],[174.32203209727129,-35.218926690630951,0.0],[174.2948104175839,-35.243096612505894,142.4442],[174.28956139414652,-35.252862237505838,74.858],[174.2898055347714,-35.257622979693394,89.7548],[174.28821862070902,-35.261040948443394,33.0841],[174.27711022227129,-35.266412042193338,44.8926],[174.27711022227129,-35.265679620318451,54.1075],[174.27698815195902,-35.264092706255894,67.1585],[174.27698815195902,-35.263360284380838,67.1585],[174.26685631602152,-35.260430596880781,28.2873],[174.2534285816464,-35.258721612505951,0.0],[174.2429305347714,-35.259576104693451,37.0641],[174.24549401133402,-35.263360284380838,45.9949],[174.25049889414618,-35.273247979693394,75.8056],[174.1995955738339,-35.267388604693451,0.0],[174.17554772227129,-35.268609307818338,39.9999],[174.1616317066464,-35.280083917193451,136.0027],[174.1547957691464,-35.273247979693394,119.8203],[174.16443932383402,-35.288872979693394,3.4923],[174.1889754566464,-35.299493096880838,18.0234],[174.2175399097714,-35.305474542193394,40.5962],[174.2398787769589,-35.307427667193451,137.609],[174.2480574878964,-35.311700128130838,225.1307],[174.2514754566464,-35.321343682818338,131.6349],[174.2490340503964,-35.330987237505951,39.3516],[174.2398787769589,-35.335259698443338,24.195],[174.2317000660214,-35.332207940630838,13.1506],[174.2255965503964,-35.325860284380951,21.5834],[174.2171736988339,-35.320855401568338,48.548],[174.2026473316464,-35.321709893755894,2.3711],[174.2043563160214,-35.326104425005838,45.1343],[174.2074080738339,-35.337090753130951,53.9757],[174.20948326914618,-35.341485284380951,23.4242],[174.1981307300839,-35.340386651568394,114.6043],[174.1876326832089,-35.336968682818394,62.6858],[174.16785729258402,-35.327813409380894,0.9773],[174.1646834644589,-35.341729425005894,48.2437],[174.1578475269589,-35.357842706255894,95.847],[174.1510115894589,-35.368584893755951,5.4989],[174.1479598316464,-35.365777276568338,33.2727],[174.14576256602152,-35.338921807818451,70.4777],[174.1425887378964,-35.326592706255838,0.0],[174.1374617847714,-35.317925714068451,9.6191],[174.09961998789618,-35.285821221880894,0.0],[174.0933944019589,-35.273247979693394,0.0],[174.09620201914629,-35.260552667193394,0.0],[174.1035262378964,-35.247979425005894,0.0],[174.1054793628964,-35.234307550005951,0.0],[174.0933944019589,-35.218682550005894,0.0],[174.0832625660214,-35.224786065630894,0.0],[174.07227623789629,-35.226983331255894,0.0],[174.0615340503964,-35.224786065630894,0.0],[174.0517684253964,-35.218682550005894,78.2849],[174.0304061207089,-35.226006768755951,44.7051],[174.01490319102152,-35.215874932818451,14.4611],[174.01795494883402,-35.201836846880838,0.0],[174.0517684253964,-35.198174737505894,0.0],[174.03296959727129,-35.174371026568338,0.0],[174.02344811289629,-35.167901300005838,0.0],[174.0337020191464,-35.161309503130838,18.746],[174.0578719410214,-35.150323175005894,5.2222],[174.06983483164652,-35.164117120318451,30.5478],[174.0802108082089,-35.164239190630894,44.1348],[174.08851158945902,-35.159234307818451,88.0958],[174.0933944019589,-35.157769464068394,89.2822],[174.09766686289652,-35.167901300005838,87.702],[174.09864342539652,-35.179009698443394,0.0],[174.1019393238339,-35.188164971880894,0.0],[174.11329186289629,-35.191949151568451,0.0],[174.1547957691464,-35.181084893755781,0.0],[174.1469832691464,-35.155938409380894,0.0],[174.12781823008402,-35.135430596880894,0.0],[174.10316002695879,-35.121514581255894,0.0],[174.07899010508402,-35.116143487505951,5.863],[174.0214949878964,-35.121636651568338,69.3091],[173.98987877695879,-35.117608331255894,0.0],[173.9760848316464,-35.099175714068451,0.0],[173.96973717539618,-35.074761651568451,0.0],[173.95423424570902,-35.058770440630894,0.0],[173.91382897227152,-35.033623956255838,1.3577],[173.89661705820879,-35.016534112505894,25.0545],[173.8879500660214,-35.004937432818451,0.0],[173.89087975352129,-34.999566339068338,0.0],[173.86170494883379,-34.997857354693338,0.0],[173.84669030039652,-34.998589776568394,0.0],[173.8286238941464,-35.006280206255951,62.4611],[173.81177819102152,-35.008477471880951,159.2393],[173.8048201832089,-35.013726495318451,162.4234],[173.8033553394589,-35.019585870318394,14.9243],[173.8055526050839,-35.034478448443338,63.2339],[173.8048201832089,-35.040459893755894,150.6348],[173.78431237070902,-35.074639581255951,103.6505],[173.78370201914629,-35.083916925005951,156.1678],[173.78565514414652,-35.090508721880894,65.338],[173.78101647227129,-35.094414971880894,65.796],[173.7601424488339,-35.095757745318394,45.3348],[173.7258406910214,-35.071465753130894,0.0],[173.72437584727129,-35.063042901568394,0.0],[173.7340194019589,-35.054375909380894,0.0],[173.7563582691464,-35.040459893755894,0.0],[173.7618514332089,-35.031304620318394,0.0],[173.76539147227129,-35.021050714068451,0.0],[173.7712508472714,-35.011895440630951,207.9145],[173.78431237070902,-35.006280206255951,12.9272],[173.7710067066464,-35.001641534380894,0.0],[173.76441490977129,-35.000176690630951,0.0],[173.7567244800839,-34.999566339068338,11.4129],[173.7481795582089,-34.997369073443338,53.9439],[173.7441512378964,-34.991875909380781,0.0],[173.74134362070879,-34.985039971880894,0.0],[173.73585045664652,-34.978448175005894,0.0],[173.73340905039618,-34.972832940630894,0.0],[173.7340194019589,-34.966241143755894,0.0],[173.7323104175839,-34.960870050005951,0.0],[173.72254479258368,-34.958550714068394,0.0],[173.7148543628964,-34.960747979693338,0.0],[173.7109481128964,-34.965386651568394,0.0],[173.7085067066464,-34.970025323443451,0.0],[173.7050887378964,-34.972222589068451,17.602],[173.67481530039652,-34.972100518755838,118.7155],[173.66053307383402,-34.967339776568338,103.413],[173.6499129566464,-34.945367120318394,0.0],[173.6385604175839,-34.940118096880894,0.0],[173.6247664722714,-34.941582940630838,0.0],[173.61304772227152,-34.951714776568451,21.6488],[173.60181725352129,-34.936578057818451,121.7509],[173.5881453785214,-34.926324151568338,0.0],[173.5749617847714,-34.926934503130951,0.0],[173.56519615977129,-34.944268487505951,107.8859],[173.5664168628964,-34.960015557818451,95.1752],[173.57618248789629,-34.971490167193394,115.8838],[173.5891219410214,-34.981377862505951,38.7485],[173.59986412852152,-34.992730401568451,88.1888],[173.5976668628964,-34.997491143755951,31.049],[173.58631432383402,-35.013726495318451,4.0256],[173.56763756602152,-34.993340753130894,44.0187],[173.54859459727118,-34.988091729693394,0.0],[173.5000106128964,-34.992730401568451,17.0465],[173.4780379566464,-34.989190362505951,0.1673],[173.4586287769589,-34.980035089068451,0.0],[173.44178307383368,-34.966851495318338,0.0],[173.4279891285214,-34.951714776568451,0.0],[173.41871178477129,-34.938897393755894,0.0],[173.40870201914629,-34.921075128130838,0.0],[173.40394127695879,-34.902154229693394,0.0],[173.41065514414652,-34.886285089068451,0.0],[173.4202986988339,-34.882745050005838,0.0],[173.46216881602152,-34.882867120318451,0.0],[173.5030623707089,-34.868584893755894,0.0],[173.48804772227129,-34.852837823443451,0.0],[173.4851180347714,-34.844659112505894,0.0],[173.49000084727152,-34.834405206255951,0.0],[173.47877037852152,-34.836114190630838,0.0],[173.4484969410214,-34.848687432818394,78.3489],[173.45472252695902,-34.832696221880951,0.0],[173.4563094410214,-34.823418878130838,0.0],[173.45533287852129,-34.814629815630894,0.0],[173.45032799570902,-34.802056573443338,0.0],[173.44398033945879,-34.795098565630838,0.0],[173.4355574878964,-34.795342706255894,0.0],[173.42457115977152,-34.804009698443451,0.0],[173.42457115977152,-34.810723565630894,0.0],[173.42933190195902,-34.820122979693451,0.0],[173.4315291675839,-34.831963800005894,53.6653],[173.42457115977152,-34.845269464068338,59.6419],[173.4013778003964,-34.857110284380951,38.7412],[173.3765975269589,-34.860650323443281,7.0834],[173.35767662852129,-34.867486260943338,3.1084],[173.35230553477152,-34.889703057818338,7.534],[173.3660994800839,-34.937920831255894,10.4275],[173.3684188160214,-34.965997003130838,3.1234],[173.35572350352152,-34.978448175005894,3.8778],[173.34144127695902,-34.982842706255894,31.5038],[173.3359481128964,-34.993096612505951,47.5282],[173.3328963550839,-35.004937432818451,43.5952],[173.32496178477129,-35.013726495318451,12.1353],[173.31702721445902,-35.014214776568394,2.1192],[173.2839461597714,-35.006280206255951,1.5983],[173.2728377613339,-35.005913995318394,1.9895],[173.26649010508368,-35.006646417193451,2.6087],[173.2636824878964,-35.001031182818281,2.1218],[173.2642928394589,-34.959771417193394,0.0],[173.2674666675839,-34.949517510943451,0.0],[173.27369225352152,-34.941216729693451,0.0],[173.29505455820902,-34.919732354693394,0.0],[173.29810631602152,-34.908257745318394,0.0],[173.16480553477152,-34.843560479693451,0.0],[173.1228133472714,-34.808404229693451,0.0],[173.1189070972714,-34.773003839068451,2.0839],[173.13990319102118,-34.786797784380838,3.398],[173.18848717539618,-34.834405206255951,0.0],[173.17908776133402,-34.792535089068338,0.0],[173.1453963550839,-34.758599542193451,0.0],[173.1040145191464,-34.728448175005838,0.0],[173.07166588633379,-34.697930596880838,0.0],[173.06043541758379,-34.658623956255838,0.0],[173.05054772227152,-34.600152276568394,0.0],[173.03565514414652,-34.551080010943451,0.0],[173.00965416758368,-34.540215753130781,0.0],[173.02491295664618,-34.561578057818281,0.0],[173.03101647227118,-34.590386651568451,0.0],[173.02833092539618,-34.619805596880894,0.0],[173.01710045664629,-34.643243096880894,15.53],[173.00733483164618,-34.649956964068338,23.6873],[173.00355065195868,-34.642998956255838,17.9672],[173.00403893320868,-34.585381768755838,0.0],[173.00220787852118,-34.572442315630951,0.0],[172.99659264414629,-34.560723565630951,0.0],[172.99134362070868,-34.570733331255781,3.143],[172.98292076914618,-34.575372003130838,0.0],[172.9727889332089,-34.574761651568394,0.0],[172.9619246753964,-34.568780206255894,19.0722],[172.96692955820868,-34.562066339068451,0.0],[172.9702254566464,-34.555108331255951,1.75],[172.97559655039652,-34.540215753130781,4.8278],[172.96424401133368,-34.542168878130894,3.572],[172.95655358164618,-34.548272393755894,0.0],[172.95154869883402,-34.557549737505838,12.3219],[172.94874108164629,-34.568780206255894,32.1313],[172.91724694102129,-34.549371026568281,0.5212],[172.90723717539629,-34.540215753130781,0.0],[172.9165145191464,-34.536065362505894,0.0],[172.92286217539618,-34.530205987505951,0.0],[172.92676842539652,-34.522271417193451,0.0],[172.92774498789618,-34.512261651568451,0.0],[172.94410240977152,-34.520684503130894,0.0],[172.95154869883402,-34.514336846880838,0.0],[172.9549666675839,-34.492364190630894,39.3897],[172.96241295664652,-34.467339776568451,140.1204],[172.96998131602118,-34.465386651568394,91.1291],[172.9897567066464,-34.471368096880951,75.1352],[172.98780358164652,-34.476006768755838,20.4853],[172.9849959644589,-34.487725518755838,16.3988],[172.98304283945879,-34.492364190630894,18.5641],[172.99732506602152,-34.497369073443338,36.0027],[173.00452721445879,-34.509087823443338,14.7685],[173.00855553477129,-34.521050714068451,0.0],[173.01343834727118,-34.526543878130838,0.0],[173.02930748789629,-34.525323175005951,0.0],[173.03797448008379,-34.520928643755838,0.0],[173.04200280039618,-34.512505792193394,0.0],[173.04444420664652,-34.499200128130951,0.0],[173.04249108164629,-34.445611260943281,0.0],[173.05030358164629,-34.425591729693451,0.0],[173.0792342457089,-34.410455010943394,0.0],[173.06360924570868,-34.396538995318394,0.0],[173.05201256602129,-34.398980401568451,0.0],[173.04200280039618,-34.408868096880838,47.9524],[173.0307723316464,-34.416680596880838,0.0],[173.01319420664618,-34.419366143755951,26.7161],[172.8995467457089,-34.411187432818451,0.0],[172.86939537852129,-34.427911065630894,68.4668],[172.83802330820879,-34.433648370318394,0.0],[172.82532799570868,-34.444634698443338,0.0],[172.80005944102129,-34.432305596880894,0.0],[172.74158776133368,-34.429986260943451,0.0],[172.71888268320879,-34.420098565630894,0.0],[172.70264733164652,-34.410699151568451,0.0],[172.69800865977129,-34.420586846880838,0.0],[172.69935143320879,-34.436578057818394,73.5998],[172.7011824878964,-34.444634698443338,127.6124],[172.69080651133402,-34.463189385943394,52.2091],[172.68409264414629,-34.470635675005894,6.4274],[172.67383873789652,-34.478814385943451,45.2263],[172.75867760508379,-34.521050714068451,54.9731],[172.79908287852118,-34.549737237505951,67.7065],[173.0029403003964,-34.772027276568338,49.4817],[173.02076256602129,-34.779839776568338,59.4647],[173.03370201914629,-34.790215753130894,77.8951],[173.0648299488339,-34.855523370318394,29.0583],[173.08326256602118,-34.876885675005894,36.3391],[173.1433211597714,-34.927178643755838,50.1146],[173.15662682383368,-34.943780206255838,54.3412],[173.18848717539618,-35.006280206255951,63.3602],[173.2019149097714,-35.056573175005894,32.6851],[173.19813073008379,-35.107842706255781,17.6699],[173.17920983164618,-35.154839776568451,16.4047],[173.14686119883402,-35.191949151568451,228.7432],[173.1289168628964,-35.184136651568281,124.8929],[173.10938561289618,-35.180596612505951,174.7131],[173.09498131602152,-35.186089776568394,167.451],[173.09290612070879,-35.205621026568394,42.1996],[173.10010826914629,-35.218804620318394,9.1141],[173.14002526133379,-35.253350518755838,63.3166],[173.16358483164629,-35.279351495318394,162.8703],[173.17737877695902,-35.289239190630951,6.3763],[173.19471276133379,-35.293755792193394,25.0736],[173.2131453785214,-35.290093682818451,66.87],[173.2419539722714,-35.276299737505894,35.2136],[173.25672448008402,-35.280083917193451,64.4579],[173.2448836597714,-35.291924737505894,57.649],[173.20960533945902,-35.313531182818451,71.1444],[173.20142662852152,-35.321709893755894,177.0645],[173.20728600352129,-35.332207940630838,52.8602],[173.23841393320902,-35.362115167193394,258.9835],[173.2491561207089,-35.369439385943451,214.0831],[173.25843346445902,-35.343682550005951,1.8194],[173.26954186289618,-35.320733331255894,146.1041],[173.2877303394589,-35.305108331255894,107.7187],[173.3181258472714,-35.301202081255894,135.9514],[173.31226647227118,-35.312310479693281,63.3903],[173.30384362070902,-35.322808526568451,59.4081],[173.2839461597714,-35.341485284380951,6.9804],[173.2907820972714,-35.340997003130951,7.665],[173.30457604258379,-35.341973565630951,44.4056],[173.31128990977152,-35.341485284380951,209.705],[173.27711022227129,-35.373467706255894,366.6351],[173.2721053394589,-35.390191339068338,440.4844],[173.2839461597714,-35.417168878130894,234.3486],[173.36988365977129,-35.515313409380838,34.2976],[173.3779403003964,-35.521783135943394,0.0],[173.38697350352129,-35.520318292193451,0.0],[173.39039147227129,-35.511895440630951,3.9374],[173.3938094410214,-35.437676690630894,0.0],[173.39344323008379,-35.437798760943451,0.0],[173.3925887378964,-35.437920831255951,0.0],[173.39210045664629,-35.438042901568394,0.0],[173.3891707691464,-35.434991143755894,22.8612],[173.38685143320868,-35.429864190630838,1.8249],[173.38697350352129,-35.424126885943394,26.5646],[173.39649498789629,-35.415459893755838,52.1299],[173.4090682300839,-35.410821221880951,0.0],[173.41566002695879,-35.404229425005951,0.0],[173.40687096445868,-35.389947198443451,16.8313],[173.4264022144589,-35.377251885943451,42.0479],[173.43751061289629,-35.372247003130894,75.7155],[173.4450789722714,-35.372613214068394,52.1587],[173.4569197925839,-35.387627862505838,142.5122],[173.4633895191464,-35.391167901568451,57.1869],[173.47266686289652,-35.386529229693394,20.2905],[173.48145592539618,-35.383477471880894,0.0],[173.49244225352129,-35.381280206255894,0.0],[173.49891198008379,-35.376641534380894,0.0],[173.4895125660214,-35.356866143755894,79.7103],[173.49500573008379,-35.353326104693451,51.2055],[173.50501549570879,-35.354180596880951,61.079],[173.5305281910214,-35.367974542193338,56.9122],[173.5501815113339,-35.368096612505951,0.0],[173.5661727222714,-35.359307550005951,39.9004],[173.57203209727152,-35.341485284380951,0.0],[173.5644637378964,-35.325494073443394,87.3431],[173.55176842539629,-35.306695245318451,29.8914],[173.54761803477152,-35.288262628130951,89.0852],[173.56519615977129,-35.273247979693394,54.368],[173.58130944102129,-35.320489190630838,33.3338],[173.5925399097714,-35.335259698443338,12.0135],[173.59266198008379,-35.299004815630894,62.2647],[173.59620201914629,-35.293755792193394,43.0201],[173.6071883472714,-35.294854425005951,79.1452],[173.61207115977152,-35.298638604693338,63.0771],[173.61316979258379,-35.306206964068281,24.0627],[173.61304772227152,-35.317925714068451,4.3636],[173.62403405039629,-35.320733331255894,2.0028],[173.66065514414629,-35.311700128130838,60.477],[173.64429772227152,-35.334527276568451,68.1792],[173.6380721363339,-35.355279229693394,156.4782],[173.63404381602118,-35.361993096880951,216.0267],[173.62122643320902,-35.368951104693451,202.7249],[173.6150008472714,-35.366509698443394,186.1897],[173.6095076832089,-35.361626885943451,190.871],[173.59986412852152,-35.361993096880951,72.5586],[173.58265221445879,-35.376031182818451,31.545],[173.5783797535214,-35.394707940630781,43.2995],[173.57776940195868,-35.414361260943451,17.8678],[173.57203209727152,-35.431573175005894,83.2713],[173.54468834727129,-35.396783135943338,131.0943],[173.5417586597714,-35.409600518755951,46.7738],[173.54358971445902,-35.444268487505838,40.4603],[173.54127037852129,-35.451348565630951,92.3171],[173.52698815195902,-35.447198175005894,96.0723],[173.51636803477129,-35.437432550005781,55.2192],[173.5068465503964,-35.426080010943451,39.1612],[173.49683678477129,-35.417168878130894,0.6262],[173.4956160816464,-35.421563409380838,1.3042],[173.49000084727152,-35.431573175005894,3.8823],[173.4704695972714,-35.423638604693394,8.5196],[173.45777428477152,-35.436700128130894,31.8304],[173.45069420664652,-35.459893487505894,26.9571],[173.4484969410214,-35.482476495318394,47.3515],[173.4410506519589,-35.499078057818394,315.2722],[173.4080916675839,-35.535210870318394,140.2611],[173.4006453785214,-35.551324151568394,85.6947],[173.40699303477129,-35.570000909380951,136.2277],[173.85816490977129,-36.064385675005951,79.9011],[173.89417565195902,-36.122979425005894,5.9709],[174.0239363941464,-36.267022393755951,127.243],[174.05567467539629,-36.363335870318451,10.7262],[174.07972252695879,-36.398247979693451,0.0],[174.12818444102152,-36.397271417193338,0.0],[174.17469323008379,-36.380913995318451,0.0],[174.1944686207089,-36.367364190630951,0.0],[174.2026473316464,-36.346368096880951,0.0],[174.19166100352129,-36.324517510943338,0.0],[174.1713973316464,-36.307793878130894,0.0],[174.1616317066464,-36.295708917193338,0.0],[174.18213951914629,-36.288018487505951,0.0],[174.1731063160214,-36.275567315630894,0.0],[174.1588240894589,-36.275079034380894,0.0],[174.1435653003964,-36.276788018755894,56.9869],[174.1309920582089,-36.270684503130894,33.6364],[174.0760604175839,-36.202447198443338,0.0],[174.0683699878964,-36.196465753130951,0.0],[174.05836022227129,-36.190362237505951,0.0],[174.04944908945902,-36.183404229693451,0.0],[174.0407820972714,-36.164117120318451,0.0],[174.02942955820868,-36.157769464068394,0.0],[174.0164901050839,-36.153008721880894,0.0],[174.00709069102152,-36.147515557818338,3.7791],[173.99940026133379,-36.136895440630894,0.0],[173.98682701914629,-36.114556573443451,1.0992],[173.9798690113339,-36.105889581255894,0.6221],[173.9720565113339,-36.087334893755838,0.0],[173.9676619800839,-36.061089776568394,0.0],[173.9589949878964,-36.037530206255894,16.0094],[173.93824303477152,-36.027398370318394,1.1988],[173.93140709727129,-36.017022393755894,2.0699],[173.87989342539618,-35.958428643755951,1.7272],[173.8841658863339,-35.942315362505951,1.1175],[173.92225182383379,-35.925713800005781,4.7373],[173.92835533945879,-35.903863214068451,39.0372],[173.9228621753964,-35.898980401568338,6.1813],[173.91309655039629,-35.892022393755838,30.6129],[173.90577233164629,-35.882256768755894,5.7006],[173.90784752695879,-35.869073175005951,6.8824],[173.91480553477118,-35.868462823443338,24.5978],[173.92566979258368,-35.874810479693394,1.9006],[173.93616783945868,-35.883599542193394,42.0484],[173.9419051441464,-35.890191339068394,25.7681],[173.9465438160214,-35.915215753130951,7.939],[173.9371444019589,-35.930840753130838,27.1225],[173.9004012378964,-35.958428643755951,3.0961],[173.93140709727129,-35.976861260943394,66.9239],[173.9437361988339,-35.988702081255894,16.4679],[173.95521080820902,-36.018487237505951,46.8658],[173.9838973316464,-36.042901300005951,35.5755],[173.9903670582089,-36.058160089068451,43.2796],[173.99109948008368,-36.096856378130894,0.8244],[173.9978133472714,-36.115166925005894,0.8797],[174.0136824878964,-36.122979425005894,0.9135],[174.0269881519589,-36.127740167193394,1.3882],[174.0442000660214,-36.138726495318338,1.0109],[174.0590926441464,-36.151421807818338,1.1131],[174.06544030039652,-36.160821221880894,1.0999],[174.0750838550839,-36.166924737505894,5.5608],[174.12281334727129,-36.168145440630951,10.5183],[174.14112389414629,-36.171441339068338,127.617],[174.1584578785214,-36.184014581255894,120.8689],[174.16944420664629,-36.198296807818394,139.0243],[174.1782332691464,-36.212945245318451,70.7794],[174.2022811207089,-36.241509698443394,0.0],[174.2086287769589,-36.245171807818338,35.495],[174.21973717539652,-36.246514581255951,49.1799],[174.22950280039652,-36.249566339068451,33.0536],[174.24244225352152,-36.263360284380894,0.0],[174.25049889414618,-36.267022393755951,0.0],[174.2605086597714,-36.267022393755951,0.0],[174.26893151133379,-36.265069268755894,0.0],[174.2747908863339,-36.259942315630838,32.8934],[174.27711022227129,-36.250176690630894,0.0],[174.28272545664618,-36.248223565630838,0.0],[174.31873619883402,-36.240288995318394,0.0],[174.30103600352118,-36.218194268755951,0.0],[174.28992760508402,-36.209405206255838,0.0],[174.28077233164652,-36.209283135943394,0.0],[174.2727156910214,-36.219903253130951,27.1939],[174.26783287852152,-36.224663995318338,108.294],[174.26038658945902,-36.226617120318394,81.222],[174.25098717539629,-36.222466729693338,85.6957],[174.2511092457089,-36.213067315630951,32.4995],[174.2572127613339,-36.198663018755951,28.5839],[174.2467147144589,-36.186089776568394,0.0],[174.23694908945868,-36.180108331255894,0.0],[174.22413170664652,-36.178277276568394,9.0523],[174.2061873707089,-36.178155206255951,0.0],[174.19288170664652,-36.173882745318394,27.1697],[174.19263756602129,-36.152154229693394,3.9717],[174.18213951914629,-36.144097589068451,0.0],[174.2259627613339,-36.115777276568451,19.9746],[174.2409774097714,-36.116387628130894,35.3093],[174.2368270191464,-36.144097589068451,39.0371],[174.2578231128964,-36.123955987505838,17.3608],[174.2686873707089,-36.117486260943451,17.1157],[174.28455651133379,-36.116753839068394,16.2918],[174.27540123789629,-36.136285089068281,57.0637],[174.27222740977152,-36.146538995318394,77.4705],[174.27088463633402,-36.157769464068394,65.441],[174.2717391285214,-36.171685479693394,27.6644],[174.2724715503964,-36.172539971880951,27.6644],[174.27393639414652,-36.174248956255951,18.8145],[174.27466881602152,-36.175103448443451,0.9339],[174.28101647227118,-36.174981378130838,0.0],[174.29200280039629,-36.178155206255951,0.8856],[174.30103600352118,-36.178887628130838,9.3993],[174.3097029957089,-36.176690362505838,2.4304],[174.3160506519589,-36.179497979693451,17.8836],[174.31873619883402,-36.195245050005894,4.6428],[174.3221541675839,-36.204034112505894,34.2822],[174.3304549488339,-36.204400323443394,56.6431],[174.3415633472714,-36.202813409380838,45.0868],[174.3527938160214,-36.206109307818451,31.8246],[174.3476668628964,-36.210015557818451,0.0],[174.3324080738339,-36.226617120318394,0.7399],[174.3609725269589,-36.215020440630838,17.264],[174.3853865894589,-36.187554620318338,19.0933],[174.39869225352118,-36.153741143755951,29.3689],[174.3938094410214,-36.122979425005894,197.7003],[174.4317733082089,-36.131768487505838,48.7497],[174.44153893320879,-36.137261651568394,80.9688],[174.4533797535214,-36.153130792193338,26.961],[174.4503279957089,-36.162041925005951,17.497],[174.4378768238339,-36.163628839068338,17.1057],[174.42115319102152,-36.157159112505951,10.1014],[174.41663658945879,-36.171807550005894,50.2512],[174.4155379566464,-36.180474542193394,65.0544],[174.4134627613339,-36.187798760943451,75.9375],[174.40748131602129,-36.198663018755951,68.2497],[174.3840438160214,-36.223321221880838,32.6002],[174.3687850269589,-36.255303643755781,54.851],[174.36341393320868,-36.280816339068394,15.9585],[174.35596764414618,-36.279595635943338,15.5987],[174.33912194102129,-36.267022393755951,15.9405],[174.30982506602129,-36.259331964068394,44.0011],[174.30005944102152,-36.263360284380894,130.7555],[174.3049422535214,-36.281304620318338,84.7294],[174.31324303477118,-36.286553643755838,95.9426],[174.3276473316464,-36.290948175005838,34.0254],[174.3527938160214,-36.294854425005838,18.1771],[174.3709822925839,-36.286675714068451,0.0],[174.3907576832089,-36.271538995318394,27.4733],[174.4069930347714,-36.262749932818451,50.8169],[174.4148055347714,-36.274468682818451,4.0367],[174.42579186289629,-36.268731378130951,1.3388],[174.4494735035214,-36.250298760943394,36.2842],[174.4592391285214,-36.246514581255951,28.1639],[174.47339928477129,-36.245293878130951,0.0],[174.4874373707089,-36.241875909380894,52.2175],[174.50049889414652,-36.235650323443451,14.5519],[174.51099694102152,-36.226617120318394,24.0977],[174.5149031910214,-36.233086846880951,26.5048],[174.51636803477152,-36.234795831255951,22.5188],[174.51710045664652,-36.235039971880894,22.5188],[174.51819908945879,-36.235528253130838,22.5188],[174.51880944102152,-36.235772393755894,25.6999],[174.5246688160214,-36.240288995318394,72.2272],[174.5213729175839,-36.253228448443394,13.4408],[174.51514733164629,-36.256768487505894,13.626],[174.5067244800839,-36.257134698443394,29.9252],[174.49683678477129,-36.260674737505894,37.722],[174.4694930347714,-36.281304620318338,40.6652],[174.43982994883379,-36.292046807818394,8.1741],[174.4271346363339,-36.298882745318451,48.855],[174.4111434253964,-36.311944268755951,105.3623],[174.39503014414652,-36.321465753130838,9.1584],[174.3748885425839,-36.326592706255894,88.0197],[174.3324080738339,-36.329034112505951,38.5943],[174.31678307383379,-36.323907159380894,1.6718],[174.3032332691464,-36.316582940630894,65.6263],[174.29224694102152,-36.318780206255838,104.1999],[174.28455651133379,-36.342705987505894,5.8243],[174.27088463633402,-36.336480401568394,1.832],[174.27735436289652,-36.368584893755951,7.1036],[174.29932701914618,-36.385430596880894,3.7074],[174.3310653003964,-36.391289971880951,0.0],[174.38990319102152,-36.387749932818451,0.0],[174.39869225352118,-36.383233331255894,0.0],[174.4111434253964,-36.373711846880838,1.5171],[174.4277449878964,-36.356622003130894,54.4086],[174.4344588550839,-36.356133721880894,20.7979],[174.46583092539618,-36.372002862505838,28.7591],[174.46753990977152,-36.377862237505951,18.3891],[174.4453231128964,-36.393853448443451,41.6241],[174.4412947925839,-36.405328057818451,14.5125],[174.4497176441464,-36.416558526568451,9.2383],[174.46180260508402,-36.427544854693451,108.9585],[174.4694930347714,-36.438287042193338,139.1751],[174.4528914722714,-36.453667901568281,160.2799],[174.4491072925839,-36.458794854693338,33.5286],[174.44922936289652,-36.459527276568394,33.5286],[174.4494735035214,-36.461236260943394,36.4072],[174.4494735035214,-36.461968682818451,21.8902],[174.4498397144589,-36.514092706255838,3.8595],[174.4538680347714,-36.521538995318338,53.2945],[174.4626570972714,-36.506524346880894,7.302],[174.4704695972714,-36.517998956255894,109.7143],[174.4609481128964,-36.562676690630951,4.8613],[174.4694930347714,-36.582207940630951,28.9222],[174.47510826914629,-36.579888604693394,40.8819],[174.49061119883402,-36.575494073443394,168.7776],[174.48524010508402,-36.584893487505781,102.9886],[174.46924889414652,-36.596001885943394,67.6163],[174.4626570972714,-36.602715753130951,15.9842],[174.4582625660214,-36.617608331255951,43.2889],[174.4564315113339,-36.634087823443451,96.548],[174.4521590503964,-36.645196221880894,4.9772],[174.44153893320879,-36.644341729693394,1.2177],[174.4311629566464,-36.664483331255894,3.1229],[174.42115319102152,-36.653130792193394,2.5391],[174.4111434253964,-36.630425714068394,2.3932],[174.4012557300839,-36.616387628130894,0.0],[174.4016219410214,-36.623223565630951,1.5364],[174.40076744883402,-36.637505792193338,2.2908],[174.4012557300839,-36.644341729693394,2.6062],[174.38111412852152,-36.633477471880894,2.5682],[174.37159264414652,-36.630913995318394,16.1289],[174.3596297535214,-36.630059503130838,34.5206],[174.36512291758368,-36.619561456255894,2.0964],[174.36622155039652,-36.610039971880838,0.9299],[174.36219323008379,-36.601983331255894,0.0],[174.3527938160214,-36.595879815630894,36.6473],[174.36646569102118,-36.594414971880951,0.0],[174.3813582691464,-36.589654229693451,0.0],[174.39136803477129,-36.584649346880894,0.0],[174.3903914722714,-36.582207940630951,0.0],[174.3796492847714,-36.580865167193338,0.0],[174.33912194102129,-36.568658135943338,29.7908],[174.3545028003964,-36.558770440630951,15.2711],[174.3554793628964,-36.547539971880894,0.4065],[174.3457137378964,-36.538384698443394,0.0],[174.32899010508379,-36.534478448443394,0.0],[174.31470787852129,-36.526910089068281,0.0],[174.29200280039629,-36.493706964068451,0.0],[174.27198326914629,-36.478570245318451,0.0],[174.25709069102129,-36.445733331255951,0.0],[174.2429305347714,-36.438287042193338,0.0],[174.22852623789652,-36.442681573443451,82.0892],[174.21876061289629,-36.453179620318451,156.9373],[174.2026473316464,-36.479790948443451,45.9894],[174.19739830820879,-36.465508721880951,4.9953],[174.19861901133368,-36.451836846880951,0.0],[174.20948326914618,-36.424615167193394,0.0],[174.1967879566464,-36.425835870318451,0.0],[174.1890975269589,-36.431451104693451,0.0],[174.1848250660214,-36.440484307818338,0.0],[174.18213951914629,-36.451958917193451,3.8351],[174.18824303477129,-36.497979425005838,13.8864],[174.2179061207089,-36.543999932818394,26.6515],[174.35560143320879,-36.684258721880951,69.3949],[174.40748131602129,-36.760430596880838,44.6329],[174.42628014414629,-36.805108331255951,17.2663],[174.44825280039652,-36.899346612505894,3.8914],[174.48890221445902,-37.013360284380951,25.7497],[174.5002547535214,-37.031060479693394,211.0682],[174.52039635508379,-37.039483331255838,0.0],[174.54395592539629,-37.032891534380838,0.0],[174.5654403003964,-37.017510675005894,0.0],[174.5793563160214,-37.000054620318394,116.455],[174.60316002695868,-37.017510675005894,76.1484],[174.61133873789652,-37.017144464068394,0.0],[174.6209822925839,-37.006890557818451,0.0],[174.62598717539629,-36.995538018755951,0.0],[174.63209069102129,-36.971368096880894,53.6975],[174.6407576832089,-36.959038995318394,28.3609],[174.66724694102118,-36.942925714068394,9.5601],[174.7005721363339,-36.935113214068394,0.0],[174.76807701914629,-36.932305596880951,0.0],[174.8326522144589,-36.941705010943394,6.7577],[174.8285018238339,-36.952569268755894,14.8756],[174.81885826914652,-36.962579034380894,11.826599999999999],[174.80665123789652,-36.969903253130951,15.5097],[174.79505455820879,-36.972710870318394,16.1325],[174.78370201914629,-36.985039971880951,15.142],[174.7855330738339,-37.007256768755951,4.7536],[174.80018151133402,-37.017266534380838,0.0],[174.8258162769589,-36.992608331255894,7.0143],[174.8348494800839,-37.007256768755951,15.2511],[174.8418074878964,-37.026421807818338,0.9068],[174.85108483164652,-37.039239190630951,0.0],[174.86670983164652,-37.034722589068451,18.3089],[174.8858748707089,-37.048028253130894,8.5067],[174.93690026133402,-37.064263604693394,17.5345],[174.9350692066464,-37.075127862505894,25.2971],[174.9434920582089,-37.086846612505894,20.6144],[174.9482528003964,-37.100518487505838,6.362],[174.9455672535214,-37.111993096880951,11.4958],[174.9316512378964,-37.116753839068451,27.1429],[174.9184676441464,-37.110528253130838,6.0798],[174.88050377695879,-37.075127862505894,14.6851],[174.85584557383402,-37.077080987505951,23.1738],[174.83314049570902,-37.091485284380781,11.3602],[174.79175865977152,-37.131524346880951,3.1742],[174.79273522227152,-37.109917901568394,10.1369],[174.7857772144589,-37.107598565630951,2.6634],[174.73145592539629,-37.145562432818451,14.2622],[174.71656334727129,-37.151421807818394,0.0],[174.73438561289618,-37.158135675005951,0.3766],[174.78467858164629,-37.165826104693394,14.2802],[174.80469811289629,-37.165093682818451,27.6502],[174.78980553477129,-37.174615167193338,18.2928],[174.77674401133379,-37.175835870318394,13.4222],[174.7472029957089,-37.171319268755951,4.0704],[174.7356063160214,-37.178277276568451,10.8971],[174.7382918628964,-37.193902276568451,41.8652],[174.75074303477152,-37.219781182818394,30.0203],[174.7397567066464,-37.243340753130894,26.8076],[174.7224227222714,-37.232232354693451,0.0],[174.70801842539652,-37.207085870318451,0.0],[174.7041121753964,-37.174981378130894,0.0],[174.65381920664629,-37.095757745318451,5.1204],[174.65552819102129,-37.089654229693451,0.0],[174.6650496753964,-37.078789971880951,0.0],[174.66724694102118,-37.068291925005951,0.0],[174.6572371753964,-37.059991143755838,46.9782],[174.6425887378964,-37.055840753130894,44.1305],[174.6026717457089,-37.065728448443451,39.5825],[174.57447350352129,-37.060235284380894,174.2331],[174.55811608164652,-37.061700128130838,158.6534],[174.5650740894589,-37.089410089068394,93.6952],[174.6074324878964,-37.153741143755951,108.6246],[174.6135360035214,-37.174981378130894,188.0396],[174.61719811289629,-37.183770440630838,141.175],[174.6407576832089,-37.219781182818394,147.482],[174.6511336597714,-37.251519464068451,175.7255],[174.6915389332089,-37.328301690630894,100.5013],[174.70630944102152,-37.346612237505894,120.5022],[174.72840416758379,-37.361748956255951,88.8123],[174.7424422535214,-37.356133721880951,37.3858],[174.7712508472714,-37.315240167193394,1.352],[174.7794295582089,-37.308770440630894,0.9955],[174.79883873789652,-37.298760675005894,1.926],[174.80872643320902,-37.292046807818451,1.8505],[174.8223983082089,-37.286553643755894,2.0963],[174.83277428477152,-37.290581964068338,9.4026],[174.83777916758379,-37.297784112505894,0.0],[174.8357039722714,-37.301690362505951,6.1757],[174.8115340503964,-37.309747003130838,3.9109],[174.7983504566464,-37.329034112505951,7.0486],[174.7895613941464,-37.351739190630951,240.7175],[174.7786971363339,-37.370538018755951,136.2373],[174.7674666675839,-37.376397393755894,200.8835],[174.73816979258402,-37.382378839068394,0.0],[174.7268172535214,-37.387994073443451,0.2804],[174.71790612070879,-37.400079034380951,122.0169],[174.7176619800839,-37.410699151568394,138.3541],[174.72828209727118,-37.456719659380838,106.9846],[174.7861434253964,-37.567315362505894,113.6847],[174.8502303394589,-37.763726495318451,44.4717],[174.8671981128964,-37.779595635943394,17.4098],[174.89783776133402,-37.768487237505951,54.551],[174.90467369883402,-37.770562432818338,26.4463],[174.9106551441464,-37.773614190630838,0.0],[174.91456139414629,-37.774590753130951,0.0],[174.91956627695902,-37.770074151568394,0.0],[174.9234725269589,-37.758599542193394,0.0],[174.9282332691464,-37.754082940630951,23.5082],[174.96973717539652,-37.733697198443451,27.6308],[174.97693932383379,-37.748833917193451,72.9517],[174.9733992847714,-37.762505792193451,18.4309],[174.96265709727152,-37.773736260943451,9.3064],[174.9486190113339,-37.782037042193451,0.0],[174.95862877695879,-37.783746026568451,8.5169],[174.96668541758402,-37.787774346880951,5.4757999999999996],[174.97291100352129,-37.794122003130838,18.2219],[174.97657311289652,-37.802544854693281,2.3487],[174.92261803477152,-37.809502862505951,12.2101],[174.86609948008379,-37.809991143755951,2.0252],[174.81861412852129,-37.823663018755894,22.9037],[174.79175865977152,-37.870782159380894,366.4014],[174.78431237070902,-37.965630792193451,99.3013],[174.78797448008402,-37.984063409380894,56.0368],[174.81556237070879,-37.999932550005838,0.0],[174.8278914722714,-37.987481378130894,18.0404],[174.8366805347714,-37.963799737505951,0.0],[174.85303795664629,-37.946587823443394,26.5512],[174.87610924570868,-37.948540948443451,22.3923],[174.8878279957089,-37.965630792193451,14.2622],[174.8867293628964,-37.985039971880838,56.5719],[174.87012780039629,-37.994317315630951,50.454],[174.83887780039652,-38.022271417193281,0.0],[174.82593834727118,-38.026910089068338,35.189],[174.81617272227152,-38.028252862505838,88.0579],[174.8073836597714,-38.031548760943394,82.9873],[174.79847252695868,-38.042168878130838,58.1636],[174.7939559253964,-38.053033135943394,17.2548],[174.7905379566464,-38.069024346880894,12.1169],[174.79175865977152,-38.083550714068394,0.0],[174.80164635508379,-38.089898370318451,0.0],[174.8177596363339,-38.087334893755894,0.0],[174.82422936289618,-38.080254815630781,0.0],[174.8281356128964,-38.070367120318394,0.0],[174.8357039722714,-38.058892510943281,0.0],[174.85584557383402,-38.054497979693451,0.0],[174.8837996753964,-38.061455987505951,0.0],[174.9038192066464,-38.076470635943394,0.0],[174.90088951914652,-38.096123956255894,37.7701],[174.90833580820868,-38.103570245318394,61.9554],[174.91590416758379,-38.098077081255951,41.3137],[174.92359459727118,-38.096123956255894,2.0864],[174.9425154957089,-38.096123956255894,25.8614],[174.92432701914652,-38.117364190630951,37.2873],[174.89625084727129,-38.118829034380894,49.0758],[174.8653670582089,-38.115655206255894,5.5856],[174.83887780039652,-38.123467706255951,0.0],[174.85914147227129,-38.140191339068394,14.8775],[174.86670983164652,-38.144585870318394,141.8267],[174.8464461597714,-38.152642510943451,128.8074],[174.8322860035214,-38.145440362505894,0.0],[174.81995690195879,-38.132500909380951,0.0],[174.80469811289629,-38.123467706255951,20.0328],[174.80469811289629,-38.137749932818451,71.2731],[174.79847252695868,-38.137749932818451,26.3072],[174.7921248707089,-38.132012628130838,1.1858],[174.7851668628964,-38.124444268755894,0.0],[174.7800399097714,-38.114800714068394,0.0],[174.7786971363339,-38.103570245318394,0.0],[174.7628279957089,-38.108819268755894,17.2572],[174.7441512378964,-38.111626885943451,0.0],[174.7254744800839,-38.110284112505951,0.0],[174.7097274097714,-38.103570245318394,0.0],[174.70496666758402,-38.118462823443338,7.7156],[174.70997155039618,-38.135674737505951,72.4966],[174.7182723316464,-38.153985284380951,80.2995],[174.7233992847714,-38.171929620318394,23.257],[174.72217858164618,-38.192803643755951,52.8668],[174.7121688160214,-38.228570245318394,39.1573],[174.70728600352152,-38.287408135943451,0.0],[174.69959557383379,-38.325860284380894,0.0],[174.6867781910214,-38.361016534380781,231.0447],[174.65162194102129,-38.424248956255951,21.1924],[174.6434432300839,-38.461602471880838,0.0],[174.6407576832089,-38.634331964068451,133.0043],[174.6373397144589,-38.651788018755951,20.8137],[174.63099205820902,-38.666680596880951,218.2067],[174.62794030039652,-38.681817315630951,174.4028],[174.6345320972714,-38.699395440630951,1.5376],[174.6193953785214,-38.702813409380781,0.0],[174.6132918628964,-38.713311456255951,30.491],[174.6135360035214,-38.744195245318451,53.7086],[174.61133873789652,-38.757134698443338,121.8719],[174.6020613941464,-38.780938409380894,75.756],[174.5938826832089,-38.817437432818451,2.5611],[174.57874596445868,-38.838311456255951,209.123],[174.45875084727152,-38.936089776568451,0.0],[174.4148055347714,-38.961846612505951,0.0],[174.36646569102118,-38.974419854693281,0.0],[174.23328698008402,-38.966973565630951,0.0],[174.21131432383379,-38.972100518755838,0.0],[173.95557701914652,-39.097344659380951,0.0],[173.85242760508368,-39.133355401568394,0.0],[173.80701744883402,-39.161797784380951,0.0],[173.77747643320868,-39.206597589068394,0.0],[173.76429283945902,-39.254205010943338,-0.3335],[173.75916588633368,-39.300225518755894,9.8437],[173.7651473316464,-39.345757745318338,0.0],[173.78431237070902,-39.392144464068451,7.8506],[173.81446373789652,-39.432183526568281,0.0],[173.85108483164652,-39.462701104693281,0.0],[173.9864608082089,-39.541192315630951,44.4934],[174.0444442066464,-39.556451104693451,43.6913],[174.2148543628964,-39.577325128130951,61.2657],[174.26893151133379,-39.590630792193394,104.0975],[174.3188582691464,-39.612603448443451,88.1778],[174.3596297535214,-39.646050714068394,67.1605],[174.4179793628964,-39.717339776568451,39.9315],[174.43714440195879,-39.735650323443451,35.7821],[174.54346764414618,-39.813409112505894,0.0],[174.5673934253964,-39.825494073443451,0.0],[174.59302819102152,-39.830376885943394,0.0],[174.6543074878964,-39.835137628130894,17.8672],[174.73487389414629,-39.858208917193394,23.276],[174.8159285816464,-39.857720635943451,63.271],[174.8418074878964,-39.861260675005894,40.1361],[174.8973494800839,-39.881402276568394,13.0016],[174.9671736988339,-39.915337823443394,44.7663],[175.05860436289652,-39.995415948443451,19.1905],[175.07862389414652,-40.023492120318394,0.0],[175.1547957691464,-40.084161065630894,10.7802],[175.1705428394589,-40.106744073443394,20.4784],[175.1836043628964,-40.133355401568394,19.0831],[175.2025252613339,-40.187188409380951,8.3947],[175.2154647144589,-40.252496026568338,0.0],[175.23121178477152,-40.276177667193451,3.6582],[175.2646590503964,-40.282769464068451,5.6841],[175.29639733164629,-40.273125909380951,9.3499],[175.32068932383402,-40.253838800005838,16.4554],[175.3392440113339,-40.228448175005894,22.8934],[175.35401451914629,-40.200860284380951,33.4548],[175.3602401050839,-40.200860284380951,34.1553],[175.35938561289652,-40.226006768755951,32.2352],[175.3510848316464,-40.246270440630894,20.554],[175.33729088633402,-40.262383721880894,31.6991],[175.31995690195879,-40.275323175005951,26.0091],[175.29761803477152,-40.288506768755894,22.25],[175.28516686289629,-40.293633721880951,12.1106],[175.2721053394589,-40.296441339068394,4.806],[175.25562584727152,-40.294854425005838,3.1111],[175.2448836597714,-40.291680596880894,3.3208],[175.23865807383402,-40.295220635943338,1.3308],[175.2347518238339,-40.334771417193394,7.76],[175.22205651133402,-40.392266534380894,0.0],[175.21351158945868,-40.409722589068394,0.0],[175.21192467539629,-40.418145440630894,0.0],[175.2130233082089,-40.433038018755838,0.0],[175.21619713633379,-40.448296807818338,0.0],[175.2225447925839,-40.463799737505894,1.8765],[175.21619713633379,-40.466973565630894,7.2406],[175.20679772227152,-40.468194268755894,0.0],[175.1994735035214,-40.468438409380951,0.0],[175.19861901133402,-40.468926690630951,0.0],[175.1961776050839,-40.470757745318394,0.0],[175.1960555347714,-40.476495050005894,0.0],[175.1967879566464,-40.483086846880894,0.0],[175.19629967539652,-40.488335870318394,0.0],[175.1910506519589,-40.511163018755951,0.0],[175.1872664722714,-40.567681573443394,1.3797],[175.17896569102152,-40.587945245318451,0.0],[175.16822350352129,-40.605035089068394,0.0],[175.1411238941464,-40.673272393755838,0.0],[175.0940047535214,-40.753228448443451,0.0],[175.0380965503964,-40.824639581255951,0.0],[174.97901451914629,-40.873711846880894,0.0],[174.96973717539652,-40.888970635943394,0.0],[174.9486190113339,-40.934502862505951,0.0],[174.94544518320879,-40.959527276568394,0.0],[174.9425154957089,-40.969414971880951,0.0],[174.9350692066464,-40.981744073443394,0.0],[174.9265242847714,-40.990899346880894,0.0],[174.91492760508379,-41.000054620318394,0.0],[174.90223229258368,-41.007012628130894,0.0],[174.8906356128964,-41.009698175005894,0.0],[174.8787947925839,-41.013848565630951,0.0],[174.8610945972714,-41.032159112505951,0.0],[174.8496199878964,-41.036309503130894,0.0],[174.8418074878964,-41.042535089068338,0.0],[174.84937584727152,-41.055840753130894,200.0601],[174.86133873789629,-41.067803643755838,49.6151],[174.86670983164652,-41.070489190630951,119.4064],[174.8706160816464,-41.083794854693394,3.0791],[174.87110436289652,-41.094048760943451,26.6499],[174.86573326914629,-41.102959893755894,0.0],[174.85303795664629,-41.112115167193394,20.8885],[174.83997643320879,-41.085992120318394,0.0],[174.8298445972714,-41.086480401568394,0.0],[174.81690514414629,-41.097955010943451,0.0],[174.79505455820879,-41.105279229693338,0.0],[174.7799178394589,-41.114922784380951,0.0],[174.75538170664629,-41.157647393755951,0.0],[174.72999108164652,-41.174981378130894,0.0],[174.6915389332089,-41.210747979693338,0.0],[174.67505944102152,-41.221978448443394,0.0],[174.62964928477152,-41.228692315630838,0.0],[174.61133873789652,-41.236138604693451,0.0],[174.5998641285214,-41.256036065630894,0.0],[174.6091414722714,-41.290704034380781,0.0],[174.64588463633368,-41.319146417193394,277.4314],[174.6945906910214,-41.338311456255894,264.7407],[174.74048912852118,-41.345391534380894,147.6699],[174.7536727222714,-41.340874932818451,141.9417],[174.7658797535214,-41.331841729693394,117.4566],[174.7773543628964,-41.325127862505951,50.8895],[174.78797448008402,-41.328057550005838,58.2799],[174.79920494883402,-41.334283135943451,0.0],[174.8099471363339,-41.332574151568451,3.9085],[174.8191024097714,-41.326104425005894,6.8419],[174.8258162769589,-41.318169854693281,97.0938],[174.8322860035214,-41.295342706255838,54.8033],[174.81788170664652,-41.285455010943451,0.0],[174.7712508472714,-41.276543878130894,50.9513],[174.77674401133379,-41.260430596880894,104.5463],[174.78528893320902,-41.248223565630894,138.3648],[174.7970076832089,-41.238213800005838,183.7023],[174.81275475352152,-41.228692315630838,223.7895],[174.83350670664629,-41.221368096880951,205.406],[174.8631697925839,-41.217461846880781,58.0131],[174.88941490977152,-41.223321221880894,2.6449],[174.90088951914652,-41.245782159380951,3.0161],[174.89625084727129,-41.271294854693394,0.0],[174.87440026133379,-41.310601495318338,0.0],[174.86670983164652,-41.331841729693394,101.9676],[174.8679305347714,-41.356133721880951,83.0749],[174.8745223316464,-41.374444268755951,121.0917],[174.8763533863339,-41.390923760943451,14.1771],[174.86329186289652,-41.409966729693394,0.0],[174.8654891285214,-41.418389581255951,0.0],[174.87891686289652,-41.428643487505894,0.0],[174.90088951914652,-41.441094659380951,0.0],[174.9170028003964,-41.443780206255951,0.0],[174.9278670582089,-41.442437432818451,0.0],[174.9373885425839,-41.436944268755894,0.0],[174.98633873789652,-41.396661065630951,0.0],[175.0092879566464,-41.384454034380951,35.76],[175.03492272227129,-41.379571221880951,0.341],[175.0621444019589,-41.381890557818451,0.0],[175.18165123789652,-41.416802667193394,0.0],[175.19263756602129,-41.423638604693451,0.0],[175.19727623789652,-41.434380792193394,0.0],[175.1811629566464,-41.508843682818394,0.0],[175.18201744883402,-41.522881768755894,0.0],[175.18848717539652,-41.535210870318451,0.0],[175.1971541675839,-41.545342706255951,0.0],[175.20167076914652,-41.556329034380894,0.0],[175.19629967539652,-41.571343682818338,0.0],[175.21216881602152,-41.581231378130894,0.0],[175.2215682300839,-41.612481378130951,0.0],[175.23731530039652,-41.619195245318394,0.0],[175.31385338633379,-41.613580010943338,0.0],[175.3300887378964,-41.608575128130951,0.0],[175.3632918628964,-41.580498956255838,0.0],[175.37977135508379,-41.571343682818338,0.0],[175.4483748707089,-41.550591729693451,284.1777],[175.6684676441464,-41.420464776568338,11.9129],[175.7270613941464,-41.397759698443394,0.0],[175.77711022227152,-41.370293878130894,0.0],[175.81409752695902,-41.340630792193394,168.1999],[175.9665633472714,-41.245782159380951,0.0],[176.0678817066464,-41.138604425005951,0.0],[176.0892440113339,-41.100762628130894,0.0],[176.12122643320868,-41.009698175005894,0.0],[176.13221276133379,-40.988702081255894,1.1144],[176.1496688160214,-40.965874932818451,0.0],[176.1706649097714,-40.947686456255894,0.0],[176.22022545664629,-40.932183526568338,0.0],[176.23548424570879,-40.912774346880951,0.0],[176.25147545664652,-40.865655206255951,0.0],[176.28650963633379,-40.799004815630951,0.0],[176.30958092539629,-40.770318292193394,0.0],[176.3479110035214,-40.695367120318394,0.0],[176.35450280039629,-40.686211846880894,0.0],[176.3619490894589,-40.682183526568394,0.0],[176.3781844410214,-40.680474542193394,0.0],[176.38502037852129,-40.676934503130951,0.0],[176.40479576914652,-40.648125909380951,0.0],[176.41028893320879,-40.637139581255951,0.0],[176.41431725352129,-40.625542901568394,0.0],[176.41602623789629,-40.615533135943394,0.0],[176.42469323008379,-40.602715753130951,11.0577],[176.4842635425839,-40.557183526568394,0.0],[176.5422469410214,-40.484917901568338,56.1067],[176.5616561207089,-40.480035089068394,58.2331],[176.58680260508368,-40.484551690630951,8.3039],[176.6110945972714,-40.483330987505951,156.0626],[176.62830651133379,-40.460992120318451,0.0],[176.6392928394589,-40.389703057818394,0.0],[176.7033797535214,-40.288995050005894,0.0],[176.69300377695902,-40.290215753130951,0.0],[176.68384850352152,-40.294488214068451,0.0],[176.6759139332089,-40.301324151568338,0.0],[176.66932213633379,-40.310113214068338,0.0],[176.6728621753964,-40.289971612505894,0.0],[176.68177330820902,-40.273370050005894,0.0],[176.7067977222714,-40.245660089068451,0.1657],[176.7177840503964,-40.239556573443451,2.0276],[176.72681725352129,-40.244195245318394,0.0],[176.73536217539652,-40.252007745318394,0.0],[176.74488365977152,-40.255547784380838,0.0],[176.75330651133402,-40.252618096880951,0.0],[176.7968856128964,-40.221734307818451,0.0],[176.83716881602129,-40.176690362505838,0.0],[176.86158287852129,-40.139458917193394,0.2037],[176.87745201914652,-40.105157159380838,0.0],[176.8803817066464,-40.100518487505781,0.0],[176.8931990894589,-40.085259698443281,0.0],[176.89380944102129,-40.084161065630894,0.0],[176.8947860035214,-40.081841729693451,0.0],[176.89515221445879,-40.080621026568394,0.0],[176.8958846363339,-40.073907159380951,0.0269],[176.8941756519589,-40.048638604693281,0.0],[176.8949080738339,-40.035577081255951,0.0],[176.8993026050839,-40.026177667193394,0.0],[176.9128524097714,-40.009454034380951,0.0],[176.93433678477129,-39.968926690630951,0.0],[176.96766198008402,-39.880913995318394,1.1586],[176.9810897144589,-39.861382745318394,12.8479],[176.9863387378964,-39.858575128130951,0.0],[177.00184166758368,-39.853570245318394,0.0],[177.0057479175839,-39.851372979693394,0.0],[177.00757897227129,-39.844659112505951,0.0],[177.00696862070902,-39.838799737505838,0.0],[177.0057479175839,-39.834038995318338,0.0],[177.0057479175839,-39.830376885943394,0.0],[177.02833092539652,-39.763482354693451,0.0],[177.0362654957089,-39.752373956255894,0.0],[177.05921471445902,-39.745538018755838,0.0],[177.0715438160214,-39.739556573443451,0.0],[177.0824080738339,-39.731866143755894,0.0],[177.08692467539629,-39.724175714068338,0.0],[177.0974227222714,-39.699517510943394,0.0],[177.11512291758402,-39.679742120318451,0.0],[177.1187850269589,-39.666070245318394,0.0],[177.08692467539629,-39.659600518755838,0.0],[177.0528670582089,-39.663018487505894,179.4637],[177.03541100352118,-39.662652276568338,176.883],[177.0224715503964,-39.656182550005951,161.0728],[177.01539147227118,-39.650811456255894,113.4293],[176.9893904957089,-39.635552667193394,2.7285],[176.9729110035214,-39.628716729693451,3.4519],[176.96705162852129,-39.622979425005838,0.0],[176.96045983164618,-39.623345635943394,5.3526],[176.95045006602129,-39.637994073443451,48.338],[176.94764244883402,-39.650079034380951,106.7617],[176.9494735035214,-39.671563409380951,108.793],[176.94547998961002,-39.677387283834946,108.0581],[176.92859948008368,-39.668145440630894,16.733],[176.9309188160214,-39.640069268755951,13.0896],[176.95045006602129,-39.587090753130894,0.0],[176.94459069102152,-39.493951104693338,0.0],[176.93738854258379,-39.473443292193338,0.0],[176.92603600352129,-39.462334893755951,0.0],[176.91480553477129,-39.455254815630951,0.0],[176.90601647227129,-39.446343682818394,0.0],[176.90259850352129,-39.429742120318394,0.0],[176.9033309253964,-39.412163995318451,0.0],[176.90662682383402,-39.399102471880951,0.0],[176.91382897227129,-39.387749932818451,0.0],[176.92628014414652,-39.375054620318451,0.0],[176.93738854258379,-39.347466729693338,0.0],[176.94080651133368,-39.344292901568394,0.0],[176.96399987070879,-39.330010675005838,0.0],[177.0000106128964,-39.299615167193451,0.0],[177.0244246753964,-39.273980401568451,0.0],[177.03785240977152,-39.254449151568394,0.0],[177.0485945972714,-39.232354425005838,0.0],[177.0528670582089,-39.210259698443451,0.0],[177.06470787852129,-39.198174737505894,0.0],[177.3872176441464,-39.076226495318394,0.0],[177.4130965503964,-39.057793878130894,20.6019],[177.42237389414652,-39.060113214068394,0.0],[177.4314070972714,-39.066827081255951,0.0],[177.44373619883402,-39.070611260943338,0.0],[177.7636824878964,-39.079888604693451,0.0],[177.7789412769589,-39.084283135943281,0.0],[177.8094588550839,-39.100762628130951,0.0],[177.82007897227152,-39.104790948443451,0.0],[177.8331404957089,-39.089288018755894,0.0],[177.8518172535214,-39.088189385943451,0.0],[177.86622155039652,-39.096123956255951,0.0],[177.8652449878964,-39.107842706255951,125.0222],[177.8560897144589,-39.118951104693394,166.7304],[177.84717858164618,-39.133477471880951,2.6115],[177.83948815195879,-39.149712823443451,55.5509],[177.8342391285214,-39.166192315630951,105.4558],[177.8335067066464,-39.195733331255838,0.0],[177.84107506602118,-39.227715753130781,0.0],[177.8684188160214,-39.289117120318451,100.1922],[177.8835555347714,-39.276055596880951,0.0],[177.89942467539652,-39.266045831255951,0.0],[177.9118758472714,-39.254693292193451,0.0],[177.92042076914618,-39.222832940630951,0.0],[177.9441024097714,-39.172417901568451,0.0],[177.99878990977152,-39.128716729693451,0.0],[177.9847518238339,-39.103326104693338,74.1317],[177.95167076914652,-39.090142510943394,0.0],[177.8827010425839,-39.084283135943281,30.8116],[177.88990319102118,-39.064385675005894,0.0879],[177.90320885508402,-39.049615167193394,0.0],[177.9111434253964,-39.035088800005951,0.0],[177.90259850352129,-39.015435479693451,0.0],[177.90967858164629,-38.998711846880838,0.0],[177.91236412852152,-38.959527276568451,0.0],[177.9260360035214,-38.929986260943451,0.0],[177.93677819102152,-38.871392510943338,0.0],[177.9376326832089,-38.818902276568394,0.0],[177.9439803394589,-38.796563409380951,0.0],[177.96143639414618,-38.771783135943394,0.0],[177.96387780039652,-38.760186456255838,0.0],[177.95533287852118,-38.749200128130894,0.0],[177.93677819102152,-38.733575128130894,0.7733],[177.9345809253964,-38.728936456255951,0.0],[177.9315291675839,-38.718316339068394,0.6766],[177.9311629566464,-38.713067315630894,1.0717],[177.9323836597714,-38.701226495318394,1.5786],[177.93409264414629,-38.700860284380894,1.3931],[177.93506920664652,-38.700738214068394,1.3931],[177.9359236988339,-38.700494073443338,1.3931],[177.94227135508379,-38.702691339068338,0.5403],[177.95093834727118,-38.699395440630951,1.7671],[177.97193444102129,-38.687188409380951,0.0],[177.99720299570879,-38.682061456255894,0.0],[178.0227156910214,-38.686578057818338,0.0],[178.0620223316464,-38.715264581255894,0.0],[178.0797225269589,-38.707818292193394,0.0],[178.18165123789629,-38.637139581255894,0.0],[178.29444420664652,-38.538628839068394,0.0],[178.29993737070902,-38.530572198443451,0.0],[178.29920494883402,-38.465874932818394,0.0],[178.3034774097714,-38.457085870318394,0.0],[178.34119713633379,-38.441582940630951,0.0],[178.34815514414629,-38.433160089068394,0.0],[178.34876549570902,-38.418999932818281,0.0],[178.34290612070868,-38.408379815630838,0.0],[178.3326522144589,-38.401177667193451,75.7315],[178.32032311289629,-38.397759698443394,113.1896],[178.32703698008402,-38.384698175005894,65.2516],[178.32947838633379,-38.362725518755951,0.0],[178.33387291758379,-38.350030206255951,0.0],[178.3498641285214,-38.336114190630951,0.0],[178.35865319102129,-38.326592706255951,0.0],[178.3618270191464,-38.315240167193281,0.0],[178.3515731128964,-38.301934503130894,0.0],[178.3322860035214,-38.284356378130951,91.9545],[178.3183699878964,-38.264458917193394,161.4501],[178.32398522227152,-38.243829034380894,0.0],[178.3391219410214,-38.226617120318338,0.0],[178.35108483164652,-38.206841729693394,0.0],[178.35450280039652,-38.186822198443394,0.0],[178.32947838633379,-38.144707940630951,0.0],[178.3391219410214,-38.129082940630781,0.0],[178.3593856128964,-38.116997979693394,0.0],[178.37549889414652,-38.103570245318394,0.0],[178.38086998789629,-38.077569268755951,0.0],[178.37037194102118,-38.055718682818338,0.0],[178.3557235035214,-38.034844659380951,0.0],[178.34815514414629,-38.011407159380951,0.0],[178.3513289722714,-38.000664971880894,0.0],[178.35889733164652,-37.990899346880951,0.0],[178.37549889414652,-37.973809503130951,0.0],[178.3864852222714,-37.957940362505894,211.1921],[178.4145613941464,-37.895196221880894,0.0],[178.4289656910214,-37.873345635943394,0.0],[178.46497643320868,-37.853326104693394,0.0],[178.47889244883368,-37.828545831255838,0.0],[178.49903405039629,-37.782037042193451,0.0],[178.53687584727118,-37.750664971880781,0.0],[178.55567467539629,-37.725518487505894,0.0],[178.5642195972714,-37.716607354693451,0.0],[178.56605065195902,-37.699639581255951,0.0],[178.55042565195868,-37.679375909380894,0.0],[178.5286971363339,-37.661187432818338,0.0],[178.5127059253964,-37.651055596880894,0.0],[178.49793541758402,-37.645684503130894,0.0],[178.48536217539652,-37.643853448443281,3.7012],[178.45460045664629,-37.644219659380951,11.381],[178.44166100352152,-37.641167901568451,14.3655],[178.42237389414629,-37.627007745318394,0.0],[178.4099227222714,-37.623833917193451,0.0],[178.37476647227129,-37.623955987505894,0.0],[178.35792076914652,-37.622124932818451,0.0],[178.3413192066464,-37.616997979693394,0.0],[178.3303328785214,-37.610039971880894,0.0],[178.3120223316464,-37.594292901568394,25.8567],[178.2998153003964,-37.589654229693338,0.0],[178.2998153003964,-37.582818292193281,0.0],[178.3132430347714,-37.572076104693394,0.0],[178.3007918628964,-37.563775323443394,99.4479],[178.27759850352129,-37.558038018755951,78.6463],[178.03138268320902,-37.548516534380894,59.9794],[177.99195397227118,-37.541802667193451,0.0],[178.0036727222714,-37.557549737505951,49.3991],[178.00855553477129,-37.568658135943394,3.5844],[178.0051375660214,-37.578301690630838,64.5461],[177.99195397227118,-37.589654229693338,71.7761],[177.9731551441464,-37.596368096880951,63.6716],[177.9288436207089,-37.600030206255894,0.0],[177.9134627613339,-37.606744073443451,0.0],[177.8897811207089,-37.635552667193451,29.1451],[177.87647545664629,-37.646661065630894,25.7646],[177.85840905039652,-37.651055596880894,0.0],[177.83814537852129,-37.652154229693451,0.0],[177.7385360035214,-37.675103448443338,0.0],[177.73121178477118,-37.682183526568451,97.8299],[177.7287703785214,-37.693780206255894,47.0815],[177.72254479258379,-37.702813409380894,26.3803],[177.7074080738339,-37.716607354693451,0.0],[177.69593346445868,-37.734185479693394,26.3403],[177.6847029957089,-37.770684503130951,136.6183],[177.66920006602152,-37.788262628130894,90.5478],[177.62745201914618,-37.806329034380838,0.0],[177.62147057383379,-37.812432550005838,14.178],[177.61829674570868,-37.822198175005951,94.291],[177.6015731128964,-37.846612237505951,187.7715],[177.6015731128964,-37.872247003130951,10.3601],[177.59766686289652,-37.881158135943394,106.6385],[177.5872908863339,-37.891900323443451,51.1724],[177.5567733082089,-37.912774346880951,257.5041],[177.47938073008379,-37.950860284380894,0.0],[177.4611922535214,-37.963677667193338,81.2917],[177.43726647227152,-37.975518487505838,132.4514],[177.3476668628964,-37.980645440630894,0.0],[177.31788170664652,-37.986871026568451,0.0],[177.30665123789629,-37.987481378130894,0.0],[177.29993737070902,-37.990655206255894,0.0],[177.2998153003964,-37.997735284380838,1.9828],[177.30054772227129,-38.004815362505951,4.3901],[177.2963973316464,-38.007989190630894,4.2575],[177.29053795664629,-38.009820245318394,4.0711],[177.2862654957089,-38.013116143755781,5.0612],[177.28162682383402,-38.014703057818338,2.6704],[177.2756453785214,-38.011407159380951,4.7808],[177.26478112070879,-37.996392510943338,0.2508],[177.26233971445902,-37.994317315630951,3.4526],[177.19678795664629,-37.994317315630951,2.5884],[177.18397057383402,-37.989190362505951,0.0],[177.1755477222714,-37.981866143755894,0.0],[177.1659041675839,-37.977227471880838,0.0],[177.14905846445902,-37.980645440630894,0.0],[177.1563826832089,-37.991021417193394,0.427],[177.16065514414629,-38.004937432818394,4.3282],[177.15821373789652,-38.017022393755951,30.7851],[177.14527428477118,-38.022271417193281,40.5889],[177.1308699878964,-38.020440362505951,0.0],[177.1180526050839,-38.015679620318451,0.0],[177.0717879566464,-37.989678643755894,0.0],[177.0658065113339,-37.983453057818451,0.0],[177.07679283945902,-37.980645440630894,11.7932],[177.1353865894589,-37.980645440630894,0.0],[177.0976668628964,-37.964043878130894,0.0],[177.0046492847714,-37.954278253130951,108.263],[176.94996178477118,-37.926568292193394,2.9547],[176.8820906910214,-37.918633721880894,3.1689],[176.82178795664618,-37.900201104693281,-0.1827],[176.7585555347714,-37.891900323443451,15.818],[176.71802819102118,-37.876519464068338,156.4904],[176.51832115977152,-37.760918878130894,0.0],[176.5063582691464,-37.767754815630894,0.0],[176.4995223316464,-37.764703057818394,0.0],[176.49524987070868,-37.758111260943451,0.0],[176.49048912852118,-37.754082940630951,0.0],[176.46033776133402,-37.754082940630951,19.4572],[176.4480086597714,-37.749810479693451,0.0],[176.42408287852152,-37.731133721880894,0.0],[176.41248619883379,-37.726861260943394,0.0],[176.38367760508368,-37.721490167193451,0.0],[176.32337487070902,-37.698052667193394,0.0],[176.29590905039652,-37.692681573443281,0.0],[176.27149498789652,-37.681451104693394,0.0],[176.2360945972714,-37.630547784380894,0.0],[176.2166854175839,-37.616997979693394,0.0],[176.20337975352152,-37.620904229693394,0.0],[176.2086287769589,-37.634942315630894,0.0],[176.2309676441464,-37.664727471880951,0.0],[176.2447615894589,-37.713189385943451,22.963],[176.22986901133379,-37.714532159380951,0.8933],[176.21387780039652,-37.718316339068451,36.4348],[176.2014266285214,-37.718682550005838,5.3043],[176.19629967539629,-37.709771417193394,0.0],[176.19654381602152,-37.692803643755894,0.0],[176.1954451832089,-37.680474542193281,0.4429],[176.18970787852129,-37.671563409380894,2.7827],[176.1764022144589,-37.664727471880951,0.0],[176.15723717539652,-37.662286065630894,0.0],[176.1506453785214,-37.670220635943394,10.0477],[176.1455184253964,-37.680596612505894,2.2121],[176.13111412852152,-37.685845635943394,28.3767],[176.1208602222714,-37.680108331255951,1.1193],[176.11255944102129,-37.669488214068451,0.0],[176.1025496753964,-37.663506768755951,0.0],[176.08704674570902,-37.672173760943451,20.1659],[176.07728112070879,-37.657403253130951,0.0],[176.07142174570902,-37.642876885943338,20.2546],[176.06324303477118,-37.630791925005951,0.0],[176.04542076914629,-37.623833917193451,0.0],[176.04200280039629,-37.625787042193394,0.0],[176.0380965503964,-37.630791925005951,0.0],[176.03272545664618,-37.635796807818394,0.0],[176.0250350269589,-37.638116143755951,0.6907],[176.00733483164652,-37.637383721880951,21.2718],[176.00220787852118,-37.635308526568394,0.7119],[175.9970809253964,-37.630669854693338,0.0],[175.9953719410214,-37.625664971880894,1.0298],[175.99073326914652,-37.603326104693451,0.0],[175.99244225352152,-37.599786065630951,0.069],[175.9963485035214,-37.594414971880838,0.1515],[175.99891198008402,-37.588433526568451,0.0],[175.9970809253964,-37.582818292193281,0.0],[175.99305260508368,-37.580987237505951,0.0],[175.9824324878964,-37.579278253130951,0.1352],[175.9770613941464,-37.575982354693394,0.0],[175.97645104258368,-37.576104425005838,0.0],[175.97510826914652,-37.576226495318451,0.0],[175.9743758472714,-37.576348565630951,2.5376],[175.96937096445902,-37.577813409380894,5.9144],[175.9633895191464,-37.576592706255838,0.0],[175.95679772227152,-37.569146417193338,0.0],[175.9549666675839,-37.562066339068394,0.0],[175.9563094410214,-37.554620050005894,0.0],[175.9593611988339,-37.547539971880951,0.0],[175.96290123789652,-37.541802667193451,0.0],[175.95826256602129,-37.537774346880838,0.0],[175.94910729258379,-37.526788018755894,12.3373],[175.94300377695879,-37.520806573443338,36.2015],[175.98975670664652,-37.513604425005894,0.0],[176.0156356128964,-37.514703057818338,19.1811],[176.03516686289652,-37.524468682818451,11.0569],[176.04908287852152,-37.537286065630894,21.0712],[176.0658065113339,-37.549615167193451,1.0679],[176.10059655039652,-37.569146417193338,0.0],[176.06934655039618,-37.578301690630838,0.0],[176.0590926441464,-37.582818292193281,10.9937],[176.07557213633379,-37.595269464068394,11.5275],[176.09083092539629,-37.597344659380894,6.5951],[176.10572350352152,-37.595513604693451,33.2265],[176.12122643320868,-37.596490167193394,0.0],[176.13318932383402,-37.601372979693394,0.0],[176.1689559253964,-37.623833917193451,0.0],[176.16504967539652,-37.606499932818394,0.0],[176.1529647144589,-37.594048760943338,0.0],[176.12440026133379,-37.572564385943394,0.0],[176.1159774097714,-37.560601495318451,0.0],[176.10035240977129,-37.530938409380781,0.0],[176.09009850352152,-37.517632745318394,0.0],[176.0764266285214,-37.506036065630951,0.0],[176.05958092539652,-37.495171807818451,0.0],[176.04163658945902,-37.486138604693394,0.0],[176.0250350269589,-37.480401300005951,0.0],[175.98462975352152,-37.475274346880894,0.0],[175.9753524097714,-37.468804620318394,0.0],[175.98328698008402,-37.453057550005894,0.0],[175.9914656910214,-37.451714776568394,0.0],[175.9990340503964,-37.457452081255894,0.0],[176.0041610035214,-37.459283135943338,0.0],[176.0045272144589,-37.446343682818451,0.0],[176.00049889414629,-37.437920831255838,0.0],[175.9864608082089,-37.429131768755894,0.0],[175.98328698008402,-37.422051690630894,0.0],[175.9792586597714,-37.407403253130838,0.0],[175.9609481128964,-37.376275323443394,0.0],[175.95679772227152,-37.360284112505894,0.0],[175.95461676440178,-37.337997449275143,0.0],[175.9528914722714,-37.320367120318281,0.0],[175.94300377695879,-37.281182550005951,0.0],[175.93336022227129,-37.262994073443394,0.0],[175.9217635425839,-37.253594659380951,0.0],[175.8878279957089,-37.240777276568394,112.5862],[175.9011336597714,-37.229424737505894,0.0],[175.8996688160214,-37.212090753130838,0.0],[175.8922225269589,-37.190240167193394,0.0],[175.8878279957089,-37.165093682818451,0.0],[175.8952742847714,-37.165093682818451,0.0],[175.8999129566464,-37.176080010943451,0.0],[175.9055281910214,-37.185845635943394,0.0],[175.9129744800839,-37.193780206255838,0.0],[175.92261803477152,-37.199273370318394,0.0],[175.9177352222714,-37.186089776568281,0.0],[175.91920006602152,-37.157037042193394,0.0],[175.91578209727152,-37.144585870318451,0.0],[175.9071151050839,-37.141045831255838,0.0],[175.8938094410214,-37.139336846880838,0.0],[175.88355553477152,-37.135918878130951,9.0692],[175.8847762378964,-37.127496026568338,57.0312],[175.90149987070868,-37.104913018755951,0.0],[175.91614830820902,-37.078667901568338,0.0],[175.9194442066464,-37.053399346880838,0.0],[175.90149987070868,-37.034722589068451,0.0],[175.8950301441464,-37.042901300005894,0.0],[175.88367760508379,-37.053643487505894,225.7362],[175.8729354175839,-37.059136651568451,265.7048],[175.86793053477118,-37.052178643755951,238.3476],[175.87208092539652,-37.041802667193451,312.0884],[175.8803817066464,-37.030816339068451,179.5675],[175.88672936289629,-37.020074151568394,0.0],[175.8847762378964,-37.010186456255894,0.0],[175.88453209727129,-37.004571221880838,0.0],[175.8878279957089,-36.972710870318394,0.0],[175.8816024097714,-36.924859307818451,0.0],[175.87745201914652,-36.911675714068394,0.0],[175.87305748789652,-36.903741143755894,0.0],[175.85743248789618,-36.887383721880951,0.0],[175.85303795664652,-36.876641534380894,0.0],[175.8542586597714,-36.850762628130951,0.0],[175.8505965503964,-36.839898370318451,0.0],[175.8277694019589,-36.824517510943338,0.0],[175.78687584727129,-36.831719659380951,89.7624],[175.76490319102152,-36.822442315630951,35.6726],[175.7518416675839,-36.835992120318451,0.0],[175.7595320972714,-36.867364190630951,7.7542],[175.7437850269589,-36.877740167193338,126.5679],[175.74463951914629,-36.888848565630894,184.304],[175.7365828785214,-36.889214776568451,211.7092],[175.72461998789629,-36.882989190630838,138.8444],[175.71338951914652,-36.873955987505951,1.2397],[175.71094811289618,-36.866021417193451,60.7652],[175.71473229258402,-36.858697198443451,170.6531],[175.71546471445879,-36.851495050005894,163.7696],[175.70350182383402,-36.843560479693394,0.0],[175.7182723316464,-36.822686456255894,0.0],[175.73414147227129,-36.805108331255951,0.0],[175.74659264414652,-36.796929620318394,0.0],[175.77234948008402,-36.788506768755951,0.0],[175.7854110035214,-36.781548760943451,0.0],[175.8046981128964,-36.752251885943451,0.0],[175.8095809253964,-36.747369073443338,0.0],[175.83777916758402,-36.750420831255838,0.0],[175.8481551441464,-36.746880792193394,0.0],[175.8535262378964,-36.733697198443394,0.0],[175.8515731128964,-36.717095635943394,0.0],[175.84119713633402,-36.718316339068451,0.0],[175.8277694019589,-36.724419854693451,0.0],[175.81641686289652,-36.722832940630894,7.8447],[175.80323326914652,-36.710992120318394,0.0],[175.7905379566464,-36.706353448443338,1.5445],[175.7762557300839,-36.707207940630894,43.2193],[175.75806725352118,-36.712701104693451,1.6596],[175.73340905039652,-36.728936456255894,23.8897],[175.71888268320879,-36.734673760943394,42.228],[175.70655358164652,-36.730035089068451,2.793],[175.6955672535214,-36.723077081255951,0.0],[175.68152916758402,-36.721123956255894,0.0],[175.66895592539652,-36.724663995318338,0.0],[175.6618758472714,-36.733697198443394,3.5388],[175.6679793628964,-36.734795831255951,10.5277],[175.6823836597714,-36.739922784380838,55.9929],[175.64185631602152,-36.765435479693451,1.0502],[175.62794030039652,-36.762749932818451,25.392],[175.62086022227129,-36.733697198443394,0.0],[175.62415612070902,-36.723687432818394,0.0],[175.6308699878964,-36.713677667193394,0.0],[175.63428795664629,-36.703423760943451,0.0],[175.6276961597714,-36.692071221880951,0.0],[175.61670983164652,-36.689263604693394,0.0],[175.58790123789652,-36.692803643755894,244.9144],[175.5765486988339,-36.688775323443394,49.5075],[175.57056725352118,-36.677300714068451,0.0],[175.57398522227152,-36.668633721880951,77.5126],[175.5836287769589,-36.666558526568394,0.0],[175.59669030039652,-36.675103448443451,0.0],[175.60718834727118,-36.679375909380838,0.0],[175.60987389414629,-36.666436456255951,0.0],[175.60718834727118,-36.640923760943394,0.0],[175.59986412852129,-36.614556573443451,0.0],[175.58179772227152,-36.609917901568394,0.0],[175.5592147144589,-36.609551690630894,119.7058],[175.53834069102118,-36.595879815630894,0.0],[175.56006920664652,-36.576226495318451,0.0],[175.56190026133379,-36.550591729693394,0.0],[175.55030358164652,-36.525323175005894,0.0],[175.5321151050839,-36.506524346880894,0.0],[175.50586998789652,-36.530328057818451,163.682],[175.4958602222714,-36.529351495318338,110.9528],[175.4751082691464,-36.513360284380951,40.795],[175.4670516285214,-36.509698175005894,0.0],[175.4632674488339,-36.506524346880894,0.0],[175.46107018320902,-36.503472589068394,0.0],[175.45704186289652,-36.495538018755951,0.0],[175.45093834727152,-36.486504815630894,0.0],[175.44678795664618,-36.478448175005951,0.0],[175.4403182300839,-36.473443292193394,0.0],[175.4069930347714,-36.479180596880894,74.5718],[175.38245690195902,-36.475640557818394,81.1414],[175.3623153003964,-36.475640557818394,43.5517],[175.35401451914629,-36.489800714068451,108.6953],[175.35694420664618,-36.528374932818394,588.0771],[175.36182701914629,-36.544732354693451,228.2985],[175.37049401133368,-36.558038018755894,107.7309],[175.38709557383379,-36.570367120318338,39.8883],[175.42444908945902,-36.581719659380838,38.5013],[175.4421492847714,-36.589654229693451,119.8358],[175.46033776133379,-36.610406182818394,6.5652],[175.4632674488339,-36.612969659380894,0.153],[175.46753990977152,-36.621758721880894,0.0],[175.47767174570902,-36.625054620318451,49.0208],[175.4890242847714,-36.626641534380838,201.7475],[175.49732506602118,-36.630059503130838,334.8148],[175.50220787852129,-36.652642510943394,118.908],[175.4893904957089,-36.676934503130951,304.5931],[175.48218834727129,-36.703545831255951,241.6234],[175.50489342539629,-36.733697198443394,121.2696],[175.4985457691464,-36.743829034380894,45.1666],[175.4992781910214,-36.754082940630951,15.7334],[175.50416100352152,-36.764336846880838,10.2237],[175.51099694102129,-36.774102471880781,10.5682],[175.51612389414629,-36.769219659380951,61.7848],[175.5321151050839,-36.760430596880838,258.3021],[175.53699791758368,-36.784966729693451,187.3406],[175.5202742847714,-36.796685479693451,67.0134],[175.4701033863339,-36.808160089068451,0.0],[175.47632897227152,-36.810357354693451,49.6536],[175.48218834727129,-36.813164971880838,106.1764],[175.48890221445902,-36.815484307818451,62.6393],[175.49732506602118,-36.815606378130894,33.9502],[175.4910994800839,-36.825738214068394,173.0085],[175.4806014332089,-36.830132745318394,73.2535],[175.46815026133368,-36.832330010943394,13.7165],[175.4558211597714,-36.836114190630894,25.676],[175.4696151050839,-36.842217706255894,0.4911],[175.4849959644589,-36.844170831255838,53.7516],[175.5178328785214,-36.843560479693394,214.23],[175.5029403003964,-36.860650323443394,86.701],[175.4812117847714,-36.860772393755951,13.686],[175.4571639332089,-36.857232354693338,83.5944],[175.4360457691464,-36.863457940630951,198.0813],[175.4487410816464,-36.872857354693394,265.3517],[175.45399010508402,-36.882989190630838,217.6354],[175.4571639332089,-36.893609307818451,141.0817],[175.4632674488339,-36.904473565630951,241.5957],[175.47364342539652,-36.913384698443394,238.4329],[175.4989119800839,-36.928155206255894,154.6163],[175.51099694102129,-36.937920831255838,137.5665],[175.52076256602152,-36.949639581255838,282.0445],[175.5275985035214,-36.961236260943394,107.4632],[175.5511580738339,-37.023003839068451,221.3519],[175.55579674570879,-37.031060479693394,239.504],[175.5605574878964,-37.043389581255838,347.2872],[175.55945885508402,-37.096123956255838,375.7012],[175.56251061289652,-37.110650323443451,412.8376],[175.5799666675839,-37.140923760943394,231.7673],[175.58216393320902,-37.153497003130894,77.6793],[175.5914412769589,-37.180352471880951,99.3721],[175.59538787173975,-37.2105323143226,2.4943],[175.57360257788815,-37.200273449442953,0.7922],[175.57374108164629,-37.193902276568451,1.9937],[175.5708113941464,-37.183282159380894,10.083],[175.56251061289652,-37.178765557818394,1.7411],[175.54859459727152,-37.180840753130951,3.1009],[175.54322350352129,-37.185967706255781,0.6345]],
[[175.7210943948561,-38.866977074016347,445.7251],[175.97986077924031,-38.956206861734984,583.3352],[176.02447567309946,-39.194152962318014,1197.1469],[175.91442560157975,-39.506457219333242,797.1609],[175.67647950099695,-39.637327574653909,650.8621],[175.32848332889409,-39.494559914304091,591.5209],[175.29279141380664,-39.247690834949196,654.065],[175.41295419460084,-39.0210471741442,627.2948],[175.55750645070543,-38.899694662846514,656.6112],[175.7210943948561,-38.866977074016347,445.7251]]]}
,"properties": {"featurecla": "Island","name": "NORTH ISLAND","namealt": null,"region": "Oceania","subregion": "New Zealand","min_label": 4.0,"max_label": 7.0,"scalerank": 2,"area_km2": 109908.26,"hist_schema_id": "Elevation0-9000","hist_area_km2": {"-25": 1.31,"0": 8148.13,"25": 7079.93,"50": 6708.5,"75": 5957.65,"100": 5439.53,"125": 5056.29,"150": 4949.34,"175": 4851.91,"200": 4703.58,"225": 4439.55,"250": 4073.48,"275": 3923.96,"300": 3754.7,"325": 3414.34,"350": 3681.94,"375": 2805.55,"400": 2586.39,"425": 2433.5,"450": 2313.9,"475": 2168.89,"500": 2020.75,"525": 1931.74,"550": 1849.07,"575": 1641.9,"600": 1339.84,"625": 1197.54,"650": 1100.22,"675": 1009.91,"700": 920.53,"725": 907.52,"750": 789.24,"775": 700.63,"800": 612.67,"825": 560.09,"850": 501.52,"875": 493.88,"900": 453.64,"925": 396.98,"950": 355.82,"975": 313.59,"1000": 271.41,"1025": 240.18,"1050": 217.5,"1075": 196.8,"1100": 174.55,"1125": 165.34,"1150": 147.24,"1175": 132.9,"1200": 117.38,"1225": 106.92,"1250": 95.78,"1275": 83.52,"1300": 72.55,"1325": 61.29,"1350": 50.5,"1375": 41.8,"1400": 33.03,"1425": 25.06,"1450": 18.79,"1475": 14.46,"1500": 11.48,"1525": 8.99,"1550": 6.59,"1575": 5.41,"1600": 4.35,"1625": 3.4,"1650": 2.29,"1675": 1.54,"1700": 1.08}}}