{"type":"Feature","properties":{"GID_2":"NZL.12.3_1","GID_0":"NZL","country":"NewZealand","GID_1":"NZL.12_1","province":"Otago","NL_NAME_1":"NA","county":"Dunedin","VARNAME_2":"NA","NL_NAME_2":"NA","TYPE_2":"City","ENGTYPE_2":"City","CC_2":"071","HASC_2":"NZ.OT.DU","name":"Dunedin.county"},
"geometry":{"type": "MultiPolygon","coordinates": [[[[170.7162,-45.8801,0.0],[170.7149,-45.8791,0.0],[170.7137,-45.8796,0.0],[170.7156,-45.8806,0.0],[170.7162,-45.8801,0.0]]],
[[[170.6412,-45.8377,0.0],[170.6399,-45.8378,0.0],[170.6399,-45.8387,0.0],[170.6413,-45.8384,0.0],[170.6412,-45.8377,0.0]]],
[[[170.6702,-45.8331,3.128],[170.67,-45.8332,3.128],[170.6701,-45.8333,3.128],[170.6703,-45.8332,33.3137],[170.6702,-45.8331,3.128]]],
[[[170.6322,-45.8262,0.0],[170.6288,-45.827,7.2314],[170.6331,-45.8285,1.8448],[170.6324,-45.8304,0.0],[170.6355,-45.8311,0.0],[170.6377,-45.8293,0.0],[170.6347,-45.8284,19.3428],[170.6322,-45.8262,0.0]]],
[[[170.6271,-45.8229,0.0],[170.6254,-45.8245,18.2769],[170.627,-45.826,10.312],[170.6278,-45.8253,0.0],[170.6271,-45.8229,0.0]]],
[[[170.3136,-45.261,529.729],[170.3138,-45.2358,493.9003],[170.2586,-45.2363,366.7911],[170.2578,-45.2295,324.371],[170.2545,-45.229,341.1901],[170.2319,-45.2325,552.8615],[170.2281,-45.2317,563.3691],[170.2166,-45.2347,676.3091],[170.2165,-45.2573,755.8007],[170.1865,-45.265,931.9655],[170.1858,-45.2721,731.5076],[170.1817,-45.2768,809.1204],[170.1772,-45.2877,1010.3485],[170.1628,-45.3103,1122.3524],[170.1593,-45.3234,1194.4636],[170.1563,-45.3276,1182.4404],[170.1367,-45.3424,1221.5774],[170.1201,-45.3525,1295.0157],[170.1292,-45.3674,1250.0421],[170.1282,-45.3802,1196.4462],[170.1077,-45.3963,1277.3351],[170.0862,-45.4089,1370.2131],[170.0726,-45.4238,1411.8721],[170.0642,-45.4408,1326.4993],[170.0527,-45.4538,1352.7112],[170.0307,-45.4737,1226.8778],[170.0295,-45.4765,1240.15],[170.0158,-45.4804,1264.191],[170.0063,-45.4811,1230.2755],[170.0052,-45.4839,1240.3193],[169.9964,-45.4775,1270.079],[169.9941,-45.4779,1256.0497],[169.9881,-45.4795,1221.7458],[169.9842,-45.4852,1173.9478],[169.9797,-45.4867,1148.429],[169.9641,-45.4896,1013.3889],[169.9506,-45.495,994.0655],[169.9399,-45.496,963.415],[169.9313,-45.4993,966.2951],[169.9064,-45.4971,915.9979],[169.9091,-45.5014,821.087],[169.91,-45.5114,945.7288],[169.9133,-45.5154,922.684],[169.9138,-45.5232,844.6903],[169.9061,-45.5422,825.5],[169.8973,-45.5397,825.5],[169.8621,-45.5488,825.5],[169.8559,-45.5478,829.4786],[169.8426,-45.5493,849.6595],[169.8252,-45.5544,853.073],[169.8137,-45.5608,869.8525],[169.8115,-45.5643,901.9248],[169.813,-45.5665,909.6797],[169.8119,-45.5713,908.9808],[169.8184,-45.574,937.183],[169.8188,-45.5759,934.7895],[169.8119,-45.5819,950.4639],[169.8091,-45.5949,988.4299],[169.8043,-45.5968,999.3601],[169.804,-45.6013,999.1933],[169.8017,-45.6034,1011.1756],[169.8042,-45.611,1023.3275],[169.8017,-45.6138,1045.2921],[169.8016,-45.616,1062.0076],[169.8033,-45.617,1067.1536],[169.803,-45.6216,1082.9254],[169.7991,-45.6248,1087.9684],[169.798,-45.6297,1095.6763],[169.7938,-45.6328,1097.9126],[169.7953,-45.6352,1108.5984],[169.794,-45.6367,1106.7018],[169.7964,-45.6376,1101.8054],[169.7957,-45.6422,1109.8328],[169.7887,-45.6458,1119.1863],[169.7871,-45.6499,1126.983],[169.7801,-45.6532,1114.1884],[169.778,-45.6558,1110.4014],[169.7782,-45.6606,1104.3608],[169.7822,-45.6624,1085.8455],[169.7809,-45.668,1094.8344],[169.7717,-45.6694,1092.0361],[169.7615,-45.6744,1105.2253],[169.7572,-45.6795,1111.1425],[169.7583,-45.6835,1116.0153],[169.7569,-45.6849,1120.8281],[169.7574,-45.6887,1115.3795],[169.7538,-45.6906,1102.5537],[169.7541,-45.6934,1108.9907],[169.7504,-45.6972,1119.9333],[169.751,-45.6989,1124.9968],[169.741,-45.7022,1114.9475],[169.7397,-45.7039,1120.4585],[169.7415,-45.7081,1137.1443],[169.7366,-45.7123,1144.1469],[169.737,-45.7152,1143.1598],[169.7405,-45.7169,1151.407],[169.7394,-45.72,1154.8853],[169.744,-45.7334,1116.6821],[169.7534,-45.7352,1073.0767],[169.7605,-45.7416,1070.7866],[169.761,-45.7576,1007.6039],[169.7586,-45.7611,973.1724],[169.7757,-45.7689,910.5311],[169.7847,-45.7704,901.4264],[169.7968,-45.7781,947.8658],[169.8181,-45.7755,917.0624],[169.8198,-45.7709,930.3516],[169.8244,-45.768,932.9607],[169.8271,-45.7632,916.8789],[169.8388,-45.7619,906.9185],[169.8568,-45.7533,713.5816],[169.8716,-45.7544,728.2816],[169.8707,-45.7564,740.3458],[169.8719,-45.7592,741.6588],[169.875,-45.7622,741.8996],[169.8791,-45.763,728.4246],[169.8838,-45.759,712.2305],[169.8908,-45.7581,705.4473],[169.8976,-45.7496,704.319],[169.9044,-45.7462,714.9932],[169.907,-45.7353,718.8666],[169.9035,-45.7311,731.4848],[169.9104,-45.7255,699.9324],[169.9146,-45.7178,721.8463],[169.9193,-45.7144,716.9763],[169.9241,-45.7171,701.4788],[169.9331,-45.716,675.0491],[169.9407,-45.7176,653.3809],[169.9459,-45.7207,558.6744],[169.9496,-45.7239,537.5452],[169.9483,-45.7278,523.718],[169.9515,-45.7283,521.5538],[169.9497,-45.7315,523.3748],[169.9525,-45.7328,504.3423],[169.9523,-45.7356,499.4944],[169.9567,-45.7381,483.6903],[169.9579,-45.744,494.4355],[169.9624,-45.743899999999996,498.7737],[169.9645,-45.7483,482.5181],[169.9684,-45.7475,488.5604],[169.968,-45.7496,495.7443],[169.9735,-45.7529,478.3252],[169.9732,-45.7542,460.855],[169.9759,-45.754,464.6093],[169.976,-45.7557,463.8799],[169.994,-45.751,450.1069],[169.9951,-45.7533,459.3891],[169.9979,-45.7528,453.0056],[169.9968,-45.7539,427.3846],[170.0022,-45.7592,404.8651],[170.0061,-45.7601,389.8353],[170.0058,-45.7628,381.3019],[170.0076,-45.7636,364.8567],[170.0069,-45.7668,342.3968],[170.0108,-45.7707,343.9349],[170.0142,-45.77,350.7723],[170.0152,-45.7721,340.5217],[170.0214,-45.7729,361.643],[170.0222,-45.7745,365.1655],[170.0302,-45.7771,334.2655],[170.0354,-45.776,342.4822],[170.0377,-45.7783,331.7333],[170.0423,-45.7784,338.2899],[170.0417,-45.7796,331.2995],[170.0459,-45.7812,338.3873],[170.0506,-45.7788,326.5731],[170.0503,-45.8546,595.5482],[170.0218,-45.8545,434.3805],[170.0213,-45.919,78.9809],[170.0229,-45.9185,96.5712],[170.024,-45.9224,57.2847],[170.021,-45.9229,100.5811],[170.0208,-45.9243,60.4143],[170.0229,-45.9269,56.004],[170.0306,-45.9256,48.7059],[170.0297,-45.9277,49.1416],[170.0399,-45.9276,54.0013],[170.0393,-45.9295,60.1583],[170.0427,-45.9288,52.1774],[170.0475,-45.9313,71.0612],[170.0551,-45.9278,50.7171],[170.0662,-45.9306,37.6881],[170.0669,-45.9292,40.6872],[170.0701,-45.9298,60.8897],[170.0746,-45.927,24.9523],[170.0838,-45.9265,8.3392],[170.0862,-45.9305,6.9159],[170.0947,-45.9317,6.2757],[170.0919,-45.9336,6.2656],[170.0938,-45.9368,5.5477],[170.0963,-45.9368,5.3667],[170.0946,-45.938,4.824],[170.0963,-45.9394,4.8776],[170.0942,-45.942,4.1851],[170.0913,-45.9414,6.4118],[170.0972,-45.9449,6.5884],[170.099,-45.944,3.5839],[170.1002,-45.9456,5.9797],[170.1021,-45.9454,3.3746],[170.1008,-45.9495,2.366],[170.0994,-45.9496,1.9433],[170.1,-45.9513,1.8321],[170.1034,-45.9496,2.1914],[170.1064,-45.952,1.3495],[170.1145,-45.9503,0.943],[170.1234,-45.9539,1.2452],[170.1273,-45.9602,-0.0704],[170.1263,-45.9632,2.3935],[170.1294,-45.9691,0.108],[170.1243,-45.9718,1.1231],[170.1223,-45.9752,0.5619],[170.1172,-45.9775,1.0575],[170.1083,-45.9785,0.9483],[170.1068,-45.9779,0.835],[170.1082,-45.9769,0.835],[170.1063,-45.9764,0.7876],[170.1033,-45.9778,0.6667],[170.107,-45.9818,0.8069],[170.1074,-45.9859,0.6018],[170.1125,-45.9848,0.5315],[170.1189,-45.9902,0.7831],[170.1266,-45.993899999999996,0.1497],[170.1361,-45.9947,3.8878],[170.141,-45.9926,0.2094],[170.1498,-45.9917,0.7286],[170.1594,-45.9962,5.807],[170.1679,-46.0044,1.8479],[170.1707,-46.0118,0.0],[170.2037,-46.0521,2.3473],[170.2129,-46.0511,0.728],[170.2138,-46.0463,0.0],[170.2197,-46.0379,0.0],[170.2447,-46.0088,0.0],[170.2598,-45.9989,0.0],[170.2687,-45.9873,1.6158],[170.2826,-45.976,3.3191],[170.2896,-45.968,0.0],[170.3041,-45.9595,0.0],[170.3355,-45.9494,1.5198],[170.3369,-45.9479,0.0],[170.3362,-45.946,19.2168],[170.342,-45.9427,1.2127],[170.4029,-45.9306,0.0],[170.4276,-45.9288,17.9914],[170.4323,-45.9323,18.6673],[170.4356,-45.9299,0.0],[170.4356,-45.9268,14.8361],[170.4433,-45.9233,24.6393],[170.4509,-45.9246,0.0],[170.4518,-45.9235,42.6803],[170.4504,-45.9232,42.6803],[170.4578,-45.9211,54.2781],[170.4593,-45.922,0.0748],[170.4605,-45.9201,6.1412],[170.465,-45.9215,0.0],[170.4653,-45.9201,16.2138],[170.4713,-45.9207,0.0],[170.4727,-45.9193,53.3087],[170.4812,-45.919,14.8937],[170.4863,-45.9175,16.9453],[170.4855,-45.9163,16.9453],[170.4887,-45.9145,0.6587],[170.4884,-45.9132,0.6587],[170.4982,-45.9107,0.0],[170.5298,-45.9082,0.0],[170.5355,-45.9106,9.1764],[170.5403,-45.9049,15.3097],[170.5401,-45.9076,0.0],[170.554,-45.9076,37.2964],[170.5586,-45.9092,0.0],[170.5654,-45.9061,36.2617],[170.5645,-45.9081,0.0],[170.5674,-45.9095,46.6724],[170.5836,-45.9039,78.5775],[170.5931,-45.9033,0.0],[170.6062,-45.8976,11.5096],[170.6232,-45.8978,39.7004],[170.625,-45.899,9.449],[170.6275,-45.898,35.5478],[170.6316,-45.9005,28.6037],[170.6322,-45.9028,2.1727],[170.6411,-45.8965,0.0],[170.6512,-45.8985,0.0],[170.6525,-45.9015,0.0],[170.6591,-45.8985,8.5907],[170.6631,-45.9038,0.0],[170.6759,-45.8962,81.3769],[170.6859,-45.8949,0.0],[170.6855,-45.8927,19.0298],[170.6872,-45.892,0.0],[170.6837,-45.8905,7.6149],[170.685,-45.8889,0.1782],[170.6828,-45.8892,1.7264],[170.6782,-45.8851,69.0316],[170.679,-45.879,2.2145],[170.6738,-45.8794,1.5417],[170.6701,-45.8753,19.5936],[170.6678,-45.871,16.1997],[170.6696,-45.8688,7.319],[170.6662,-45.867,2.8117],[170.6636,-45.8688,1.1944],[170.6633,-45.8657,0.0],[170.6595,-45.8666,2.8672],[170.658,-45.8649,0.1655],[170.6624,-45.8591,0.0],[170.6606,-45.851,12.8128],[170.6771,-45.857,8.7086],[170.6824,-45.8572,6.7347],[170.6868,-45.8623,0.569],[170.6874,-45.8695,0.0],[170.6739,-45.8721,0.0],[170.6814,-45.8774,6.1904],[170.6812,-45.8815,0.0],[170.7003,-45.8759,3.4734],[170.7098,-45.8751,0.0],[170.7169,-45.8774,15.2881],[170.7206,-45.876,92.1317],[170.7235,-45.8769,8.9902],[170.725,-45.8797,5.2382],[170.7297,-45.882,1.3995],[170.7321,-45.8801,0.0],[170.7311,-45.8784,38.8655],[170.7335,-45.876,75.1214],[170.7364,-45.8761,130.5055],[170.738,-45.8792,0.0],[170.741,-45.8782,13.4722],[170.7479,-45.8729,12.6421],[170.7463,-45.8713,45.9175],[170.7507,-45.8678,0.0],[170.7484,-45.8659,3.9341],[170.7437,-45.8657,0.0],[170.7415,-45.8615,16.9076],[170.7431,-45.8579,6.7885],[170.7492,-45.8558,11.1411],[170.7428,-45.8493,12.8211],[170.7485,-45.8459,0.0],[170.7301,-45.8477,1.5796],[170.7203,-45.8469,21.2905],[170.717,-45.8497,20.1071],[170.7095,-45.8486,18.3997],[170.6949,-45.8545,0.0],[170.6909,-45.8546,12.5004],[170.6837,-45.8521,0.6221],[170.6828,-45.8472,0.0],[170.6802,-45.8462,21.3061],[170.6845,-45.8446,0.0],[170.6875,-45.8401,2.5687],[170.6955,-45.8381,0.0],[170.719,-45.8451,0.0],[170.7323,-45.8451,0.0],[170.7305,-45.835,0.0],[170.7338,-45.8231,0.0],[170.738,-45.816,42.3484],[170.7469,-45.8147,0.0],[170.7438,-45.8143,0.0],[170.7439,-45.8123,0.0],[170.7478,-45.806399999999996,66.9231],[170.7509,-45.8046,0.0],[170.7504,-45.8027,0.0],[170.7452,-45.8038,4.3447],[170.7411,-45.7963,24.5067],[170.7426,-45.7931,0.0],[170.741,-45.7911,0.0],[170.7425,-45.7878,6.8627],[170.7477,-45.7872,2.044],[170.7442,-45.7866,6.8627],[170.7415,-45.7792,5.0639],[170.7383,-45.7792,10.585],[170.7397,-45.7783,10.585],[170.7386,-45.7772,0.0],[170.7304,-45.7752,15.1383],[170.7283,-45.7722,0.0],[170.7254,-45.775,3.714],[170.7282,-45.7771,15.4065],[170.7287,-45.78,34.1952],[170.7231,-45.7829,0.0],[170.7265,-45.7864,17.5422],[170.7263,-45.7917,2.4475],[170.721,-45.7982,3.0518],[170.715,-45.7977,0.0],[170.7121,-45.8004,1.9395],[170.7052,-45.8008,0.0],[170.6988,-45.8041,0.6125],[170.6843,-45.8054,0.0],[170.6794,-45.8118,1.9146],[170.6692,-45.8145,0.0],[170.6683,-45.8171,1.2665],[170.6702,-45.8206,0.0],[170.6707,-45.8299,2.753],[170.6732,-45.8316,13.7072],[170.6719,-45.8331,33.3137],[170.6575,-45.8376,1.3039],[170.6536,-45.835,33.1795],[170.6565,-45.8335,0.0],[170.6559,-45.8318,0.0],[170.6485,-45.8294,2.4518],[170.6479,-45.8263,0.0],[170.6425,-45.8243,1.2622],[170.6429,-45.8265,6.8811],[170.6405,-45.8288,1.4583],[170.6439,-45.8301,15.2444],[170.6427,-45.8315,0.0],[170.6463,-45.8321,22.0277],[170.6465,-45.8343,7.8585],[170.6514,-45.8376,4.9236],[170.6511,-45.8393,0.0],[170.6436,-45.8381,8.9217],[170.6407,-45.84,0.0],[170.6412,-45.8428,2.7437],[170.6375,-45.8421,3.5344],[170.6317,-45.8441,6.5228],[170.6328,-45.8463,8.981],[170.6229,-45.8441,0.0],[170.6249,-45.8454,0.0],[170.6242,-45.847,3.8165],[170.6156,-45.8493,1.0244],[170.6058,-45.8451,22.9049],[170.6027,-45.8453,19.9469],[170.6007,-45.848,39.0162],[170.601,-45.8518,21.0585],[170.5981,-45.8542,0.0],[170.5985,-45.8566,1.4399],[170.6008,-45.8579,13.9045],[170.5973,-45.8609,0.0],[170.5968,-45.8696,15.4961],[170.5907,-45.8707,0.0],[170.5739,-45.8792,0.0],[170.5381,-45.879,6.4799],[170.5293,-45.8808,0.0],[170.5266,-45.8821,10.2968],[170.5276,-45.8837,4.6954],[170.5245,-45.8848,29.153],[170.5186,-45.8936,14.0229],[170.512,-45.8916,4.5476],[170.5072,-45.8872,2.3916],[170.5071,-45.8834,1.7732],[170.5173,-45.8756,2.7824],[170.5273,-45.8738,0.8222],[170.525,-45.8716,2.7226],[170.5497,-45.8681,0.0],[170.5677,-45.862,0.0],[170.5742,-45.8562,15.6931],[170.5797,-45.8465,8.5402],[170.5918,-45.8332,0.0],[170.5964,-45.829,12.2836],[170.6021,-45.8311,4.5723],[170.602,-45.8297,4.5723],[170.6053,-45.8281,0.0],[170.6042,-45.8261,0.0],[170.6012,-45.8254,6.0737],[170.6055,-45.8208,3.6881],[170.614,-45.8196,0.0],[170.6171,-45.8215,18.0228],[170.615,-45.8233,17.1915],[170.6153,-45.8277,13.0256],[170.6184,-45.8275,32.91],[170.6188,-45.8254,50.0626],[170.6234,-45.8224,0.0],[170.6231,-45.8196,0.0],[170.6263,-45.8178,34.496],[170.6267,-45.8199,0.0],[170.6292,-45.8194,0.0],[170.6293,-45.8142,0.0],[170.6239,-45.8145,2.786],[170.628,-45.8085,0.0],[170.6251,-45.8098,5.1288],[170.6226,-45.8076,23.5986],[170.6285,-45.8041,0.0],[170.6261,-45.8014,52.3949],[170.6285,-45.7964,0.0],[170.6327,-45.7956,9.1504],[170.6358,-45.7973,13.5761],[170.6449,-45.7977,8.2954],[170.648,-45.7924,10.2994],[170.6521,-45.7916,3.3055],[170.6543,-45.7926,41.1493],[170.6557,-45.7957,13.2998],[170.6573,-45.7946,3.2466],[170.6578,-45.79,29.5081],[170.6625,-45.7877,26.8909],[170.6684,-45.7897,0.0],[170.6718,-45.7861,22.4555],[170.6764,-45.7861,24.4396],[170.6809,-45.7841,2.1829],[170.6912,-45.7849,0.0],[170.6948,-45.7833,0.4234],[170.6942,-45.7843,0.4234],[170.6991,-45.7862,0.3777],[170.7077,-45.781,2.6331],[170.7099,-45.7828,0.0],[170.7112,-45.7819,0.0],[170.7152,-45.7831,0.0],[170.7165,-45.7867,0.8945],[170.7178,-45.7866,0.0],[170.7172,-45.7831,1.7161],[170.7082,-45.7788,1.3447],[170.7118,-45.7759,0.0],[170.7009,-45.7704,0.0],[170.696,-45.7641,3.1805],[170.6958,-45.7596,12.639],[170.6922,-45.7554,0.9748],[170.6882,-45.7613,20.5277],[170.6824,-45.7609,0.0],[170.6756,-45.7581,18.3374],[170.6724,-45.7621,26.0162],[170.6613,-45.7602,9.7684],[170.6511,-45.7533,0.0],[170.6417,-45.7418,2.645],[170.6382,-45.74,7.901],[170.6385,-45.7385,1.2446],[170.6319,-45.738,20.1519],[170.627,-45.7417,0.6631],[170.6273,-45.7456,30.2028],[170.6312,-45.7475,36.1467],[170.6334,-45.7518,16.2546],[170.6292,-45.7524,8.9038],[170.6288,-45.7552,5.6942],[170.6314,-45.7567,33.76],[170.6261,-45.7632,6.8505],[170.6195,-45.757,1.3502],[170.6223,-45.7539,3.7159],[170.6178,-45.7517,6.393],[170.6178,-45.7495,7.3804],[170.6217,-45.7482,3.0874],[170.6297,-45.7487,0.0],[170.6263,-45.7457,9.2316],[170.6267,-45.7426,0.6631],[170.6169,-45.7363,0.9916],[170.6181,-45.7343,0.0],[170.6128,-45.7356,8.9201],[170.6063,-45.7328,0.0],[170.5982,-45.733,1.4922],[170.5942,-45.7348,0.0],[170.5973,-45.7354,3.9832],[170.5972,-45.7415,15.9542],[170.59,-45.7397,11.6449],[170.5868,-45.7418,5.2754],[170.587,-45.7438,6.4154],[170.5838,-45.7437,0.0],[170.5805,-45.7468,7.2299],[170.5772,-45.7456,0.2504],[170.5759,-45.7467,1.3545],[170.5731,-45.744,0.1205],[170.5715,-45.7459,0.7509],[170.5693,-45.7456,3.645],[170.5681,-45.7404,0.0],[170.5709,-45.7341,3.8694],[170.5696,-45.7271,0.0],[170.5713,-45.7219,2.9717],[170.5761,-45.7208,0.0],[170.5773,-45.7185,0.3031],[170.576,-45.7181,0.3031],[170.5778,-45.7173,0.1109],[170.5755,-45.7161,19.0623],[170.5776,-45.7152,7.0103],[170.5858,-45.7127,17.1196],[170.5913,-45.7134,0.0],[170.5963,-45.721,4.3637],[170.5978,-45.7277,0.0],[170.5966,-45.7308,0.0],[170.5988,-45.7308,0.0],[170.6021,-45.7281,0.0],[170.6009,-45.7108,1.1449],[170.6032,-45.7099,0.0547],[170.6033,-45.706,6.9236],[170.61,-45.6991,14.9556],[170.6101,-45.6965,31.8083],[170.6149,-45.6947,0.0],[170.6156,-45.6925,1.4166],[170.6142,-45.6917,12.2737],[170.6155,-45.6903,10.2547],[170.6299,-45.6859,4.1349],[170.6416,-45.6782,0.0],[170.644,-45.6739,31.9612],[170.6528,-45.671,5.3591],[170.6502,-45.6692,6.3619],[170.6548,-45.6659,0.0],[170.6508,-45.6628,43.6005],[170.6546,-45.6575,0.0],[170.653,-45.6553,38.9932],[170.6543,-45.6508,0.0],[170.6618,-45.6435,0.7042],[170.6743,-45.6402,0.0],[170.6697,-45.6381,10.2054],[170.6594,-45.6417,8.0865],[170.6543,-45.6369,0.1917],[170.653,-45.631,7.2945],[170.6495,-45.6279,0.6089],[170.6494,-45.6248,1.0351],[170.6462,-45.6215,0.6252],[170.6476,-45.6206,0.7478],[170.6538,-45.6279,0.5818],[170.6578,-45.6283,3.6192],[170.6565,-45.6316,1.1127],[170.6574,-45.6338,0.0],[170.6593,-45.6374,0.0],[170.6631,-45.6399,5.1014],[170.6605,-45.6322,0.0],[170.664,-45.6239,0.0],[170.6718,-45.6168,0.0],[170.6824,-45.6123,0.0],[170.6808,-45.6082,4.9894],[170.6709,-45.6077,1.5602],[170.6715,-45.6008,4.987],[170.674,-45.5984,1.5038],[170.6771,-45.5996,6.8749],[170.6764,-45.6031,1.0],[170.6792,-45.6037,5.2933],[170.6831,-45.6021,2.6936],[170.6794,-45.6051,2.7212],[170.6761,-45.6053,1.0],[170.6796,-45.6062,2.7212],[170.6825,-45.6091,4.9894],[170.6838,-45.6119,0.0],[170.6899,-45.6121,11.7489],[170.6907,-45.6162,1.9289],[170.6931,-45.6165,34.814],[170.6929,-45.6183,10.2352],[170.6946,-45.6193,10.2352],[170.7072,-45.6114,0.0],[170.7075,-45.6094,8.8821],[170.7179,-45.5997,0.0],[170.7253,-45.5959,6.9791],[170.7294,-45.5862,5.4499],[170.7275,-45.5793,31.7925],[170.7299,-45.5728,27.6432],[170.7266,-45.5691,0.0],[170.7282,-45.5613,0.6101],[170.726,-45.5569,0.2356],[170.7283,-45.5577,6.8834],[170.7287,-45.5561,7.8742],[170.7267,-45.5559,0.409],[170.7256,-45.5528,4.8436],[170.7271,-45.5489,4.7199],[170.7214,-45.5508,1.7133],[170.7236,-45.5514,0.1507],[170.7226,-45.5528,0.1507],[170.7161,-45.5504,0.7119],[170.7152,-45.5488,3.5684],[170.7087,-45.5511,19.3511],[170.7156,-45.5595,13.6148],[170.6368,-45.5598,116.9899],[170.6281,-45.5671,178.5961],[170.6272,-45.5692,172.571],[170.6301,-45.571,204.2342],[170.6115,-45.5758,221.6167],[170.6048,-45.574,263.3064],[170.6035,-45.5714,254.7971],[170.5977,-45.5694,262.7994],[170.5905,-45.5724,293.0662],[170.5842,-45.5706,338.3351],[170.5798,-45.5675,394.4288],[170.5801,-45.5635,422.1028],[170.5756,-45.5607,398.3422],[170.5753,-45.557,375.9636],[170.5729,-45.5546,376.1149],[170.5618,-45.5539,427.9094],[170.5632,-45.5511,411.9898],[170.5628,-45.546,397.7855],[170.5603,-45.542,383.6051],[170.5624,-45.5383,352.8713],[170.5546,-45.524,213.329],[170.5537,-45.5179,191.6695],[170.5558,-45.5155,193.0092],[170.5514,-45.5123,170.3081],[170.5554,-45.5143,161.5961],[170.5563,-45.5132,161.5961],[170.5558,-45.5104,169.7251],[170.5529,-45.5094,176.6292],[170.4816,-45.5092,519.4759],[170.4764,-45.533,513.4197],[170.4672,-45.5289,587.4745],[170.4558,-45.5286,639.9462],[170.4313,-45.5232,666.7369],[170.4193,-45.5187,726.035],[170.3877,-45.5541,689.6536],[170.3775,-45.5545,655.3575],[170.3713,-45.5542,603.0328],[170.367,-45.5492,661.6785],[170.3417,-45.5458,500.413],[170.3508,-45.5282,489.3742],[170.3593,-45.5212,508.2957],[170.31,-45.4979,352.7607],[170.3081,-45.4997,366.7086],[170.3044,-45.4996,334.783],[170.2853,-45.4946,534.3621],[170.2854,-45.4974,548.9296],[170.2737,-45.5056,544.8726],[170.2672,-45.5046,533.1034],[170.2639,-45.5067,531.9551],[170.2094,-45.5067,277.8361],[170.2092,-45.4819,438.8096],[170.2268,-45.482,549.0757],[170.2515,-45.4637,655.5057],[170.2572,-45.4621,668.0252],[170.2616,-45.4561,661.5337],[170.2596,-45.4529,674.0997],[170.2608,-45.4488,681.449],[170.2657,-45.4441,661.342],[170.2849,-45.4442,485.1848],[170.2843,-45.3496,380.0822],[170.2887,-45.3496,374.4468],[170.3034,-45.3563,480.3914],[170.3249,-45.3625,602.6507],[170.3251,-45.3241,541.1451],[170.3755,-45.3269,720.0844],[170.3755,-45.3309,666.6111],[170.3811,-45.3265,668.0114],[170.3949,-45.3279,702.8041],[170.409,-45.3197,696.4444],[170.4209,-45.3079,712.3099],[170.4234,-45.2954,703.8653],[170.4151,-45.2879,673.1639],[170.411,-45.2803,711.2556],[170.3941,-45.2686,745.3055],[170.3136,-45.2684,534.2307],[170.3136,-45.261,529.729]]]]}}