{"type":"Feature","properties":{"featurecla":"River","scalerank":9,"rivernum":2002,"dissolve":"2002River","name":"Aparima","name_alt":null,"note":null,"min_zoom":7.1,"strokeweig":0.2,"name_en":"Aparima","min_label":8.1},
"geometry":{"type": "LineString","coordinates": [[167.96060110254948,-45.690022042581774,529.7766],[167.97529917364011,-45.695350998405779,511.5247],[167.9962343373173,-45.706770178593338,454.2427],[168.00909251988622,-45.716301635226856,445.541],[168.01432244251953,-45.732486543731177,410.9637],[168.02145556185079,-45.741987054076922,399.4597],[168.04239072552798,-45.746288588077114,378.381],[168.06666808828447,-45.742946388997829,349.7262],[168.09379250951588,-45.739139995601974,327.548],[168.1147276731931,-45.734838461601782,314.8937],[168.13566283687027,-45.741027719156016,299.0066],[168.16518559540395,-45.754365569185389,272.6988],[168.17706896990808,-45.765320555056377,259.0657],[168.17849249914556,-45.783857381431304,243.2704],[168.17279838219568,-45.791470168223015,235.4303],[168.16280273124559,-45.798154566381584,228.2754],[168.14804135197875,-45.811956610727528,219.7561],[168.14090823264749,-45.82811057294407,211.0422],[168.13281577839533,-45.84240775789435,202.2932],[168.13281577839533,-45.857633331477764,192.3742],[168.13377511331623,-45.872858905061179,184.2611],[168.12996871992038,-45.8847422795653,211.6051],[168.12472332414316,-45.900462993753052,169.4295],[168.12520299160363,-45.912346368257182,163.1548],[168.12091693074731,-45.929490611682411,153.2681],[168.1175902048119,-45.944716185265818,146.6538],[168.11711053735146,-45.959941758849233,137.369],[168.1147276731931,-45.973279608878606,129.572],[168.1175902048119,-45.982315924907788,126.7838],[168.1199730689703,-45.994694440016254,118.6904],[168.11663086989103,-46.00707295512472,112.0379],[168.11520734065354,-46.023722057945605,104.7827],[168.11282447649515,-46.038483437212449,98.8642],[168.10949775055974,-46.051326146637479,92.4623],[168.10663521894094,-46.066087525904329,86.361],[168.09140964535752,-46.078930235329359,81.0791],[168.06428522412608,-46.089854274912582,70.1535],[168.03764047035511,-46.0993857315461,66.3133],[168.02241489677169,-46.111764246654566,57.6745],[168.00242359487152,-46.123647621158696,50.5442],[168.00052039817359,-46.131755548554736,49.4252],[168.0114599109007,-46.159359637246617,40.5489],[168.03525760619675,-46.173625875909124,34.7511],[168.05144251470105,-46.1945765127302,32.2022],[168.06191783311158,-46.221221266501175,24.0879],[168.077143406695,-46.242140957034479,20.4666],[168.08379685856579,-46.265938652330512,16.8108],[168.08379685856579,-46.285929954230681,10.6207],[168.0685712849824,-46.298308469339148,5.2389],[168.03620146797374,-46.3087683146058,3.0071],[168.01812883591538,-46.3163811013975,1.7546],[168.0114599109007,-46.335444014664546,0.0],[168.02003203261333,-46.352557311801995,3.9626],[168.05851374145675,-46.361160379802378,0.0]]}}