{"type":"Feature","properties":{"featurecla":"River","scalerank":6,"rivernum":2025,"dissolve":"2025River","name":"Oreti","name_alt":null,"note":null,"min_zoom":5.0,"strokeweig":0.2,"name_en":"Oreti","min_label":6.0},
"geometry":{"type": "LineString","coordinates": [[168.2186143612409,-45.31548531601473,607.0361],[168.21076947729091,-45.3212103792524,600.2772],[168.2075510633627,-45.331546439367969,591.3616],[168.20826282798143,-45.3429965658433,583.1979],[168.21290477114709,-45.351166385814885,576.197],[168.211837124219,-45.362245156836963,564.5778],[168.20612753412522,-45.375799630880735,555.5236],[168.19362523386567,-45.38616663728407,560.8912],[168.18007075982189,-45.395450523615423,523.7467],[168.17186999356255,-45.407210112968464,510.3678],[168.15830004637488,-45.41330653165938,504.1528],[168.1451014546405,-45.419712413228012,493.4148],[168.13259915438093,-45.432214713487568,483.3835],[168.13224327207155,-45.441839008984395,474.7839],[168.13081974283409,-45.45396995379069,466.0782],[168.12511015274032,-45.465389133978256,454.3529],[168.12117997419338,-45.472909081906643,474.2494],[168.11689391333707,-45.477551025072323,455.707],[168.11724979564644,-45.481450257331488,441.237],[168.11833291571844,-45.488258440641147,436.8502],[168.12402703266832,-45.494664322209772,443.115],[168.12975209590599,-45.503948208541125,425.3871],[168.13046386052471,-45.512520330253736,416.1687],[168.13402268361841,-45.5196379764411,410.5198],[168.13331091899965,-45.52322774582256,408.6693],[168.13473444823714,-45.527869688988233,405.6554],[168.14545733694985,-45.538917513722538,394.577],[168.14794851311544,-45.542476336816222,392.3271],[168.14866027773417,-45.547489635435156,388.6219],[168.14830439542479,-45.552843343219564,384.7004],[168.1451014546405,-45.561415464932175,377.7343],[168.14866027773417,-45.578528762069631,364.5136],[168.1525904562811,-45.592454591566657,354.3353],[168.1525904562811,-45.594961240876117,353.0906],[168.15401398551859,-45.601738477898,347.9859],[168.15758828175615,-45.612105484301345,339.3921],[168.17078687349056,-45.623153309035651,329.2972],[168.18400093836883,-45.636707783079423,319.3531],[168.19970617941271,-45.649210083338971,310.9459],[168.21005771267215,-45.654935146576634,303.1535],[168.22647471833477,-45.656358675814111,296.5031],[168.24395937092547,-45.659917498907795,288.9058],[168.2710837921569,-45.6652712066922,275.2606],[168.29107509405708,-45.666354326764193,268.0147],[168.31604874828838,-45.669541794404623,256.0918],[168.33819081718866,-45.674555093023557,245.5789],[168.35996153063567,-45.680249209973447,236.0436],[168.38779771648584,-45.686686037829851,222.3461],[168.40099630822024,-45.689192687139318,220.0818],[168.41385449078916,-45.694175039470473,209.9924],[168.42207073019239,-45.697764808851929,206.842],[168.42207073019239,-45.704170690420561,203.5664],[168.42135896557366,-45.7081008689675,204.34],[168.42312290397663,-45.713114167586426,199.9208],[168.4299156141424,-45.719891404608312,196.9778],[168.42955973183302,-45.7266686416302,193.5],[168.4288479672143,-45.739851760220709,189.9364],[168.43277814576123,-45.753777589717735,186.046],[168.43313402807058,-45.763061476049081,180.2729],[168.42849208490492,-45.772345362380435,177.4733],[168.42063172781104,-45.782000604165034,172.2363],[168.40743313607663,-45.79304842889934,166.2957],[168.3970816028172,-45.796266842827542,163.9827],[168.38850948110456,-45.797349962899531,160.8159],[168.38673006955773,-45.798402136683755,160.9014],[168.38637418724835,-45.80019702137448,158.9023],[168.38279989101079,-45.814122850871506,155.534],[168.38066459715458,-45.822664026296344,153.7306],[168.38137636177333,-45.8319479126277,149.068],[168.37922559477323,-45.836249446627889,146.7409],[168.37422776929819,-45.840891389793562,145.7673],[168.36960129927638,-45.847297271362194,141.9065],[168.36567112072947,-45.859087807003007,136.0163],[168.36567112072947,-45.861934865477956,136.1974],[168.36567112072947,-45.867288573262364,132.8549],[168.36460347380137,-45.875148930356239,130.4765],[168.36280858911061,-45.888703404400012,126.1615],[168.35996153063567,-45.905476292371986,120.5932],[168.35674311670749,-45.913708004919116,117.9546],[168.35281293816053,-45.920454295653229,116.6734],[168.34854235044813,-45.926891123509627,112.4117],[168.3410378756636,-45.934380125150248,108.9424],[168.33319299171362,-45.945799305337808,104.5703],[168.32712751931047,-45.952607488647466,103.7172],[168.32712751931047,-45.9590133702161,100.2584],[168.32533263461974,-45.967214136475455,98.3552],[168.32497675231036,-45.975445849022584,95.0092],[168.32390910538226,-45.984698789066165,91.6982],[168.324620870001,-45.989340732231838,91.6185],[168.32355322307291,-45.992930501613294,90.8234],[168.32212969383542,-45.997201089325713,88.4759],[168.31891127990724,-46.003266561728864,86.8241],[168.32035028228859,-46.010074745038523,84.8625],[168.32533263461974,-46.01827551129788,82.095],[168.32533263461974,-46.023257863629034,81.2228],[168.32284145845415,-46.028271162247961,80.4005],[168.32106204690731,-46.032541749960387,76.8714],[168.31748775066976,-46.041454280838479,76.7025],[168.31213404288533,-46.05717499502623,71.9153],[168.30962739357588,-46.074319238451459,67.3945],[168.30855974664777,-46.084655298567029,60.625],[168.3103546313385,-46.100345066467007,56.6322],[168.30713621741029,-46.106441485157923,58.3702],[168.30071486269779,-46.116065780654758,55.5557],[168.29607291953209,-46.129279845533048,50.6393],[168.28750079781949,-46.139615905648611,47.8797],[168.27572573532257,-46.145681378051762,47.5138],[168.27001614522879,-46.156388793620586,44.0224],[168.26930438061004,-46.163166030642472,42.8699],[168.26894849830069,-46.174585210830031,40.2347],[168.26395067282564,-46.18139339413969,36.4503],[168.26037637658806,-46.189222804945793,37.3686],[168.26322343506303,-46.1945765127302,36.3431],[168.26859261599131,-46.1977949266584,34.7862],[168.27287867684763,-46.202065514370823,33.5575],[168.2832147369632,-46.204231754514808,30.0074],[168.28965156481959,-46.208873697680481,30.3924],[168.2907192117477,-46.215279579249113,28.6154],[168.29178685867581,-46.225275230199195,28.1076],[168.29463391715075,-46.232423822674335,26.8207],[168.29534568176948,-46.2406245889337,24.8277],[168.29321038791329,-46.245266532099372,24.2891],[168.29178685867581,-46.253126889193247,18.8087],[168.29143097636643,-46.262410775524593,20.0149],[168.2821470900351,-46.270611541783957,14.904],[168.28072356079761,-46.2734586002589,16.6544],[168.28036767848823,-46.278471898877832,16.5723],[168.28250297234445,-46.289519723612138,10.6465],[168.28143532541634,-46.297008725252759,9.8918],[168.27250732139436,-46.307716140821583,8.4932],[168.26786537822869,-46.318083147224918,7.7486],[168.26715361360996,-46.325231739700058,7.2056],[168.26859261599131,-46.334856035196893,5.9683],[168.26786537822869,-46.339838387528047,4.9016],[168.26359479051627,-46.34305680145625,4.1362],[168.25644619804115,-46.343768566074985,4.2519],[168.25146384570996,-46.34448033069372,3.9997],[168.2478895494724,-46.348070100075176,3.1655],[168.24895719640051,-46.3523406877876,2.94],[168.25180425487545,-46.354847337097063,1.9105],[168.25288737494745,-46.359117924809482,1.6446],[168.25288737494745,-46.366266517284622,2.0651],[168.25109249025672,-46.370537104997041,1.646],[168.25109249025672,-46.375890812781456,1.4018],[168.25466678649428,-46.378768817544177,0.9401],[168.25465131335039,-46.380749379961529,1.6286],[168.25332062297625,-46.382080070335689,0.3406],[168.25237676119923,-46.386381604335881,1.5103],[168.25319683782516,-46.387619455846725,1.3097],[168.25609031573177,-46.391951936134689,1.4357],[168.26037637658806,-46.397305643919104,10.4431],[168.26608596668186,-46.40658953025045,8.4033],[168.27608161763195,-46.413366767272336,9.6376],[168.28429785703517,-46.416585181200539,5.9334],[168.28678903320076,-46.4223102444382,9.8688],[168.28500962165393,-46.42658083215062,11.5244],[168.28572138627266,-46.434069833791249,16.0274],[168.28965156481959,-46.439423541575657,19.0764],[168.29392215253202,-46.442641955503859,15.6791],[168.29893545115095,-46.45121407721647,13.0202],[168.30428915893535,-46.464428142094761,0.0],[168.31355757212282,-46.463345022022764,0.0],[168.31819951528848,-46.466192080497713,0.0],[168.31962304452597,-46.470122259044651,0.0],[168.32745245533206,-46.476218677735574,0.0]]}}