{"type":"Feature","properties":{"featurecla":"Lake Centerline","scalerank":9,"rivernum":1000,"dissolve":"1000Lake Centerline","name":"Waiau","name_alt":null,"note":null,"min_zoom":7.1,"strokeweig":0.2,"name_en":"Waiau","min_label":8.1},
"geometry":{"type": "LineString","coordinates": [[167.64595330603549,-45.559125439637107,208.0882],[167.6442203139203,-45.557516232673009,206.0553],[167.63272376801331,-45.5480776149028,204.1316],[167.62607031614252,-45.536658434715243,209.0654],[167.62036072604872,-45.524279919606776,231.2894],[167.61178860433611,-45.51190140449831,217.3705],[167.61036507509863,-45.500977364915094,198.4077],[167.6132121335736,-45.491445908281577,178.0],[167.62701417791953,-45.484792456410773,221.2952],[167.63748949633006,-45.482409592252395,216.4725],[167.65071903435225,-45.488784527533255,228.5511]]}}