{"type":"Feature","properties":{"featurecla":"River","scalerank":9,"rivernum":2002,"dissolve":"2002River","name":"Aparima1","name_alt":null,"note":null,"min_zoom":7.1,"strokeweig":0.15,"name_en":"Aparima","min_label":8.1},
"geometry":{"type": "LineString","coordinates": [[167.88583345569367,-45.645372743655344,889.7755],[167.89629330096031,-45.655368394605432,801.6747],[167.90961567784581,-45.662516987080572,846.0565],[167.93008664720642,-45.669170438951369,645.6622],[167.94340902409192,-45.67820675498055,630.4493],[167.95959393259625,-45.689656881455882,529.5903],[167.96060110254948,-45.690022042581774,529.7766]]}}