{"type":"Feature","properties":{"featurecla":"River","scalerank":6,"rivernum":350,"dissolve":"350River","name":"Mataura","name_alt":null,"note":"linework edited 20121205","min_zoom":5.0,"strokeweig":0.2,"name_en":"Mataura","min_label":6.0},
"geometry":{"type": "LineString","coordinates": [[168.67520173959704,-45.398058269967066,343.3652],[168.72690713788225,-45.420517016710065,568.1221],[168.73332849259478,-45.449792204941588,643.0139],[168.72262107702596,-45.472630565316706,527.2056],[168.69549665579453,-45.496892454929295,374.9562],[168.65051622651913,-45.515460227591994,591.9027],[168.60911009348132,-45.520473526210928,435.6742],[168.59379168103459,-45.540774290988807,439.1208],[168.61059551529434,-45.549655875579134,270.646],[168.65554499828195,-45.551853062010885,248.1082],[168.69405765341315,-45.571132599292319,656.2632],[168.67692888313184,-45.592547430429967,830.7175],[168.69192235955697,-45.607556379998982,1281.9214],[168.6947848911758,-45.631818269611578,825.6808],[168.68121494398815,-45.6489625130368,853.3718],[168.67479358927562,-45.65611110551194,940.0536],[168.67050752841931,-45.667499339411727,768.9093],[168.67907965013194,-45.679661230505793,619.7362],[168.70049448126957,-45.6874906413119,358.1067],[168.71191366145712,-45.700364297024706,354.7052],[168.71191366145712,-45.709648183356052,327.8662],[168.71262542607587,-45.716765829543419,355.8192],[168.7133371906946,-45.728896774349721,311.6866],[168.70906660298218,-45.739727975069627,203.2128],[168.696920185032,-45.751735134724839,197.1437],[168.69192235955697,-45.758171962581244,195.7318],[168.68263847322561,-45.766032319675119,195.875],[168.67979141475067,-45.7817220875751,190.7277],[168.68907530108203,-45.798154566381584,181.0938],[168.72904243173846,-45.821704691375444,146.2374],[168.76616250392,-45.8516916442257,132.2045],[168.81889497828206,-45.8698261688596,153.3136],[168.82474382667078,-45.872239979305753,163.7288],[168.85182182847058,-45.886660949407116,223.0915],[168.8525335930893,-45.909499309782234,191.7723],[168.85395712232679,-45.928778847063668,145.9337],[168.85610788932686,-45.939486262632492,124.4762],[168.85753141856435,-45.947346619726368,114.6765],[168.86466453789561,-45.958765799913927,123.4097],[168.87252489498948,-45.970184980101486,134.6024],[168.87181313037075,-45.983027689526523,106.829],[168.88465583979576,-45.998005692807766,99.0232],[168.91321926340856,-46.005154285282906,114.9526],[168.93676938840241,-46.010879348520568,115.1397],[168.95389815868376,-46.0172852300892,113.4176],[168.961031278015,-46.025145587183076,119.6956],[168.96889163510889,-46.040835355083054,114.6349],[168.97460122520266,-46.053709010795863,112.956],[168.98459687615275,-46.069398778695842,96.0468],[168.98959470162779,-46.073700312696033,87.9625],[168.99244176010274,-46.0808179588834,92.1212],[168.99459252710284,-46.088678315977276,94.7294],[168.98246158229654,-46.122224091921218,244.2126],[168.92106414735855,-46.182197997621735,94.1281],[168.88536760441451,-46.22502765989703,309.0963],[168.8746601888457,-46.256438141984759,90.8819],[168.88109701670209,-46.305673685828687,73.5],[168.87894624970198,-46.352804882104166,52.5356],[168.85681965394559,-46.381337359429182,123.6046],[168.8339812935705,-46.386350658048109,108.7459],[168.80899216619528,-46.407053724567021,143.5184],[168.79043986667648,-46.430603849560875,27.2764],[168.78329127420133,-46.455577503792206,19.1222],[168.7804287425825,-46.474145276454905,57.6122],[168.78257950958258,-46.4862762212612,35.9003],[168.78115598034512,-46.494136578355075,30.0198],[168.77971697796374,-46.50057340621148,24.3178],[168.78115598034512,-46.512704351017774,33.9235],[168.78115598034512,-46.5234117665866,14.4821],[168.78401851196395,-46.527682354299017,42.1836],[168.79115163129521,-46.534830946774157,37.9335],[168.78257950958258,-46.546961891580452,1.5341],[168.77829344872629,-46.554110484055592,0.9153],[168.78828909967638,-46.561228130242959,1.6579],[168.80414907215908,-46.567169817495021,24.5832]]}}