{"type":"Feature","properties":{"featurecla":"River","scalerank":6,"rivernum":2025,"dissolve":"2025River","name":"Oreti1","name_alt":null,"note":null,"min_zoom":5.0,"strokeweig":0.15,"name_en":"Oreti","min_label":6.0},
"geometry":{"type": "LineString","coordinates": [[168.21897024355025,-45.208070751161017,883.9315],[168.21683494969403,-45.215188397348385,863.0172],[168.2186143612409,-45.221253869751536,836.4803],[168.21790259662214,-45.228742871392157,813.1571],[168.21754671431279,-45.23734593939254,793.4891],[168.2225445397878,-45.244463585579908,822.4824],[168.23076077919106,-45.250188648817577,800.2679],[168.24109683930664,-45.25483059198325,785.6754],[168.24860131409113,-45.264083532026831,706.6555],[168.25253149263807,-45.276214476833125,669.3036],[168.25073660794735,-45.283363069308265,656.3329],[168.24324760630674,-45.294782249495825,637.8602],[168.2293372499536,-45.310843372849057,615.926],[168.2186143612409,-45.31548531601473,607.0361]]}}