{"type":"Feature","properties":{"featurecla":"River","scalerank":9,"rivernum":1000,"dissolve":"1000River","name":"Waiau1","name_alt":null,"note":null,"min_zoom":7.1,"strokeweig":0.2,"name_en":"Waiau","min_label":8.1},
"geometry":{"type": "MultiLineString","coordinates": [[[167.64596877917938,-45.559125439637107,208.0882],[167.66937964587825,-45.577569427148724,202.6523],[167.701733989743,-45.585677354544771,222.2486],[167.71553603408896,-45.602326457365656,227.6104],[167.72585662106064,-45.628011876215723,289.4168],[167.70682465408137,-45.653016476734827,266.5557],[167.67231954321653,-45.67678322574308,208.6232],[167.66518642388525,-45.708905472449544,232.0727],[167.64138872858922,-45.735086031903954,430.7793],[167.66518642388525,-45.775532830020865,178.6674],[167.68898411918127,-45.80647911779203,146.97],[167.6877926871021,-45.833835636181739,158.8731],[167.69850010267092,-45.8659578828882,199.5483],[167.71991493380858,-45.896904170659369,126.7582],[167.73419664561496,-45.918319001797016,170.7115],[167.72348923004614,-45.939733832934664,99.0883],[167.71991493380858,-45.965883446101294,84.8943],[167.7306223493774,-45.988505182462021,76.1367],[167.74846288427747,-46.014685741916423,165.6367],[167.77345201165269,-46.032510803672615,120.1137],[167.78986901731528,-46.059155557443589,64.4017],[167.77940917204864,-46.080106194264665,51.4261],[167.76868628333591,-46.095579338150245,80.9806],[167.75561147675262,-46.108669617877453,94.4009],[167.73894690078782,-46.128908490079795,67.432],[167.7294309172982,-46.14555759290068,68.4649],[167.70150189258473,-46.190924850773207,90.8679]],
[[167.73396454845667,-45.445304993214769,272.0513],[167.73775546870866,-45.449544634639416,282.8894],[167.73775546870866,-45.454310362956178,299.7821],[167.73877669620509,-45.477117777043524,389.8234],[167.72220495910364,-45.486215985648244,260.2032],[167.70411685390138,-45.49048657336067,231.5478],[167.68270202276375,-45.499987083706415,239.3967],[167.66128719162609,-45.505712146944077,225.3453],[167.65071903435225,-45.488784527533255,228.5511]]]}}