{"type":"Feature","properties":{"GID_2":"NZL.6.4_1","GID_0":"NZL","country":"NewZealand","GID_1":"NZL.6_1","province":"Hawke'sBay","NL_NAME_1":"NA","county":"Wairoa","VARNAME_2":"NA","NL_NAME_2":"NA","TYPE_2":"District","ENGTYPE_2":"District","CC_2":"029","HASC_2":"NZ.HB.WW","name":"Wairoa.county"},
"geometry":{"type": "MultiPolygon","coordinates": [[[[177.8678,-39.3042,37.8068],[177.8723,-39.2884,4.8685],[177.8709,-39.2763,0.0],[177.8683,-39.2822,4.1293],[177.864,-39.2855,0.0],[177.8625,-39.2959,23.5148],[177.8637,-39.3041,17.2548],[177.8652,-39.3053,6.5148],[177.8678,-39.3042,37.8068]]],
[[[177.8214,-39.1595,0.0],[177.8222,-39.1594,0.0],[177.8226,-39.1593,0.0],[177.8217,-39.1587,0.0],[177.8214,-39.1595,0.0]]],
[[[176.7002,-38.8534,1142.0244],[176.6977,-38.856,1174.4438],[176.7136,-38.9427,1308.5574],[176.7165,-38.9995,704.2463],[176.7772,-38.9999,670.5721],[176.7779,-39.011,493.0687],[176.7896,-39.0175,295.1736],[176.7911,-39.0163,234.2084],[176.7952,-39.0183,191.2693],[176.7983,-39.0235,195.716],[176.8014,-39.0235,197.0532],[176.8059,-39.0208,191.6152],[176.8192,-39.0229,177.4395],[176.8191,-39.0274,215.463],[176.8243,-39.03,185.4887],[176.8236,-39.0332,177.2819],[176.8198,-39.0374,171.1559],[176.8217,-39.0412,188.6936],[176.8262,-39.0463,397.7581],[176.8375,-39.0415,244.3396],[176.8393,-39.045,281.357],[176.8376,-39.0467,295.7599],[176.8409,-39.0488,306.4431],[176.8365,-39.0547,523.8795],[176.8394,-39.0551,468.2249],[176.8359,-39.058,500.8564],[176.8387,-39.0589,490.8485],[176.8395,-39.0624,563.9049],[176.8496,-39.0725,667.1276],[176.8553,-39.0747,562.4716],[176.8579,-39.0741,509.6028],[176.8695,-39.0791,398.4956],[176.8709,-39.09,294.7437],[176.8723,-39.0924,269.8707],[176.8775,-39.0923,249.7525],[176.8774,-39.0966,256.9293],[176.8838,-39.0989,229.6609],[176.8865,-39.1015,231.3894],[176.8903,-39.1006,231.2157],[176.8917,-39.103,225.3394],[176.8957,-39.1003,206.9062],[176.8976,-39.1055,203.954],[176.9002,-39.1071,217.4935],[176.9038,-39.1056,201.2893],[176.904,-39.1085,205.664],[176.9078,-39.1089,191.2781],[176.9127,-39.1067,184.3062],[176.921,-39.1068,177.9469],[176.9236,-39.1031,181.0263],[176.9271,-39.1018,169.9256],[176.9266,-39.1045,168.3544],[176.9303,-39.1049,194.7034],[176.9333,-39.1007,172.6156],[176.9309,-39.0989,169.7942],[176.9323,-39.097,173.4957],[176.9362,-39.0993,165.981],[176.9398,-39.0939,171.9373],[176.943,-39.0933,170.6815],[176.944,-39.0907,163.2431],[176.9475,-39.0916,147.9142],[176.9506,-39.0949,204.1341],[176.9544,-39.0903,145.9061],[176.9566,-39.0901,136.5435],[176.9588,-39.0959,113.7179],[176.9631,-39.0954,130.1969],[176.9625,-39.0991,108.6088],[176.9709,-39.0998,76.7081],[176.9718,-39.1012,102.3016],[176.9694,-39.1025,79.5249],[176.9746,-39.103,84.975],[176.975,-39.1059,138.0429],[176.9854,-39.1111,85.9787],[176.9833,-39.1125,133.6369],[176.9848,-39.115,78.3538],[176.9818,-39.1187,65.3321],[176.9861,-39.1192,70.5605],[176.9887,-39.117,73.4474],[176.9906,-39.1176,77.2449],[176.9914,-39.119,90.0208],[176.9897,-39.1219,70.9844],[176.9957,-39.1246,61.2017],[176.9949,-39.1289,54.3023],[177.0057,-39.1306,54.0873],[177.0094,-39.1345,39.9311],[177.0127,-39.1348,44.8657],[177.0185,-39.1395,67.1482],[177.0227,-39.1471,57.4792],[177.0203,-39.1494,36.5924],[177.0215,-39.1522,25.8849],[177.0237,-39.1523,29.8708],[177.0271,-39.1483,24.9467],[177.0332,-39.1491,42.3421],[177.0337,-39.1511,22.7818],[177.0302,-39.1561,21.0992],[177.0303,-39.1589,37.1851],[177.0381,-39.1596,63.6314],[177.0404,-39.1584,32.7645],[177.0418,-39.1562,37.3258],[177.0388,-39.1525,17.572],[177.0405,-39.1499,19.1145],[177.0447,-39.1507,16.8686],[177.0557,-39.1577,15.1438],[177.0575,-39.1572,55.5754],[177.0583,-39.1536,18.5315],[177.0633,-39.153,19.1351],[177.0643,-39.1475,34.1078],[177.0698,-39.1503,20.345],[177.0695,-39.1534,30.3822],[177.0713,-39.1551,32.369],[177.0755,-39.1541,10.2574],[177.0787,-39.1501,14.3982],[177.0806,-39.1525,15.0594],[177.0778,-39.156,24.3833],[177.0782,-39.1577,14.7436],[177.0845,-39.1567,23.0503],[177.0875,-39.1628,7.3273],[177.0869,-39.1653,15.9922],[177.0801,-39.1675,33.256],[177.086,-39.17,5.0813],[177.143,-39.1427,31.8289],[177.2196,-39.1148,41.6963],[177.253,-39.1045,16.4471],[177.2592,-39.1007,88.2123],[177.3325,-39.0812,33.973],[177.4204,-39.0628,0.0],[177.4734,-39.056399999999996,0.0],[177.5626,-39.0546,0.0],[177.6368,-39.0504,5.1787],[177.6608,-39.0507,4.3319],[177.71,-39.0534,1.761],[177.756,-39.0587,0.0],[177.8044,-39.0686,7.988],[177.8131,-39.0737,24.0908],[177.8217,-39.0742,30.3122],[177.8232,-39.0768,6.5785],[177.8282,-39.0744,2.3505],[177.8275,-39.0709,2.6015],[177.8339,-39.0597,7.0236],[177.8435,-39.0595,9.9479],[177.8546,-39.063,3.0194],[177.8674,-39.0721,3.6149],[177.8718,-39.0787,3.5041],[177.8718,-39.0864,2.3759],[177.8709,-39.0877,2.3759],[177.8666,-39.0865,45.7194],[177.8647,-39.0877,29.6451],[177.8676,-39.093,0.0],[177.8675,-39.0984,8.1523],[177.8636,-39.1018,31.2561],[177.8583,-39.1032,15.3642],[177.8605,-39.1121,6.8524],[177.8545,-39.1166,89.3355],[177.8538,-39.1246,0.0],[177.8503,-39.1316,37.8422],[177.8481,-39.1323,2.4197],[177.8445,-39.1379,1.1402],[177.8392,-39.1399,0.4633],[177.8416,-39.1436,19.5369],[177.8391,-39.1462,2.1097],[177.8392,-39.1524,33.0484],[177.8279,-39.1613,46.1342],[177.8224,-39.16,7.2652],[177.8255,-39.1632,26.962],[177.8246,-39.1649,7.2908],[177.8286,-39.1658,43.619],[177.8288,-39.1689,31.4504],[177.8329,-39.1733,16.1534],[177.8377,-39.1745,56.0398],[177.8375,-39.1764,50.7726],[177.8434,-39.1849,3.2036],[177.8442,-39.1964,1.0379],[177.8473,-39.1991,20.2732],[177.847,-39.204,14.5403],[177.8512,-39.2098,11.3307],[177.852,-39.2158,51.698],[177.852,-39.2298,15.2474],[177.8495,-39.2325,0.0],[177.8463,-39.2326,0.0],[177.8585,-39.2349,42.0384],[177.8594,-39.2422,0.0],[177.8634,-39.2462,26.438],[177.8614,-39.2574,0.0],[177.8647,-39.2649,0.0],[177.871,-39.2605,0.0],[177.8765,-39.2514,0.0],[177.8843,-39.2489,9.4473],[177.8841,-39.245,42.773],[177.892,-39.2366,0.0],[177.8972,-39.2345,0.5564],[177.9062,-39.2263,0.0],[177.9246,-39.1878,1.5253],[177.9239,-39.174,0.0],[177.9252,-39.169,2.9846],[177.9364,-39.1585,0.5498],[177.9456,-39.1546,0.7189],[177.9544,-39.1381,9.8529],[177.9718,-39.1314,0.0],[177.9773,-39.1269,1.1525],[177.9949,-39.118,0.0],[178.0008,-39.1119,4.1891],[178.0011,-39.1025,0.0],[177.9962,-39.1029,0.0],[177.9789,-39.0974,0.9506],[177.9661,-39.0982,17.2073],[177.9617,-39.0942,14.7122],[177.9631,-39.0923,0.0768],[177.9624,-39.0902,3.6518],[177.9586,-39.0886,1.265],[177.9529,-39.0932,53.0499],[177.9438,-39.0954,7.7077],[177.9142,-39.0848,24.2631],[177.908,-39.0756,0.0],[177.9018,-39.073,28.471],[177.8915,-39.0485,0.0],[177.8864,-39.0241,3.2432],[177.8867,-39.0154,3.2694],[177.8925,-39.0094,15.1135],[177.8948,-38.9953,28.8074],[177.897,-38.9932,25.6301],[177.899,-38.9718,18.5389],[177.8968,-38.9728,149.3775],[177.8609,-38.9652,113.7603],[177.8629,-38.9636,137.4749],[177.8424,-38.9593,380.918],[177.843,-38.9575,378.7527],[177.8366,-38.9557,453.0872],[177.837,-38.9542,449.593],[177.8348,-38.9528,462.666],[177.8349,-38.9461,453.627],[177.8389,-38.9437,478.4166],[177.8394,-38.9354,515.9031],[177.8453,-38.9284,535.4941],[177.8456,-38.9237,525.9063],[177.8445,-38.9215,551.91],[177.8356,-38.9159,471.6713],[177.8357,-38.9141,465.6541],[177.8309,-38.9131,493.3801],[177.8305,-38.9116,512.5117],[177.8293,-38.9129,512.5117],[177.8309,-38.915,478.8861],[177.8214,-38.9198,473.2411],[177.8219,-38.9217,450.4848],[177.8047,-38.9118,363.0152],[177.8062,-38.9114,363.0152],[177.8067,-38.9067,403.3495],[177.8037,-38.905,406.6859],[177.8039,-38.9007,422.5929],[177.7998,-38.8969,378.1344],[177.8046,-38.8971,357.0748],[177.799,-38.8944,301.7284],[177.7886,-38.8979,298.2144],[177.7921,-38.9022,340.1507],[177.7894,-38.9024,289.5809],[177.7888,-38.9042,260.2564],[177.785,-38.9057,270.2026],[177.7855,-38.9082,286.7314],[177.7801,-38.9073,258.0812],[177.7803,-38.9105,266.7816],[177.7761,-38.9128,252.1627],[177.7492,-38.8967,585.1953],[177.7451,-38.9013,585.2927],[177.7385,-38.9046,566.2964],[177.7352,-38.9137,604.1812],[177.7289,-38.9188,638.7859],[177.7249,-38.9132,637.5634],[177.7294,-38.9034,632.0114],[177.7217,-38.8983,573.0217],[177.7124,-38.8993,457.7111],[177.7136,-38.906,595.7781],[177.7106,-38.9065,596.629],[177.7089,-38.9042,581.2463],[177.6991,-38.9016,621.2426],[177.6871,-38.9036,599.1675],[177.674,-38.899,573.7974],[177.6707,-38.9026,517.3054],[177.6628,-38.9028,603.2781],[177.6602,-38.9047,544.7393],[177.6604,-38.8524,349.0369],[177.6621,-38.8524,309.942],[177.6624,-38.8459,264.6221],[177.6602,-38.8494,249.0378],[177.6577,-38.8487,246.4228],[177.6527,-38.8519,239.7498],[177.6533,-38.8542,224.0826],[177.6507,-38.856,226.2142],[177.6514,-38.8583,222.0876],[177.6479,-38.8628,203.7188],[177.6457,-38.8621,191.3757],[177.6449,-38.8584,187.7954],[177.6395,-38.8611,212.7431],[177.6403,-38.8635,173.6488],[177.6367,-38.8652,161.1218],[177.6406,-38.8682,167.1716],[177.6371,-38.8711,184.9574],[177.6343,-38.8698,170.2612],[177.6356,-38.8668,163.2551],[177.6313,-38.8628,178.8221],[177.6309,-38.861,186.1087],[177.6328,-38.8589,167.8623],[177.6291,-38.8525,179.4453],[177.6298,-38.8511,197.0011],[177.6244,-38.8452,210.6923],[177.6261,-38.8434,209.6529],[177.5998,-38.8519,488.5037],[177.5945,-38.827,907.5136],[177.5905,-38.8284,874.8168],[177.5975,-38.807,945.2767],[177.5931,-38.8031,836.4136],[177.5758,-38.802,586.0162],[177.5678,-38.8052,537.9341],[177.561,-38.8016,385.7489],[177.5576,-38.8058,421.8809],[177.5494,-38.8057,305.0638],[177.5456,-38.8081,275.298],[177.5463,-38.8113,309.2812],[177.543,-38.8125,179.4555],[177.5389,-38.8185,258.4734],[177.5306,-38.8197,205.6916],[177.5308,-38.818,118.5206],[177.5375,-38.8149,109.3048],[177.5389,-38.8126,72.1493],[177.5352,-38.8095,70.965],[177.5378,-38.8071,102.0958],[177.5353,-38.8038,76.7303],[177.5371,-38.8003,102.2422],[177.5273,-38.7948,94.4293],[177.5313,-38.7915,100.5895],[177.5216,-38.7817,98.7026],[177.5166,-38.7792,135.439],[177.5144,-38.7744,110.9658],[177.4942,-38.778,351.1999],[177.4835,-38.7551,250.5901],[177.4735,-38.7578,480.8283],[177.4699,-38.7554,550.859],[177.4709,-38.7467,486.5294],[177.4675,-38.7443,495.4121],[177.4708,-38.7401,484.861],[177.4722,-38.7408,454.1581],[177.4759,-38.7381,375.0247],[177.4748,-38.7338,441.7217],[177.4759,-38.7318,491.019],[177.4694,-38.7272,425.1416],[177.4719,-38.7226,382.5719],[177.4716,-38.7193,370.1986],[177.4691,-38.7175,451.7086],[177.4691,-38.7139,501.4411],[177.4651,-38.7133,542.729],[177.4629,-38.7094,578.4479],[177.4662,-38.7056,528.2975],[177.4397,-38.7041,725.1672],[177.4356,-38.7012,758.6726],[177.4344,-38.6985,773.2327],[177.4365,-38.6968,763.2209],[177.4348,-38.6941,756.3246],[177.4293,-38.6922,771.3523],[177.4248,-38.6958,767.7771],[177.4143,-38.6964,736.2164],[177.4107,-38.6998,717.2178],[177.4088,-38.6994,738.1509],[177.4152,-38.6822,694.2527],[177.4212,-38.6783,574.0134],[177.4188,-38.6766,523.5253],[177.4187,-38.6739,481.0943],[177.4229,-38.6712,485.4367],[177.431,-38.6692,428.9356],[177.4333,-38.6666,415.432],[177.436,-38.663,397.0272],[177.436,-38.6595,376.4168],[177.4425,-38.6512,369.8445],[177.4432,-38.6496,369.8445],[177.442,-38.6492,347.6558],[177.4438,-38.6485,349.4277],[177.4431,-38.6466,339.2566],[177.4446,-38.646,374.4016],[177.4432,-38.645,336.934],[177.4466,-38.6434,352.5303],[177.4471,-38.6414,325.7767],[177.4515,-38.64,318.1719],[177.4492,-38.6368,334.7281],[177.4359,-38.6321,374.1572],[177.4159,-38.6325,693.9539],[177.3924,-38.6221,902.386],[177.3624,-38.6219,897.3727],[177.3534,-38.6246,902.7695],[177.309,-38.5969,879.829],[177.3076,-38.6597,537.507],[177.1222,-38.5839,1280.1147],[177.1189,-38.5867,1233.8094],[177.1163,-38.5932,1223.5521],[177.106,-38.6041,1150.6923],[177.1035,-38.6095,1207.0193],[177.102,-38.6233,1237.3098],[177.1003,-38.627,1272.9948],[177.0971,-38.6271,1254.3571],[177.0973,-38.6207,1053.5927],[177.0955,-38.6189,988.0508],[177.0927,-38.6183,972.5942],[177.0859,-38.6205,923.7337],[177.0779,-38.6106,1089.572],[177.0717,-38.6123,1131.5072],[177.0655,-38.6192,1153.1249],[177.0608,-38.6221,1143.6406],[177.0511,-38.6201,1134.537],[177.046,-38.6208,1046.6235],[177.0418,-38.6266,1080.9954],[177.035,-38.6291,921.7439],[177.027,-38.6395,1054.6738],[177.0255,-38.6458,1012.8971],[177.022,-38.6497,975.7407],[177.0209,-38.6608,1087.4885],[177.017,-38.6672,1028.0358],[177.0064,-38.6759,1066.0066],[176.9915,-38.6937,1121.2229],[176.9856,-38.6942,1163.488],[176.9716,-38.7047,1168.4307],[176.9655,-38.7036,1114.7837],[176.9642,-38.6983,1130.5553],[176.9619,-38.6968,1085.7053],[176.9542,-38.6975,994.9546],[176.9434,-38.6949,1111.6555],[176.9327,-38.6984,1078.312],[176.9292,-38.6982,1034.0575],[176.9243,-38.691,894.5404],[176.914,-38.6893,865.3766],[176.8998,-38.6828,650.8414],[176.8934,-38.6702,812.6846],[176.8868,-38.6665,807.6359],[176.8765,-38.668,851.387],[176.8614,-38.6801,994.8835],[176.8596,-38.6794,957.8066],[176.8565,-38.6725,859.4335],[176.8456,-38.6725,1002.3582],[176.84,-38.6782,917.2237],[176.8329,-38.6799,940.7109],[176.8225,-38.6914,1110.4418],[176.8196,-38.6908,1078.547],[176.8158,-38.6869,888.6868],[176.8096,-38.6864,734.7411],[176.8036,-38.6816,809.9088],[176.7994,-38.6805,951.9833],[176.7944,-38.6822,982.8448],[176.7858,-38.6809,987.0397],[176.778,-38.6841,978.0741],[176.7736,-38.6843,935.3917],[176.7668,-38.6893,920.8222],[176.7654,-38.6961,840.6708],[176.7672,-38.7003,957.6346],[176.7592,-38.7089,1011.7403],[176.7525,-38.7108,1059.5699],[176.748,-38.7097,1042.2185],[176.7442,-38.7119,1034.0972],[176.7448,-38.7155,1033.0262],[176.7428,-38.719,956.4304],[176.7445,-38.7244,933.836],[176.7429,-38.7278,986.265],[176.7343,-38.7282,949.6057],[176.7271,-38.7218,954.2789],[176.7173,-38.7245,898.1897],[176.7141,-38.7279,868.5709],[176.714,-38.736,917.7017],[176.7103,-38.742,940.0208],[176.7111,-38.7482,991.3754],[176.7071,-38.7554,988.0886],[176.7104,-38.7586,976.2261],[176.7097,-38.769,902.6657],[176.707,-38.7723,920.6908],[176.7036,-38.7838,1142.6351],[176.7046,-38.787,979.8342],[176.7079,-38.789,1059.9905],[176.7,-38.7941,974.5677],[176.7017,-38.8006,955.6808],[176.7002,-38.8035,933.9163],[176.692,-38.8063,1138.5454],[176.6965,-38.8109,1050.3915],[176.696,-38.8216,1170.8392],[176.7017,-38.8237,1097.8521],[176.7041,-38.8271,1147.8018],[176.7002,-38.8379,1084.6842],[176.7042,-38.8451,1214.5172],[176.7002,-38.8534,1142.0244]]]]}}