{"type":"Feature","properties":{"GID_2":"NZL.2.2_1","GID_0":"NZL","country":"NewZealand","GID_1":"NZL.2_1","province":"BayofPlenty","NL_NAME_1":"NA","county":"Kawerau","VARNAME_2":"NA","NL_NAME_2":"NA","TYPE_2":"District","ENGTYPE_2":"District","CC_2":"026","HASC_2":"NZ.BP.KW","name":"Kawerau.county"},
"geometry":{"type": "MultiPolygon","coordinates": [[[[176.7387,-38.067,22.3487],[176.7429,-38.0613,19.1461],[176.7391,-38.0563,19.233],[176.7256,-38.0583,19.8106],[176.7276,-38.0606,22.4017],[176.7215,-38.0623,24.623],[176.7161,-38.0681,21.9262],[176.653,-38.088,219.9364],[176.6414,-38.1016,231.3813],[176.6442,-38.1066,191.2604],[176.6619,-38.1071,140.4574],[176.6675,-38.1115,152.7664],[176.6757,-38.1134,94.4261],[176.6756,-38.1146,59.6539],[176.6946,-38.1123,45.7423],[176.6987,-38.1094,41.1546],[176.7024,-38.1092,40.1063],[176.7022,-38.1056,41.1103],[176.7047,-38.1025,41.2615],[176.7038,-38.1009,39.6925],[176.706,-38.1009,73.9877],[176.7086,-38.0951,48.3302],[176.7123,-38.0931,74.8268],[176.7217,-38.0781,32.635],[176.7313,-38.0771,27.0899],[176.7387,-38.067,22.3487]]]]}}