{"type":"Feature","properties":{"GID_2":"NZL.13.4_1","GID_0":"NZL","country":"NewZealand","GID_1":"NZL.13_1","province":"SouthernIslands","NL_NAME_1":"NA","county":"CampbellIslands","VARNAME_2":"NA","NL_NAME_2":"NA","TYPE_2":"Territory","ENGTYPE_2":"Territory","CC_2":"NZ.02.03","HASC_2":"NA","name":"Campbell_Islands.county"},
"geometry":{"type": "MultiPolygon","coordinates": [[[[169.0629,-52.5806,0.0],[169.0643,-52.582,0.0],[169.0669,-52.5815,0.0],[169.0654,-52.5796,0.0],[169.0629,-52.5806,0.0]]],
[[[169.0169,-52.5775,0.0],[169.0181,-52.5792,0.0],[169.0204,-52.5762,0.0],[169.0171,-52.576,0.0],[169.0169,-52.5775,0.0]]],
[[[169.0469,-52.5713,0.0],[169.0496,-52.5727,0.0],[169.0515,-52.5705,4.046],[169.0474,-52.5693,0.0],[169.0456,-52.5707,0.0],[169.0469,-52.5713,0.0]]],
[[[168.9823,-52.556399999999996,0.0],[168.9839,-52.5567,0.0],[168.9859,-52.5561,0.0226],[168.9845,-52.5549,0.0],[168.9823,-52.556399999999996,0.0]]],
[[[169.1304,-52.6152,10.6969],[169.1268,-52.614,0.0],[169.1253,-52.6161,2.7361],[169.1201,-52.6173,0.0],[169.1273,-52.6207,0.0],[169.1317,-52.6175,0.0],[169.1304,-52.6152,10.6969]]],
[[[169.1313,-52.6144,0.0],[169.1358,-52.6153,0.0],[169.1364,-52.6132,0.0],[169.1341,-52.6123,0.0],[169.1313,-52.6144,0.0]]],
[[[169.2083,-52.4681,14.6891],[169.2024,-52.4692,0.0],[169.1953,-52.4655,0.0],[169.1919,-52.4662,0.0],[169.1923,-52.4712,0.0],[169.1894,-52.4733,0.0],[169.1915,-52.4748,0.0],[169.1891,-52.4766,36.6947],[169.1738,-52.4735,6.2584],[169.1706,-52.4783,34.6136],[169.1612,-52.4797,18.4579],[169.1574,-52.477,0.0],[169.1427,-52.4745,0.0],[169.1364,-52.4763,0.0],[169.1348,-52.4777,0.0],[169.1354,-52.4795,0.0],[169.148,-52.4801,3.7494],[169.1563,-52.483,0.0],[169.1579,-52.4861,19.1435],[169.1539,-52.4864,0.0],[169.1554,-52.4882,19.4241],[169.1513,-52.4896,0.0],[169.1503,-52.493,0.0],[169.1519,-52.4942,40.9835],[169.1515,-52.4968,0.0],[169.1457,-52.5015,0.0],[169.1405,-52.5022,0.0],[169.1422,-52.5037,0.0],[169.1376,-52.5062,0.0],[169.1372,-52.5089,0.0],[169.1347,-52.5095,0.0],[169.1308,-52.514,0.0],[169.1351,-52.5173,0.0],[169.1322,-52.5197,12.7414],[169.1315,-52.5239,30.1307],[169.1287,-52.5257,0.0],[169.131,-52.5259,9.1006],[169.1289,-52.5276,0.0],[169.1294,-52.5286,71.7422],[169.1253,-52.53,0.0],[169.125,-52.5317,0.0],[169.1211,-52.5303,0.0],[169.12,-52.5356,0.0],[169.1148,-52.5358,0.0],[169.1173,-52.5374,31.216],[169.1114,-52.5368,0.0],[169.1143,-52.5387,0.0],[169.1142,-52.5403,2.3279],[169.1107,-52.5414,0.0],[169.1117,-52.5433,0.0],[169.11,-52.5442,0.0],[169.1047,-52.5441,0.0],[169.1064,-52.5454,3.0286],[169.1007,-52.5497,53.9159],[169.0911,-52.5478,0.0],[169.09,-52.5483,0.0],[169.0917,-52.5497,6.532],[169.0906,-52.55,6.532],[169.0783,-52.545,2.0894],[169.0813,-52.5403,24.2063],[169.0835,-52.5403,0.0],[169.0817,-52.5367,0.0],[169.0755,-52.5396,37.4644],[169.0698,-52.539,2.7123],[169.0546,-52.5413,39.3711],[169.0494,-52.5378,0.0],[169.0468,-52.532,0.0],[169.0423,-52.5316,0.0],[169.0404,-52.5316,0.0],[169.0414,-52.5339,0.0],[169.04,-52.5344,0.0],[169.0347,-52.5325,0.0],[169.0383,-52.5354,2.4928],[169.0255,-52.5352,0.7167],[169.0283,-52.5375,6.5854],[169.0156,-52.5444,0.0],[169.0183,-52.5472,5.3688],[169.0271,-52.5505,36.4929],[169.0289,-52.5538,0.0],[169.0316,-52.555,0.0],[169.0331,-52.5588,0.0],[169.0399,-52.5642,39.1297],[169.0357,-52.5663,0.0],[169.0389,-52.5688,0.0],[169.0445,-52.5644,52.2311],[169.0532,-52.5654,0.0],[169.0573,-52.562,4.4911],[169.0586,-52.5638,0.0],[169.0638,-52.5616,5.4211],[169.0788,-52.5634,3.7415],[169.0844,-52.5655,44.0403],[169.0851,-52.5702,0.0],[169.0813,-52.5741,0.0],[169.0842,-52.576,0.0653],[169.0841,-52.5735,6.8067],[169.0933,-52.5736,0.0],[169.0944,-52.5754,0.0],[169.0912,-52.5769,0.0],[169.0908,-52.5788,0.0],[169.0967,-52.5814,0.0],[169.1033,-52.5806,-0.0857],[169.1087,-52.5855,37.0778],[169.1044,-52.5896,0.0],[169.1111,-52.5872,6.9072],[169.1207,-52.5875,0.0],[169.1181,-52.5884,0.0],[169.1283,-52.5908,0.0],[169.1292,-52.5935,108.3306],[169.1251,-52.5997,7.7868],[169.1297,-52.6019,18.6296],[169.1273,-52.6046,0.0],[169.1309,-52.6056,8.4394],[169.1328,-52.6086,0.0273],[169.1398,-52.6091,0.0],[169.133,-52.6024,2.136],[169.1342,-52.6006,37.2012],[169.1427,-52.5993,4.4908],[169.1471,-52.5956,13.1742],[169.1475,-52.6012,0.0],[169.1534,-52.6037,0.0],[169.1529,-52.6053,0.0],[169.1559,-52.607,0.0],[169.1803,-52.6034,0.0],[169.1853,-52.6038,0.0],[169.1773,-52.5992,0.0],[169.1745,-52.5955,0.0],[169.1743,-52.591,19.2397],[169.1787,-52.5915,26.0209],[169.1964,-52.5999,0.0],[169.2011,-52.5997,19.8551],[169.2039,-52.6024,0.0],[169.2078,-52.6018,0.0],[169.2084,-52.5969,23.3046],[169.2128,-52.5957,0.0],[169.2172,-52.5911,13.6904],[169.22,-52.5939,0.0],[169.2228,-52.5933,0.0],[169.2211,-52.5911,9.6674],[169.2229,-52.5872,0.0],[169.2415,-52.5769,3.3067],[169.2422,-52.5744,0.0],[169.2289,-52.5675,0.0],[169.2195,-52.5661,4.2944],[169.2039,-52.5583,23.586],[169.1806,-52.5556,1.8341],[169.1745,-52.5536,1.6799],[169.1739,-52.5522,0.0],[169.1683,-52.5547,12.6877],[169.1611,-52.5544,0.0],[169.1489,-52.5569,0.0],[169.1428,-52.56,6.8465],[169.1372,-52.5603,0.0],[169.1356,-52.5631,5.5894],[169.1333,-52.5606,3.3822],[169.1367,-52.5578,4.6737],[169.1357,-52.5555,1.2909],[169.1421,-52.557,0.0],[169.1472,-52.5553,4.4314],[169.1453,-52.551,1.1232],[169.1422,-52.5489,0.0],[169.1511,-52.5522,1.5162],[169.1575,-52.5449,16.3463],[169.1855,-52.5455,7.543],[169.1911,-52.5475,0.5536],[169.2023,-52.5451,0.0],[169.2087,-52.5455,5.5123],[169.216,-52.5484,2.7117],[169.2372,-52.564,0.0],[169.2621,-52.5637,0.0],[169.262,-52.556399999999996,19.2116],[169.2661,-52.556399999999996,0.0],[169.2617,-52.555,68.8125],[169.2694,-52.5511,0.0],[169.2673,-52.5492,0.0],[169.2552,-52.5469,32.2382],[169.2412,-52.5466,61.1339],[169.2417,-52.5453,10.2627],[169.2393,-52.5437,14.8143],[169.2343,-52.544,10.7314],[169.2325,-52.5424,0.0],[169.2361,-52.5403,0.0],[169.2339,-52.5389,24.3065],[169.2351,-52.5375,0.0],[169.2327,-52.5343,0.0],[169.235,-52.5283,0.0],[169.2373,-52.5262,27.4027],[169.2436,-52.5262,0.0],[169.2458,-52.5245,0.0],[169.2432,-52.5237,4.0818],[169.2432,-52.5209,0.0],[169.2381,-52.519,0.0],[169.2386,-52.5163,0.0],[169.2417,-52.5149,0.0],[169.2421,-52.5134,9.6232],[169.24,-52.5128,9.5476],[169.2409,-52.5101,0.0],[169.2322,-52.5136,7.187],[169.2044,-52.5178,0.0],[169.1933,-52.5219,10.6774],[169.1906,-52.5217,6.0729],[169.1956,-52.5192,0.0],[169.1901,-52.5173,9.534],[169.1953,-52.5155,2.9718],[169.2206,-52.5128,10.3515],[169.2386,-52.5059,0.0],[169.2213,-52.5033,51.8499],[169.2189,-52.5019,43.8206],[169.22,-52.4993,0.0],[169.2166,-52.4967,23.9518],[169.2175,-52.4891,8.6985],[169.2235,-52.4839,0.0],[169.2228,-52.4811,4.1579],[169.2256,-52.4789,0.0],[169.2274,-52.4752,22.2606],[169.2266,-52.4731,44.2973],[169.2283,-52.4714,0.0],[169.2142,-52.4668,0.0],[169.2083,-52.4681,14.6891]]],
[[[169.1305,-52.5073,0.0],[169.1327,-52.5079,0.0],[169.1331,-52.5067,0.0],[169.1316,-52.5058,0.0],[169.1305,-52.5073,0.0]]],
[[[169.0239,-52.5515,0.0],[169.0211,-52.5505,1.5654],[169.0188,-52.5516,0.0],[169.0204,-52.5522,0.0],[169.0239,-52.5515,0.0]]],
[[[168.9885,-52.5522,0.0],[168.9935,-52.553,0.0],[168.9954,-52.5501,0.0],[168.9924,-52.5493,0.0],[168.9885,-52.5522,0.0]]],
[[[169.0137,-52.5388,0.0],[169.0149,-52.5403,0.0],[169.0172,-52.5397,0.0],[169.0158,-52.5385,0.0],[169.0137,-52.5388,0.0]]],
[[[169.0684,-52.5216,51.747],[169.0636,-52.5205,0.0],[169.0625,-52.5209,0.0],[169.064,-52.5214,0.0],[169.0635,-52.5224,0.0],[169.0608,-52.5232,0.0],[169.0626,-52.5255,0.0],[169.0678,-52.5252,0.0],[169.0705,-52.5225,0.0],[169.0684,-52.5216,51.747]]],
[[[169.2413,-52.5051,0.0],[169.2434,-52.5059,0.0472],[169.2463,-52.5046,0.0],[169.2446,-52.5044,0.0],[169.2413,-52.5051,0.0]]],
[[[169.1225,-52.5031,0.0],[169.1212,-52.5034,0.0],[169.1227,-52.5047,0.0],[169.1256,-52.5037,0.0],[169.1249,-52.5025,0.0],[169.1225,-52.5031,0.0]]],
[[[169.1315,-52.4697,0.0],[169.1296,-52.4672,0.0],[169.1264,-52.4679,0.0],[169.1268,-52.4708,0.0],[169.1292,-52.4714,0.0],[169.1315,-52.4697,0.0]]]]}}