{"type":"Feature","properties":{"ISO3166-1-Alpha-3":"NZL","country":"New Zealand","fill":"#F0F","id":"5478","name":"Campbell Islands"},
"geometry":{"type": "Polygon","coordinates": [[[169.25042,-52.52026,0.0],[169.27475,-52.52426,0.0],[169.29352,-52.5202,0.0],[169.27469,-52.50543,0.0],[169.24171,-52.49717,0.0],[169.23471,-52.48854,0.0],[169.22202,-52.48317,0.0],[169.20899,-52.48406,158.7971],[169.21276,-52.47456,84.3605],[169.20502,-52.46919,0.0],[169.18625,-52.4692,0.0],[169.15976,-52.48064,11.89],[169.14431,-52.49006,0.0],[169.12891,-52.50955,0.0],[169.12014,-52.527,0.0],[169.11359,-52.54645,176.8297],[169.08254,-52.54179,0.0],[169.0459,-52.5351,18.678],[169.02484,-52.53375,0.0],[169.01539,-52.54266,0.0],[169.02565,-52.55348,0.0],[169.05149,-52.56868,0.0],[169.06151,-52.56127,5.4211],[169.07372,-52.56461,0.0],[169.08475,-52.57471,0.0653],[169.10019,-52.57944,92.844],[169.11898,-52.58819,0.0],[169.13224,-52.59559,235.9629],[169.16654,-52.59828,295.2559],[169.1953,-52.60031,0.0],[169.22957,-52.58753,0.0],[169.23728,-52.57273,9.3938],[169.245,-52.56263,49.4826],[169.26157,-52.55454,107.0968],[169.26044,-52.54446,0.0],[169.25042,-52.52026,0.0]]]}}