{"type":"Feature","properties":{"ISO3166-1-Alpha-3":"NZL","country":"New Zealand","fill":"#F0F","id":"5472","name":"Tokelau"},
"geometry":{"type": "MultiPolygon","coordinates": [[[[188.78842,-9.41709,1.0],[188.78732,-9.40504,1.0],[188.78549,-9.40455,1.0],[188.78439,-9.40854,1.0],[188.78496,-9.41391,1.0],[188.78667,-9.41937,1.0],[188.78842,-9.41709,1.0]]],
[[[188.73369,-9.37355,1.0],[188.73093,-9.37062,1.0],[188.72853,-9.3733,1.0],[188.73117,-9.3764,1.0],[188.73369,-9.37355,1.0]]],
[[[188.81434,-9.36126,1.0],[188.81267,-9.35174,1.0],[188.80865,-9.34336,1.0],[188.8023,-9.33636,1.0],[188.7942,-9.33099,1.0],[188.7968,-9.33766,1.0],[188.8003,-9.34433,1.0],[188.80449,-9.35068,1.0],[188.80934,-9.35638,1.0],[188.81068,-9.35817,1.0],[188.81105,-9.36045,1.0],[188.8117,-9.36175,1.0],[188.81434,-9.36126,1.0]]],
[[[188.16204,-9.18019,1.0],[188.16179,-9.17995,1.0],[188.16196,-9.18418,1.0],[188.16302,-9.18467,1.0],[188.16204,-9.18019,1.0]]],
[[[188.15691,-9.15911,1.0],[188.1524,-9.15187,1.0],[188.15235,-9.157,1.0],[188.15793,-9.16912,1.0],[188.16013,-9.17075,1.0],[188.15691,-9.15911,1.0]]],
[[[187.52064,-8.57448,1.0],[187.51698,-8.5626,1.0],[187.50831,-8.55185,1.0],[187.49745,-8.54323,1.0],[187.50506,-8.55478,1.0],[187.51393,-8.56536,1.0],[187.51616,-8.58131,1.0],[187.51637,-8.58652,1.0],[187.52064,-8.57448,1.0]]]]}}