{"type":"Feature","properties":{"GID_2":"NZL.2.7_1","GID_0":"NZL","country":"NewZealand","GID_1":"NZL.2_1","province":"BayofPlenty","NL_NAME_1":"NA","county":"Whakatane","VARNAME_2":"NA","NL_NAME_2":"NA","TYPE_2":"District","ENGTYPE_2":"District","CC_2":"025","HASC_2":"NZ.BP.WH","name":"Whakatane.county"},
"geometry":{"type": "MultiPolygon","coordinates": [[[[177.1024,-38.0249,0.7163],[177.1048,-38.0211,0.8115],[177.1049,-38.0149,2.328],[177.1074,-38.0135,6.6673],[177.1073,-38.012,7.4186],[177.1102,-38.013,0.0],[177.113,-38.0109,10.7742],[177.1092,-38.0018,0.0],[177.1042,-38.0023,2.4704],[177.1024,-38.0,0.0],[177.1012,-38.0012,0.0],[177.1024,-38.0029,4.3096],[177.1009,-38.0034,4.1032],[177.0953,-38.0006,0.0],[177.0926,-38.0045,34.291],[177.0964,-38.0093,7.7148],[177.0965,-38.0172,2.4697],[177.0927,-38.0112,0.0],[177.0889,-38.014,2.7674],[177.088,-38.0169,4.658],[177.0859,-38.0174,1.8597],[177.0838,-38.0165,2.9932],[177.084,-38.0141,9.681],[177.0894,-38.0085,13.1104],[177.0881,-38.0063,25.875],[177.0836,-38.0075,9.6451],[177.0888,-38.0029,7.5965],[177.0895,-37.9972,3.7448],[177.0828,-37.9983,12.652],[177.0806,-37.9996,0.8666],[177.081,-38.0023,2.2305],[177.0779,-37.9991,0.0],[177.0757,-38.0002,1.7614],[177.0743,-37.9983,0.0],[177.069,-37.9968,2.1077],[177.0674,-37.999,0.0],[177.0679,-38.0043,23.3394],[177.071,-38.0065,1.8058],[177.0725,-38.0103,3.8264],[177.0676,-38.0085,6.3502],[177.0669,-38.0117,6.9461],[177.0632,-38.0136,18.0216],[177.0641,-38.0148,1.7621],[177.063,-38.0143,18.0216],[177.063,-38.0107,2.0274],[177.0612,-38.0128,12.8269],[177.0622,-38.0032,7.7961],[177.0574,-38.0019,2.4595],[177.059,-37.9987,8.5814],[177.0565,-37.9961,0.7096],[177.0583,-37.993899999999996,1.7633],[177.0625,-37.9938,7.1772],[177.0642,-37.9912,0.0],[177.0656,-37.9876,1.5605],[177.0631,-37.9848,2.3472],[177.0656,-37.9812,17.5935],[177.0687,-37.9794,16.1952],[177.0701,-37.9817,0.0],[177.0732,-37.9813,0.0],[177.0745,-37.9775,4.1821],[177.0749,-37.9798,0.9611],[177.0795,-37.9815,0.0],[177.0811,-37.9791,3.2843],[177.0839,-37.9788,2.3613],[177.087,-37.9798,0.4612],[177.0894,-37.9828,1.4907],[177.1014,-37.9818,2.3324],[177.1137,-37.985,0.3635],[177.1188,-37.9882,0.0],[177.1461,-37.9925,0.0],[177.1473,-37.9904,0.0],[177.1466,-37.9873,0.0],[177.1396,-37.9837,0.0],[177.1082,-37.9804,3.0959],[177.0584,-37.971,0.5777],[177.0389,-37.9642,0.6534],[177.0233,-37.9565,2.2894],[177.0228,-37.9553,6.5682],[177.0254,-37.953,2.0047],[177.0193,-37.9507,39.8673],[177.0198,-37.9474,55.0829],[177.022,-37.946,2.0755],[177.0192,-37.9436,60.7611],[177.018,-37.9393,1.6772],[177.0165,-37.9399,46.0676],[177.0167,-37.9383,1.6772],[177.0156,-37.9403,57.907],[177.0138,-37.938,0.0],[177.0107,-37.9442,0.0],[177.0014,-37.9427,1.8389],[176.9317,-37.9169,3.0214],[176.8801,-37.9088,2.4616],[176.8186,-37.8936,4.6192],[176.7741,-37.8885,4.1555],[176.7447,-37.8819,3.0007],[176.6625,-37.8547,0.0],[176.6025,-37.8298,2.3096],[176.6031,-38.052,383.3894],[176.6152,-38.0587,475.1949],[176.6077,-38.064,389.2895],[176.6077,-38.0669,392.3442],[176.6034,-38.0651,344.3014],[176.6036,-38.1206,349.6587],[176.584,-38.1247,684.9747],[176.5816,-38.3229,457.36],[176.5781,-38.427,504.2117],[176.5215,-38.4193,538.6995],[176.5053,-38.4022,521.2378],[176.4999,-38.4325,553.1685],[176.4763,-38.5101,550.548],[176.5022,-38.5108,549.846],[176.5028,-38.5265,531.0601],[176.5334,-38.5351,477.4308],[176.5295,-38.5443,476.3384],[176.5364,-38.5523,435.9831],[176.5432,-38.5544,425.6794],[176.5407,-38.5602,449.8565],[176.553,-38.5778,434.4008],[176.552,-38.5808,433.8163],[176.6056,-38.6087,362.3724],[176.612,-38.6072,362.5019],[176.6122,-38.6027,376.5068],[176.6173,-38.5975,398.9136],[176.6178,-38.5947,358.5544],[176.646,-38.6059,644.6839],[176.6175,-38.7013,799.6496],[176.6242,-38.7543,787.8726],[176.6372,-38.7633,775.2739],[176.6482,-38.783,811.4421],[176.6977,-38.856,1174.4438],[176.7042,-38.8451,1214.5172],[176.7002,-38.8379,1084.6842],[176.7041,-38.8271,1147.8018],[176.7017,-38.8237,1097.8521],[176.696,-38.8216,1170.8392],[176.6965,-38.8109,1050.3915],[176.692,-38.8063,1138.5454],[176.7002,-38.8035,933.9163],[176.7017,-38.8006,955.6808],[176.7,-38.7941,974.5677],[176.7079,-38.789,1059.9905],[176.7046,-38.787,979.8342],[176.7036,-38.7838,1142.6351],[176.707,-38.7723,920.6908],[176.7097,-38.769,902.6657],[176.7104,-38.7586,976.2261],[176.7071,-38.7554,988.0886],[176.7111,-38.7482,991.3754],[176.7103,-38.742,940.0208],[176.714,-38.736,917.7017],[176.7141,-38.7279,868.5709],[176.7173,-38.7245,898.1897],[176.7271,-38.7218,954.2789],[176.7343,-38.7282,949.6057],[176.7429,-38.7278,986.265],[176.7445,-38.7244,933.836],[176.7428,-38.719,956.4304],[176.7448,-38.7155,1033.0262],[176.7442,-38.7119,1034.0972],[176.748,-38.7097,1042.2185],[176.7525,-38.7108,1059.5699],[176.7592,-38.7089,1011.7403],[176.7672,-38.7003,957.6346],[176.7654,-38.6961,840.6708],[176.7668,-38.6893,920.8222],[176.7733,-38.6845,931.3824],[176.7858,-38.6809,987.0397],[176.7944,-38.6822,982.8448],[176.7994,-38.6805,951.9833],[176.8036,-38.6816,809.9088],[176.8096,-38.6864,734.7411],[176.8158,-38.6869,888.6868],[176.8196,-38.6908,1078.547],[176.8225,-38.6914,1110.4418],[176.8329,-38.6799,940.7109],[176.84,-38.6782,917.2237],[176.8456,-38.6725,1002.3582],[176.8565,-38.6725,859.4335],[176.8596,-38.6794,957.8066],[176.8614,-38.6801,994.8835],[176.8765,-38.668,851.387],[176.8868,-38.6665,807.6359],[176.8934,-38.6702,812.6846],[176.8998,-38.6828,650.8414],[176.914,-38.6893,865.3766],[176.9243,-38.691,894.5404],[176.9292,-38.6982,1034.0575],[176.9327,-38.6984,1078.312],[176.9434,-38.6949,1111.6555],[176.9542,-38.6975,994.9546],[176.9619,-38.6968,1085.7053],[176.9642,-38.6983,1130.5553],[176.9655,-38.7036,1114.7837],[176.9716,-38.7047,1168.4307],[176.9856,-38.6942,1163.488],[176.9915,-38.6937,1121.2229],[177.0064,-38.6759,1066.0066],[177.017,-38.6672,1028.0358],[177.0212,-38.6597,1087.4885],[177.022,-38.6497,975.7407],[177.0255,-38.6458,1012.8971],[177.027,-38.6395,1054.6738],[177.0356,-38.6286,921.7439],[177.0418,-38.6266,1080.9954],[177.0473,-38.6204,1099.4885],[177.0608,-38.6221,1143.6406],[177.0655,-38.6192,1153.1249],[177.0714,-38.6125,1131.5072],[177.0771,-38.6106,1089.572],[177.0795,-38.6115,1069.1448],[177.0819,-38.6167,955.7803],[177.0859,-38.6205,923.7337],[177.0927,-38.6183,972.5942],[177.0955,-38.6189,988.0508],[177.0974,-38.6214,1093.2822],[177.0966,-38.6263,1254.3571],[177.0997,-38.6274,1272.9948],[177.1018,-38.6242,1237.3098],[177.1033,-38.6103,1195.771],[177.106,-38.6041,1150.6923],[177.1163,-38.5932,1223.5521],[177.1199,-38.5854,1258.3329],[177.1382,-38.5768,1352.8615],[177.1405,-38.5776,1344.431],[177.1456,-38.5835,1266.933],[177.1487,-38.5842,1274.7361],[177.1525,-38.5838,1210.5132],[177.1595,-38.578,1006.3024],[177.167,-38.5778,906.0779],[177.164,-38.5729,909.8856],[177.1663,-38.5678,896.2778],[177.177,-38.5609,1041.3127],[177.1892,-38.537,1171.016],[177.1965,-38.5326,1246.3405],[177.2031,-38.5242,1279.4858],[177.2069,-38.5132,1227.9846],[177.2061,-38.5032,1126.2509],[177.1945,-38.4987,1006.6862],[177.1892,-38.4939,994.6562],[177.1839,-38.4937,1034.0703],[177.1815,-38.4876,1003.9847],[177.1864,-38.4846,976.1296],[177.1872,-38.4749,975.0879],[177.1905,-38.469,990.3156],[177.1913,-38.4514,898.166],[177.1886,-38.4466,927.6683],[177.1882,-38.4406,982.7806],[177.1954,-38.428,1046.1429],[177.194,-38.4248,1039.73],[177.1945,-38.4202,1089.8477],[177.1982,-38.4139,1051.1484],[177.2102,-38.406,968.2969],[177.2122,-38.4012,974.7722],[177.2044,-38.3902,1148.0192],[177.205,-38.3836,1033.934],[177.2093,-38.3798,1007.4821],[177.2136,-38.3782,967.9435],[177.2206,-38.3805,855.6505],[177.2237,-38.3797,829.7034],[177.2254,-38.3777,782.6517],[177.2243,-38.3729,833.7413],[177.2257,-38.3688,844.2148],[177.2382,-38.3662,947.1271],[177.2395,-38.3641,875.1517],[177.2389,-38.3565,838.7391],[177.2366,-38.3522,797.418],[177.238,-38.3475,896.0157],[177.2243,-38.3448,781.6162],[177.219,-38.3455,886.944],[177.215,-38.3418,998.0215],[177.2164,-38.332,865.2981],[177.2145,-38.3207,872.4611],[177.2158,-38.3193,841.8456],[177.2234,-38.3183,733.6133],[177.2308,-38.3117,778.2812],[177.2297,-38.3062,819.6213],[177.2308,-38.2979,778.0428],[177.2293,-38.2941,774.3516],[177.2303,-38.2902,792.4222],[177.2276,-38.2858,790.2034],[177.2143,-38.2776,826.2601],[177.2073,-38.2641,856.4211],[177.1861,-38.2642,574.0829],[177.1783,-38.2607,615.0981],[177.1779,-38.2626,609.8443],[177.1736,-38.2655,580.0769],[177.1676,-38.2631,556.0946],[177.1674,-38.2598,567.963],[177.1628,-38.2536,629.5816],[177.1602,-38.2459,573.7072],[177.1613,-38.2398,614.8356],[177.1528,-38.2304,621.5363],[177.147,-38.2293,637.2504],[177.145,-38.2269,660.5021],[177.1517,-38.2223,613.2784],[177.1505,-38.2152,551.5405],[177.1527,-38.2114,550.4714],[177.1508,-38.2094,513.8926],[177.1551,-38.2037,551.5338],[177.156,-38.1996,553.7705],[177.1555,-38.195,613.8604],[177.1503,-38.1888,581.5081],[177.1538,-38.1845,542.7875],[177.1538,-38.1806,488.2547],[177.1569,-38.179,455.9087],[177.1566,-38.1668,356.0456],[177.1641,-38.16,293.3261],[177.1626,-38.1576,261.1377],[177.1642,-38.152,223.5021],[177.1601,-38.1478,221.6687],[177.1593,-38.1437,256.5525],[177.1567,-38.1426,276.4714],[177.1586,-38.1316,176.8676],[177.1614,-38.1263,77.6227],[177.159,-38.1199,60.9759],[177.1707,-38.1196,188.1686],[177.1728,-38.1151,160.3138],[177.165,-38.1073,228.4459],[177.166,-38.0905,238.6888],[177.1626,-38.0826,219.5737],[177.1613,-38.0811,226.007],[177.1532,-38.0816,188.796],[177.1523,-38.0744,105.4464],[177.1325,-38.076,36.5996],[177.1323,-38.0732,20.252],[177.1284,-38.0691,16.0648],[177.1305,-38.064,12.8318],[177.1296,-38.059,9.0637],[177.1207,-38.0582,76.7594],[177.1178,-38.0532,16.7171],[177.1173,-38.0488,5.7584],[177.1151,-38.0479,11.185],[177.1153,-38.0448,17.6473],[177.1069,-38.0339,2.5941],[177.109,-38.0301,24.1633],[177.1024,-38.0249,0.7163]],
[[176.7429,-38.0613,19.1461],[176.7313,-38.0771,27.0899],[176.7217,-38.0781,32.635],[176.7123,-38.0931,74.8268],[176.7086,-38.0951,48.3302],[176.706,-38.1009,73.9877],[176.7038,-38.1009,39.6925],[176.7047,-38.1025,41.2615],[176.7022,-38.1056,41.1103],[176.7032,-38.1068,39.9655],[176.7018,-38.1097,54.2402],[176.6987,-38.1094,41.1546],[176.6946,-38.1123,45.7423],[176.6909,-38.112,56.9845],[176.6863,-38.1142,53.9105],[176.6756,-38.1146,59.6539],[176.6757,-38.1134,94.4261],[176.6675,-38.1115,152.7664],[176.6619,-38.1071,140.4574],[176.6442,-38.1066,191.2604],[176.6414,-38.1016,231.3813],[176.653,-38.088,219.9364],[176.7161,-38.0681,21.9262],[176.7215,-38.0623,24.623],[176.7276,-38.0606,22.4017],[176.7256,-38.0583,19.8106],[176.7391,-38.0563,19.233],[176.7429,-38.0613,19.1461]]],
[[[177.1242,-37.9952,0.4003],[177.121,-37.9964,1.321],[177.1215,-37.998,4.704],[177.1198,-37.9965,1.321],[177.1198,-37.9986,3.9572],[177.1143,-37.9965,0.4612],[177.1176,-37.999,5.1399],[177.1162,-38.0026,1.5826],[177.1129,-38.0039,0.0],[177.1131,-38.0068,2.5619],[177.1153,-38.0073,2.6252],[177.117,-38.0058,20.7563],[177.1188,-38.0009,8.1441],[177.1207,-38.0052,0.0],[177.1249,-38.0036,8.4126],[177.1254,-37.9968,0.0],[177.1227,-37.9959,0.5889],[177.1242,-37.9952,0.4003]]],
[[[177.0719,-37.9841,6.6503],[177.0677,-37.9858,0.0],[177.0691,-37.9872,0.0],[177.071,-37.9859,17.3058],[177.0727,-37.9869,1.7468],[177.0738,-37.9898,0.0],[177.0766,-37.9884,5.1198],[177.0781,-37.991,7.6754],[177.0821,-37.9899,0.0],[177.0832,-37.9932,0.0],[177.0848,-37.9917,0.0],[177.0794,-37.9869,19.5728],[177.0719,-37.9841,6.6503]]]]}}