{"type": "Feature","id": "3398","bbox": [174.1823,-37.29377,175.56593,-36.06268],"geometry": {"type": "MultiPolygon","coordinates": [[[[175.18214,-36.77532,0.0],[175.19321,-36.76686,83.1911],[175.20753,-36.7636,0.0],[175.21518,-36.75848,0.0],[175.20639,-36.74481,0.0],[175.19597,-36.73414,0.0],[175.1906,-36.73122,0.0],[175.16863,-36.74114,10.2489],[175.12452,-36.77215,42.2303],[175.10597,-36.78191,0.0],[175.09547,-36.77703,0.0],[175.08741,-36.76702,0.0],[175.07643,-36.76149,0.0],[175.02589,-36.76247,0.0],[175.01832,-36.76149,0.0],[175.00978,-36.7737,19.8912],[175.00782,-36.79079,10.6918],[175.01173,-36.80267,0.0],[175.02149,-36.79974,0.0],[175.03395,-36.79095,49.5813],[175.04428,-36.79266,23.6403],[175.06617,-36.80934,55.8525],[175.05877,-36.81683,69.0398],[175.09938,-36.82936,0.0],[175.12086,-36.83196,69.564],[175.14161,-36.82977,40.1336],[175.16188,-36.82391,40.7871],[175.16969,-36.82366,0.0],[175.18263,-36.82497,0.0],[175.18719,-36.82252,0.0],[175.18979,-36.81512,0.0],[175.18873,-36.80535,0.0],[175.18116,-36.78509,0.0],[175.18214,-36.77532,0.0]]],
[[[174.90602,-36.44915,0.0],[174.90797,-36.43939,0.0],[174.90113,-36.41522,0.0],[174.89552,-36.40154,0.0],[174.88233,-36.38974,0.0],[174.86655,-36.3847,0.0],[174.85328,-36.3917,0.0],[174.85076,-36.40374,87.3121],[174.86061,-36.4284,102.0582],[174.86012,-36.43955,58.0935],[174.84547,-36.4485,0.0],[174.85524,-36.45241,0.0],[174.89088,-36.45322,0.0],[174.90602,-36.44915,0.0]]],
[[[175.13087,-36.22666,0.0],[175.14601,-36.22194,0.0],[175.15496,-36.21356,0.0],[175.15496,-36.20086,0.0],[175.14763,-36.19052,0.0],[175.13868,-36.18231,0.0],[175.13453,-36.17596,0.0],[175.12086,-36.17523,0.0],[175.09539,-36.18662,429.9999],[175.08082,-36.20566,464.9077],[175.10035,-36.2278,92.26],[175.11394,-36.22829,0.0],[175.13087,-36.22666,0.0]]],
[[[174.82521,-36.30185,0.0],[174.82301,-36.30006,0.0],[174.81967,-36.29876,0.0],[174.8191,-36.29608,0.0],[174.82521,-36.28265,0.0],[174.82447,-36.27703,0.0],[174.79859,-36.26816,10.342],[174.75701,-36.24489,0.0],[174.72495,-36.21551,0.0],[174.66896,-36.1452,0.0],[174.65622,-36.13347,0.0],[174.63805,-36.14265,0.0],[174.5407,-36.21024,152.5011],[174.51124,-36.2278,24.0977],[174.5149,-36.23431,26.5048],[174.51661,-36.23602,22.5188],[174.51905,-36.23691,25.1612],[174.52491,-36.24147,71.372],[174.52149,-36.25449,13.4408],[174.51531,-36.25799,25.3937],[174.50684999999999,-36.2584,45.4471],[174.49692,-36.2619,42.0574],[174.46974,-36.2824,40.6652],[174.43995,-36.29323,14.0302],[174.42726,-36.30006,34.2489],[174.41131,-36.31316,79.0546],[174.39519,-36.32269,9.1584],[174.37501,-36.32781,88.0197],[174.33253,-36.33025,13.2797],[174.31691,-36.32513,1.598],[174.30323,-36.31764,65.6263],[174.29233,-36.32,74.8978],[174.28468,-36.34393,6.0147],[174.27101,-36.33766,1.832],[174.2776,-36.36972,7.2496],[174.29957,-36.38665,2.3069],[174.33123,-36.39251,0.0],[174.38998,-36.38893,0.0],[174.39894,-36.38445,0.0],[174.41131,-36.37493,2.1626],[174.42791,-36.35784,54.4086],[174.43458,-36.35735,16.0333],[174.46599,-36.37322,25.3458],[174.46762,-36.379,25.942],[174.44557,-36.39511,58.6599],[174.44142,-36.40651,6.8658],[174.44988,-36.41774,9.2383],[174.46192,-36.42864,65.7291],[174.46974,-36.43955,139.1751],[174.45297,-36.45477,120.8576],[174.44923,-36.45989,36.4072],[174.44972,-36.46315,26.0398],[174.44988,-36.51531,4.6047],[174.45395,-36.52272,53.2945],[174.4629,-36.50775,7.7601],[174.47055,-36.51922,109.7143],[174.46111,-36.5639,3.1652],[174.46974,-36.58343,23.5803],[174.47511,-36.58115,40.8819],[174.49073,-36.57659,157.003],[174.48536,-36.58611,138.6806],[174.46941,-36.59726,43.9109],[174.4629,-36.60394,13.623],[174.45851,-36.61883,49.0867],[174.45655,-36.63519,60.7117],[174.4524,-36.64642,34.0972],[174.44174,-36.6456,2.3321],[174.43141,-36.66562,2.3916],[174.4214,-36.65439,2.5391],[174.41131,-36.63152,1.9539],[174.40138,-36.61761,0.0],[174.40187,-36.62444,1.5364],[174.40089,-36.6386,2.0898],[174.40138,-36.6456,2.2438],[174.3812,-36.6347,2.9892],[174.37184,-36.63209,34.7081],[174.35987,-36.63128,5.255],[174.36524,-36.62078,4.1051],[174.36638,-36.61126,1.3808],[174.36248,-36.6032,1.4922],[174.35304,-36.5971,13.0905],[174.36671,-36.59564,0.0],[174.3816,-36.59092,0.0],[174.39161,-36.58571,0.0],[174.39047,-36.58343,0.0],[174.37973,-36.58196,0.0],[174.33937,-36.56976,31.7307],[174.35467,-36.55999,34.319],[174.35564,-36.54876,1.477],[174.34588,-36.53948,0.0],[174.32911,-36.53574,0.0],[174.31479,-36.52801,0.0],[174.29217,-36.49489,0.0],[174.27215,-36.47975,5.7519],[174.25717,-36.44695,0.0],[174.24317,-36.43955,0.0],[174.22869,-36.44378,67.8956],[174.219,-36.45436,156.9373],[174.20281,-36.48105,45.9894],[174.19752,-36.46673,2.0444],[174.19874,-36.45306,0.9185],[174.20973,-36.42588,0.0],[174.19695,-36.42702,0.0],[174.18922,-36.43271,0.0],[174.18507,-36.44166,1.7448],[174.1823,-36.45322,4.0744],[174.18849,-36.49912,13.8864],[174.21795,-36.5451,27.8366],[174.35572,-36.68532,58.8052],[174.40756,-36.76149,41.1893],[174.42644,-36.80633,12.6035],[174.44842,-36.90049,12.8683],[174.48894,-37.01458,25.7497],[174.50034,-37.03216,182.5055],[174.52052,-37.0407,0.0],[174.54412,-37.03411,0.0],[174.5656,-37.01873,0.0],[174.5796,-37.00115,116.455],[174.60328,-37.01873,43.3211],[174.6115,-37.01832,18.2027],[174.6211,-37.00799,0.0],[174.62615,-36.99676,0.0],[174.63233,-36.97259,53.6975],[174.64088,-36.96022,39.9181],[174.66733,-36.94411,9.5601],[174.70069,-36.93629,0.0],[174.76832,-36.93353,0.0],[174.83277,-36.9428,6.7577],[174.82879,-36.95379,13.7461],[174.81902,-36.9638,14.6769],[174.80681,-36.97112,15.5097],[174.79526,-36.97381,18.6319],[174.78386,-36.98626,15.196],[174.78582,-37.00848,4.7781],[174.8003,-37.01832,0.0],[174.82594,-36.99375,9.8101],[174.83497,-37.00848,16.9634],[174.84197,-37.0276,0.9068],[174.85133,-37.04046,0.0],[174.86687,-37.0359,18.3089],[174.886,-37.04909,8.5067],[174.93702,-37.06552,11.6901],[174.93523,-37.07635,23.2772],[174.94361,-37.08807,18.8555],[174.94842,-37.10174,7.3351],[174.94581,-37.11305,12.4581],[174.93181,-37.11785,27.1429],[174.91863,-37.11175,5.1549],[174.88054,-37.07635,18.6058],[174.85597,-37.0783,27.0026],[174.83326,-37.09271,11.3602],[174.79184,-37.13275,3.1742],[174.79274,-37.11102,10.1369],[174.7859,-37.10866,2.3344],[174.73162,-37.14674,15.2676],[174.71664,-37.1526,0.0],[174.73455,-37.15936,0.3766],[174.78484,-37.16692,16.1696],[174.80486,-37.16627,30.4362],[174.79005,-37.17588,16.3017],[174.77703,-37.17702,18.6075],[174.74733,-37.17254,4.0704],[174.73585,-37.17946,10.8971],[174.73845,-37.19508,47.7275],[174.75074,-37.22088,30.0203],[174.74,-37.2444,26.8076],[174.72267,-37.23333,0.0],[174.70826,-37.20827,0.0],[174.70427,-37.17604,0.0],[174.65398,-37.09686,14.6366],[174.65561,-37.09092,0.0],[174.66521,-37.08001,0.0],[174.66733,-37.06951,0.0],[174.6574,-37.06113,46.9782],[174.64275,-37.05706,49.5205],[174.60279,-37.06683,62.6264],[174.57472,-37.06146,139.4636],[174.55828,-37.06276,158.6534],[174.56528,-37.09051,114.1523],[174.60768,-37.15488,83.0105],[174.61362,-37.1762,188.0396],[174.61744,-37.18499,129.0348],[174.64088,-37.22088,147.482],[174.65122,-37.25262,175.7255],[174.67291,-37.29377,156.7431],[174.73116,-37.28643,1.6389],[174.79057,-37.25402,20.7916],[174.87698,-37.23242,119.9074],[174.985,-37.21082,156.8129],[175.09841,-37.18921,227.0732],[175.19023,-37.17841,73.5557],[175.19563,-37.1082,385.6365],[175.21723,-37.05419,546.3521],[175.23883,-37.01639,387.8405],[175.27124,-37.03259,137.056],[175.32602,-37.00945,0.0],[175.31902,-36.99961,0.0],[175.28354,-36.96413,0.0],[175.2754,-36.96022,0.0],[175.26246,-36.9568,0.0],[175.24098,-36.94232,0.0],[175.23072,-36.93914,0.0],[175.22169,-36.94085,0.0],[175.18898,-36.95338,141.0959],[175.18409,-36.95192,69.2507],[175.17872,-36.94793,15.507],[175.17262,-36.9459,3.7961],[175.1491,-36.95908,107.6356],[175.13233,-36.96347,64.4942],[175.1211,-36.96982,106.2656],[175.1089,-36.97381,67.9615],[175.09344,-36.97047,15.6191],[175.08058,-36.95306,1.2318],[175.09181,-36.9074,0.0],[175.07984,-36.88454,0.0],[175.05885,-36.87762,0.0],[175.02711,-36.87461,0.0],[175.00367,-36.87933,17.8244],[175.00758,-36.89593,36.0138],[175.02394,-36.92034,78.328],[175.0114,-36.92783,61.9151],[174.98585,-36.92864,22.7429],[174.96315,-36.93353,14.9128],[174.96485,-36.9074,0.0],[174.95704,-36.88454,0.0],[174.93523,-36.83733,0.0],[174.9284,-36.83733,0.0],[174.90113,-36.94655,35.5682],[174.89145,-36.95778,14.9308],[174.88478,-36.95908,15.8615],[174.87941,-36.95208,11.7426],[174.87379,-36.93914,17.4541],[174.86915,-36.92002,1.3831],[174.87428,-36.91123,25.7767],[174.88413,-36.90472,29.2808],[174.89422,-36.89267,5.8458],[174.89747,-36.86248,0.0],[174.87566,-36.85101,50.0159],[174.813,-36.85101,0.0],[174.76645,-36.84271,2.4334],[174.75074,-36.84482,24.2357],[174.73813,-36.85036,24.6649],[174.72739,-36.85801,27.967],[174.71827,-36.86761,14.2079],[174.70981,-36.879,32.3298],[174.70314,-36.87135,7.016],[174.70118,-36.88193,34.234],[174.702,-36.89568,40.2221],[174.70069,-36.90789,27.7526],[174.69256,-36.91302,15.5371],[174.68019,-36.9074,11.0037],[174.67579,-36.89381,6.1217],[174.67457,-36.85125,0.0],[174.6753,-36.84539,0.0],[174.67058,-36.84173,0.0],[174.65463,-36.83392,17.3803],[174.64942,-36.82594,13.6077],[174.65903,-36.81805,0.0],[174.67335,-36.81048,0.0],[174.68263,-36.80316,0.0],[174.66505,-36.79957,12.8551],[174.62973,-36.80397,20.9947],[174.6211,-36.80316,47.0953],[174.6211,-36.79632,31.772],[174.63787,-36.78167,21.127],[174.65358,-36.77304,0.0],[174.68914,-36.75848,60.2599],[174.70362,-36.75848,70.3322],[174.71778,-36.7859,42.6454],[174.73715,-36.78948,58.1434],[174.7326,-36.79811,38.6531],[174.73194,-36.8056,57.5942],[174.73561,-36.81178,44.236],[174.74399,-36.81683,27.9525],[174.77019,-36.80535,0.0],[174.78443,-36.80926,14.581],[174.79737,-36.81862,1.3612],[174.8191,-36.82366,0.0],[174.75929,-36.67327,0.0],[174.74399,-36.64861,0.0],[174.72348,-36.63128,47.1011],[174.76539,-36.64422,0.0],[174.78159,-36.6456,0.0],[174.80616,-36.63795,0.0],[174.85231,-36.61639,0.0],[174.85694,-36.61094,0.0],[174.84645,-36.60394,0.0],[174.83448,-36.60418,86.5173],[174.79184,-36.61761,3.4724],[174.76441,-36.61598,0.0],[174.7505,-36.61289,0.0],[174.74057,-36.60735,0.0],[174.72771,-36.59645,0.0],[174.72291,-36.59368,0.0],[174.72348,-36.57317,0.0],[174.72055,-36.55975,0.0],[174.70965,-36.54209,0.0],[174.70981,-36.5289,0.0],[174.71583,-36.52191,8.28],[174.73683,-36.51133,0.0],[174.74399,-36.50091,0.0],[174.73634,-36.49358,0.0],[174.72828,-36.48789,0.0],[174.71957,-36.48358,0.0],[174.70981,-36.48105,6.8736],[174.70981,-36.47357,4.4074],[174.7326,-36.47259,28.2657],[174.73487,-36.45566,27.3072],[174.71664,-36.41155,22.8519],[174.74269,-36.42002,0.0],[174.75847,-36.43987,28.6334],[174.77882,-36.48724,0.0],[174.78305,-36.47129,0.0],[174.78533,-36.4533,0.0],[174.78338,-36.43621,0.0],[174.76726,-36.4096,0.0],[174.75327,-36.36834,29.619],[174.75074,-36.35442,8.3326],[174.76783,-36.35198,0.0],[174.85035,-36.35556,0.0],[174.88054,-36.35133,0.0],[174.85662,-36.34531,0.0],[174.82879,-36.34222,0.0],[174.80641,-36.33489,0.0],[174.79859,-36.31658,17.061],[174.80079,-36.3056,0.0],[174.80372,-36.30462,0.0],[174.80763,-36.30625,0.0],[174.813,-36.30291,0.0],[174.81332,-36.30462,0.0],[174.81568,-36.30682,0.0],[174.81902,-36.30788,0.0],[174.82252,-36.30633,0.0],[174.82521,-36.30185,0.0]]],
[[[175.44386,-36.12566,0.0],[175.46339,-36.11793,0.0],[175.4336,-36.09979,0.0],[175.42921,-36.09385,0.0],[175.42677,-36.08123,0.0],[175.42026,-36.07195,0.0],[175.41139,-36.06585,0.0],[175.40138,-36.06268,224.4569],[175.3755,-36.06585,339.4863],[175.36411,-36.08131,218.4002],[175.36793,-36.10133,237.654],[175.38771,-36.11793,87.1398],[175.37664,-36.12802,129.364],[175.36354,-36.13193,79.106],[175.33375,-36.13161,0.0],[175.34523,-36.14853,0.0],[175.36541,-36.15683,147.3279],[175.37908,-36.16546,241.1538],[175.37062,-36.18279,13.1833],[175.36736,-36.19362,103.3282],[175.36948,-36.20713,179.6364],[175.36964,-36.21966,93.3364],[175.36036,-36.2278,160.6068],[175.35279,-36.22519,129.4563],[175.32691,-36.19988,53.2813],[175.33375,-36.22373,6.13],[175.35646,-36.24391,0.0],[175.38494,-36.254,35.3732],[175.40805,-36.24765,228.5169],[175.41521,-36.25506,187.5044],[175.41871,-36.26067,41.4989],[175.41896,-36.26678,54.6054],[175.41554,-36.27557,0.0],[175.43971,-36.27093,0.8258],[175.44801,-36.27068,42.1241],[175.4559,-36.27557,212.1048],[175.45924,-36.28436,366.392],[175.4616,-36.30967,0.0],[175.46681,-36.32,0.0],[175.47755,-36.31976,0.0],[175.49244,-36.31268,0.0],[175.50554,-36.30926,111.2272],[175.51124,-36.32,155.211],[175.51173,-36.33261,169.785],[175.51515,-36.34466,0.0],[175.5228,-36.35215,0.0],[175.53688,-36.35076,0.0],[175.54623,-36.34336,0.0],[175.56593,-36.30975,0.0],[175.55779,-36.30429,0.0],[175.53842,-36.2824,0.0],[175.53761,-36.2785,0.0],[175.53875,-36.27386,0.0],[175.53875,-36.26979,0.0],[175.53541,-36.26816,0.0],[175.5298,-36.26735,0.0],[175.52418,-36.26523,0.0],[175.51889,-36.26214,0.0],[175.51466,-36.25848,0.0],[175.5018,-36.24131,0.0],[175.50213,-36.22959,0.0],[175.50766,-36.21868,0.0],[175.51124,-36.20355,0.0],[175.51637,-36.19557,0.0],[175.52573,-36.18524,0.0],[175.53061,-36.17636,0.0],[175.52174,-36.17254,0.0],[175.51205,-36.17099,0.0],[175.4865,-36.16229,0.0],[175.4603,-36.1491,0.0],[175.44597,-36.13714,0.0],[175.44386,-36.12566,0.0]]]]}
,"properties": {"ISO3166-1-Alpha-3": "NZL","country": "New Zealand","fill": "#F0F","name": "Auckland","area_km2": 4698.971,"hist_schema_id": "Elevation0-9000","hist_area_km2": {"0": 796.448,"25": 902.063,"50": 800.011,"75": 624.299,"100": 420.186,"125": 301.586,"150": 199.803,"175": 155.572,"200": 124.837,"225": 96.757,"250": 70.784,"275": 52.719,"300": 41.051,"325": 32.619,"350": 22.7,"375": 16.929,"400": 13.057,"425": 9.358,"450": 5.853,"475": 3.548,"500": 2.414,"525": 1.715,"550": 1.543,"575": 1.085,"600": 1.018,"625": 0.678,"650": 0.22,"675": 0.119}}}