{"type": "Feature","bbox": [167.51539147227126,-47.276421807818423,168.2607528003962,-46.681817315630937],"geometry": {"type": "Polygon","coordinates": [[[167.96741783945876,-46.69854094844338,0.0],[167.9202986988337,-46.681817315630937,0.0],[167.90906823008376,-46.683648370318451,0.0],[167.89515221445876,-46.693536065630923,1.2655],[167.88209069102126,-46.698663018755894,72.8572],[167.86683190195876,-46.696954034380909,153.746],[167.8399764332087,-46.690118096880937,0.0],[167.80958092539626,-46.690850518755909,0.0],[167.78736412852126,-46.696099542193409,154.9972],[167.77344811289626,-46.710503839068409,233.0992],[167.7679549488337,-46.738580010943451,106.4975],[167.76563561289626,-46.744195245318437,89.9387],[167.76172936289626,-46.749200128130894,65.7563],[167.76002037852126,-46.75481536250588,64.9726],[167.7641707691462,-46.762261651568394,37.242],[167.7688094410212,-46.76702239375588,28.8474],[167.7719832691462,-46.771416925005894,38.2982],[167.7736922535212,-46.77617766719338,25.6346],[167.7740584644587,-46.782647393755951,31.1974],[167.7701522144587,-46.789971612505937,48.2097],[167.7624617847712,-46.79753997188088,147.1882],[167.75818932383376,-46.806206964068465,139.1326],[167.7641707691462,-46.817193292193394,57.0706],[167.7981063160212,-46.852227471880923,49.0316],[167.8111678394587,-46.873711846880951,52.9412],[167.8164168628962,-46.896294854693423,73.5402],[167.8142195972712,-46.910088800005894,52.2223],[167.80836022227126,-46.920953057818394,52.2849],[167.79175865977126,-46.940606378130894,127.9296],[167.77869713633376,-46.948663018755937,184.717],[167.7491561207087,-46.948663018755937,12.451599999999999],[167.7369490894587,-46.95403411250588,0.0],[167.7321883472712,-46.975518487505909,174.081],[167.73987877695876,-47.002129815630909,250.1322],[167.7436629566462,-47.026055596880894,335.0291],[167.72632897227126,-47.039605401568409,96.8369],[167.71290123789626,-47.038750909380909,0.0],[167.7009383472712,-47.034478448443423,1.8436],[167.68799889414626,-47.03167083125588,0.0],[167.6716414722712,-47.035943292193451,0.0],[167.64795983164626,-47.046807550005951,275.7489],[167.6375838550837,-47.053399346880965,328.6084],[167.6273299488337,-47.063531182818394,332.3639],[167.61963951914626,-47.07744719844338,216.0929],[167.61963951914626,-47.088677667193451,233.3461],[167.62305748789626,-47.100274346880923,260.4016],[167.6246444019587,-47.115411065630894,209.826],[167.61963951914626,-47.127740167193423,137.6786],[167.61255944102126,-47.138238214068423,226.7147],[167.6129256519587,-47.147393487505923,164.7186],[167.6301375660212,-47.155694268755923,111.5438],[167.5954695972712,-47.167413018755923,318.7427],[167.5752059253962,-47.178521417193465,63.164],[167.5556746753962,-47.180474542193409,73.0367],[167.54542076914626,-47.187066339068423,58.6574],[167.5339461597712,-47.202813409380937,73.5532],[167.5217391285212,-47.227105401568409,292.3682],[167.51539147227126,-47.252496026568437,427.596],[167.52100670664626,-47.271783135943451,240.4461],[167.5412703785212,-47.276421807818423,180.8423],[167.5754500660212,-47.274834893755951,1.1072],[167.60914147227126,-47.26921965938088,1.7877],[167.6273299488337,-47.262383721880909,49.1605],[167.6416121753962,-47.248223565630951,62.279],[167.65919030039626,-47.235162042193451,0.0],[167.6720076832087,-47.235039971880923,0.0],[167.6716414722712,-47.259331964068409,0.0],[167.7031356128962,-47.23613860469338,0.0],[167.7143660816462,-47.223321221880937,0.0],[167.72632897227126,-47.204034112505923,0.0],[167.6655379566462,-47.220269464068437,46.0275],[167.6345320972712,-47.224297784380965,0.0],[167.61646569102126,-47.210992120318409,46.2677],[167.6455184253962,-47.203912042193394,12.9153],[167.6969100269587,-47.175713800005923,0.0],[167.7127791675837,-47.183648370318437,125.0416],[167.7192488941462,-47.159478448443394,104.1093],[167.71937096445876,-47.15850188594338,104.1093],[167.71937096445876,-47.156670831255951,112.4368],[167.71949303477126,-47.155694268755923,132.4487],[167.72730553477126,-47.152276300005937,215.449],[167.74390709727126,-47.149468682818409,188.4602],[167.7646590503962,-47.13628508906838,201.3871],[167.77295983164626,-47.143609307818451,90.6285],[167.7793074878962,-47.157891534380937,76.8635],[167.7889510425837,-47.169976495318409,60.2835],[167.8015242847712,-47.171197198443394,149.0582],[167.8377791675837,-47.167168878130951,180.2146],[167.85328209727126,-47.173028253130909,98.4919],[167.8664656910212,-47.181451104693437,0.0],[167.8840438160212,-47.186944268755894,0.0],[167.90162194102126,-47.187188409380951,0.0],[167.9150496753962,-47.17986419063088,0.0],[167.9336043628962,-47.163262628130965,0.0],[167.9961043628962,-47.12322356563088,45.2042],[168.02112877695876,-47.115411065630894,78.4047],[168.0832625660212,-47.10796477656838,6.2332],[168.1577254566462,-47.10796477656838,3.3581],[168.14625084727126,-47.092339776568394,0.0],[168.1809188160212,-47.10271575313088,0.0],[168.1919051441462,-47.097710870318423,0.0],[168.1855574878962,-47.07305266719338,0.0],[168.1908065113337,-47.065972589068451,0.0],[168.21290123789626,-47.06694915156838,0.0],[168.2205916675837,-47.070977471880894,0.0],[168.22816002695876,-47.084038995318394,0.0],[168.23340905039626,-47.08745696406838,0.0],[168.2410994800837,-47.087701104693437,0.0],[168.2515975269587,-47.086724542193409,0.0],[168.2590438160212,-47.08355071406838,0.0],[168.25745690195876,-47.077203057818423,0.0],[168.2445174488337,-47.067437432818394,0.0],[168.1992293628962,-47.04644133906838,61.4778],[168.1992293628962,-47.039605401568409,61.3281],[168.21290123789626,-47.040459893755894,0.0],[168.22474205820876,-47.04338958125588,0.0],[168.2358504566462,-47.044366143755894,0.0],[168.2472029957087,-47.039605401568409,0.0],[168.2497664722712,-47.032891534380951,0.0],[168.2559920582087,-47.007500909380937,0.0],[168.2607528003962,-46.99810149531838,0.0],[168.25306237070876,-46.99504973750588,0.0],[168.2441512378962,-46.989556573443423,0.0],[168.2365828785212,-46.98235442500588,0.0],[168.23340905039626,-46.974419854693451,0.0],[168.2301131519587,-46.970391534380923,0.0],[168.22254479258376,-46.971978448443394,0.0],[168.2092391285212,-46.97759368281838,0.0],[168.19629967539626,-46.978204034380923,0.0],[168.14234459727126,-46.99150969844338,69.733],[168.13099205820876,-46.991265557818409,50.8319],[168.13099205820876,-46.984429620318437,0.0],[168.1389266285212,-46.981011651568451,0.0],[168.14356530039626,-46.97673919063088,13.8665],[168.1472274097712,-46.97149016719338,14.6256],[168.1508895191462,-46.96453215938088,0.0],[168.11170494883376,-46.952447198443409,0.0],[168.0861922535212,-46.947686456255923,0.0],[168.0587264332087,-46.93352630000588,0.0],[168.04859459727126,-46.93047454219338,0.0],[168.0266219410212,-46.938409112505894,18.2504],[167.9917098316462,-46.96929290156838,339.3893],[167.96656334727126,-46.971368096880951,443.2184],[168.0152694019587,-46.92437102656838,0.0],[168.01807701914626,-46.913262628130923,0.0],[168.00806725352126,-46.893975518755894,0.0],[168.0268660816462,-46.887261651568451,39.4133],[168.0832625660212,-46.888848565630923,62.4527],[168.07642662852126,-46.902520440630951,22.4073],[168.1672469410212,-46.908623956255951,0.0],[168.1919051441462,-46.902520440630951,0.0],[168.1919051441462,-46.896294854693423,0.0],[168.1713973316462,-46.888848565630923,0.0],[168.19117272227126,-46.875909112505951,0.0],[168.1790877613337,-46.86333587031838,0.0],[168.15626061289626,-46.85418059688088,0.0],[168.1441756519587,-46.851250909380894,0.0],[168.13831627695876,-46.837579034380951,0.0],[168.12403405039626,-46.828301690630937,0.0],[168.10743248789626,-46.820245050005894,0.0],[168.0931502613337,-46.810235284380894,0.0],[168.0039168628962,-46.72344329219338,0.0],[167.98658287852126,-46.709771417193437,0.0],[167.96741783945876,-46.69854094844338,0.0]]]}
,"properties": {"featurecla": "Island","name": "Stewart I.","namealt": null,"region": "Oceania","subregion": "New Zealand","min_label": 5.4,"max_label": 10.0,"scalerank": 5,"area_km2": 1615.188,"hist_schema_id": "Elevation0-9000","hist_area_km2": {"0": 294.281,"25": 126.779,"50": 149.933,"75": 120.35,"100": 102.315,"125": 91.94,"150": 90.03,"175": 78.829,"200": 72.929,"225": 65.41,"250": 59.992,"275": 55.492,"300": 48.548,"325": 43.289,"350": 36.901,"375": 32.376,"400": 30.336,"425": 22.59,"450": 19.806,"475": 16.39,"500": 11.803,"525": 9.373,"550": 6.939,"575": 5.086,"600": 5.03,"625": 3.536,"650": 3.218,"675": 2.435,"700": 2.205,"725": 1.409,"750": 1.279,"775": 1.003,"800": 1.003,"825": 0.697,"850": 0.581,"875": 0.334,"900": 0.334,"925": 0.232,"950": 0.131,"975": 0.044}}}