{"type":"Feature","properties":{"featurecla":"Lake","scalerank":7,"name":"Lake Wairarapa","name_abb":"L. Wairarapa","name_alt":null,"note":null,"delta":null,"dam_name":null,"year":-99,"admin":null,"min_zoom":5.7,"min_label":6.7},
"geometry":{"type": "Polygon","coordinates": [[[175.1582964452474,-41.280781579162976,1.0],[175.15770157999577,-41.28970455793484,5.6313],[175.17019375027655,-41.291489153689213,1.0],[175.18090132480279,-41.290894288437755,1.0],[175.18625511206574,-41.2902994231863,1.0],[175.182685920557,-41.277807252905689,2.1578],[175.18149619005408,-41.271858600391113,1.0],[175.1910140340774,-41.264720217373622,1.0219],[175.19696268659197,-41.251633181841555,1.0],[175.21064458737567,-41.245089664075522,1.0],[175.22730081441648,-41.246279394578437,1.3016],[175.25169028972607,-41.239141011560946,1.0],[175.26656192101268,-41.229623167537625,1.0],[175.28143355229895,-41.221889919268676,1.0],[175.29273599207681,-41.209397748988067,1.0],[175.30998708436891,-41.1921466566958,1.0],[175.30998708436891,-41.181439082169561,1.0],[175.31058194962054,-41.1725161033977,1.0],[175.2998743750943,-41.165972585631664,3.0176],[175.2933308573281,-41.16121366362,1.1162],[175.28321814805349,-41.160023933117088,1.2674],[175.26894138201851,-41.166567450883122,1.2505],[175.26180299900102,-41.177275025409358,1.0],[175.25525948123482,-41.183223677923934,1.0],[175.23562892793689,-41.188577465187052,1.0434],[175.21778297039316,-41.199879904964746,1.0],[175.20469593486109,-41.20880288373661,1.0],[175.19577295608906,-41.214156670999728,5.4509],[175.17614240279113,-41.222484784520134,33.3988],[175.17019375027655,-41.232002628543455,2.1047],[175.16781428927072,-41.249848586087182,2.7235],[175.17078861552784,-41.256392103853216,2.4022],[175.17792699854533,-41.256392103853216,2.5052],[175.17078861552784,-41.271858600391113,1.0],[175.1582964452474,-41.280781579162976,1.0]]]}}