{"type":"Feature","properties":{"featurecla":"River","scalerank":10,"rivernum":2032,"dissolve":"2032River","name":"Ruakituri1","name_alt":null,"note":null,"min_zoom":7.2,"strokeweig":0.15,"name_en":"Ruakituri","min_label":8.2},
"geometry":{"type": "LineString","coordinates": [[177.1653408873234,-38.625578718219927,823.6611],[177.18533218922357,-38.631272835169817,777.2092],[177.20911441137571,-38.631272835169817,682.0393],[177.23196824489472,-38.625578718219927,667.915],[177.23387104188404,-38.623810730308826,655.7845]]}}