{"type":"Feature","properties":{"featurecla":"River","scalerank":9,"rivernum":2022,"dissolve":"2022River","name":"Ngaruroro","name_alt":null,"note":null,"min_zoom":7.1,"strokeweig":0.2,"name_en":"Ngaruroro","min_label":8.1},
"geometry":{"type": "LineString","coordinates": [[176.19082619892453,-39.186339842896842,972.2703],[176.19144573802097,-39.192019569583323,1046.4873],[176.19681491894926,-39.19858018259081,970.4667],[176.21032297356138,-39.21507455397284,1281.0054],[176.22130890572015,-39.228505242865523,1032.8126],[176.28880275934904,-39.24298810554243,1057.9244],[176.29966490635672,-39.263350762895854,956.577],[176.30410569865188,-39.282258944724035,903.2687],[176.30947487958019,-39.288757665155984,885.1356],[176.30885595382478,-39.297144109141968,836.0835],[176.28776605870871,-39.310636690610195,679.3109],[176.28343357842076,-39.325924156769148,650.5816],[176.27546490931968,-39.340097556568345,742.225],[176.28043178850697,-39.352630803115666,871.8932],[176.28806004844256,-39.355230291288443,782.3549],[176.30347129975257,-39.360491160209541,557.8891],[176.31417871532142,-39.367485021245827,647.6069],[176.33087423757394,-39.37837811454127,499.4308],[176.32666554243707,-39.386764558527261,507.4665],[176.3180470012928,-39.4040016408158,748.2179],[176.31580339542938,-39.420619797348913,458.0746],[176.31391567187535,-39.434545626845939,741.04],[176.31507615766677,-39.450111609594835,472.2755],[176.3181553133,-39.491332064906025,372.2522],[176.32476234573915,-39.495045619438564,441.528],[176.3372491728548,-39.495943061783926,371.3019],[176.34057589879021,-39.505474518417444,315.7476],[176.34772449126535,-39.516429504288439,243.9848],[176.36865965494255,-39.526425155238528,228.3353],[176.3781756384322,-39.537844335426087,243.7626],[176.38388522852597,-39.549263515613646,397.5186],[176.39530440871351,-39.553069909009494,198.6459],[176.41100964975737,-39.561642030722112,173.86],[176.42671489080124,-39.560682695801205,167.5678],[176.44432332854305,-39.563529754276153,158.347],[176.45003291863682,-39.56402489488049,156.2208],[176.45718151111197,-39.557835637326257,151.8144],[176.47906053656618,-39.561642030722112,140.887],[176.48667332335788,-39.569719011830387,161.8615],[176.50762396017896,-39.579714662780468,135.6435],[176.53284518471247,-39.5859039203347,111.1641],[176.54903009321677,-39.592093177888934,108.6253],[176.56852625451262,-39.593980901442976,101.3575],[176.58186410454198,-39.608742280709819,91.625],[176.59280361726908,-39.612548674105675,87.213],[176.60137573898169,-39.619697266580815,83.3114],[176.60802919085251,-39.62919777692656,83.7482],[176.62088737342143,-39.639657622193212,70.5],[176.632306553609,-39.64349496187684,67.9704],[176.65181818804871,-39.64349496187684,63.1739],[176.67037048756751,-39.637769898639178,60.6598],[176.6770239394383,-39.630621306164038,53.931399999999996],[176.68845859276976,-39.621120795818285,45.0],[176.70131677533868,-39.613012868422246,41.1316],[176.71320014984281,-39.608742280709819,36.5307],[176.72700219418874,-39.595899571284789,29.0],[176.74176357345559,-39.587327449572179,26.2752],[176.76744899230567,-39.586863255255608,22.6835],[176.78839962912673,-39.583985250492894,15.607],[176.80647226118509,-39.577826939226426,14.108],[176.819330443754,-39.576372463701183,8.7613],[176.83074962394159,-39.580178857097039,9.0703],[176.84216880412913,-39.593516707126412,10.45],[176.85597084847507,-39.595899571284789,7.5199],[176.87025256028147,-39.598282435443167,5.7369],[176.88167174046902,-39.593516707126412,4.2775],[176.89832084328992,-39.57733179862209,2.6669],[176.90785229992343,-39.569254817513816,1.9184],[176.91226214593081,-39.566933845930976,0.9159]]}}