{"type":"Feature","properties":{"featurecla":"River","scalerank":9,"rivernum":2035,"dissolve":"2035River","name":"Tukituki1","name_alt":null,"note":null,"min_zoom":7.1,"strokeweig":0.15,"name_en":"Tukituki","min_label":8.1},
"geometry":{"type": "LineString","coordinates": [[176.16294420698372,-39.913470376392482,802.197],[176.17247566361726,-39.895366798046346,648.9515],[176.18370916607819,-39.893355289341223,469.5411],[176.19173972775479,-39.886206696866083,426.0215],[176.20156517412215,-39.879367567268659,419.5638],[176.21725618490657,-39.875036564291953,393.3829]]}}