{"type":"Feature","properties":{"featurecla":"River","scalerank":10,"rivernum":2032,"dissolve":"2032River","name":"Ruakituri","name_alt":null,"note":null,"min_zoom":7.2,"strokeweig":0.2,"name_en":"Ruakituri","min_label":8.2},
"geometry":{"type": "LineString","coordinates": [[177.23387104188404,-38.623810730308826,655.7845],[177.24529062178021,-38.613200203111461,680.1787],[177.27099151377416,-38.604628081398843,635.8966],[177.29859560246604,-38.619853654982258,630.4508],[177.31476503782648,-38.64461068519919,340.5682],[177.32714355293496,-38.655070530465842,356.8885],[177.33190928125168,-38.679827560682774,320.0506],[177.33952206804341,-38.694093799345282,282.2904],[177.34998191331005,-38.716003771087266,209.7426],[177.35570697654771,-38.736923461620577,300.4442],[177.35759470010177,-38.7540677050458,178.8306],[177.37283574682905,-38.763568215391551,136.5362],[177.39853663882303,-38.769293278629213,119.2461],[177.41756860580227,-38.769293278629213,189.7003],[177.43373804116271,-38.783559517291721,131.5765],[177.44897908789002,-38.795938032400187,92.5656],[177.46991425156722,-38.799744425796042,89.6905],[177.48419596337359,-38.807357212587746,77.9957],[177.48513982515061,-38.814010664458543,126.8915],[177.50132473365494,-38.818776392775305,183.5662],[177.52035670063421,-38.828307849408823,70.3015]]}}