{"type":"Feature","properties":{"featurecla":"River","scalerank":10,"rivernum":2037,"dissolve":"2037River","name":"Tutaekuri1","name_alt":null,"note":null,"min_zoom":7.2,"strokeweig":0.15,"name_en":"Tutaekuri","min_label":8.2},
"geometry":{"type": "LineString","coordinates": [[176.34025096276861,-39.327564310021025,933.0643],[176.33429380237266,-39.333505997273086,925.526],[176.33966298330097,-39.34034512687051,814.6586],[176.35007640913597,-39.344801392309563,739.9819],[176.36256323625162,-39.345698834654925,663.0214],[176.38605146866993,-39.346905739878,688.2632],[176.40330402410237,-39.353744869475427,582.0213],[176.41907115772176,-39.365937706857267,578.0599]]}}