{"type":"Feature","properties":{"featurecla":"River","scalerank":10,"rivernum":2037,"dissolve":"2037River","name":"Tutaekuri","name_alt":null,"note":null,"min_zoom":7.2,"strokeweig":0.2,"name_en":"Tutaekuri","min_label":8.2},
"geometry":{"type": "LineString","coordinates": [[176.41907115772176,-39.365937706857267,578.0599],[176.42620427705302,-39.368011108137935,448.8575],[176.43722115549957,-39.36980599282866,368.4604],[176.45058995181671,-39.377542564771453,355.6551],[176.46665107516995,-39.385867116181892,313.8719],[176.48360964086854,-39.390601898210882,290.1205],[176.49789135267491,-39.398245631290358,409.2802],[176.5026570809917,-39.410129005794488,279.7934],[176.51502012295626,-39.417277598269628,203.5701],[176.53501142485644,-39.422043326586383,173.5576],[176.55546692107319,-39.429656113378094,154.7229],[176.56974863287957,-39.43488603601142,164.2136],[176.57545822297334,-39.442963017119695,139.8035],[176.58307100976506,-39.453422862386347,129.7091],[176.59591371919009,-39.457260202069975,122.3111],[176.6054451758236,-39.458188590703109,115.1202],[176.61638468855071,-39.450111609594835,124.2097],[176.63637599045089,-39.4505758039114,108.1306],[176.64875450555937,-39.461035649178051,117.3471],[176.65779082158855,-39.473414164286517,78.9044],[176.66778647253864,-39.481026951078228,106.153],[176.67776665034484,-39.483409815236605,76.955],[176.68920130367627,-39.487216208632461,88.4484],[176.697757952245,-39.484833344474076,53.8596],[176.70871293811598,-39.48675201431589,68.9994],[176.71870858906607,-39.491981936949216,46.3628],[176.73060743671408,-39.503401117136775,40.2395],[176.74963940369335,-39.504360452057682,36.8935],[176.77818735416224,-39.509590374691008,26.9296],[176.79721932114151,-39.520050219957668,21.8579],[176.80008185276034,-39.530045870907749,22.9097],[176.80531177539368,-39.5405057161744,21.0104],[176.80913364193341,-39.550532313412262,15.5414],[176.82005768151663,-39.553843566203774,19.1337],[176.83054847307108,-39.554307760520345,13.1275],[176.84529437919403,-39.550037172807926,11.4445],[176.85957609100041,-39.5524200369663,9.7799],[176.87145946550453,-39.560992158678914,6.0269],[176.883837980613,-39.568109804866282,4.873],[176.90192608581526,-39.567181416233147,2.2771],[176.91226214593081,-39.566933845930976,0.9159]]}}