{"type":"Feature","properties":{"featurecla":"River","scalerank":10,"rivernum":2043,"dissolve":"2043River","name":"Wairoa1","name_alt":null,"note":null,"min_zoom":7.2,"strokeweig":0.2,"name_en":"Wairoa","min_label":8.2},
"geometry":{"type": "LineString","coordinates": [[177.52035670063421,-38.828307849408823,70.3015],[177.50893752044664,-38.832114242804678,47.015],[177.49180875016532,-38.843533422992238,97.0695],[177.48229276667567,-38.848299151308993,104.3185],[177.48894621854646,-38.865443394734221,85.5653],[177.48323662845269,-38.879709633396729,21.7025],[177.48800235676947,-38.891128813584288,27.2616],[177.47752703835891,-38.896822930534185,15.3841],[177.46230146477549,-38.891128813584288,27.1837],[177.44611655627119,-38.897782265455085,29.3434],[177.43755990770245,-38.911120115484458,23.7852],[177.42614072751491,-38.925386354146966,73.5014],[177.42137499919812,-38.933958475859576,10.0883],[177.42708458929192,-38.949184049442991,25.2702],[177.41660927088137,-38.965368957947312,23.7638],[177.4042462289168,-38.969175351343168,18.8941],[177.40899648408967,-38.978675861688913,12.6648],[177.40234303221888,-38.989166653243338,9.1869],[177.39661796898122,-39.004392226826752,10.9599],[177.40042436237707,-39.017699130568353,7.9134],[177.38615812371455,-39.028189922122777,9.2138],[177.38615812371455,-39.035802708914481,6.5069],[177.4032868939959,-39.036762043835388,6.4867],[177.425181392594,-39.036762043835388,5.9147],[177.43183484446479,-39.045303219260227,2.5871],[177.41633075429144,-39.059755135649361,0.0]]}}