{"type":"Feature","properties":{"featurecla":"River","scalerank":9,"rivernum":2035,"dissolve":"2035River","name":"Tukituki","name_alt":null,"note":null,"min_zoom":7.1,"strokeweig":0.2,"name_en":"Tukituki","min_label":8.1},
"geometry":{"type": "LineString","coordinates": [[176.21725618490657,-39.875036564291953,393.3829],[176.22208256291441,-39.873704396606534,387.7279],[176.24920698414584,-39.868722044275373,371.7899],[176.26704751904592,-39.87583969046274,329.0695],[176.27919393699611,-39.888001581556814,329.3669],[176.29774623651491,-39.895830992362917,302.6394],[176.30987718132121,-39.907281118838249,286.1955],[176.32986848322139,-39.920123828263279,263.1841],[176.35772014221544,-39.935813596163257,238.4419],[176.37198638087796,-39.934390066925786,228.0741],[176.39768727287191,-39.935813596163257,208.8473],[176.42196463562837,-39.937237125400735,193.1654],[176.44409123138476,-39.94509748249461,173.4668],[176.48121130356628,-39.956516662682169,156.0707],[176.49762830922887,-39.963665255157309,146.6759],[176.4983400738476,-39.970071136725942,146.3824],[176.5040496639414,-39.977219729201082,148.3657],[176.51975490498526,-39.986503615532428,136.8214],[176.54831832859804,-39.988638909388641,128.5604],[176.57971333754188,-39.9879271447699,124.5414],[176.58970898849196,-39.980778552294765,120.4469],[176.60256717106088,-39.975796199963604,123.1575],[176.61325911348584,-39.970071136725942,142.151],[176.62682906067349,-39.968647607488464,114.3877],[176.64610859795494,-39.975084435344868,113.1463],[176.66681166447384,-39.9736609061074,103.185],[176.68322867013643,-39.963665255157309,136.1323],[176.69751038194283,-39.9550931334447,105.9536],[176.71462367908029,-39.93794889001947,93.9487],[176.72605833241172,-39.9243944159757,92.6223],[176.72748186164921,-39.909416412694455,85.3513],[176.72319580079289,-39.900132526363109,84.7319],[176.72390756541162,-39.89013687541302,80.1605],[176.72106050693668,-39.8794294598442,77.9359],[176.72106050693668,-39.870857338131586,76.6799],[176.73105615788677,-39.851577800850151,74.0856],[176.73890104183675,-39.83375273909396,67.9087],[176.75318275364316,-39.818743789524945,63.384],[176.76673722768692,-39.811595197049805,95.4153],[176.77602111401828,-39.812337907956312,65.0075],[176.78530500034961,-39.81376143719379,115.0077],[176.79814770977464,-39.808748138574856,87.0649],[176.80314553524971,-39.79946425224351,50.8525],[176.807431596106,-39.783774484343532,52.5557],[176.82313683714986,-39.763071417824619,43.3194],[176.84026560743121,-39.755922825349479,39.8602],[176.86452749704381,-39.752364002255796,35.7942],[176.89593797913153,-39.738809528212023,42.1101],[176.90737263246297,-39.727390348024464,34.459],[176.92450140274431,-39.720241755549331,26.1772],[176.93164999521946,-39.708822575361765,30.8093],[176.93307352445692,-39.69669163055547,24.9239],[176.93324372903967,-39.668778078985881,26.8536],[176.93431137596778,-39.652716955632648,50.6631],[176.94181585075228,-39.631673479948255,25.3501],[176.94645779391794,-39.622389593616909,6.6637],[176.9544574093068,-39.609330260177472,0.0]]}}