{"type":"Feature","properties":{"GID_1":"NZL.4_1","GID_0":"NZL","country":"NewZealand","province":"ChathamIslands","VARNAME_1":"NA","NL_NAME_1":"NA","TYPE_1":"Region","ENGTYPE_1":"Territory","CC_1":"99","HASC_1":"NZ.CI","ISO_1":"NA","name":"Chatham_Islands.province"},
"geometry":{"type": "MultiPolygon","coordinates": [[[[183.8226,-44.3363,1.0],[183.8214,-44.3359,1.0],[183.8179,-44.3412,1.0],[183.8167,-44.3477,1.0],[183.8151,-44.349,1.0],[183.8308,-44.3559,1.0],[183.8348,-44.3552,1.0],[183.8363,-44.3489,1.0],[183.8301,-44.3466,1.0],[183.8326,-44.3421,1.0],[183.8344,-44.3415,1.0],[183.8268,-44.3399,1.0],[183.8265,-44.3378,1.0],[183.8226,-44.3363,1.0]]],
[[[183.7787,-44.2244,1.0],[183.7766,-44.224,1.0],[183.7782,-44.2262,1.0],[183.7747,-44.231,1.0],[183.7678,-44.2369,1.0],[183.7642,-44.2379,1.0],[183.765,-44.2395,1.0],[183.7636,-44.2406,1.0],[183.7457,-44.2404,1.0],[183.7412,-44.2424,1.0],[183.7425,-44.2433,1.0],[183.7402,-44.2449,1.0],[183.7385,-44.2433,1.0],[183.7327,-44.2433,1.0],[183.7271,-44.2391,1.0],[183.7242,-44.2401,1.0],[183.7241,-44.2421,1.0],[183.7302,-44.2461,1.0],[183.7361,-44.2469,1.0],[183.7384,-44.2454,1.0],[183.7377,-44.247,1.0],[183.7398,-44.2489,1.0],[183.7436,-44.2483,1.0],[183.7464,-44.2505,1.0],[183.7472,-44.2548,1.0],[183.751,-44.2594,1.0],[183.7564,-44.2583,1.0],[183.7615,-44.2647,1.0],[183.7605,-44.2713,1.0],[183.758,-44.2741,1.0],[183.7425,-44.2773,1.0],[183.7393,-44.2805,1.0],[183.7405,-44.2836,1.0],[183.735,-44.2848,1.0],[183.7306,-44.2883,1.0],[183.7343,-44.2883,1.0],[183.739,-44.2852,1.0],[183.7385,-44.2875,1.0],[183.7408,-44.2866,1.0],[183.745,-44.2894,1.0],[183.7454,-44.2941,1.0],[183.7388,-44.3004,1.0],[183.7416,-44.302,1.0],[183.7401,-44.3059,1.0],[183.7477,-44.3098,1.0],[183.7447,-44.3134,1.0],[183.7427,-44.3197,1.0],[183.7368,-44.3246,1.0],[183.7321,-44.324,1.0],[183.7323,-44.3262,1.0],[183.7504,-44.3274,1.0],[183.751,-44.3289,1.0],[183.7539,-44.3291,1.0],[183.7522,-44.3304,1.0],[183.7529,-44.3348,1.0],[183.7501,-44.3378,1.0],[183.745,-44.3394,1.0],[183.7438,-44.3443,1.0],[183.7485,-44.345,1.0],[183.7479,-44.3463,1.0],[183.7493,-44.3467,1.0],[183.7505,-44.3455,1.0],[183.7526,-44.3465,1.0],[183.7545,-44.3506,1.0],[183.7573,-44.3517,1.0],[183.7632,-44.3503,1.0],[183.7626,-44.3468,1.0],[183.7651,-44.3459,1.0],[183.765,-44.3435,1.0],[183.7719,-44.3416,1.0],[183.7708,-44.3393,1.0],[183.7731,-44.342,1.0],[183.7745,-44.3402,1.0],[183.772,-44.3362,1.0],[183.7736,-44.3339,1.0],[183.7763,-44.3345,1.0],[183.7775,-44.3323,1.0],[183.7811,-44.332,1.0],[183.7842,-44.3337,1.0],[183.7895,-44.3298,1.0],[183.7901,-44.3271,1.0],[183.7974,-44.3267,1.0],[183.7997,-44.3205,1.0],[183.7976,-44.3176,1.0],[183.8024,-44.3156,1.0],[183.8045,-44.3125,1.0],[183.8003,-44.3079,1.0],[183.8001,-44.3048,1.0],[183.8029,-44.2994,1.0],[183.8135,-44.2883,1.0],[183.8278,-44.2793,1.0],[183.8431,-44.2729,1.0],[183.84,-44.2669,1.0],[183.8411,-44.2646,1.0],[183.8423,-44.2652,1.0],[183.8456,-44.2622,1.0],[183.8416,-44.262,1.0],[183.8404,-44.264,1.0],[183.8393,-44.2625,1.0],[183.8329,-44.2633,1.0],[183.811,-44.244,1.0],[183.8071,-44.2366,1.0],[183.8013,-44.2398,1.0],[183.8036,-44.2411,1.0],[183.7983,-44.2422,1.0],[183.8025,-44.2383,1.0],[183.8071,-44.2363,1.0],[183.8029,-44.2317,1.0],[183.7889,-44.225,1.0],[183.78,-44.2258,1.0],[183.7787,-44.2244,1.0]]],
[[[183.6862,-44.2768,1.0],[183.6808,-44.2771,1.0],[183.6803,-44.2787,1.0],[183.681,-44.2798,1.0],[183.6892,-44.2781,1.0],[183.6862,-44.2768,1.0]]],
[[[183.7073,-44.2631,1.0],[183.7001,-44.2651,1.0],[183.7005,-44.2676,1.0],[183.6987,-44.2692,1.0],[183.7031,-44.2712,1.0],[183.6972,-44.2754,1.0],[183.691,-44.2771,1.0],[183.6911,-44.2792,1.0],[183.6982,-44.2772,1.0],[183.7,-44.2741,1.0],[183.7128,-44.271,1.0],[183.7112,-44.2691,1.0],[183.7117,-44.2639,1.0],[183.7073,-44.2631,1.0]]],
[[[183.3736,-43.6935,1.0],[183.3708,-43.6939,1.0],[183.3694,-43.6971,1.0],[183.3711,-43.699,1.0],[183.3702,-43.7023,1.0],[183.3597,-43.7036,1.0],[183.3658,-43.7095,1.0],[183.3604,-43.7143,1.0],[183.3625,-43.7154,1.0],[183.3634,-43.7193,1.0],[183.3658,-43.7202,1.0],[183.3731,-43.7169,1.0],[183.378,-43.7175,1.0],[183.3685,-43.7214,1.0],[183.3627,-43.7326,1.0],[183.3537,-43.7404,1.0],[183.3432,-43.7462,1.0],[183.3435,-43.7494,1.0],[183.3419,-43.7477,1.0],[183.3289,-43.7517,1.0],[183.294,-43.7573,1.0],[183.2751,-43.7636,1.0],[183.2494,-43.7655,1.0],[183.2282,-43.7634,1.0],[183.2092,-43.7589,1.0],[183.1967,-43.751,1.0],[183.1958,-43.7484,1.0],[183.1978,-43.7456,1.0],[183.1971,-43.7445,1.0],[183.1843,-43.7471,1.0],[183.1847,-43.7502,1.0],[183.18,-43.7519,1.0],[183.1805,-43.7547,1.0],[183.177,-43.757,1.0],[183.1829,-43.759,1.0],[183.1877,-43.764,1.0],[183.1911,-43.7746,1.0],[183.189,-43.7844,1.0],[183.1697,-43.7881,1.0],[183.1581,-43.7882,1.0],[183.1578,-43.7897,1.0],[183.1555,-43.7882,1.0],[183.1453,-43.7884,1.0],[183.134,-43.7907,1.0],[183.1297,-43.7928,1.0],[183.1269,-43.7961,1.0],[183.1279,-43.7972,1.0],[183.1224,-43.7992,1.0],[183.127,-43.8016,1.0],[183.1237,-43.8033,1.0],[183.128,-43.806,1.0],[183.1214,-43.8091,1.0],[183.1236,-43.813,1.0],[183.1261,-43.814,1.0],[183.1252,-43.8174,1.0],[183.12,-43.8191,1.0],[183.1128,-43.8187,1.0],[183.1094,-43.8213,1.0],[183.1071,-43.8205,1.0],[183.1071,-43.8235,1.0],[183.1262,-43.8305,1.0],[183.1244,-43.833,1.0],[183.1205,-43.834,1.0],[183.1173,-43.8403,1.0],[183.1345,-43.8362,1.0],[183.1409,-43.8387,1.0],[183.142,-43.8428,1.0],[183.1462,-43.8436,1.0],[183.1506,-43.842,1.0],[183.1495,-43.8366,1.0],[183.1524,-43.8355,1.0],[183.1641,-43.8401,1.0],[183.1823,-43.8415,1.0],[183.2005,-43.8378,1.0],[183.2122,-43.8374,1.0],[183.2095,-43.835,1.0],[183.2145,-43.8348,1.0],[183.2107,-43.8329,1.0],[183.2038,-43.8252,1.0],[183.204,-43.8218,1.0],[183.2062,-43.8212,1.0],[183.222,-43.8256,1.0],[183.241,-43.8282,1.0],[183.2448,-43.8334,1.0],[183.2504,-43.829,1.0],[183.2545,-43.83,1.0],[183.2568,-43.8261,1.0],[183.2626,-43.829,1.0],[183.2638,-43.8269,1.0],[183.267,-43.8274,1.0],[183.2709,-43.8301,1.0],[183.2825,-43.8297,1.0],[183.2881,-43.8278,1.0],[183.2872,-43.8264,1.0],[183.2948,-43.8256,1.0],[183.2984,-43.8221,1.0],[183.2967,-43.8175,1.0],[183.2899,-43.8139,1.0],[183.2916,-43.8129,1.0],[183.2904,-43.8099,1.0],[183.292,-43.808,1.0],[183.3027,-43.8116,1.0],[183.3019,-43.813,1.0],[183.3036,-43.8152,1.0],[183.3084,-43.8181,1.0],[183.3135,-43.8124,1.0],[183.3113,-43.81,1.0],[183.3139,-43.8076,1.0],[183.3113,-43.8015,1.0],[183.3134,-43.7982,1.0],[183.3177,-43.7988,1.0],[183.319,-43.8023,1.0],[183.3242,-43.8069,1.0],[183.33,-43.8077,1.0],[183.3325,-43.8046,1.0],[183.3337,-43.7979,1.0],[183.3372,-43.7974,1.0],[183.3416,-43.8037,1.0],[183.3408,-43.8066,1.0],[183.3443,-43.8086,1.0],[183.3494,-43.8089,1.0],[183.3537,-43.8038,1.0],[183.3589,-43.8072,1.0],[183.3593,-43.8103,1.0],[183.3666,-43.8078,1.0],[183.3681,-43.8091,1.0],[183.3734,-43.8091,1.0],[183.3773,-43.8116,1.0],[183.3861,-43.8098,1.0],[183.3891,-43.8109,1.0],[183.3907,-43.8096,1.0],[183.3913,-43.8119,1.0],[183.4284,-43.8477,1.0],[183.4536,-43.883,1.0],[183.4575,-43.8962,1.0],[183.4545,-43.8989,1.0],[183.459,-43.9056,1.0],[183.4633,-43.9078,1.0],[183.4646,-43.9101,1.0],[183.4671,-43.9262,1.0],[183.4657,-43.9379,1.0],[183.4637,-43.9414,1.0],[183.4537,-43.9503,1.0],[183.4425,-43.9534,1.0],[183.4421,-43.9516,1.0],[183.4376,-43.9495,1.0],[183.4384,-43.9455,1.0],[183.4345,-43.9423,1.0],[183.4308,-43.9431,1.0],[183.4274,-43.9412,1.0],[183.4282,-43.944,1.0],[183.4268,-43.9449,1.0],[183.4287,-43.9468,1.0],[183.4233,-43.9498,1.0],[183.4262,-43.9524,1.0],[183.4251,-43.9572,1.0],[183.4239,-43.9588,1.0],[183.4211,-43.9588,1.0],[183.4196,-43.9628,1.0],[183.4161,-43.9649,1.0],[183.4128,-43.9645,1.0],[183.412,-43.9665,1.0],[183.4053,-43.9657,1.0],[183.3991,-43.9691,1.0],[183.3986,-43.9709,1.0],[183.396,-43.9707,1.0],[183.3865,-43.9752,1.0],[183.3797,-43.9797,1.0],[183.3808,-43.9808,1.0],[183.3791,-43.9822,1.0],[183.3753,-43.982,1.0],[183.3671,-43.9849,1.0],[183.3614,-43.9902,1.0],[183.3548,-43.9927,1.0],[183.3502,-43.9967,1.0],[183.3483,-43.9963,1.0],[183.3461,-44.0001,1.0],[183.3441,-43.9989,1.0],[183.3355,-44.0029,1.0],[183.3291,-44.0035,1.0],[183.3218,-44.0063,1.0],[183.3177,-44.01,1.0],[183.3185,-44.0136,1.0],[183.3219,-44.0157,1.0],[183.3195,-44.0221,1.0],[183.3252,-44.0245,1.0],[183.3235,-44.0268,1.0],[183.3291,-44.0295,1.0],[183.3297,-44.0333,1.0],[183.3318,-44.0351,1.0],[183.3307,-44.0366,1.0],[183.3333,-44.0369,1.0],[183.3398,-44.0415,1.0],[183.3451,-44.0414,1.0],[183.3411,-44.048,1.0],[183.3431,-44.0521,1.0],[183.3422,-44.0547,1.0],[183.3442,-44.057,1.0],[183.3433,-44.0617,1.0],[183.347,-44.0646,1.0],[183.3433,-44.0652,1.0],[183.3391,-44.069,1.0],[183.3419,-44.0718,1.0],[183.3533,-44.0769,1.0],[183.3554,-44.0851,1.0],[183.3579,-44.0872,1.0],[183.3539,-44.093,1.0],[183.3558,-44.0974,1.0],[183.3539,-44.1041,1.0],[183.3522,-44.1055,1.0],[183.3589,-44.1042,1.0],[183.3615,-44.1068,1.0],[183.3633,-44.1063,1.0],[183.3634,-44.1082,1.0],[183.3673,-44.1114,1.0],[183.3672,-44.1142,1.0],[183.363,-44.1195,1.0],[183.3652,-44.1233,1.0],[183.3715,-44.1196,1.0],[183.3771,-44.1211,1.0],[183.3806,-44.1202,1.0],[183.3819,-44.1223,1.0],[183.3843,-44.1225,1.0],[183.3836,-44.1244,1.0],[183.3864,-44.1258,1.0],[183.4019,-44.1253,1.0],[183.4051,-44.1261,1.0],[183.4064,-44.1289,1.0],[183.4082,-44.1293,1.0],[183.413,-44.1265,1.0],[183.4179,-44.1283,1.0],[183.42,-44.1311,1.0],[183.438,-44.1256,1.0],[183.4455,-44.1261,1.0],[183.4503,-44.1227,1.0],[183.4579,-44.1203,1.0],[183.464,-44.1096,1.0],[183.4648,-44.1053,1.0],[183.4729,-44.1036,1.0],[183.4747,-44.1004,1.0],[183.4792,-44.0977,1.0],[183.4873,-44.0981,1.0],[183.4931,-44.0949,1.0],[183.4977,-44.0887,1.0],[183.5005,-44.0875,1.0],[183.5046,-44.0873,1.0],[183.5095,-44.0908,1.0],[183.5095,-44.0868,1.0],[183.5118,-44.0866,1.0],[183.5122,-44.0845,1.0],[183.523,-44.0753,1.0],[183.5364,-44.0718,1.0],[183.5507,-44.0651,1.0],[183.5619,-44.0649,1.0],[183.5755,-44.0612,1.0],[183.5816,-44.0617,1.0],[183.6062,-44.0539,1.0],[183.6219,-44.0585,1.0],[183.6262,-44.0574,1.0],[183.6417,-44.0585,1.0],[183.6559,-44.0506,1.0],[183.6591,-44.0516,1.0],[183.6645,-44.0505,1.0],[183.6641,-44.0528,1.0],[183.6669,-44.0536,1.0],[183.6713,-44.0524,1.0],[183.6705,-44.0506,1.0],[183.6742,-44.0493,1.0],[183.6713,-44.0384,1.0],[183.6749,-44.0345,1.0],[183.6739,-44.0332,1.0],[183.6716,-44.0344,1.0],[183.6641,-44.0326,1.0],[183.6569,-44.0335,1.0],[183.6521,-44.0311,1.0],[183.6482,-44.0253,1.0],[183.6433,-44.0236,1.0],[183.6387,-44.0232,1.0],[183.6365,-44.0253,1.0],[183.6243,-44.0247,1.0],[183.61,-44.0154,1.0],[183.605,-44.0095,1.0],[183.5905,-43.9807,1.0],[183.5851,-43.9579,1.0],[183.5829,-43.9356,1.0],[183.5786,-43.9328,1.0],[183.5776,-43.9276,1.0],[183.5764,-43.9278,1.0],[183.5753,-43.9346,1.0],[183.5688,-43.9416,1.0],[183.5703,-43.9627,1.0],[183.5641,-43.9677,1.0],[183.5594,-43.9663,1.0],[183.5627,-43.9655,1.0],[183.5634,-43.9639,1.0],[183.5619,-43.9627,1.0],[183.5586,-43.9662,1.0],[183.5475,-43.9656,1.0],[183.5267,-43.957,1.0],[183.5255,-43.9553,1.0],[183.5267,-43.9548,1.0],[183.5216,-43.9558,1.0],[183.5165,-43.9523,1.0],[183.5149,-43.949,1.0],[183.5167,-43.9464,1.0],[183.5141,-43.9452,1.0],[183.5179,-43.9431,1.0],[183.5154,-43.9414,1.0],[183.5193,-43.9398,1.0],[183.5207,-43.9408,1.0],[183.5222,-43.9364,1.0],[183.5249,-43.935,1.0],[183.5259,-43.9307,1.0],[183.5309,-43.9284,1.0],[183.5267,-43.9265,1.0],[183.5232,-43.9212,1.0],[183.526,-43.9162,1.0],[183.5219,-43.9144,1.0],[183.5196,-43.9097,1.0],[183.513,-43.908,1.0],[183.509,-43.9043,1.0],[183.5087,-43.9021,1.0],[183.4985,-43.897,1.0],[183.4963,-43.8937,1.0],[183.4881,-43.8887,1.0],[183.4865,-43.886,1.0],[183.4874,-43.8837,1.0],[183.4828,-43.8796,1.0],[183.4829,-43.8767,1.0],[183.4763,-43.8677,1.0],[183.4759,-43.8636,1.0],[183.4783,-43.8597,1.0],[183.476,-43.8574,1.0],[183.476,-43.8533,1.0],[183.4786,-43.8481,1.0],[183.4853,-43.8425,1.0],[183.4925,-43.8398,1.0],[183.4977,-43.8406,1.0],[183.4984,-43.8379,1.0],[183.495,-43.8374,1.0],[183.4949,-43.8344,1.0],[183.4992,-43.8309,1.0],[183.5073,-43.8299,1.0],[183.5073,-43.8278,1.0],[183.5043,-43.8256,1.0],[183.5062,-43.8233,1.0],[183.5161,-43.8219,1.0],[183.5219,-43.8238,1.0],[183.5226,-43.825,1.0],[183.5211,-43.8263,1.0],[183.5234,-43.8274,1.0],[183.5236,-43.8234,1.0],[183.5276,-43.822,1.0],[183.5269,-43.8205,1.0],[183.5313,-43.8188,1.0],[183.533,-43.8161,1.0],[183.5395,-43.8135,1.0],[183.5444,-43.8134,1.0],[183.5475,-43.8104,1.0],[183.5549,-43.8096,1.0],[183.5528,-43.8072,1.0],[183.5539,-43.8048,1.0],[183.5366,-43.8015,1.0],[183.5179,-43.8034,1.0],[183.5109,-43.8022,1.0],[183.5019,-43.7975,1.0],[183.4765,-43.7992,1.0],[183.4589,-43.7932,1.0],[183.454,-43.788,1.0],[183.454,-43.7821,1.0],[183.4438,-43.7799,1.0],[183.4384,-43.7741,1.0],[183.4397,-43.7695,1.0],[183.4382,-43.7666,1.0],[183.4394,-43.7607,1.0],[183.4434,-43.7564,1.0],[183.4435,-43.754,1.0],[183.4504,-43.7518,1.0],[183.4491,-43.7489,1.0],[183.4501,-43.7445,1.0],[183.4464,-43.7428,1.0],[183.4496,-43.7389,1.0],[183.4542,-43.7376,1.0],[183.4626,-43.7383,1.0],[183.4676,-43.7409,1.0],[183.476,-43.7404,1.0],[183.4803,-43.7418,1.0],[183.4944,-43.7509,1.0],[183.4963,-43.7558,1.0],[183.4935,-43.7607,1.0],[183.5,-43.7639,1.0],[183.5106,-43.7576,1.0],[183.5157,-43.7519,1.0],[183.5231,-43.7471,1.0],[183.5424,-43.7512,1.0],[183.5557,-43.7496,1.0],[183.5641,-43.7509,1.0],[183.6048,-43.7662,1.0],[183.6121,-43.773,1.0],[183.6213,-43.7853,1.0],[183.6036,-43.8166,1.0],[183.5983,-43.8225,1.0],[183.5963,-43.8332,1.0],[183.5915,-43.8409,1.0],[183.5827,-43.8438,1.0],[183.5764,-43.8487,1.0],[183.5719,-43.8444,1.0],[183.5805,-43.8663,1.0],[183.5834,-43.8875,1.0],[183.5802,-43.8999,1.0],[183.5736,-43.9077,1.0],[183.571,-43.9174,1.0],[183.5727,-43.9191,1.0],[183.5742,-43.9171,1.0],[183.5806,-43.9186,1.0],[183.5822,-43.9207,1.0],[183.5806,-43.9253,1.0],[183.5817,-43.9272,1.0],[183.5835,-43.9264,1.0],[183.5858,-43.9069,1.0],[183.5897,-43.8929,1.0],[183.6013,-43.8656,1.0],[183.6151,-43.8427,1.0],[183.6292,-43.8235,1.0],[183.6618,-43.7906,1.0],[183.6761,-43.7801,1.0],[183.6967,-43.7689,1.0],[183.7196,-43.7618,1.0],[183.7367,-43.7603,1.0],[183.7442,-43.7617,1.0],[183.751,-43.7643,1.0],[183.7563,-43.7708,1.0],[183.7617,-43.7726,1.0],[183.7651,-43.7689,1.0],[183.7589,-43.7605,1.0],[183.7591,-43.7565,1.0],[183.762,-43.7516,1.0],[183.7677,-43.7487,1.0],[183.7765,-43.7409,1.0],[183.7792,-43.7403,1.0],[183.782,-43.7438,1.0],[183.7864,-43.7392,1.0],[183.7948,-43.7404,1.0],[183.8008,-43.7373,1.0],[183.8003,-43.7344,1.0],[183.7966,-43.7335,1.0],[183.7938,-43.7283,1.0],[183.786,-43.7333,1.0],[183.7813,-43.7319,1.0],[183.7754,-43.7352,1.0],[183.7715,-43.7348,1.0],[183.7673,-43.7308,1.0],[183.7626,-43.7299,1.0],[183.7552,-43.7315,1.0],[183.753,-43.7281,1.0],[183.7467,-43.7289,1.0],[183.7477,-43.7326,1.0],[183.7465,-43.7352,1.0],[183.7422,-43.7364,1.0],[183.7345,-43.7344,1.0],[183.7312,-43.7301,1.0],[183.7272,-43.7303,1.0],[183.7293,-43.7335,1.0],[183.7251,-43.7406,1.0],[183.7199,-43.7435,1.0],[183.7104,-43.7434,1.0],[183.7088,-43.746,1.0],[183.7019,-43.7481,1.0],[183.6781,-43.7471,1.0],[183.6762,-43.7452,1.0],[183.6769,-43.7435,1.0],[183.6645,-43.7372,1.0],[183.66,-43.7382,1.0],[183.6548,-43.7369,1.0],[183.6541,-43.7339,1.0],[183.6505,-43.7343,1.0],[183.6473,-43.7374,1.0],[183.6466,-43.7405,1.0],[183.6342,-43.7449,1.0],[183.6223,-43.7456,1.0],[183.6069,-43.7427,1.0],[183.5866,-43.7471,1.0],[183.5625,-43.748,1.0],[183.5393,-43.7449,1.0],[183.5161,-43.7392,1.0],[183.5071,-43.7339,1.0],[183.5029,-43.7289,1.0],[183.5025,-43.7238,1.0],[183.5058,-43.7208,1.0],[183.4877,-43.7237,1.0],[183.4582,-43.721,1.0],[183.4539,-43.7193,1.0],[183.4522,-43.7159,1.0],[183.4338,-43.7119,1.0],[183.425,-43.7068,1.0],[183.4179,-43.7056,1.0],[183.4049,-43.7061,1.0],[183.3911,-43.7029,1.0],[183.3873,-43.7011,1.0],[183.3869,-43.6982,1.0],[183.3781,-43.697,1.0],[183.3736,-43.6935,1.0]]]]}}