{"type":"Feature","properties":{"ISO3166-1-Alpha-3":"NZL","country":"New Zealand","fill":"#F0F","id":"5470","name":"Chatham Islands Territory"},
"geometry":{"type": "MultiPolygon","coordinates": [[[[183.80116,-44.33506,1.0],[183.83766,-44.31658,1.0],[183.8412,-44.2951,1.0],[183.85113,-44.2824,1.0],[183.88612,-44.26507,1.0],[183.86114,-44.2527,1.0],[183.85475,-44.24814,1.0],[183.8517,-44.24196,1.0],[183.85113,-44.23553,1.0],[183.84978,-44.22918,1.0],[183.84453,-44.22422,1.0],[183.8305,-44.22112,1.0],[183.81084,-44.22145,1.0],[183.79094,-44.22479,1.0],[183.77626,-44.23089,1.0],[183.76393,-44.24196,1.0],[183.76739,-44.247,1.0],[183.77862,-44.25237,1.0],[183.78932,-44.26507,1.0],[183.78753,-44.27264,1.0],[183.77434,-44.2986,1.0],[183.76881,-44.30674,1.0],[183.77251,-44.30975,1.0],[183.76881,-44.31292,1.0],[183.77247,-44.31618,1.0],[183.77882,-44.32399,1.0],[183.7824,-44.32724,1.0],[183.78102,-44.34124,1.0],[183.80116,-44.33506,1.0]]],
[[[183.44951,-43.71429,1.0],[183.42787,-43.70534,1.0],[183.41936,-43.70338,1.0],[183.398,-43.70761,1.0],[183.39043,-43.71901,1.0],[183.38624,-43.73553,1.0],[183.37525,-43.75457,1.0],[183.35515,-43.76434,1.0],[183.26539,-43.77166,1.0],[183.25477,-43.76849,1.0],[183.22999,-43.75465,1.0],[183.22755,-43.75115,1.0],[183.21351,-43.75628,1.0],[183.21465,-43.76377,1.0],[183.22051,-43.77207,1.0],[183.22071,-43.77907,1.0],[183.20025,-43.79046,1.0],[183.17909,-43.79461,1.0],[183.15972,-43.8012,1.0],[183.14503,-43.82008,1.0],[183.17408,-43.83961,1.0],[183.24578,-43.8235,1.0],[183.27532,-43.83367,1.0],[183.29029,-43.82838,1.0],[183.30584,-43.82903,1.0],[183.31475,-43.82692,1.0],[183.3095,-43.81325,1.0],[183.31695,-43.80584,1.0],[183.3274,-43.80967,1.0],[183.33644,-43.80706,1.0],[183.34693,-43.80218,1.0],[183.36162,-43.79957,1.0],[183.37627,-43.80136,1.0],[183.38868,-43.80584,1.0],[183.41188,-43.82008,1.0],[183.43385,-43.83782,1.0],[183.47771,-43.89861,1.0],[183.48406,-43.9223,1.0],[183.46485,-43.93808,1.0],[183.44182,-43.94948,1.0],[183.4367,-43.96063,1.0],[183.42567,-43.96941,1.0],[183.36663,-44.00351,1.0],[183.34425,-44.0119,1.0],[183.33562,-44.01922,1.0],[183.34038,-44.02386,1.0],[183.35064,-44.02793,1.0],[183.35853,-44.03297,1.0],[183.38221,-44.07138,1.0],[183.38941,-44.0901,1.0],[183.39202,-44.1115,1.0],[183.40004,-44.12005,1.0],[183.41851,-44.12314,1.0],[183.48085,-44.12314,1.0],[183.48821,-44.12176,1.0],[183.49505,-44.10125,1.0],[183.53993,-44.08652,1.0],[183.5645,-44.07008,1.0],[183.59124,-44.06211,1.0],[183.60149,-44.05657,1.0],[183.62855,-44.05218,1.0],[183.67091,-44.05047,1.0],[183.69996,-44.04258,1.0],[183.68682,-44.0193,1.0],[183.67555,-44.01434,1.0],[183.64837,-44.00921,1.0],[183.63531,-44.00164,1.0],[183.61761,-43.98577,1.0],[183.6128,-43.97617,1.0],[183.61114,-43.96063,1.0],[183.60479,-43.93857,1.0],[183.56678,-43.96299,1.0],[183.54347,-43.9498,1.0],[183.53993,-43.93727,1.0],[183.54078,-43.92457,1.0],[183.54029,-43.91172,1.0],[183.53264,-43.89861,1.0],[183.49846,-43.86443,1.0],[183.50359,-43.85117,1.0],[183.57696,-43.80584,1.0],[183.48577,-43.79144,1.0],[183.46709,-43.77907,1.0],[183.46461,-43.75563,1.0],[183.48695,-43.75018,1.0],[183.54347,-43.75799,1.0],[183.59807,-43.75848,1.0],[183.62774,-43.76588,1.0],[183.64588,-43.7859,1.0],[183.64198,-43.80486,1.0],[183.62587,-43.82676,1.0],[183.60597,-43.84515,1.0],[183.59063,-43.85418,1.0],[183.59632,-43.86419,1.0],[183.5984,-43.87469,1.0],[183.59807,-43.89861,1.0],[183.60121,-43.90765,1.0],[183.60804,-43.90993,1.0],[183.61488,-43.90667,1.0],[183.61797,-43.89861,1.0],[183.61801,-43.89861,1.0],[183.62147,-43.87916,1.0],[183.63018,-43.86273,1.0],[183.67937,-43.80169,1.0],[183.7149,-43.76971,1.0],[183.75554,-43.75433,1.0],[183.79668,-43.77166,1.0],[183.79701,-43.75604,1.0],[183.80352,-43.74432,1.0],[183.81511,-43.73773,1.0],[183.83086,-43.73748,1.0],[183.83086,-43.73138,1.0],[183.60804,-43.74489,1.0],[183.58294,-43.74147,1.0],[183.51555,-43.71697,1.0],[183.50209,-43.71559,1.0],[183.46034,-43.71697,1.0],[183.44951,-43.71429,1.0]]]]}}