{"type":"Feature","properties":{"GID_2":"NZL.15.2_1","GID_0":"NZL","country":"NewZealand","GID_1":"NZL.15_1","province":"Taranaki","NL_NAME_1":"NA","county":"SouthTaranaki","VARNAME_2":"NA","NL_NAME_2":"NA","TYPE_2":"District","ENGTYPE_2":"District","CC_2":"035","HASC_2":"NZ.TK.ST","name":"South_Taranaki.county"},
"geometry":{"type": "MultiPolygon","coordinates": [[[[174.877,-39.4041,540.8513],[174.678,-39.4049,566.7772],[174.6784,-39.4022,546.2961],[174.6807,-39.4015,590.7595],[174.6853,-39.3937,626.6045],[174.684,-39.3901,629.6052],[174.6818,-39.3893,655.0985],[174.6799,-39.3827,690.4756],[174.6817,-39.3783,664.1229],[174.6785,-39.3744,656.8047],[174.6667,-39.3734,638.3234],[174.6275,-39.3752,500.2679],[174.5787,-39.3735,442.2966],[174.5795,-39.3653,473.1064],[174.5773,-39.3634,454.4145],[174.5736,-39.3625,450.0715],[174.5715,-39.3652,437.3484],[174.5667,-39.3661,409.8665],[174.5617,-39.3653,402.8405],[174.554,-39.36,373.3506],[174.5443,-39.3669,310.0035],[174.542,-39.3708,346.2457],[174.534,-39.374,292.2375],[174.5324,-39.3769,179.1577],[174.5283,-39.3758,178.1084],[174.5246,-39.3791,296.9465],[174.5232,-39.3785,307.8665],[174.5182,-39.3854,260.1456],[174.5162,-39.386,260.1456],[174.5176,-39.389,321.106],[174.516,-39.3933,270.0971],[174.5106,-39.3946,311.1103],[174.5081,-39.3975,329.3591],[174.5123,-39.4001,207.8722],[174.5117,-39.4046,181.8988],[174.4956,-39.4045,160.0705],[174.4805,-39.4067,115.8609],[174.479,-39.4052,99.8437],[174.4754,-39.4054,105.3769],[174.4732,-39.3995,154.1481],[174.4708,-39.3991,134.1645],[174.4693,-39.4007,106.5474],[174.4722,-39.4028,104.8947],[174.4731,-39.4068,114.6007],[174.4628,-39.4048,113.8769],[174.458,-39.4055,100.8668],[174.4586,-39.3984,119.8324],[174.4533,-39.3968,109.0147],[174.4413,-39.3969,226.4722],[174.4413,-39.4046,171.3805],[174.4123,-39.4043,306.7034],[174.4114,-39.4006,198.1358],[174.4098,-39.4021,278.5344],[174.4056,-39.4012,240.2882],[174.3997,-39.4094,212.5443],[174.3978,-39.4039,227.1237],[174.3925,-39.4113,248.0236],[174.3716,-39.4022,240.0871],[174.3614,-39.4097,228.4614],[174.3618,-39.4132,227.892],[174.3554,-39.4123,226.4241],[174.3523,-39.4099,226.3973],[174.3486,-39.4122,227.3474],[174.3348,-39.4053,230.7531],[174.2805,-39.4062,234.1304],[174.2738,-39.4023,245.7845],[174.2735,-39.3997,252.3634],[174.2753,-39.3977,259.7395],[174.2735,-39.399,252.5692],[174.2711,-39.398,257.7172],[174.2706,-39.3994,257.7172],[174.2673,-39.3976,263.2228],[174.2684,-39.3965,263.2228],[174.2666,-39.3919,271.1049],[174.27,-39.3902,273.3937],[174.2464,-39.3896,290.3428],[174.2445,-39.3909,286.2299],[174.2308,-39.3912,307.1201],[174.2153,-39.3881,332.2254],[174.2202,-39.3945,312.7455],[174.1727,-39.3944,366.5699],[174.1725,-39.4008,343.1881],[174.1696,-39.4057,324.2772],[174.1115,-39.4056,348.5157],[174.1115,-39.4075,342.1816],[174.0968,-39.4074,342.1617],[174.0968,-39.4011,367.3242],[174.0946,-39.401,368.3304],[174.0946,-39.3796,459.1179],[174.0638,-39.296,2457.0376],[173.9611,-39.2615,414.489],[173.9643,-39.256,400.5521],[173.9546,-39.2528,376.9736],[173.9411,-39.2518,315.8888],[173.9247,-39.244,258.0818],[173.9018,-39.2298,191.7949],[173.8957,-39.2216,164.4802],[173.891,-39.2186,154.584],[173.8894,-39.2134,142.0211],[173.8791,-39.2063,116.8691],[173.8769,-39.2017,106.2032],[173.8729,-39.1996,100.1665],[173.8634,-39.1898,68.593],[173.8539,-39.1874,57.5726],[173.8456,-39.1798,41.3292],[173.8334,-39.1799,24.1378],[173.821,-39.1743,4.6916],[173.8159,-39.1801,3.4663],[173.8166,-39.1819,9.0205],[173.8068,-39.1864,9.8454],[173.8029,-39.1866,7.2293],[173.7963,-39.1918,7.7575],[173.7916,-39.193,-0.1761],[173.7924,-39.1971,2.3032],[173.7898,-39.1995,2.5809],[173.7896,-39.2026,-0.0536],[173.7871,-39.204,1.0609],[173.7854,-39.2102,3.8517],[173.7778,-39.2167,4.1402],[173.7788,-39.2216,5.2858],[173.7736,-39.2304,3.4667],[173.7761,-39.2334,10.5334],[173.7744,-39.2414,-0.7786],[173.7755,-39.2437,6.4882],[173.7708,-39.2462,-0.9229],[173.7729,-39.2476,2.5154],[173.7722,-39.2499,4.0056],[173.7616,-39.2626,4.7464],[173.7571,-39.2657,2.2794],[173.7515,-39.2787,4.6472],[173.7562,-39.2956,0.5418],[173.7552,-39.3035,1.4688],[173.7609,-39.3146,2.9788],[173.7599,-39.3195,3.7637],[173.7656,-39.3347,0.5433],[173.7695,-39.3386,3.7548],[173.7696,-39.3445,5.8286],[173.7732,-39.3561,0.0],[173.7717,-39.3656,4.251],[173.7737,-39.3683,4.825],[173.7733,-39.3704,-0.0109],[173.7773,-39.3741,5.5156],[173.7767,-39.3768,3.2933],[173.7797,-39.3869,5.4693],[173.785,-39.3949,5.7273],[173.7863,-39.3997,3.906],[173.7915,-39.4037,4.506],[173.7932,-39.4128,0.0058],[173.7976,-39.416,4.8203],[173.7983,-39.4183,2.3331],[173.8078,-39.4217,0.4798],[173.8202,-39.4295,11.9632],[173.8247,-39.4357,0.5382],[173.8315,-39.4401,9.7746],[173.8318,-39.4464,0.985],[173.8387,-39.4457,17.6626],[173.8395,-39.4495,17.0419],[173.8486,-39.4534,15.0872],[173.8495,-39.4552,23.0563],[173.8474,-39.4592,5.4181],[173.856,-39.4572,12.1777],[173.8582,-39.4585,15.8002],[173.8566,-39.4613,13.2703],[173.8579,-39.4639,12.3153],[173.8666,-39.4658,20.3462],[173.8656,-39.469,2.581],[173.8698,-39.4716,0.0],[173.8784,-39.4813,4.5895],[173.8798,-39.4852,0.0],[173.8832,-39.4874,13.8807],[173.8828,-39.4899,1.9621],[173.8894,-39.4896,18.3012],[173.8953,-39.4984,4.1206],[173.9002,-39.5006,3.1865],[173.9053,-39.5059,16.934],[173.9052,-39.5089,5.7961],[173.9071,-39.5091,28.9927],[173.9107,-39.5145,12.3001],[173.9109,-39.519,0.0],[173.9147,-39.5175,24.6687],[173.9157,-39.5203,2.0563],[173.9198,-39.5203,3.1966],[173.923,-39.5184,23.4597],[173.9318,-39.5215,3.0356],[173.9357,-39.5248,5.4323],[173.9353,-39.5263,0.0],[173.9421,-39.5284,32.7435],[173.949,-39.5395,11.6961],[173.9583,-39.5382,14.2276],[173.9728,-39.547,0.0],[173.9842,-39.5508,23.8659],[173.9871,-39.5542,6.1154],[173.9962,-39.5539,6.56],[174.0034,-39.5515,6.5197],[174.0077,-39.5525,41.2935],[174.0076,-39.5537,3.4704],[174.0129,-39.5565,3.1304],[174.0182,-39.5559,38.0921],[174.0214,-39.5582,0.0],[174.028,-39.5592,18.7651],[174.0427,-39.5595,40.2352],[174.0535,-39.5634,12.9853],[174.0769,-39.5774,16.2291],[174.0887,-39.5758,24.7549],[174.1037,-39.5787,15.2959],[174.1086,-39.5772,25.1319],[174.1161,-39.579,18.8808],[174.1301,-39.5785,10.4145],[174.141,-39.5806,22.956],[174.1484,-39.5804,21.534],[174.1616,-39.5854,3.3411],[174.1814,-39.5854,17.0972],[174.2016,-39.5881,0.0],[174.2106,-39.5926,35.6053],[174.2155,-39.5932,0.0],[174.2266,-39.6001,19.7859],[174.2338,-39.6016,0.0],[174.2462,-39.6107,5.6215],[174.2608,-39.6183,0.0],[174.2759,-39.6191,47.7396],[174.2973,-39.6263,0.0],[174.3072,-39.6339,0.0],[174.318,-39.6375,17.8691],[174.3267,-39.6434,0.0],[174.3388,-39.6485,5.962],[174.3528,-39.6591,8.1354],[174.368,-39.6775,0.0],[174.3804,-39.6893,42.3771],[174.3889,-39.7019,24.5176],[174.3935,-39.7045,32.7128],[174.4053,-39.7165,4.1633],[174.4188,-39.7309,19.7734],[174.4185,-39.7323,3.1183],[174.4206,-39.7325,13.2446],[174.4482,-39.7533,0.0],[174.4659,-39.7639,0.0],[174.4751,-39.7652,11.0357],[174.4912,-39.7733,1.169],[174.4897,-39.7742,1.169],[174.4928,-39.7756,0.0],[174.4922,-39.7766,0.0],[174.5046,-39.7794,7.387],[174.5129,-39.7837,0.0],[174.535,-39.8045,1.8498],[174.5591,-39.8175,0.0],[174.5799,-39.8178,9.2352],[174.5947,-39.8235,0.0],[174.6139,-39.8262,10.8045],[174.6363,-39.834,3.5685],[174.6491,-39.8352,6.8061],[174.6816,-39.8494,4.3512],[174.6882,-39.8506,4.6329],[174.6905,-39.8543,4.7467],[174.7053,-39.8627,1.3495],[174.7165,-39.8672,3.8811],[174.7266,-39.8684,4.178],[174.7389,-39.8684,0.7641],[174.7487,-39.8658,5.2105],[174.7618,-39.8661,10.3155],[174.7795,-39.8617,4.3159],[174.7841,-39.858,0.0],[174.7663,-39.8529,38.6012],[174.7793,-39.8431,60.5375],[174.7849,-39.8316,83.4484],[174.7934,-39.8336,79.559],[174.7998,-39.8202,117.4128],[174.7937,-39.8205,115.5753],[174.803,-39.8031,181.8795],[174.8345,-39.8005,222.7335],[174.8366,-39.7962,225.4104],[174.8519,-39.7892,285.5676],[174.8495,-39.7832,303.0704],[174.85,-39.7776,266.4186],[174.8578,-39.7769,326.5577],[174.8625,-39.7734,337.0964],[174.8703,-39.7733,321.6412],[174.8721,-39.7706,335.2855],[174.8713,-39.7667,266.4135],[174.8865,-39.7572,295.8654],[174.8868,-39.7547,336.2217],[174.8893,-39.7533,364.0502],[174.8882,-39.7513,403.9077],[174.8945,-39.7472,316.5458],[174.8995,-39.7487,405.8904],[174.9012,-39.7467,356.971],[174.9034,-39.7471,379.7219],[174.9039,-39.7453,346.8593],[174.9079,-39.7431,328.9469],[174.9073,-39.7416,319.6761],[174.9113,-39.7436,278.367],[174.9124,-39.7424,282.7456],[174.9144,-39.7453,282.8426],[174.9161,-39.7442,366.2511],[174.9155,-39.7473,390.3676],[174.9179,-39.7497,346.856],[174.9175,-39.7453,394.6113],[174.9198,-39.746,394.8869],[174.9231,-39.7435,396.215],[174.924,-39.7404,360.1576],[174.9199,-39.7382,418.7283],[174.9229,-39.7376,467.6998],[174.9249,-39.7351,429.2418],[174.9229,-39.7329,505.2362],[174.9253,-39.7335,460.2669],[174.9268,-39.7321,462.766],[174.9238,-39.7295,507.4761],[174.9272,-39.7254,466.7246],[174.9308,-39.7243,439.8946],[174.9319,-39.7205,425.0963],[174.9278,-39.7176,401.8792],[174.9278,-39.7122,392.8781],[174.922,-39.7038,351.8149],[174.9275,-39.7009,382.5959],[174.9245,-39.6999,375.1831],[174.9226,-39.6954,331.3665],[174.9291,-39.6907,358.3095],[174.9297,-39.6882,349.5596],[174.9284,-39.687,333.5007],[174.9305,-39.685,353.3136],[174.9288,-39.6846,302.8976],[174.9299,-39.6829,292.9424],[174.9357,-39.6856,344.8488],[174.9404,-39.6805,360.1658],[174.9388,-39.6767,363.3911],[174.9421,-39.6779,365.1696],[174.9463,-39.676,332.3645],[174.9502,-39.6774,377.0078],[174.9516,-39.68,398.8488],[174.958,-39.6793,361.7326],[174.9648,-39.6756,381.6961],[174.9698,-39.6768,418.3761],[174.9746,-39.6749,387.4423],[174.9726,-39.672,379.8685],[174.9734,-39.6703,391.6009],[174.988,-39.6654,418.2975],[174.9865,-39.6641,393.4123],[174.9883,-39.6611,424.4694],[174.9837,-39.6611,410.2651],[174.9834,-39.6571,425.9559],[174.9763,-39.657,405.9499],[174.9758,-39.6552,414.4582],[174.9722,-39.6537,405.7831],[174.9758,-39.6491,432.3312],[174.9741,-39.6467,438.6349],[174.9697,-39.6463,422.3094],[174.971,-39.645,478.2911],[174.97,-39.6438,450.9114],[174.9764,-39.6377,381.2586],[174.9744,-39.6379,431.6778],[174.9734,-39.633,372.3308],[174.9706,-39.6314,413.3555],[174.9728,-39.6282,381.5618],[174.97,-39.6255,401.7714],[174.9716,-39.6228,373.9603],[174.9705,-39.6188,422.2878],[174.9725,-39.6129,413.2386],[174.9676,-39.6052,446.079],[174.9696,-39.6041,476.8615],[174.9684,-39.6017,438.3814],[174.9699,-39.5982,501.6957],[174.9693,-39.5953,535.7059],[174.9741,-39.5911,555.135],[174.9718,-39.5849,601.3498],[174.974,-39.5845,579.4373],[174.9715,-39.5821,606.9501],[174.9743,-39.5779,628.1867],[174.9728,-39.5752,630.9081],[174.9757,-39.5728,645.6117],[174.9724,-39.5676,656.8668],[174.9753,-39.5664,595.8528],[174.9737,-39.5635,583.7772],[174.9776,-39.5613,557.4057],[174.9769,-39.5593,568.0812],[174.9798,-39.5573,591.8571],[174.9871,-39.556,617.1832],[174.9889,-39.5522,612.681],[174.987,-39.5472,620.6883],[174.9917,-39.5401,645.3477],[174.9899,-39.5396,643.7867],[174.9897,-39.537,653.1418],[174.988,-39.5385,617.4564],[174.9824,-39.537,616.5142],[174.9781,-39.5329,549.8444],[174.9758,-39.5275,564.6326],[174.9703,-39.5254,549.5955],[174.9704,-39.5219,591.694],[174.972,-39.5207,600.1548],[174.9688,-39.5163,585.6999],[174.9696,-39.5131,613.7308],[174.9653,-39.5075,593.9343],[174.966,-39.5048,585.6451],[174.9695,-39.5037,525.0679],[174.9651,-39.4997,538.2635],[174.9635,-39.4938,557.5193],[174.961,-39.4929,591.2039],[174.9673,-39.4848,593.4631],[174.9636,-39.4853,593.4167],[174.9566,-39.4798,593.2938],[174.9514,-39.4817,571.9141],[174.947,-39.4783,508.2093],[174.9428,-39.4797,520.0769],[174.9305,-39.4769,553.3655],[174.922,-39.4715,567.4882],[174.9154,-39.4627,419.138],[174.9094,-39.459,446.9652],[174.9091,-39.4546,463.2909],[174.907,-39.4547,496.8497],[174.9042,-39.4511,436.64],[174.9066,-39.4474,466.1924],[174.9047,-39.4452,473.1117],[174.897,-39.4453,486.7754],[174.8918,-39.4404,483.4542],[174.8921,-39.4388,486.709],[174.889,-39.4351,506.6672],[174.8846,-39.4355,535.5444],[174.8843,-39.4344,538.5236],[174.8893,-39.4336,517.2194],[174.8877,-39.4273,453.0814],[174.8852,-39.4252,465.7324],[174.8886,-39.4228,416.1583],[174.8875,-39.4149,511.9828],[174.877,-39.4041,540.8513]]]]}}