{"type":"Feature","properties":{"GID_2":"NZL.17.9_1","GID_0":"NZL","country":"NewZealand","GID_1":"NZL.17_1","province":"Waikato","NL_NAME_1":"NA","county":"Waipa","VARNAME_2":"NA","NL_NAME_2":"NA","TYPE_2":"District","ENGTYPE_2":"District","CC_2":"017","HASC_2":"NZ.WK.WP","name":"Waipa.county"},
"geometry":{"type": "MultiPolygon","coordinates": [[[[175.3999,-38.0902,38.2663],[175.3979,-38.0914,43.8424],[175.399,-38.0919,42.0745],[175.3999,-38.0902,38.2663]]],
[[[175.2115,-37.821,54.086],[175.1917,-37.8212,23.8301],[175.1906,-37.8198,30.8157],[175.1912,-37.8215,24.5839],[175.1836,-37.8217,23.5312],[175.1776,-37.8166,22.5552],[175.1719,-37.819,31.3269],[175.1747,-37.8217,46.0255],[175.1722,-37.8241,30.4847],[175.1678,-37.8248,24.1577],[175.1703,-37.8321,25.7421],[175.1431,-37.8403,22.1394],[175.1422,-37.8384,15.3765],[175.1374,-37.8366,16.8358],[175.1387,-37.8343,18.6176],[175.1368,-37.821,17.4455],[175.135,-37.8178,24.5448],[175.1216,-37.8245,67.0973],[175.123,-37.8304,38.054],[175.1057,-37.8304,136.0546],[175.106,-37.8457,110.1791],[175.1014,-37.8442,157.8275],[175.0954,-37.8487,189.9769],[175.0912,-37.8459,160.9178],[175.0879,-37.8472,214.6688],[175.0929,-37.8508,231.1906],[175.0918,-37.8529,253.687],[175.095,-37.8566,229.6888],[175.0946,-37.8612,244.5261],[175.0957,-37.8618,237.156],[175.0647,-37.862,180.1817],[175.062,-37.8841,91.9567],[175.0665,-37.8983,79.7258],[175.056,-37.9048,115.6416],[175.1017,-37.9783,771.868],[175.1202,-37.9944,862.426],[175.1043,-38.004,559.2803],[175.1312,-38.0136,397.9334],[175.1312,-38.0272,294.5431],[175.1513,-38.0272,184.2505],[175.1546,-38.0112,320.5077],[175.1629,-38.0119,344.6853],[175.1629,-38.0016,234.7991],[175.1967,-38.0074,27.8366],[175.1958,-38.0031,28.8794],[175.2008,-38.0017,18.7322],[175.2009,-38.0043,20.9525],[175.2027,-38.0054,23.2577],[175.2138,-38.006,28.5048],[175.2139,-38.0106,27.1378],[175.211,-38.0105,23.3809],[175.2079,-38.0147,40.2523],[175.2039,-38.0166,20.8043],[175.2038,-38.0201,24.6852],[175.2016,-38.021,24.1122],[175.2044,-38.0269,25.58],[175.2033,-38.0329,37.7463],[175.2064,-38.0374,31.0772],[175.1977,-38.0421,24.7578],[175.1994,-38.0469,26.8611],[175.1961,-38.0459,21.9459],[175.196,-38.0507,27.8217],[175.1918,-38.0528,26.3898],[175.1917,-38.0568,26.4338],[175.195,-38.0547,24.479],[175.1972,-38.0558,26.215],[175.1954,-38.0598,24.9637],[175.1981,-38.0586,25.0333],[175.1981,-38.0604,21.8926],[175.201,-38.0626,23.1331],[175.1993,-38.0653,28.3848],[175.2003,-38.067,25.7742],[175.2055,-38.0632,24.1623],[175.205,-38.0661,23.9687],[175.2083,-38.069,29.7364],[175.2442,-38.0851,31.364],[175.254,-38.0875,41.8129],[175.2826,-38.0883,43.0386],[175.282,-38.0911,44.3005],[175.2838,-38.0918,43.9137],[175.2839,-38.0884,41.2952],[175.2981,-38.0884,47.5462],[175.2997,-38.0862,62.649],[175.3191,-38.0859,66.523],[175.3218,-38.0894,95.4058],[175.3317,-38.0851,109.7672],[175.3401,-38.0855,50.9443],[175.3421,-38.0835,46.6404],[175.3533,-38.0867,44.6083],[175.3699,-38.0814,42.5169],[175.3765,-38.0828,34.4478],[175.3781,-38.0808,35.9714],[175.3819,-38.0859,34.9763],[175.3878,-38.0888,41.7926],[175.3934,-38.0895,36.8187],[175.3961,-38.0876,39.3634],[175.3994,-38.089,40.1745],[175.3999,-38.0902,38.2663],[175.4008,-38.0885,40.1745],[175.4079,-38.0898,41.0442],[175.4109,-38.0948,44.6468],[175.4163,-38.094,46.6856],[175.4194,-38.0955,43.2321],[175.419,-38.0978,41.9829],[175.423,-38.0989,44.2618],[175.4295,-38.098,43.0334],[175.4332,-38.0999,43.8861],[175.4316,-38.1004,43.7394],[175.4335,-38.1012,43.8861],[175.4329,-38.1025,45.2964],[175.4391,-38.1033,45.5883],[175.439,-38.1052,49.2665],[175.4427,-38.107,48.0736],[175.4446,-38.1049,47.8692],[175.4468,-38.1099,51.5953],[175.4491,-38.1097,49.3235],[175.4532,-38.1138,51.2559],[175.4519,-38.1152,50.5479],[175.4542,-38.1194,50.7824],[175.4517,-38.1213,51.5779],[175.4532,-38.1244,66.7046],[175.4509,-38.1249,53.2647],[175.4514,-38.1261,53.2647],[175.4567,-38.1256,57.8572],[175.4598,-38.127,60.4626],[175.4672,-38.1259,86.4415],[175.4684,-38.1264,59.0003],[175.4674,-38.1285,61.7174],[175.4704,-38.129,60.0515],[175.4722,-38.1276,62.7152],[175.4691,-38.1238,59.7928],[175.4708,-38.1221,64.2067],[175.4733,-38.1228,59.7088],[175.4726,-38.1255,60.6801],[175.4745,-38.1289,74.1082],[175.4825,-38.1271,81.3379],[175.4869,-38.1286,68.0569],[175.4878,-38.1273,66.1554],[175.4903,-38.1278,65.9664],[175.4912,-38.1308,71.9652],[175.499,-38.1314,72.1628],[175.5008,-38.1358,80.7194],[175.5058,-38.1358,85.7976],[175.508,-38.1411,87.9996],[175.5043,-38.1432,77.9443],[175.5051,-38.1448,79.7601],[175.5087,-38.1454,80.6827],[175.5065,-38.1494,80.6968],[175.5113,-38.1569,98.2534],[175.5131,-38.1563,87.0413],[175.5156,-38.159,87.4023],[175.5173,-38.1585,89.8002],[175.5524,-38.1987,247.7489],[175.5702,-38.1717,168.0254],[175.6423,-38.1492,109.0],[175.6406,-38.1472,109.0],[175.6412,-38.1433,108.5],[175.6349,-38.1409,118.5654],[175.6316,-38.1338,107.875],[175.6328,-38.1301,107.5],[175.6318,-38.1265,107.5],[175.6257,-38.1234,107.0],[175.6253,-38.1183,107.0],[175.6221,-38.1135,106.5],[175.6293,-38.1106,106.0],[175.6348,-38.1002,109.3747],[175.636,-38.0929,121.2776],[175.6342,-38.0908,125.4037],[175.637,-38.0843,103.5],[175.6362,-38.0808,129.0614],[175.6402,-38.0732,109.2675],[175.6381,-38.0633,64.8525],[175.6401,-38.0618,71.1752],[175.654,-38.0602,63.1493],[175.6602,-38.0567,61.5379],[175.6605,-38.0521,64.6517],[175.658,-38.0481,72.9539],[175.6592,-38.0446,54.0],[175.658,-38.0346,57.6686],[175.6566,-38.0319,54.0],[175.6579,-38.0216,54.0],[175.6565,-38.02,54.0],[175.6523,-38.0199,54.0],[175.6517,-38.0183,93.085],[175.6557,-38.0132,54.0],[175.652,-38.0107,77.3928],[175.6519,-38.0091,69.3228],[175.6592,-38.0053,54.2226],[175.6579,-38.0014,54.0],[175.6596,-37.9883,52.5],[175.6572,-37.9868,52.5],[175.6575,-37.9851,52.0],[175.6544,-37.9812,52.0],[175.6585,-37.9771,52.0],[175.657,-37.9704,52.0],[175.6587,-37.9682,52.0],[175.6561,-37.9647,55.0923],[175.6598,-37.9596,51.5],[175.6596,-37.9537,51.5],[175.6561,-37.9489,61.5174],[175.6503,-37.9468,65.5013],[175.6483,-37.9416,138.4947],[175.6527,-37.9385,124.0805],[175.6578,-37.9109,105.6857],[175.6554,-37.9072,102.218],[175.6507,-37.9053,104.5663],[175.6472,-37.8988,111.8089],[175.6327,-37.898,223.3984],[175.633,-37.8947,191.4659],[175.6315,-37.8936,191.4906],[175.6349,-37.89,185.019],[175.632,-37.8888,177.9513],[175.6264,-37.8814,223.6532],[175.6323,-37.8784,260.1596],[175.6304,-37.8676,260.92],[175.6288,-37.8657,280.8404],[175.6408,-37.8508,225.7962],[175.6253,-37.8456,319.1449],[175.6201,-37.8349,278.918],[175.6072,-37.8297,267.4424],[175.6032,-37.8309,292.6725],[175.5994,-37.8301,292.0713],[175.5955,-37.8245,281.7287],[175.5945,-37.8126,339.76],[175.5954,-37.8106,337.5187],[175.6,-37.8106,396.1169],[175.6018,-37.8083,410.6941],[175.6034,-37.7964,281.5165],[175.5836,-37.797,176.7853],[175.5787,-37.8021,180.787],[175.5734,-37.796,326.0509],[175.5805,-37.7768,175.6087],[175.5441,-37.769,109.9003],[175.5437,-37.783,352.3245],[175.5394,-37.7844,339.0797],[175.5412,-37.7871,438.1159],[175.5164,-37.7955,306.8594],[175.5071,-37.7947,311.1589],[175.5047,-37.8028,282.2263],[175.4996,-37.8071,305.1099],[175.4923,-37.8102,286.3314],[175.4824,-37.8093,312.5204],[175.4877,-37.8166,251.7698],[175.4809,-37.8273,74.189],[175.476,-37.8271,66.4962],[175.474,-37.8313,63.1556],[175.4666,-37.829,65.0556],[175.4655,-37.8254,61.7091],[175.4601,-37.8234,59.5079],[175.4604,-37.8213,58.8783],[175.4538,-37.8212,59.6616],[175.4537,-37.8248,60.7408],[175.4464,-37.8248,58.7347],[175.4464,-37.8308,59.2666],[175.4338,-37.8316,56.1365],[175.4337,-37.8354,57.3503],[175.4258,-37.8353,57.062],[175.4256,-37.8397,58.0349],[175.4207,-37.838,56.8523],[175.4209,-37.8454,57.7807],[175.4245,-37.8454,58.7107],[175.4244,-37.8748,63.7259],[175.4093,-37.8748,61.4686],[175.403,-37.8846,36.4026],[175.3975,-37.8833,36.2346],[175.3921,-37.875,25.1513],[175.3817,-37.8704,27.4481],[175.3768,-37.8698,29.0848],[175.3629,-37.8731,35.3381],[175.3568,-37.8706,20.6843],[175.3476,-37.8601,25.3223],[175.3501,-37.8485,25.519],[175.3475,-37.8399,29.3989],[175.3345,-37.8352,25.8327],[175.3275,-37.8305,29.9369],[175.326,-37.827,33.4704],[175.32,-37.8335,63.7896],[175.3146,-37.8361,74.1957],[175.3068,-37.846,70.1912],[175.3055,-37.8408,68.156],[175.2978,-37.8319,52.6228],[175.2968,-37.8278,40.1621],[175.2945,-37.8284,33.0831],[175.2923,-37.8318,55.1437],[175.2897,-37.8318,56.9185],[175.283,-37.8289,42.9778],[175.2847,-37.8264,46.8251],[175.2795,-37.824,42.0544],[175.2719,-37.8243,42.036],[175.2712,-37.8203,40.7879],[175.2681,-37.822,42.389],[175.2659,-37.809,41.0608],[175.2438,-37.8044,44.2118],[175.2268,-37.8175,55.9712],[175.2334,-37.8193,38.0397],[175.2325,-37.8219,38.257],[175.2273,-37.8246,40.2457],[175.2256,-37.8322,40.2985],[175.2118,-37.8324,52.3511],[175.2115,-37.821,54.086]]]]}}