{"type":"Feature","properties":{"featurecla":"Reservoir","scalerank":5,"name":"Lake Manapouri","name_abb":"L. Manapouri","name_alt":null,"note":"natural lake used for hydro-electric power","delta":null,"dam_name":null,"year":-99,"admin":null,"min_zoom":4.7,"min_label":6.0},
"geometry":{"type": "Polygon","coordinates": [[[167.57277106419349,-45.476681476275985,221.5921],[167.56420500457239,-45.4781091528796,178.0],[167.56039786696329,-45.494289487719186,178.0],[167.52375416747327,-45.487626996902918,178.0],[167.47520911408026,-45.481275474785321,321.713],[167.45387362855183,-45.4902363024396,178.0],[167.42143734422257,-45.486199320299363,759.2944],[167.41715431441207,-45.464308279045781,635.3622],[167.41572663780869,-45.44907972860841,1179.0261],[167.40287754837709,-45.454314542821294,1189.0831],[167.40573290158432,-45.477157368477265,877.6439],[167.39383559655516,-45.488578781305137,511.4701],[167.37289633970374,-45.500000194133236,178.0],[167.34053567002434,-45.505710900547228,178.0],[167.32245176638025,-45.51475285236927,178.0],[167.34097969208722,-45.51613260348887,296.4865],[167.36623384888742,-45.5123733913635,312.386],[167.4000221951701,-45.500951978535568,178.0],[167.41810609881452,-45.506186792748338,178.0],[167.45379801390197,-45.502379655139066,178.0],[167.44334075051358,-45.537754190816486,551.6433],[167.41620253000985,-45.5718599165092,752.8341],[167.41477485340624,-45.579474191727968,1105.4091],[167.43370377215479,-45.570762169433351,1342.0082],[167.45712925931002,-45.549492983054506,1153.6719],[167.48663457578255,-45.521415343185708,178.0],[167.50614615603024,-45.53093318720903,178.0],[167.54326574772108,-45.541878707835792,194.0896],[167.565632681176,-45.572811700911586,185.7386],[167.58589002588167,-45.564874886890664,178.0],[167.59766459096693,-45.543386305610056,178.0],[167.59177730842441,-45.5404426643388,178.0],[167.58942239540727,-45.537204658940311,178.0],[167.58736184651752,-45.533966653541938,178.0],[167.58441820524615,-45.529845555762108,178.0],[167.60649551478093,-45.528373735126422,178.0],[167.62356863415471,-45.541031392593027,209.123],[167.61845671550543,-45.558059042675495,179.4757],[167.6313058049368,-45.565197425692986,196.9762],[167.64596423049068,-45.559113195691396,208.0882],[167.6593834448056,-45.550444767456725,204.5481],[167.65129327738589,-45.532360863812471,208.7507],[167.63939597235674,-45.524270696392591,211.6051],[167.63796829575313,-45.5033314395414,221.316],[167.63273348154041,-45.492385918914579,226.734],[167.65071506434879,-45.488790244365987,228.5511],[167.65700398379977,-45.483819859293476,342.6895],[167.61845671550543,-45.4738261230691,265.2945],[167.57277106419349,-45.476681476275985,221.5921]]]}}