{"type": "Feature","bbox": [167.34739493319,-45.899752153543091,167.51800228730804,-45.816233072238447],"geometry": {"type": "Polygon","coordinates": [[[167.34739493319,-45.839789736196167,196.0],[167.34882260979361,-45.851211149024095,196.0],[167.350250286397,-45.868343268266131,197.354],[167.35239180130236,-45.87690932788712,196.0],[167.36167169922498,-45.880478519395865,196.0],[167.37166543544947,-45.8897584173186,235.8197],[167.39450826110556,-45.899752153543091,269.9029],[167.41306805695103,-45.899752153543091,230.7704],[167.43448320600351,-45.890472255620296,259.931],[167.44947381034012,-45.875481651283621,196.0],[167.46946128278921,-45.866201753360883,196.0],[167.49016259353982,-45.8533526639294,206.1473],[167.5072947127818,-45.838362059592612,196.0],[167.51371925749754,-45.82908216166993,196.0],[167.51800228730804,-45.818374587143694,196.0],[167.50800855108355,-45.816233072238447,196.0],[167.50586703617842,-45.82194377865244,196.0],[167.49587329995381,-45.825512970161185,198.2352],[167.48730724033294,-45.831937514876927,196.0],[167.48231037222058,-45.841931251101357,209.6359],[167.46375057637511,-45.854066502231149,242.92],[167.45589835505598,-45.858349532041586,226.9793],[167.45090148694362,-45.854780340532841,211.7978],[167.44947381034012,-45.848355795817156,196.0],[167.44304926562438,-45.854066502231149,244.5374],[167.44090775071925,-45.862632561852138,240.4178],[167.4316278527964,-45.873340136378374,196.0],[167.41877876336491,-45.879050842792367,217.2366],[167.41449573355442,-45.886189225809858,238.8817],[167.39522209940731,-45.88690306411155,221.9342],[167.38237300997571,-45.878337004490618,231.1281],[167.36666856733734,-45.864060238455636,200.1518],[167.3588163460181,-45.856208017136339,196.0],[167.36095786092324,-45.838362059592612,196.0],[167.353105639604,-45.835506706385672,196.0],[167.34739493319,-45.839789736196167,196.0]]]}
,"properties": {"featurecla": "Reservoir","scalerank": 7,"name": "Lake Monowai","name_abb": "L. Monowai","name_alt": null,"note": "natural lake","delta": null,"dam_name": null,"year": -99,"admin": null,"min_zoom": 5.7,"min_label": 6.7,"area_km2": 27.81564,"hist_schema_id": "Elevation0-9000","hist_area_km2": {"200": 26.57551,"225": 0.98919,"250": 0.13288,"275": 0.10331,"300": 0.01476}}}