{"type": "Feature","bbox": [167.49472474320226,-45.445318043016073,167.95919553154022,-44.933212582544456],"geometry": {"type": "Polygon","coordinates": [[[167.88828759356647,-44.940826857763113,203.0],[167.91303398802722,-44.96414557562025,747.6768],[167.92493129305637,-44.995078568696044,846.172],[167.91065452702139,-45.013638364541464,378.7027],[167.88067331834782,-45.037432974599767,203.0],[167.86639655231284,-45.077883811698882,251.6444],[167.84831264866875,-45.097395391946748,208.6349],[167.82689749961628,-45.094540038739694,203.0],[167.80691002716708,-45.078835596101271,899.4141],[167.79406093773571,-45.067414183273172,1146.8263],[167.77264578868323,-45.045523142019647,895.7892],[167.75836902264825,-45.042667788812651,690.5664],[167.76122437585525,-45.050282064031308,710.0151],[167.78026006390189,-45.073600781888445,1048.2134],[167.79990602547434,-45.091492362203837,463.4993],[167.81500019458713,-45.106437343768846,203.0],[167.82993116644172,-45.107388025068929,203.0],[167.83729026962033,-45.118868226027075,203.0],[167.84023391089136,-45.133586432383709,203.0],[167.83546355923704,-45.144984612063354,203.0],[167.82594571521372,-45.153074779483063,212.2619],[167.81690376339157,-45.160213162500554,203.0355],[167.8025288065777,-45.171094582134344,203.0],[167.76122437585525,-45.177821173943755,203.0],[167.73076727498051,-45.161164946902943,751.7783],[167.69745482089888,-45.157357809293671,447.0534],[167.65224506178811,-45.12737660062021,605.0705],[167.62892634393097,-45.096919499745525,1389.2017],[167.614649577896,-45.095491823142083,1220.6703],[167.63035402053458,-45.130707846028372,653.9243],[167.60608351827511,-45.14308104325869,400.7662],[167.57419874079687,-45.1421292588563,312.1715],[167.54659699312936,-45.13737033684464,699.0974],[167.54088628671525,-45.144984612063354,203.0],[167.57800587840632,-45.152598887282011,203.0],[167.62416742191931,-45.155454240488893,203.0],[167.64653435537423,-45.14546050426452,306.6164],[167.67538999969781,-45.181567785106154,203.0],[167.69481803208828,-45.189809980665814,203.0],[167.70983060257197,-45.198935268606931,203.0],[167.73933333460161,-45.219223795445259,203.0],[167.751924672752,-45.250154626727863,203.0],[167.76605415085442,-45.282534680712274,203.0],[167.77105834101553,-45.315209098823971,203.0],[167.76168899923539,-45.332902167428585,217.9753],[167.74550866439574,-45.333853951830974,203.0],[167.72409351534327,-45.333378059629752,203.0],[167.66509415121982,-45.339148630139107,205.2602],[167.63273348154041,-45.337245061334386,366.1599],[167.60941476368316,-45.333437923725114,566.0308],[167.58799961463069,-45.326299540707623,919.1417],[167.56912454980329,-45.305495082628624,1476.1025],[167.55230769954323,-45.296318332034161,774.8433],[167.54088628671525,-45.28917994901667,1291.3643],[167.52280238307105,-45.287752272413172,1205.7537],[167.5109050780419,-45.296794224235271,205.4109],[167.49472474320226,-45.302980822850373,285.3115],[167.4985318808117,-45.308691529264422,473.1171],[167.51613989225473,-45.303456715051652,214.3391],[167.53279611929554,-45.301553146246931,727.537],[167.54945234633635,-45.311546882471475,813.4169],[167.56277732796912,-45.335341492529778,239.6716],[167.58119347901561,-45.352004614715327,311.0999],[167.61512547009738,-45.349142366363537,203.0],[167.65081738518484,-45.35770842598447,203.0],[167.72981549057829,-45.352949503972809,203.0],[167.73265957496426,-45.367642298113708,203.0],[167.71647924012461,-45.390009231568513,203.0],[167.71838280892928,-45.410472596218654,214.93],[167.71689534162329,-45.437664575710755,230.2007],[167.73396846099683,-45.445318043016073,272.0513],[167.74721484671795,-45.437664575710755,281.6277],[167.7502675864074,-45.4204663324432,255.9167],[167.7502675864074,-45.403334213201163,246.1722],[167.77025505885649,-45.3909610159709,264.3849],[167.79358504553466,-45.3838824970486,311.0615],[167.7969162909427,-45.345811120955318,303.2804],[167.81129148440141,-45.316033953469059,317.1021],[167.83118052942655,-45.28917994901667,450.425],[167.8364153436396,-45.253012141727936,257.3627],[167.85069210967458,-45.225410394060361,273.6713],[167.84675881718181,-45.209730932658886,234.8291],[167.8540690248667,-45.198052176225531,278.1935],[167.85848448677359,-45.1912818013015,325.5365],[167.86319431280765,-45.167732671130864,266.5282],[167.86449298350817,-45.148315857471459,237.8341],[167.88490323134442,-45.133197660605447,287.2504],[167.89141848934753,-45.100750877186272,333.869],[167.9063714972109,-45.068365967675561,860.7385],[167.92635896965976,-45.033149944789329,762.994],[167.94920179531584,-44.997933921903041,1396.5265],[167.94349108890185,-44.96414557562025,1119.0631],[167.93492502928086,-44.951296486188767,817.5417],[167.94111162789602,-44.942254534366555,705.4132],[167.95919553154022,-44.943206318768944,1622.8779],[167.95158125632167,-44.933212582544456,741.1748],[167.90732328161312,-44.939875073360724,203.0],[167.88828759356647,-44.940826857763113,203.0]]]}
,"properties": {"featurecla": "Reservoir","scalerank": 5,"name": "Lake Te Anau","name_abb": "L. Te Anau","name_alt": null,"note": "Largest lake in Australasia by fresh water volume. Natural lake.","delta": null,"dam_name": null,"year": -99,"admin": null,"min_zoom": 4.7,"min_label": 6.0,"area_km2": 344.4142,"hist_schema_id": "Elevation0-9000","hist_area_km2": {"200": 138.5538,"225": 34.9199,"250": 35.6968,"275": 22.8267,"300": 14.4085,"325": 9.8877,"350": 4.8603,"375": 4.5018,"400": 4.5482,"425": 4.5777,"450": 3.8459,"475": 2.9486,"500": 2.8588,"525": 2.6947,"550": 2.8297,"575": 2.7995,"600": 2.4704,"625": 2.5149,"650": 2.2756,"675": 2.6351,"700": 2.5588,"725": 2.394,"750": 2.3646,"775": 2.5592,"800": 2.0801,"825": 1.9459,"850": 1.9603,"875": 1.8554,"900": 1.5261,"925": 1.8401,"950": 1.7803,"975": 1.7057,"1000": 1.4818,"1025": 1.5258,"1050": 1.2867,"1075": 1.346,"1100": 1.1377,"1125": 1.0619,"1150": 1.2721,"1175": 0.8976,"1200": 1.0175,"1225": 0.9575,"1250": 0.9576,"1275": 0.763,"1300": 0.6282,"1325": 0.7178,"1350": 0.5089,"1375": 0.359,"1400": 0.2841,"1425": 0.2993,"1450": 0.1495,"1475": 0.1492,"1500": 0.1045,"1525": 0.1195,"1550": 0.1044,"1575": 0.0298,"1600": 0.0298}}}