{"type":"Feature","properties":{"featurecla":"Lake","scalerank":7,"name":"Lake Poteriteri","name_abb":"L. Poteriteri","name_alt":null,"note":null,"delta":null,"dam_name":null,"year":-99,"admin":null,"min_zoom":5.7,"min_label":6.7},
"geometry":{"type": "Polygon","coordinates": [[[167.10112071908657,-45.941154775044538,28.0],[167.10183455738843,-45.953290026174272,53.5423],[167.10326223399204,-45.967566792209254,28.0],[167.09755152757793,-45.985412749752982,85.1933],[167.09683768927607,-45.99469264767572,28.0],[167.10326223399204,-46.014680120124694,28.0],[167.11040061700953,-46.032526077668422,28.0],[167.10754526380254,-46.047516682005096,28.0],[167.09469617437094,-46.053941226720895,113.0292],[167.08755779135345,-46.066076477850629,110.5972],[167.09683768927607,-46.082494758790858,28.0],[167.10254839569018,-46.093202333317095,28.0],[167.11182829361292,-46.108906775955575,28.0],[167.11539748512155,-46.123897380292249,44.6838],[167.11040061700953,-46.137460308025538,82.858],[167.09683768927607,-46.15173707406052,36.8517],[167.0882716296552,-46.161730810284951,56.4262],[167.08898546795706,-46.180290606130484,54.1313],[167.09469617437094,-46.179576767828678,28.0],[167.10112071908657,-46.168869193302442,28.0],[167.10540374889717,-46.158875457078011,28.0],[167.12110819153554,-46.155306265569266,28.0],[167.13824031077763,-46.144598691043029,28.0],[167.14537869379512,-46.128894248404549,28.0],[167.146092532097,-46.11533132067126,28.0],[167.14894788530398,-46.101054554636278,34.8275],[167.13752647247588,-46.089633141808349,50.4815],[167.11753900002702,-46.086063950299604,28.0],[167.10754526380254,-46.079639405583805,28.0],[167.10897294040592,-46.061079609738385,28.0],[167.11611132342341,-46.0482305203069,34.5323],[167.1261050596479,-46.03395375427192,76.0079],[167.12110819153554,-46.021104664840436,32.1417],[167.11539748512155,-46.0089694137107,28.0],[167.11325597021653,-45.983271234847678,28.0],[167.11539748512155,-45.960428409191763,65.4756],[167.10683142550056,-45.942582451648036,34.177],[167.10112071908657,-45.941154775044538,28.0]]]}}