{"type": "Feature","bbox": [167.14180950228649,-46.074642537471618,167.39093906959681,-45.833365191480368],"geometry": {"type": "Polygon","coordinates": [[[167.14180950228649,-45.839789736196167,156.5],[167.14395101719163,-45.8504973107224,156.5],[167.15465859171786,-45.862632561852138,156.5],[167.16179697473535,-45.875481651283621,159.1149],[167.16750768114946,-45.894755285430847,185.6239],[167.17179071095995,-45.90260750675003,156.5],[167.18392596208957,-45.912601242974574,156.5],[167.2131933324614,-45.921881140897312,167.7708],[167.23246696660863,-45.918311949388567,184.65],[167.25530979226448,-45.921881140897312,156.5],[167.27886645622232,-45.9318748771218,173.196],[167.28814635414506,-45.946151643156782,156.5],[167.29528473716255,-45.968994468812696,290.8689],[167.29385706055893,-45.993978809373914,240.4553],[167.2931432222573,-46.0075417371072,310.0194],[167.29885392867129,-46.02039082653863,156.5],[167.29528473716255,-46.034667592573612,156.5],[167.2802941328257,-46.0418059755911,163.0245],[167.27958029452395,-46.050372035212149,156.5],[167.28386332433445,-46.066076477850629,156.5],[167.28386332433445,-46.074642537471618,156.5],[167.29457089886068,-46.063934962945382,158.0372],[167.30884766489567,-46.050372035212149,237.253],[167.3195552394219,-46.031098401064867,175.9725],[167.32383826923251,-46.013252443521139,175.8233],[167.33454584375875,-46.005400222201956,156.5],[167.35025028639723,-46.006827898805454,156.5],[167.36452705243221,-46.015393958426387,156.5],[167.36666856733746,-46.0089694137107,175.0732],[167.36952392054434,-46.001117192391405,156.5],[167.37523462695845,-46.0075417371072,161.7346],[167.38237300997594,-46.013252443521139,156.5],[167.38951139299343,-46.013252443521139,156.5],[167.39093906959681,-45.999689515787964,156.5],[167.37523462695845,-45.987554264658229,163.6398],[167.35596099281122,-45.987554264658229,162.5475],[167.34025655017263,-45.98112971994243,159.7766],[167.32740746074126,-45.976846690131993,156.5],[167.32954897564639,-45.986840426356423,316.8284],[167.3224105926289,-45.986840426356423,239.1413],[167.32169675432726,-45.974705175226745,164.3714],[167.31527220961141,-45.961142247493513,156.5],[167.31598604791316,-45.947579319760223,156.5],[167.31098917980103,-45.9304472005183,156.5],[167.29671241376604,-45.919025787690259,156.5],[167.28100797112756,-45.915456596181514,176.1924],[167.26316201358384,-45.910459728069327,479.8242],[167.24174686453136,-45.905462859957083,274.6797],[167.22033171547889,-45.911887404672768,182.9828],[167.2103379792544,-45.911887404672768,256.873],[167.19534737491767,-45.901893668448338,344.4517],[167.18749515359832,-45.8926137705256,156.5],[167.18178444718444,-45.87690932788712,156.5],[167.17321838756334,-45.862632561852138,168.5529],[167.16179697473535,-45.858349532041586,236.1067],[167.15323091511448,-45.8504973107224,156.5],[167.14894788530398,-45.833365191480368,156.5],[167.14180950228649,-45.839789736196167,156.5]]]}
,"properties": {"featurecla": "Lake","scalerank": 7,"name": "Lake Hauroko","name_abb": "L. Hauroko","name_alt": null,"note": null,"delta": null,"dam_name": null,"year": -99,"admin": null,"min_zoom": 5.7,"min_label": 6.7,"area_km2": 66.49734,"hist_schema_id": "Elevation0-9000","hist_area_km2": {"150": 61.94264,"175": 1.44436,"200": 1.29689,"225": 0.66327,"250": 0.33907,"275": 0.30959,"300": 0.16218,"325": 0.16231,"350": 0.059,"400": 0.0295,"425": 0.04426,"450": 0.01476,"500": 0.01475,"550": 0.01476}}}