{"type":"Feature","properties":{"GID_2":"NZL.17.7_1","GID_0":"NZL","country":"NewZealand","GID_1":"NZL.17_1","province":"Waikato","NL_NAME_1":"NA","county":"Thames-Coromandel","VARNAME_2":"NA","NL_NAME_2":"NA","TYPE_2":"District","ENGTYPE_2":"District","CC_2":"011","HASC_2":"NZ.WK.TC","name":"Thames-Coromandel.county"},
"geometry":{"type": "MultiPolygon","coordinates": [[[[176.1067,-36.9526,0.0],[176.1067,-36.9528,0.0],[176.1068,-36.9528,0.0],[176.1068,-36.9526,0.0],[176.1067,-36.9526,0.0]]],
[[[176.1054,-36.9527,0.0],[176.1056,-36.9527,0.0],[176.1055,-36.9524,0.0],[176.1054,-36.9526,0.0],[176.1054,-36.9527,0.0]]],
[[[176.0988,-36.9493,0.0],[176.0989,-36.9494,0.0],[176.0989,-36.9491,0.0],[176.0988,-36.9491,0.0],[176.0988,-36.9493,0.0]]],
[[[176.1015,-36.9533,1.1068],[176.1011,-36.9524,0.0],[176.0995,-36.9539,1.4125],[176.1006,-36.9546,0.0],[176.1015,-36.9533,1.1068]]],
[[[176.0993,-36.9534,1.4125],[176.0993,-36.9535,1.4125],[176.0997,-36.9533,1.4125],[176.0993,-36.9534,1.4125]]],
[[[176.0966,-36.9482,0.6448],[176.0965,-36.9485,1.4462],[176.0973,-36.9486,0.6448],[176.097,-36.9481,0.6448],[176.0966,-36.9482,0.6448]]],
[[[176.0976,-36.9469,0.0],[176.0975,-36.9481,0.6448],[176.098,-36.9483,0.6448],[176.0987,-36.9468,0.0],[176.0976,-36.9469,0.0]]],
[[[176.0768,-36.9453,0.0],[176.0771,-36.945,0.0],[176.077,-36.9449,0.0],[176.0766,-36.9453,0.0],[176.0768,-36.9453,0.0]]],
[[[176.0758,-36.9445,0.0],[176.0762,-36.9448,0.0],[176.0765,-36.9442,0.0],[176.0762,-36.9441,0.0],[176.0758,-36.9445,0.0]]],
[[[176.0801,-36.9198,0.0],[176.0797,-36.9202,0.0],[176.0805,-36.9208,0.0],[176.0809,-36.9202,0.0],[176.0801,-36.9198,0.0]]],
[[[176.0795,-36.9188,0.0],[176.0793,-36.9185,0.0],[176.0791,-36.9187,0.0],[176.0794,-36.9188,0.0],[176.0795,-36.9188,0.0]]],
[[[176.0785,-36.918,0.0],[176.0781,-36.9181,0.0],[176.0785,-36.9185,0.0],[176.0786,-36.9183,0.0],[176.0785,-36.918,0.0]]],
[[[175.7023,-36.8929,1.1261],[175.7023,-36.892,1.1261],[175.7014,-36.8913,2.0747],[175.7023,-36.8929,1.1261]]],
[[[175.4225,-36.8705,2.1338],[175.4226,-36.8704,2.1338],[175.4224,-36.8703,2.1338],[175.4224,-36.8704,2.1338],[175.4225,-36.8705,2.1338]]],
[[[175.8908,-36.8672,0.0],[175.89,-36.8667,0.0],[175.8894,-36.8674,0.0],[175.8909,-36.8679,0.0],[175.8908,-36.8672,0.0]]],
[[[175.4094,-36.8637,0.0],[175.4092,-36.8636,0.0],[175.4091,-36.8637,0.0],[175.4094,-36.8639,0.0],[175.4094,-36.8637,0.0]]],
[[[175.4109,-36.8628,0.0],[175.4109,-36.8632,0.0],[175.4113,-36.8633,9.3328],[175.4114,-36.8629,8.8023],[175.4109,-36.8628,0.0]]],
[[[175.408,-36.8595,3.165],[175.4073,-36.8591,3.165],[175.4066,-36.859,0.0],[175.4074,-36.8597,0.0],[175.408,-36.8595,3.165]]],
[[[175.4055,-36.8591,0.0],[175.4056,-36.8591,0.0],[175.4057,-36.859,0.0],[175.4054,-36.859,0.0],[175.4055,-36.8591,0.0]]],
[[[175.8607,-36.931,6.4237],[175.8594,-36.9297,5.8505],[175.8588,-36.9319,2.3373],[175.8604,-36.9324,1.2719],[175.8607,-36.931,6.4237]]],
[[[175.8266,-36.8515,1.8774],[175.8266,-36.8509,0.0],[175.825,-36.8511,0.0],[175.8256,-36.8522,1.8774],[175.8266,-36.8515,1.8774]]],
[[[175.4222,-36.8407,2.9797],[175.4175,-36.8405,3.9245],[175.4169,-36.8414,0.0],[175.4203,-36.8424,11.6371],[175.4222,-36.8407,2.9797]]],
[[[175.8212,-36.8386,0.0],[175.8202,-36.8384,0.5037],[175.8199,-36.8386,0.5037],[175.8205,-36.8391,0.5037],[175.8212,-36.8386,0.0]]],
[[[175.4262,-36.8407,0.0],[175.4267,-36.8415,0.0],[175.4273,-36.8394,0.0],[175.4265,-36.8396,0.0],[175.4262,-36.8407,0.0]]],
[[[175.8208,-36.8378,0.0],[175.8206,-36.838,0.5037],[175.8214,-36.8379,0.0],[175.8212,-36.8376,0.0],[175.8208,-36.8378,0.0]]],
[[[175.8228,-36.8307,1.2241],[175.823,-36.8308,0.0],[175.8235,-36.8309,0.0],[175.823,-36.8301,0.0],[175.8228,-36.8307,1.2241]]],
[[[175.4085,-36.8216,12.0196],[175.4065,-36.8209,0.0],[175.4076,-36.8254,31.9841],[175.412,-36.8279,20.8156],[175.412,-36.8308,5.957],[175.4139,-36.8326,0.0],[175.4167,-36.8295,0.0],[175.4132,-36.8283,7.9053],[175.4138,-36.8252,2.95],[175.4095,-36.8235,9.4494],[175.4085,-36.8216,12.0196]]],
[[[175.8195,-36.8254,0.4945],[175.8202,-36.8258,0.4945],[175.8208,-36.8251,0.0],[175.8204,-36.8249,0.4945],[175.8195,-36.8254,0.4945]]],
[[[175.817,-36.8228,0.0],[175.8178,-36.8228,0.0],[175.8182,-36.8225,0.0],[175.8176,-36.8222,0.0],[175.817,-36.8228,0.0]]],
[[[175.7915,-36.8153,0.0],[175.7905,-36.8152,0.0],[175.7904,-36.8155,0.0],[175.791,-36.8157,0.0],[175.7915,-36.8153,0.0]]],
[[[175.4035,-36.8101,0.0],[175.4033,-36.8103,0.0],[175.4038,-36.8104,0.0],[175.4038,-36.8102,0.0],[175.4035,-36.8101,0.0]]],
[[[175.4035,-36.8061,0.0],[175.4029,-36.8061,0.0],[175.4026,-36.8063,0.0],[175.4033,-36.8065,0.0],[175.4035,-36.8061,0.0]]],
[[[175.7978,-36.8201,0.0],[175.7979,-36.8207,0.0],[175.7982,-36.8208,0.0],[175.7983,-36.8204,0.0],[175.7978,-36.8201,0.0]]],
[[[175.8036,-36.8186,1.1061],[175.8013,-36.8187,9.7233],[175.7996,-36.8201,0.0],[175.8042,-36.8195,1.1061],[175.8036,-36.8186,1.1061]]],
[[[175.4648,-36.8293,4.5269],[175.4649,-36.8294,4.5269],[175.465,-36.8294,4.5269],[175.4649,-36.8293,4.5269],[175.4648,-36.8293,4.5269]]],
[[[175.8233,-36.8264,11.3521],[175.8212,-36.826,0.0],[175.8162,-36.8302,0.0],[175.8164,-36.8338,0.0],[175.8189,-36.8331,0.0],[175.8191,-36.8309,24.3151],[175.8213,-36.8307,1.2241],[175.8206,-36.8287,39.213],[175.8248,-36.8273,11.3521],[175.8233,-36.8264,11.3521]]],
[[[175.9008,-37.2209,0.0],[175.9004,-37.2212,0.0],[175.9003,-37.2214,1.1642],[175.9012,-37.2207,0.0],[175.9008,-37.2209,0.0]]],
[[[175.8968,-37.2196,5.2947],[175.8972,-37.2182,0.0],[175.8952,-37.2189,6.1581],[175.8959,-37.2199,5.2947],[175.8968,-37.2196,5.2947]]],
[[[175.8935,-37.2132,0.0],[175.8923,-37.2126,2.7328],[175.8886,-37.2139,0.0],[175.8917,-37.2152,19.2561],[175.8935,-37.2132,0.0]]],
[[[175.9274,-37.0693,0.0],[175.9243,-37.0675,0.0],[175.9245,-37.0698,11.0654],[175.927,-37.0721,13.9533],[175.9289,-37.0697,8.807],[175.9274,-37.0693,0.0]]],
[[[175.9291,-37.0655,0.0],[175.9312,-37.0671,6.4218],[175.9342,-37.0633,0.0],[175.9333,-37.0629,0.0],[175.9291,-37.0655,0.0]]],
[[[175.9454,-37.038,1.6232],[175.9443,-37.0369,3.148],[175.9399,-37.0379,0.0],[175.9364,-37.0429,8.3416],[175.9372,-37.049,2.469],[175.9346,-37.0497,15.4022],[175.9344,-37.0518,17.5728],[175.9364,-37.0534,4.8014],[175.935,-37.0554,5.4261],[175.9391,-37.0566,0.0],[175.9395,-37.0591,0.7168],[175.9375,-37.06,0.0],[175.9392,-37.0613,0.0],[175.9418,-37.0587,12.8631],[175.9434,-37.0603,2.0318],[175.9468,-37.0595,-0.0836],[175.9453,-37.0582,21.8087],[175.9471,-37.0576,1.1155],[175.9447,-37.0556,7.8711],[175.9467,-37.0548,0.0],[175.945,-37.054,6.207],[175.9456,-37.0519,23.3704],[175.9491,-37.0496,14.7602],[175.9546,-37.0493,0.0],[175.9541,-37.0473,52.0789],[175.9559,-37.0469,4.0219],[175.9547,-37.0455,1.4549],[175.9467,-37.0446,28.7161],[175.9469,-37.0423,3.5573],[175.9433,-37.0408,54.0252],[175.9454,-37.038,1.6232]]],
[[[175.8514,-37.0093,4.5788],[175.8513,-37.0094,4.5788],[175.8514,-37.0095,4.5788],[175.8515,-37.0094,4.5788],[175.8514,-37.0093,4.5788]]],
[[[175.9077,-36.9901,0.0],[175.9032,-36.9904,20.0802],[175.9044,-36.9947,34.0831],[175.902,-36.9995,6.142],[175.9087,-36.9979,0.0],[175.908,-36.9962,0.0],[175.91,-36.9931,0.0],[175.9077,-36.9901,0.0]]],
[[[176.0817,-36.9783,0.0],[176.0818,-36.9783,0.0],[176.0817,-36.9781,0.0],[176.0816,-36.9782,0.0],[176.0817,-36.9783,0.0]]],
[[[176.0833,-36.978,0.0],[176.0832,-36.9781,0.0],[176.0833,-36.9781,0.0],[176.0833,-36.978,0.0]]],
[[[176.0738,-36.9764,0.0],[176.0738,-36.9765,0.0],[176.0739,-36.9765,0.0],[176.0739,-36.9763,0.0],[176.0738,-36.9764,0.0]]],
[[[176.09,-36.9762,0.0],[176.09,-36.9764,13.9008],[176.0901,-36.9764,13.9008],[176.0901,-36.9761,0.0],[176.09,-36.9762,0.0]]],
[[[176.0869,-36.9772,0.0],[176.0883,-36.9773,13.9008],[176.0885,-36.9764,13.9008],[176.0874,-36.9764,0.0],[176.0869,-36.9772,0.0]]],
[[[176.0865,-36.9766,0.0],[176.0865,-36.9765,0.0],[176.0864,-36.9766,0.0],[176.0864,-36.9767,0.0],[176.0865,-36.9766,0.0]]],
[[[176.0827,-36.9723,5.5897],[176.0831,-36.9722,5.5897],[176.0831,-36.9718,5.5897],[176.0828,-36.9718,5.5897],[176.0827,-36.9723,5.5897]]],
[[[176.0823,-36.9718,5.5897],[176.0824,-36.9718,5.5897],[176.0824,-36.9717,5.5897],[176.0823,-36.9718,5.5897]]],
[[[176.0782,-36.971,0.0],[176.0785,-36.9706,0.0],[176.0784,-36.9704,0.0],[176.0782,-36.9705,0.0],[176.0782,-36.971,0.0]]],
[[[176.0749,-36.9692,0.0],[176.0758,-36.9697,0.0],[176.0766,-36.9686,0.0],[176.0758,-36.9681,0.0],[176.0749,-36.9692,0.0]]],
[[[176.078,-36.9666,0.0],[176.0792,-36.9653,0.463],[176.0752,-36.9663,0.0],[176.0755,-36.9669,0.0],[176.078,-36.9666,0.0]]],
[[[176.0817,-36.9718,12.0315],[176.0816,-36.9715,12.0315],[176.0814,-36.9715,12.0315],[176.0813,-36.9718,12.0315],[176.0817,-36.9718,12.0315]]],
[[[176.0796,-36.9776,1.8406],[176.0796,-36.9772,1.8406],[176.0795,-36.9771,1.8406],[176.0794,-36.9775,1.8406],[176.0796,-36.9776,1.8406]]],
[[[176.0772,-36.9759,5.4023],[176.0771,-36.9767,1.7067],[176.0776,-36.9769,1.7067],[176.0774,-36.9759,5.4023],[176.0772,-36.9759,5.4023]]],
[[[176.0768,-36.9762,5.4023],[176.0768,-36.9761,5.4023],[176.0767,-36.9762,5.4023],[176.0767,-36.9763,1.7067],[176.0768,-36.9762,5.4023]]],
[[[176.083,-36.9725,5.5897],[176.0794,-36.9727,0.0],[176.0779,-36.9768,1.7067],[176.0789,-36.9759,44.3937],[176.0833,-36.9776,12.7237],[176.0848,-36.9758,0.0],[176.083,-36.9725,5.5897]],
[[176.0839,-36.9744,27.4627],[176.0839,-36.9745,27.4627],[176.0838,-36.9744,27.4627],[176.0839,-36.9744,27.4627]]],
[[[176.078,-36.9575,1.0195],[176.078,-36.9574,1.0195],[176.0779,-36.9574,0.0],[176.0779,-36.9575,0.0],[176.078,-36.9575,1.0195]]],
[[[176.0557,-36.9525,0.0],[176.0558,-36.9524,0.0],[176.0557,-36.9524,0.0],[176.0557,-36.9525,0.0]]],
[[[176.0981,-36.9512,21.076],[176.0985,-36.9511,21.076],[176.0985,-36.951,21.076],[176.0981,-36.951,21.076],[176.0981,-36.9512,21.076]]],
[[[176.077,-36.9505,0.2678],[176.0777,-36.9495,0.0],[176.0777,-36.9491,0.0],[176.0766,-36.9493,0.0],[176.077,-36.9505,0.2678]]],
[[[176.0976,-36.9557,6.3995],[176.0977,-36.9558,6.3995],[176.0979,-36.9556,6.3995],[176.0978,-36.9555,6.3995],[176.0976,-36.9557,6.3995]]],
[[[176.0974,-36.9553,6.3995],[176.0974,-36.9554,6.3995],[176.0974,-36.9555,6.3995],[176.0975,-36.9553,6.3995],[176.0974,-36.9553,6.3995]]],
[[[176.0797,-36.9567,1.0195],[176.0794,-36.9563,1.0195],[176.0791,-36.9565,1.0195],[176.0792,-36.9571,1.0195],[176.0797,-36.9567,1.0195]]],
[[[176.0777,-36.9564,0.0],[176.0775,-36.9562,0.0],[176.0771,-36.9564,0.0],[176.0775,-36.9566,0.0],[176.0777,-36.9564,0.0]]],
[[[176.0787,-36.9567,1.0195],[176.0786,-36.9564,1.0195],[176.0784,-36.9569,1.0195],[176.0786,-36.957,1.0195],[176.0787,-36.9567,1.0195]]],
[[[176.0779,-36.9564,0.0],[176.0779,-36.9567,0.0],[176.0781,-36.9565,1.0195],[176.0779,-36.9564,0.0]]],
[[[176.0782,-36.9563,1.0195],[176.0783,-36.9564,1.0195],[176.0784,-36.9562,0.0],[176.0783,-36.9561,0.0],[176.0782,-36.9563,1.0195]]],
[[[176.0819,-36.9561,0.0],[176.0819,-36.9562,0.0],[176.082,-36.9562,0.0],[176.0819,-36.9561,0.0]]],
[[[176.0798,-36.956,0.0],[176.0799,-36.956,0.0],[176.0798,-36.9558,0.0],[176.0798,-36.956,0.0]]],
[[[176.0872,-36.9557,3.8027],[176.0872,-36.9556,3.8027],[176.0871,-36.9556,3.8027],[176.0871,-36.9557,3.8027],[176.0872,-36.9557,3.8027]]],
[[[176.0845,-36.9549,20.5886],[176.0844,-36.955,20.5886],[176.0845,-36.9552,20.5886],[176.0846,-36.9551,20.5886],[176.0845,-36.9549,20.5886]]],
[[[176.0826,-36.9551,8.4593],[176.0828,-36.955,8.4593],[176.0827,-36.9549,8.4593],[176.0826,-36.955,8.4593],[176.0826,-36.9551,8.4593]]],
[[[176.0565,-36.9536,5.1172],[176.0565,-36.9535,5.1172],[176.0564,-36.9533,5.1172],[176.0562,-36.9534,5.1172],[176.0565,-36.9536,5.1172]]],
[[[176.0598,-36.9535,3.0236],[176.0598,-36.9536,3.0236],[176.0599,-36.9536,3.0236],[176.0599,-36.9534,3.0236],[176.0598,-36.9535,3.0236]]],
[[[176.0851,-36.9546,20.5886],[176.0852,-36.9546,20.5886],[176.0852,-36.9545,1.4086],[176.0851,-36.9546,20.5886]]],
[[[176.0849,-36.9546,20.5886],[176.0849,-36.9545,1.4086],[176.0848,-36.9545,1.4086],[176.0848,-36.9546,20.5886],[176.0849,-36.9546,20.5886]]],
[[[176.088,-36.9542,2.2491],[176.088,-36.9543,2.2491],[176.0882,-36.9543,2.2491],[176.088,-36.9541,2.2491],[176.088,-36.9542,2.2491]]],
[[[176.0582,-36.954,7.0079],[176.0582,-36.9538,7.0079],[176.058,-36.9537,7.0079],[176.0579,-36.9539,7.0079],[176.0582,-36.954,7.0079]]],
[[[176.0567,-36.9532,5.1172],[176.0568,-36.9532,5.1172],[176.0567,-36.953,5.1172],[176.0567,-36.9532,5.1172]]],
[[[176.0986,-36.9502,0.0],[176.0959,-36.9488,1.4462],[176.09,-36.9549,0.0],[176.0929,-36.9565,0.0],[176.0974,-36.9551,6.3995],[176.0972,-36.9508,21.076],[176.0986,-36.9502,0.0]]],
[[[176.079,-36.9603,0.0],[176.079,-36.9605,0.0],[176.0791,-36.9606,0.0],[176.0791,-36.9602,0.0],[176.079,-36.9603,0.0]]],
[[[176.0757,-36.9603,0.0],[176.0756,-36.9602,0.0],[176.0755,-36.9602,0.0],[176.0756,-36.9603,0.0],[176.0757,-36.9603,0.0]]],
[[[176.0787,-36.9602,0.0],[176.0788,-36.9602,0.0],[176.0789,-36.96,0.0],[176.0788,-36.96,0.0],[176.0787,-36.9602,0.0]]],
[[[176.0752,-36.9598,0.0],[176.0753,-36.9597,0.0],[176.0752,-36.9596,0.0],[176.0752,-36.9598,0.0]]],
[[[176.0819,-36.959,9.6565],[176.0818,-36.959,9.6565],[176.0818,-36.9591,9.6565],[176.0819,-36.9591,9.6565],[176.0819,-36.959,9.6565]]],
[[[176.0759,-36.9582,0.0],[176.0757,-36.9585,0.0],[176.076,-36.9588,0.7186],[176.0761,-36.9586,0.7186],[176.0759,-36.9582,0.0]]],
[[[176.0764,-36.9583,0.7186],[176.0761,-36.9581,0.7186],[176.0765,-36.9588,0.7186],[176.0765,-36.9587,0.7186],[176.0764,-36.9583,0.7186]]],
[[[176.0754,-36.9598,0.0],[176.0754,-36.9599,0.0],[176.0755,-36.9599,0.0],[176.0755,-36.9598,0.0],[176.0754,-36.9598,0.0]]],
[[[176.0772,-36.9581,0.7186],[176.0775,-36.9581,0.7186],[176.0775,-36.958,0.7186],[176.0773,-36.9579,0.0],[176.0772,-36.9581,0.7186]]],
[[[176.0601,-36.955,4.3584],[176.0591,-36.9531,7.0079],[176.0579,-36.9544,7.0079],[176.057,-36.9535,5.1172],[176.0548,-36.9545,0.0],[176.0547,-36.957,0.0],[176.0572,-36.9584,0.0],[176.0566,-36.9574,13.969],[176.0601,-36.955,4.3584]]],
[[[176.0857,-36.9567,8.0059],[176.0871,-36.9535,2.2491],[176.0819,-36.9573,14.5847],[176.0801,-36.9565,14.5847],[176.0797,-36.9577,1.0195],[176.076,-36.9592,0.7186],[176.076,-36.9623,2.424],[176.0777,-36.9616,2.424],[176.0771,-36.9599,2.0397],[176.0791,-36.9589,4.3886],[176.0804,-36.9599,0.0],[176.0814,-36.9581,9.6565],[176.0836,-36.9586,1.5773],[176.0857,-36.9567,8.0059]]],
[[[175.4016,-36.4611,0.0],[175.3992,-36.4606,0.0],[175.3994,-36.4621,12.1801],[175.4024,-36.4629,13.0462],[175.4028,-36.4613,13.0462],[175.4016,-36.4611,0.0]]],
[[[175.3321,-36.4223,4.7094],[175.3315,-36.4213,4.7094],[175.3305,-36.4218,8.1041],[175.3312,-36.4234,0.0],[175.3321,-36.4223,4.7094]]],
[[[175.7834,-36.4382,3.58],[175.7826,-36.438,3.58],[175.7822,-36.4383,3.58],[175.7827,-36.4387,3.58],[175.7834,-36.4382,3.58]]],
[[[175.7725,-36.4292,13.8695],[175.7629,-36.4318,18.695],[175.7621,-36.4354,24.9002],[175.7597,-36.4379,25.2031],[175.7639,-36.4382,21.8135],[175.7649,-36.441,2.8503],[175.7697,-36.4417,4.1438],[175.7749,-36.44,16.4601],[175.7776,-36.4422,4.1735],[175.7819,-36.4421,3.485],[175.7825,-36.4401,13.9802],[175.7873,-36.4418,3.7111],[175.786,-36.4384,3.667],[175.7831,-36.4395,3.58],[175.7815,-36.4386,39.1385],[175.7815,-36.4373,-0.0485],[175.78,-36.438,39.1385],[175.7773,-36.4349,27.4318],[175.7741,-36.4342,4.5766],[175.7727,-36.432,60.2741],[175.7744,-36.4293,6.2448],[175.7725,-36.4292,13.8695]]],
[[[175.8782,-37.2303,18.0572],[175.8798,-37.2306,2.9449],[175.8847,-37.218,0.0],[175.8768,-37.2097,2.8287],[175.8785,-37.1995,0.0],[175.8711,-37.1963,2.6984],[175.8673,-37.1967,0.4375],[175.8627,-37.2047,2.5175],[175.8655,-37.2096,2.6138],[175.8645,-37.2113,2.7162],[175.8619,-37.2098,58.0021],[175.8612,-37.2068,10.9962],[175.8573,-37.2069,11.6695],[175.8623,-37.1975,2.8624],[175.8653,-37.1955,0.0],[175.8637,-37.1953,2.0365],[175.8641,-37.1931,0.0],[175.862,-37.194,2.1724],[175.8631,-37.192,0.0],[175.858,-37.1923,0.2678],[175.8595,-37.1882,2.6798],[175.8554,-37.1871,1.4393],[175.8528,-37.1845,6.2019],[175.8604,-37.1802,0.0],[175.8563,-37.1782,4.2294],[175.854,-37.1789,5.8188],[175.8509,-37.1765,15.3872],[175.8507,-37.1743,7.0355],[175.8548,-37.1718,0.1511],[175.8502,-37.1713,7.726],[175.851,-37.1703,7.5192],[175.8591,-37.1701,1.9679],[175.8536,-37.1683,22.5993],[175.8581,-37.1651,3.0845],[175.8625,-37.1661,17.5487],[175.8636,-37.1649,17.5487],[175.8642,-37.1725,39.7213],[175.8663,-37.1747,0.0],[175.8687,-37.1743,28.7807],[175.8686,-37.1846,3.5976],[175.8745,-37.1927,37.2837],[175.8806,-37.1971,62.4094],[175.881,-37.2018,37.5353],[175.8848,-37.2031,2.9376],[175.8855,-37.2011,98.7581],[175.8885,-37.1999,35.3406],[175.8881,-37.1981,81.8835],[175.8911,-37.1977,1.2709],[175.8928,-37.1956,33.3279],[175.8915,-37.1922,3.573],[175.888,-37.1905,83.7163],[175.8853,-37.1801,8.8612],[175.8838,-37.1798,39.2129],[175.8848,-37.1785,0.0],[175.883,-37.1772,6.7299],[175.8837,-37.1756,8.111],[175.8819,-37.1742,26.4192],[175.8814,-37.1693,25.7526],[175.8833,-37.1681,4.0017],[175.8809,-37.1672,10.9241],[175.8826,-37.1653,0.0],[175.8808,-37.1617,1.4032],[175.8841,-37.158,22.5133],[175.8839,-37.1549,16.3963],[175.879,-37.1499,6.1106],[175.8795,-37.1454,37.4061],[175.886,-37.1375,2.8905],[175.883,-37.1373,9.7556],[175.8857,-37.1314,8.5949],[175.8849,-37.1283,3.4224],[175.8907,-37.1259,17.5591],[175.89,-37.1243,22.2975],[175.892,-37.1221,7.109],[175.8921,-37.1202,3.6229],[175.8895,-37.1176,6.8821],[175.891,-37.1167,0.0],[175.8896,-37.1152,18.2665],[175.8902,-37.1129,0.0],[175.8833,-37.116,2.1875],[175.8808,-37.1124,0.0],[175.8783,-37.1121,0.0],[175.8788,-37.1138,0.9942],[175.8741,-37.1156,0.7059],[175.8679,-37.1262,0.0],[175.8672,-37.134,2.3712],[175.8659,-37.1289,0.5076],[175.8604,-37.1265,3.4607],[175.8624,-37.1263,0.9216],[175.8639,-37.1174,1.437],[175.8629,-37.1139,29.6908],[175.866,-37.1161,15.1898],[175.8712,-37.1105,14.9096],[175.877,-37.1104,8.8387],[175.8785,-37.1054,4.9439],[175.8813,-37.1053,21.6718],[175.8815,-37.1072,9.6314],[175.8865,-37.1101,0.0],[175.8887,-37.1133,15.3609],[175.886,-37.0903,16.2517],[175.8882,-37.0743,3.7467],[175.8864,-37.0743,6.7785],[175.891,-37.0652,15.1835],[175.8893,-37.0562,0.0],[175.8845,-37.05,97.2774],[175.8848,-37.0456,22.9765],[175.8869,-37.0442,40.4405],[175.8883,-37.0394,68.6192],[175.8834,-37.034,69.1541],[175.8834,-37.0315,102.7103],[175.8858,-37.0285,0.0],[175.8734,-37.0281,35.4087],[175.8642,-37.0056,0.0],[175.862,-37.0059,0.0],[175.8577,-37.0119,2.5117],[175.8545,-37.0134,3.5715],[175.8563,-37.0228,4.367],[175.8552,-37.0261,1.7957],[175.8509,-37.0274,0.2765],[175.8518,-37.0316,3.5019],[175.8455,-37.0308,0.6248],[175.8428,-37.0321,0.0],[175.8427,-37.0369,1.8161],[175.8415,-37.0387,6.8182],[175.8407,-37.0378,0.3771],[175.837,-37.0524,0.2459],[175.8225,-37.0541,0.2457],[175.8127,-37.0596,7.1907],[175.8149,-37.0561,19.281],[175.8295,-37.0521,3.9333],[175.8356,-37.048,0.7971],[175.8352,-37.0441,0.2097],[175.8305,-37.0387,4.5219],[175.8335,-37.0345,1.066],[175.8346,-37.0282,1.1288],[175.8424,-37.0232,0.5405],[175.8406,-37.0204,8.3921],[175.8426,-37.0204,2.4535],[175.8465,-37.0157,2.0379],[175.8457,-37.0122,4.0915],[175.8512,-37.0089,4.5788],[175.8485,-37.0031,1.4591],[175.8573,-36.998,0.0],[175.8582,-36.9951,1.974],[175.8618,-36.9972,0.0],[175.8614,-36.9993,0.0],[175.86,-36.999,0.0],[175.8614,-37.0014,0.0],[175.8662,-37.0047,1.5926],[175.8695,-37.0046,0.0],[175.872,-37.0001,84.0238],[175.8714,-36.9983,31.7913],[175.8634,-36.9967,22.969],[175.8559,-36.9884,0.0],[175.8555,-36.9764,25.3741],[175.8473,-36.9699,43.1998],[175.8479,-36.9685,0.0],[175.8432,-36.9645,30.3532],[175.8426,-36.9619,14.2189],[175.8441,-36.9595,28.2334],[175.8413,-36.9548,36.469],[175.8423,-36.9518,21.596],[175.8409,-36.9507,60.4404],[175.8428,-36.9491,25.9167],[175.8422,-36.9475,24.7149],[175.8494,-36.9451,3.5141],[175.8514,-36.9422,29.5259],[175.8557,-36.9435,5.0388],[175.8573,-36.9417,41.5673],[175.8542,-36.9342,0.0],[175.8516,-36.9331,45.8475],[175.8523,-36.9313,2.7233],[175.8568,-36.9303,4.7965],[175.8548,-36.9243,13.4491],[175.856,-36.9229,0.7228],[175.8478,-36.9179,0.0],[175.8465,-36.9127,2.4786],[175.8417,-36.9109,2.4723],[175.8374,-36.9065,8.9092],[175.838,-36.8987,0.3283],[175.8354,-36.8916,13.3965],[175.8315,-36.8887,3.6823],[175.8243,-36.8885,5.688],[175.8193,-36.8831,5.4433],[175.8158,-36.8714,8.0772],[175.8167,-36.8684,20.1654],[175.8151,-36.8674,4.3329],[175.815,-36.8667,4.3329],[175.8135,-36.8674,3.288],[175.815,-36.8666,4.3329],[175.8152,-36.8667,4.3329],[175.8152,-36.8674,4.3329],[175.8161,-36.8674,4.3329],[175.8168,-36.8681,20.1654],[175.8171,-36.8696,26.2182],[175.8161,-36.8712,4.9878],[175.8165,-36.8723,8.0772],[175.8198,-36.8726,36.2752],[175.8244,-36.8698,26.5205],[175.8254,-36.867,52.7275],[175.827,-36.8673,0.0],[175.825,-36.8654,50.0738],[175.8281,-36.8624,8.1735],[175.8253,-36.861,45.981],[175.8268,-36.8585,52.2702],[175.8204,-36.8573,28.2238],[175.8215,-36.8557,0.0],[175.8196,-36.8541,14.589],[175.8233,-36.8518,2.4241],[175.8184,-36.8503,59.0513],[175.8196,-36.8483,7.5506],[175.8158,-36.8467,84.7111],[175.8192,-36.8431,0.0],[175.8179,-36.8417,19.4522],[175.8199,-36.8414,0.0],[175.8182,-36.8406,0.0],[175.8148,-36.8429,0.0],[175.8025,-36.8362,0.0],[175.7996,-36.8329,14.9827],[175.7962,-36.833,67.1096],[175.7954,-36.8315,20.5317],[175.7931,-36.8328,22.2453],[175.7932,-36.8299,0.0],[175.7906,-36.8299,54.01],[175.7908,-36.8282,17.9897],[175.7849,-36.8234,6.6153],[175.7812,-36.8224,10.1868],[175.7754,-36.8239,61.4623],[175.7708,-36.8203,30.0476],[175.7642,-36.8209,0.0],[175.7594,-36.8261,37.6139],[175.7584,-36.8351,3.805],[175.7622,-36.8377,20.1839],[175.7617,-36.8429,26.3093],[175.7593,-36.8463,11.5063],[175.7613,-36.8478,27.4039],[175.7643,-36.8472,11.0572],[175.7635,-36.849,3.3369],[175.7651,-36.8495,3.3369],[175.7682,-36.8495,22.3381],[175.7741,-36.8464,2.4232],[175.7713,-36.8502,2.5488],[175.7698,-36.8496,2.5488],[175.766,-36.8519,0.0],[175.7707,-36.8516,1.6909],[175.7697,-36.8533,2.8442],[175.7709,-36.8557,3.3579],[175.7669,-36.856,0.8381],[175.7664,-36.8606,1.7488],[175.7632,-36.8648,7.3454],[175.7646,-36.8578,4.1039],[175.7632,-36.8573,4.1039],[175.761,-36.8494,10.4344],[175.759,-36.8482,19.1866],[175.758,-36.8521,6.0059],[175.7537,-36.853,8.0113],[175.7562,-36.8479,28.24],[175.7545,-36.8428,3.5465],[175.7572,-36.8403,0.0],[175.7563,-36.8397,4.2575],[175.7588,-36.8381,2.3366],[175.7599,-36.8393,0.0],[175.7589,-36.8365,3.2932],[175.7464,-36.8375,1.3116],[175.7405,-36.8362,1.6167],[175.7325,-36.8315,0.8181],[175.7334,-36.8298,0.0],[175.7312,-36.8267,2.8271],[175.7245,-36.8282,46.887],[175.7252,-36.8327,8.4663],[175.7181,-36.8312,0.0],[175.7149,-36.8266,0.0],[175.713,-36.8271,0.0],[175.7106,-36.8312,0.0],[175.7116,-36.8324,0.0],[175.7107,-36.8347,0.0],[175.7131,-36.8333,0.0],[175.7144,-36.8355,40.7248],[175.7123,-36.8373,3.2905],[175.7135,-36.8383,0.0],[175.7126,-36.8406,0.6143],[175.7113,-36.8429,10.8303],[175.7089,-36.8413,19.6027],[175.7058,-36.849,32.0971],[175.6999,-36.8512,3.9393],[175.7028,-36.8578,2.5805],[175.697,-36.8636,5.4236],[175.7052,-36.8695,6.8773],[175.7109,-36.8707,10.9212],[175.7119,-36.8684,10.0268],[175.7119,-36.8699,3.5993],[175.7133,-36.8696,3.5993],[175.7168,-36.8729,43.2129],[175.7194,-36.8725,14.9434],[175.7151,-36.8754,7.6479],[175.7139,-36.8804,22.0684],[175.7096,-36.8786,1.0396],[175.7072,-36.8832,3.4259],[175.6996,-36.8885,21.1385],[175.7009,-36.8902,3.0245],[175.7047,-36.8882,15.758],[175.7072,-36.8888,16.3645],[175.711,-36.8954,0.6405],[175.7105,-36.9004,0.4845],[175.7164,-36.9046,1.2286],[175.7154,-36.9061,1.1991],[175.7111,-36.9022,0.9914],[175.707,-36.9013,3.0529],[175.7067,-36.8958,1.4756],[175.7035,-36.894,0.2837],[175.699,-36.8992,0.7296],[175.6991,-36.9018,0.4739],[175.6978,-36.9017,0.4739],[175.6977,-36.8977,0.3176],[175.7023,-36.8935,0.8992],[175.7023,-36.8929,1.1261],[175.6973,-36.8972,1.0013],[175.6962,-36.8947,1.0753],[175.693,-36.8954,1.7572],[175.6926,-36.8923,2.1183],[175.69,-36.8904,1.1631],[175.6844,-36.8974,3.9902],[175.6845,-36.8899,15.2261],[175.6915,-36.8847,0.0],[175.6909,-36.8803,6.1203],[175.6856,-36.8766,13.0319],[175.6799,-36.8781,19.5592],[175.6783,-36.881,1.1186],[175.679,-36.8838,35.5243],[175.6762,-36.8889,3.1447],[175.6747,-36.8881,3.1447],[175.6743,-36.8814,21.9678],[175.6685,-36.8808,2.3263],[175.6732,-36.8783,1.0896],[175.6692,-36.8754,4.4795],[175.6728,-36.876,1.3458],[175.6719,-36.8751,5.4943],[175.6744,-36.873,9.6441],[175.6666,-36.8719,4.7367],[175.6785,-36.8665,34.2315],[175.68,-36.8674,16.2495],[175.682,-36.8622,13.7149],[175.685,-36.8617,6.326],[175.6849,-36.8537,22.4964],[175.687,-36.8472,10.0575],[175.6772,-36.8532,1.2162],[175.6733,-36.8539,0.2957],[175.6721,-36.8516,0.6331],[175.6721,-36.8469,0.8873],[175.6678,-36.8409,2.0795],[175.6733,-36.835,3.0977],[175.6843,-36.8417,0.5076],[175.688,-36.8417,3.5843],[175.689,-36.8401,4.2733],[175.6883,-36.8427,3.5843],[175.6917,-36.8452,3.6764],[175.696,-36.8453,0.43],[175.7063,-36.8385,0.0],[175.7083,-36.8363,0.0],[175.7067,-36.838,0.0],[175.7057,-36.8361,1.7229],[175.7084,-36.8357,0.0],[175.7086,-36.8326,0.8968],[175.704,-36.8274,0.9304],[175.701,-36.8191,1.0441],[175.7016,-36.8071,0.6218],[175.7065,-36.8046,0.9702],[175.7141,-36.8078,36.7806],[175.7179,-36.8069,20.8749],[175.721,-36.8081,0.0],[175.7248,-36.8061,0.0],[175.7238,-36.7981,2.7513],[175.7257,-36.794,5.8898],[175.7298,-36.7912,5.4733],[175.7272,-36.7913,3.7901],[175.7248,-36.7882,4.1124],[175.7256,-36.7881,4.1124],[175.7263,-36.7884,11.0535],[175.7272,-36.7908,5.4964],[175.7294,-36.7902,5.4733],[175.7317,-36.7915,11.1878],[175.7341,-36.7952,2.3565],[175.736,-36.7935,58.9502],[175.7401,-36.7945,30.5346],[175.7476,-36.7906,18.8907],[175.7471,-36.7806,23.0376],[175.7485,-36.778,61.875],[175.7474,-36.7758,20.1192],[175.7493,-36.765,0.0],[175.7529,-36.7633,2.2128],[175.7519,-36.7613,34.0697],[175.7553,-36.7573,9.4606],[175.7583,-36.7564,16.177],[175.7602,-36.7595,53.695],[175.7638,-36.7582,6.5202],[175.7655,-36.7563,24.5885],[175.7654,-36.753,20.0685],[175.7668,-36.7539,20.0685],[175.7682,-36.7525,49.0451],[175.7685,-36.754,25.6239],[175.7771,-36.7508,25.8138],[175.774,-36.7483,23.1067],[175.7752,-36.7473,34.268],[175.7767,-36.7483,7.1779],[175.7776,-36.7467,52.7717],[175.7883,-36.7476,1.4666],[175.7886,-36.7446,18.7343],[175.7905,-36.7444,14.8579],[175.7896,-36.7423,57.7112],[175.7914,-36.7412,51.3863],[175.804,-36.7426,6.6659],[175.8058,-36.7385,21.9644],[175.8104,-36.7375,3.5516],[175.8133,-36.7387,33.5644],[175.8136,-36.7422,14.9864],[175.8155,-36.7436,10.1716],[175.8186,-36.7418,43.4563],[175.8175,-36.7405,72.0142],[175.8191,-36.7394,40.3176],[175.8271,-36.7396,0.0],[175.825,-36.734,2.4484],[175.8217,-36.7316,20.1591],[175.8213,-36.7263,12.1422],[175.8227,-36.7243,44.8784],[175.8215,-36.7206,1.1365],[175.8197,-36.7205,12.6596],[175.8213,-36.7197,1.1365],[175.82,-36.7173,1.9328],[175.8179,-36.7169,0.0],[175.8181,-36.7198,1.1805],[175.8131,-36.7219,3.0566],[175.8037,-36.7207,0.0],[175.7987,-36.7181,6.8811],[175.7928,-36.7121,0.0],[175.7893,-36.7056,6.4741],[175.79,-36.6932,1.3116],[175.7884,-36.6947,43.071],[175.7831,-36.6921,10.5813],[175.7812,-36.6935,3.2739],[175.7795,-36.6989,0.7992],[175.773,-36.7006,0.0],[175.7686,-36.705,13.8383],[175.7623,-36.7081,2.6405],[175.7475,-36.7083,13.0911],[175.7434,-36.7061,3.7877],[175.7402,-36.7065,18.5396],[175.7283,-36.7169,26.8205],[175.7291,-36.7199,3.4452],[175.7269,-36.7216,4.0904],[175.7146,-36.7242,0.6424],[175.7091,-36.7271,5.6841],[175.6992,-36.7264,14.3588],[175.6902,-36.7282,7.0921],[175.6823,-36.727,2.8152],[175.6787,-36.7298,5.2752],[175.6435,-36.7252,3.6978],[175.6353,-36.7261,0.0],[175.6325,-36.7285,0.9788],[175.6399,-36.7289,4.7089],[175.6467,-36.7364,1.3446],[175.65,-36.7379,2.3577],[175.6593,-36.7386,0.4425],[175.6631,-36.7406,0.6668],[175.6667,-36.7388,0.5943],[175.6713,-36.739,3.9113],[175.6777,-36.7425,3.2868],[175.6693,-36.742,0.6693],[175.6698,-36.7437,0.7964],[175.6665,-36.7461,1.272],[175.6593,-36.747,1.3413],[175.6587,-36.7489,2.3631],[175.66,-36.7496,1.7487],[175.6568,-36.7498,0.7664],[175.659,-36.7524,1.6595],[175.6532,-36.7496,13.1784],[175.6557,-36.7484,2.2507],[175.6542,-36.7452,0.9701],[175.644,-36.7431,0.7703],[175.6396,-36.744,0.1407],[175.6369,-36.7474,1.0284],[175.6388,-36.7485,3.473],[175.6448,-36.761,8.5831],[175.6481,-36.7635,3.0155],[175.6435,-36.761,0.7926],[175.6433,-36.7628,0.7054],[175.6456,-36.7639,2.4246],[175.6434,-36.7642,0.7784],[175.6443,-36.7674,4.5217],[175.6397,-36.7681,4.9148],[175.6418,-36.7653,1.0502],[175.6395,-36.7625,1.1937],[175.6389,-36.7646,3.5125],[175.638,-36.7639,2.0932],[175.6378,-36.7612,0.6843],[175.6322,-36.7645,0.7547],[175.63,-36.7635,1.965],[175.6301,-36.7612,0.5989],[175.6267,-36.761,1.28],[175.6266,-36.7565,1.1614],[175.6249,-36.7574,13.5377],[175.625,-36.7526,1.6449],[175.6072,-36.7572,0.9448],[175.6063,-36.7539,2.4867],[175.6095,-36.7529,0.2382],[175.6053,-36.7499,1.532],[175.6105,-36.7445,0.6908],[175.6084,-36.738,2.7247],[175.6124,-36.7359,9.5322],[175.6149,-36.7253,32.2186],[175.6207,-36.7197,1.9143],[175.6245,-36.7215,0.0],[175.6247,-36.7232,0.0],[175.6271,-36.7227,11.1055],[175.6275,-36.7179,0.0],[175.6187,-36.7148,4.9971],[175.6091,-36.7083,1.2186],[175.6085,-36.7108,10.2489],[175.6074,-36.7099,10.2489],[175.6087,-36.7052,31.2029],[175.6145,-36.7001,11.5065],[175.6097,-36.7009,0.0],[175.6047,-36.6966,27.9805],[175.6037,-36.6933,11.6273],[175.6081,-36.688,65.3005],[175.6062,-36.6863,115.1721],[175.6067,-36.6837,43.1485],[175.6052,-36.6821,3.6432],[175.6044,-36.6845,4.7221],[175.6022,-36.6835,2.3576],[175.602,-36.6852,58.5268],[175.5991,-36.6857,23.632],[175.5981,-36.6831,16.4044],[175.595,-36.6837,21.4459],[175.5945,-36.6818,0.0],[175.5898,-36.6837,65.535],[175.588,-36.6801,5.9273],[175.5858,-36.6816,26.9235],[175.5853,-36.6785,9.5237],[175.5822,-36.6809,52.4614],[175.5803,-36.6794,0.0],[175.5783,-36.6802,31.8272],[175.5775,-36.6846,12.5953],[175.575,-36.6874,12.8494],[175.565,-36.6877,1.6393],[175.5614,-36.6848,6.9776],[175.5597,-36.687,46.2021],[175.5559,-36.6844,0.0],[175.5542,-36.6788,3.9523],[175.5575,-36.6678,0.0],[175.5566,-36.6649,3.0892],[175.5641,-36.6681,0.0],[175.5699,-36.6678,48.306399999999996],[175.5768,-36.6712,32.7599],[175.581,-36.6677,26.8398],[175.5797,-36.6649,55.5712],[175.5844,-36.664,0.0],[175.5836,-36.6615,15.3311],[175.5731,-36.6561,15.596],[175.5727,-36.6546,15.596],[175.5752,-36.6526,3.4302],[175.5723,-36.651,58.9708],[175.5715,-36.648,69.0715],[175.5727,-36.6467,22.7388],[175.5711,-36.6453,9.6041],[175.5836,-36.6275,4.1432],[175.5795,-36.6253,76.9081],[175.5804,-36.6202,19.1642],[175.5753,-36.6195,7.7562],[175.5737,-36.6137,32.9247],[175.5674,-36.6151,18.7341],[175.5621,-36.6122,22.7894],[175.5585,-36.6049,34.2474],[175.5602,-36.5982,0.0],[175.5547,-36.5973,0.0],[175.5526,-36.5996,59.2071],[175.5502,-36.5991,1.9226],[175.5489,-36.6031,3.2756],[175.5444,-36.6032,29.3993],[175.5423,-36.6004,11.3535],[175.5371,-36.6039,0.8353],[175.5281,-36.6002,8.8427],[175.5232,-36.5954,1.0214],[175.5219,-36.5923,0.0],[175.5261,-36.5884,2.4205],[175.5256,-36.5864,20.8605],[175.5285,-36.5815,48.3431],[175.5258,-36.5765,16.3737],[175.5263,-36.5742,0.0],[175.5244,-36.5738,29.9565],[175.5241,-36.5693,23.8442],[175.5291,-36.5667,0.0],[175.5248,-36.5599,3.5109],[175.5208,-36.5592,0.0],[175.5197,-36.555,23.2141],[175.526,-36.5521,19.3059],[175.5283,-36.5526,39.7855],[175.5293,-36.5504,26.7903],[175.5329,-36.5519,5.4726],[175.535,-36.5509,3.9847],[175.5332,-36.5482,19.546],[175.5334,-36.5451,39.6225],[175.5355,-36.5431,13.9908],[175.5335,-36.5402,5.1978],[175.5259,-36.5422,33.4816],[175.5202,-36.5408,41.385],[175.5104,-36.532,94.667],[175.5076,-36.5269,102.2702],[175.5085,-36.523,1.1746],[175.4992,-36.5156,2.2506],[175.4962,-36.5149,25.7765],[175.4945,-36.5109,0.0],[175.4916,-36.5113,117.6624],[175.4894,-36.5098,47.156],[175.4808,-36.5112,4.3974],[175.4762,-36.5089,47.9137],[175.4696,-36.51,80.238],[175.4709,-36.5175,3.6874],[175.4723,-36.5173,6.7874],[175.474,-36.52,6.7644],[175.473,-36.5224,0.0],[175.4756,-36.5247,0.0],[175.4783,-36.5242,12.1742],[175.4784,-36.5288,14.7988],[175.4804,-36.5299,2.1407],[175.477,-36.532,0.7419],[175.4761,-36.5352,5.4735],[175.4758,-36.5352,5.4735],[175.4762,-36.5323,0.7419],[175.4718,-36.5289,3.4892],[175.4677,-36.5288,20.0712],[175.4652,-36.5263,31.3782],[175.4643,-36.5225,0.0],[175.4614,-36.527,24.2398],[175.4579,-36.5258,11.3971],[175.4572,-36.5244,38.9219],[175.4585,-36.5228,8.9025],[175.4563,-36.522,24.6468],[175.4558,-36.5192,10.6834],[175.4456,-36.5096,53.5714],[175.4455,-36.5062,4.691],[175.4433,-36.5029,0.0],[175.4418,-36.5049,61.0737],[175.4376,-36.5032,37.2705],[175.4311,-36.5059,0.0],[175.4278,-36.5108,30.5221],[175.4233,-36.512,9.4623],[175.4213,-36.5103,37.3441],[175.4234,-36.5024,76.6048],[175.4206,-36.4988,23.0709],[175.4249,-36.4967,23.679],[175.4184,-36.4916,58.8919],[175.4131,-36.4899,178.3648],[175.4135,-36.4877,6.7655],[175.4111,-36.4839,45.1492],[175.4124,-36.4812,5.3067],[175.4079,-36.4774,11.078],[175.4101,-36.477,0.0],[175.4095,-36.4755,16.3338],[175.4153,-36.4745,23.1808],[175.4155,-36.473,0.0],[175.4134,-36.4732,23.1808],[175.4119,-36.4709,2.1445],[175.403,-36.4714,7.3617],[175.401,-36.4738,29.0227],[175.396,-36.4755,19.8798],[175.3933,-36.4742,0.315],[175.3914,-36.4762,3.2242],[175.3891,-36.4759,0.0],[175.3875,-36.4734,24.8615],[175.375,-36.4721,20.7037],[175.3709,-36.4688,15.9137],[175.368,-36.4687,8.498],[175.3641,-36.4716,72.2845],[175.3589,-36.4708,29.6984],[175.3541,-36.4722,43.864],[175.3455,-36.4695,0.0],[175.3446,-36.4723,2.1406],[175.3508,-36.4732,3.0441],[175.3481,-36.4795,6.3194],[175.3402,-36.4839,1.3775],[175.3416,-36.4848,7.3226],[175.3365,-36.4848,36.2499],[175.3358,-36.4832,11.052],[175.3324,-36.4831,52.3405],[175.3308,-36.4805,15.3801],[175.3283,-36.4808,12.6018],[175.3288,-36.4861,31.4833],[175.3262,-36.49,0.0],[175.3303,-36.4957,27.8416],[175.3275,-36.4995,25.917],[175.3293,-36.5014,77.6283],[175.3303,-36.5107,13.4584],[175.3276,-36.5121,40.4332],[175.328,-36.5257,21.8665],[175.3341,-36.5306,16.7117],[175.3334,-36.5365,13.734],[175.3363,-36.5415,0.0],[175.3423,-36.5454,5.7042],[175.3451,-36.5536,0.4821],[175.3573,-36.557,7.0765],[175.3643,-36.5652,1.9578],[175.3768,-36.5676,37.2914],[175.3839,-36.5709,14.9959],[175.3883,-36.5756,0.3013],[175.3939,-36.5753,4.4475],[175.3994,-36.5789,7.2075],[175.4055,-36.5803,5.8771],[175.4082,-36.5842,19.7881],[175.4142,-36.5883,2.1013],[175.4209,-36.5878,5.4117],[175.421,-36.5893,1.3134],[175.4246,-36.5898,2.9989],[175.425,-36.5881,2.7584],[175.4254,-36.5893,2.7584],[175.4251,-36.5899,2.9989],[175.4223,-36.59,0.9643],[175.4242,-36.5913,6.1953],[175.4221,-36.5916,4.78],[175.4174,-36.5889,10.2907],[175.42,-36.5929,3.6614],[175.4201,-36.5974,13.1346],[175.4269,-36.6003,3.2043],[175.4278,-36.6064,1.0597],[175.4325,-36.6057,5.2946],[175.4355,-36.6095,40.4732],[175.4387,-36.6109,0.0],[175.4378,-36.6093,26.3017],[175.4422,-36.6086,2.4496],[175.4465,-36.6119,9.3922],[175.4471,-36.6142,15.2694],[175.4553,-36.6144,64.1903],[175.4572,-36.6163,0.0],[175.4655,-36.612,1.52],[175.4675,-36.6155,6.3482],[175.4625,-36.618899999999996,0.0],[175.469,-36.6186,25.5286],[175.4717,-36.6204,1.714],[175.4719,-36.6261,1.4821],[175.4704,-36.6277,0.6765],[175.4655,-36.6258,0.0],[175.4569,-36.6274,2.9389],[175.4541,-36.6296,39.4345],[175.4402,-36.6258,0.0],[175.4375,-36.6264,5.1553],[175.4404,-36.6405,10.1765],[175.4461,-36.646,2.7806],[175.4442,-36.6484,0.0],[175.4446,-36.6539,27.3921],[175.4471,-36.6604,13.0243],[175.4445,-36.6667,28.2555],[175.442,-36.667,0.0],[175.4426,-36.6702,41.9885],[175.4397,-36.6784,3.7976],[175.432,-36.6874,9.2413],[175.4294,-36.7001,0.3636],[175.43,-36.7091,19.7045],[175.4323,-36.7126,1.4487],[175.4305,-36.7168,5.3304],[175.4383,-36.7166,31.3069],[175.4376,-36.7182,2.411],[175.4391,-36.719,26.9185],[175.4392,-36.7215,20.8549],[175.4371,-36.724,5.3339],[175.4371,-36.7268,5.6524],[175.4408,-36.7266,2.5162],[175.4429,-36.7302,0.0],[175.4475,-36.7308,16.5088],[175.4491,-36.7289,12.1634],[175.4484,-36.7269,10.0712],[175.4534,-36.7279,29.0524],[175.4563,-36.7243,26.0341],[175.4615,-36.7258,0.9112],[175.4596,-36.7244,2.8772],[175.4603,-36.7243,2.8772],[175.462,-36.7252,0.9112],[175.4641,-36.7238,4.623],[175.4621,-36.7278,0.5232],[175.4645,-36.7304,2.7099],[175.4629,-36.7314,2.2607],[175.4655,-36.7333,0.0],[175.4693,-36.7325,19.4384],[175.4729,-36.7367,2.549],[175.4802,-36.7341,11.3365],[175.4812,-36.736,1.3099],[175.478,-36.7394,25.4503],[175.4785,-36.7415,17.7067],[175.4759,-36.7415,0.0],[175.4769,-36.7436,1.6299],[175.4743,-36.7446,0.0],[175.477,-36.7462,10.7807],[175.4754,-36.7501,16.3775],[175.4697,-36.7505,15.066],[175.4599,-36.7626,13.9362],[175.4571,-36.7637,5.377],[175.4571,-36.7687,9.9456],[175.4592,-36.7706,0.0],[175.4604,-36.7687,5.5152],[175.465,-36.7683,2.4919],[175.464,-36.7646,27.322],[175.4624,-36.7639,10.5964],[175.4628,-36.7609,6.3007],[175.4698,-36.7562,6.7496],[175.4709,-36.7535,12.4098],[175.4753,-36.7542,11.5962],[175.4785,-36.7519,0.9148],[175.4831,-36.7541,0.5643],[175.4872,-36.7591,12.4635],[175.4859,-36.7603,16.9406],[175.4866,-36.7621,21.3587],[175.489,-36.7631,0.0],[175.4951,-36.7608,3.9122],[175.4955,-36.7646,0.8746],[175.4951,-36.7734,13.2119],[175.486,-36.7775,7.1904],[175.4856,-36.7795,46.943],[175.4914,-36.7777,29.9857],[175.4967,-36.7806,8.4725],[175.5009,-36.7855,0.0],[175.5051,-36.7868,0.8973],[175.5032,-36.7894,0.0],[175.5056,-36.794,1.4003],[175.5031,-36.798,5.6688],[175.4983,-36.7991,1.2568],[175.4973,-36.8033,6.0646],[175.4903,-36.8083,3.9663],[175.4883,-36.8084,5.7685],[175.4862,-36.8058,0.0],[175.4836,-36.8061,0.9916],[175.4797,-36.8025,0.0],[175.4772,-36.8056,25.8517],[175.4724,-36.8043,0.0],[175.4736,-36.8086,16.4033],[175.4704,-36.8113,50.2426],[175.4651,-36.8113,36.3394],[175.4621,-36.8099,21.9803],[175.4612,-36.8076,0.0],[175.4583,-36.8104,10.846],[175.4539,-36.8079,0.0],[175.4427,-36.8098,19.8525],[175.4407,-36.8075,0.0],[175.4403,-36.8098,45.9934],[175.4375,-36.8113,19.7761],[175.4371,-36.8143,10.4629],[175.4314,-36.8153,2.355],[175.4312,-36.8191,11.8149],[175.423,-36.8201,0.0],[175.4246,-36.826,0.0],[175.4259,-36.8216,7.1302],[175.4316,-36.824,2.0233],[175.4322,-36.821,12.6146],[175.4356,-36.8192,22.9906],[175.4378,-36.8201,10.3026],[175.4359,-36.8219,2.112],[175.4385,-36.8243,12.5285],[175.4411,-36.8211,32.547],[175.4446,-36.822,20.6914],[175.4455,-36.8244,15.1652],[175.4502,-36.8224,31.2667],[175.4511,-36.8241,13.481],[175.4555,-36.8234,8.1926],[175.458,-36.8267,0.0],[175.4659,-36.8284,4.5269],[175.4625,-36.8334,13.5176],[175.455,-36.8312,0.0],[175.4533,-36.8338,12.2182],[175.4505,-36.8305,0.0],[175.4476,-36.8313,3.0535],[175.4472,-36.833,24.38],[175.4405,-36.8307,8.0298],[175.4394,-36.828,30.3099],[175.4361,-36.8275,0.0],[175.4308,-36.8298,25.9979],[175.4291,-36.828,5.8639],[175.4281,-36.8334,20.0501],[175.4299,-36.835,22.0234],[175.4292,-36.8385,0.0],[175.4333,-36.841,22.8394],[175.4343,-36.8439,11.8936],[175.438,-36.8448,0.0],[175.439,-36.8403,15.1525],[175.4454,-36.8369,11.3547],[175.4456,-36.8409,3.6736],[175.4482,-36.8424,7.0978],[175.4499,-36.8394,42.8908],[175.4521,-36.843,0.0],[175.4527,-36.8402,9.2771],[175.4553,-36.8423,16.7177],[175.457,-36.8395,41.7891],[175.46,-36.8406,7.3893],[175.4737,-36.8377,10.3875],[175.4789,-36.8418,4.0377],[175.4786,-36.8449,2.1337],[175.4747,-36.8432,0.9449],[175.47,-36.8445,0.5693],[175.4689,-36.8464,0.6348],[175.4741,-36.8473,0.8951],[175.4733,-36.849,1.4845],[175.4732,-36.8485,1.4845],[175.4738,-36.8478,0.8951],[175.4736,-36.8474,0.8951],[175.4694,-36.8472,0.8059],[175.4679,-36.8461,0.4824],[175.4664,-36.8501,0.7373],[175.4684,-36.8529,6.2857],[175.4669,-36.8518,6.2857],[175.4649,-36.8532,13.9804],[175.4612,-36.8528,1.8751],[175.4551,-36.8507,0.7949],[175.4459,-36.8516,16.7182],[175.4436,-36.8501,12.1946],[175.4357,-36.8544,0.0],[175.4309,-36.853,45.8141],[175.4276,-36.8542,2.2478],[175.4258,-36.8535,2.2478],[175.4251,-36.8506,2.9011],[175.4197,-36.8494,0.0],[175.4185,-36.8522,27.6696],[175.4151,-36.8542,1.364],[175.413,-36.854,24.0965],[175.411,-36.8501,12.645],[175.4099,-36.8546,55.0226],[175.4063,-36.8537,0.0],[175.4093,-36.8591,8.1296],[175.4123,-36.8596,1.2412],[175.4136,-36.8679,16.8659],[175.4217,-36.8659,22.271],[175.4236,-36.8678,0.821],[175.4232,-36.8704,2.1338],[175.422,-36.871,2.1338],[175.4176,-36.871,6.4841],[175.4167,-36.8734,15.1097],[175.4229,-36.8793,6.3097],[175.4226,-36.8857,8.1584],[175.4261,-36.8865,18.8905],[175.427,-36.8961,16.2394],[175.4305,-36.9019,5.872],[175.4359,-36.9085,2.8831],[175.4423,-36.9123,43.5611],[175.4512,-36.9231,11.7524],[175.4673,-36.9366,3.674],[175.4695,-36.9414,0.6974],[175.4878,-36.9606,17.2855],[175.4905,-36.9616,5.3548],[175.4954,-36.9706,1.1142],[175.4995,-36.9742,0.7942],[175.5002,-36.9806,20.6199],[175.4979,-36.9843,1.5147],[175.5005,-36.9838,2.5443],[175.4996,-36.9864,0.0],[175.5093,-37.0032,7.0539],[175.51,-37.0133,0.0],[175.5122,-37.0146,75.6415],[175.5139,-37.023,1.1729],[175.5161,-37.0265,1.825],[175.5152,-37.0273,1.825],[175.5179,-37.0295,2.9894],[175.5178,-37.0321,0.0],[175.5197,-37.0341,1.6427],[175.5204,-37.0401,60.1186],[175.5172,-37.0459,1.3508],[175.5232,-37.052,31.6908],[175.5242,-37.0548,4.5929],[175.5244,-37.0615,1.4228],[175.5185,-37.0705,3.4205],[175.519,-37.0778,8.7988],[175.5153,-37.0842,0.0],[175.5159,-37.0901,0.0],[175.5141,-37.093,2.6008],[175.5164,-37.0968,35.9474],[175.5151,-37.102,8.0541],[175.518,-37.1043,8.6258],[175.5191,-37.1078,23.0171],[175.5179,-37.1125,0.0],[175.5251,-37.1168,4.3664],[175.5312,-37.124,30.9068],[175.5308,-37.1266,3.9836],[175.5279,-37.1279,0.0],[175.5296,-37.1332,0.0],[175.5339,-37.1322,2.87],[175.5391,-37.138,4.2493],[175.5375,-37.1387,0.0],[175.5411,-37.1455,3.1056],[175.5405,-37.1486,4.8949],[175.5451,-37.1585,1.8749],[175.5438,-37.1663,0.0],[175.54,-37.1687,0.0],[175.5557,-37.1801,0.0],[175.5628,-37.1906,0.0],[175.5618,-37.2105,0.0],[175.5685,-37.2215,0.0],[175.5708,-37.2396,0.0],[175.5729,-37.2419,0.0],[175.5786,-37.2437,0.0],[175.5947,-37.2385,0.0],[175.6134,-37.2397,0.0],[175.6178,-37.2434,0.6498],[175.616,-37.25,0.0],[175.5973,-37.2734,0.6383],[175.5968,-37.2784,0.0],[175.6111,-37.2876,1.4833],[175.6152,-37.2885,0.8012],[175.6255,-37.2846,0.4814],[175.6321,-37.2875,0.9724],[175.6337,-37.2843,1.5455],[175.6326,-37.2819,2.2994],[175.6367,-37.2801,1.8281],[175.6378,-37.2816,2.1257],[175.6351,-37.2822,2.0829],[175.6374,-37.2872,2.2382],[175.6416,-37.2874,2.6719],[175.641,-37.2896,3.0677],[175.6446,-37.2923,4.7143],[175.6443,-37.2941,4.4466],[175.6554,-37.2984,4.9209],[175.6585,-37.2977,6.5225],[175.6568,-37.2922,7.1828],[175.6615,-37.2932,10.8507],[175.6617,-37.2918,7.0898],[175.6643,-37.2915,8.4366],[175.6635,-37.2905,9.468],[175.6696,-37.2905,8.4796],[175.6718,-37.289,9.1725],[175.6756,-37.2912,10.1453],[175.6746,-37.2919,9.9192],[175.6765,-37.2945,10.5307],[175.6845,-37.2964,13.0234],[175.6909,-37.2955,14.0333],[175.6918,-37.2924,13.0174],[175.6934,-37.2928,12.2193],[175.6977,-37.2885,15.962],[175.6991,-37.2942,20.8878],[175.7045,-37.2909,48.5291],[175.7122,-37.2929,27.159],[175.7111,-37.2883,52.4773],[175.7125,-37.287,45.9369],[175.7201,-37.2881,35.5368],[175.7243,-37.2911,45.7996],[175.7265,-37.2897,46.211],[175.7309,-37.2926,48.3407],[175.7377,-37.2919,58.5989],[175.7408,-37.2942,61.3025],[175.7425,-37.2929,64.4705],[175.7428,-37.2896,76.924],[175.7463,-37.2897,108.6907],[175.7464,-37.2876,128.8652],[175.7513,-37.2877,105.7736],[175.7529,-37.2859,119.611],[175.7601,-37.2876,137.4681],[175.7674,-37.2865,171.1821],[175.7704,-37.289,189.3834],[175.7773,-37.2864,298.3318],[175.7785,-37.2782,509.4124],[175.8255,-37.2758,105.106],[175.828,-37.2729,108.5898],[175.8272,-37.2685,91.1542],[175.8291,-37.2637,60.0453],[175.8338,-37.2622,40.2642],[175.8373,-37.2569,92.8609],[175.8386,-37.2508,18.1475],[175.8445,-37.2447,7.1106],[175.8589,-37.2492,1.3735],[175.8606,-37.2451,3.0576],[175.8598,-37.2419,1.2635],[175.8549,-37.2374,1.4455],[175.859,-37.2322,0.0],[175.8692,-37.2268,0.0],[175.8782,-37.2303,18.0572]]],
[[[175.7493,-36.7914,0.0],[175.7491,-36.7916,0.0],[175.7496,-36.7916,0.0],[175.7497,-36.7915,0.0],[175.7493,-36.7914,0.0]]],
[[[175.7523,-36.7917,0.3537],[175.7531,-36.7912,0.0],[175.752,-36.7905,0.0],[175.7517,-36.7914,0.3537],[175.7523,-36.7917,0.3537]]],
[[[175.4852,-36.7796,0.0],[175.485,-36.7795,0.0],[175.4849,-36.7797,0.0],[175.4852,-36.7797,0.0],[175.4852,-36.7796,0.0]]],
[[[175.4154,-36.7573,15.1633],[175.4127,-36.7569,0.0],[175.4163,-36.7638,61.4178],[175.4147,-36.7694,0.0],[175.422,-36.7697,0.0],[175.4196,-36.7576,0.0],[175.4154,-36.7573,15.1633]]],
[[[175.4531,-36.7588,0.0],[175.4521,-36.7571,0.0],[175.4502,-36.759,0.0],[175.4517,-36.7596,0.0],[175.4531,-36.7588,0.0]]],
[[[175.4536,-36.7686,18.377],[175.4513,-36.7688,8.8246],[175.4509,-36.7718,38.4131],[175.449,-36.773,0.0],[175.4485,-36.7783,37.0593],[175.4445,-36.7742,0.0],[175.4402,-36.777,10.377],[175.4405,-36.779,17.0678],[175.4388,-36.7807,3.9521],[175.4429,-36.7857,13.8934],[175.4415,-36.7892,0.0],[175.4318,-36.7891,0.0],[175.4287,-36.7949,3.7477],[175.4342,-36.7962,8.4684],[175.441,-36.7913,6.7356],[175.443,-36.7932,0.0],[175.4434,-36.7896,0.0],[175.4472,-36.788,0.0],[175.4496,-36.791,3.1534],[175.4507,-36.7865,0.0],[175.4532,-36.7862,46.9231],[175.4573,-36.7891,12.0981],[175.4537,-36.7837,23.6561],[175.4561,-36.7778,33.9878],[175.4579,-36.7769,14.3666],[175.4559,-36.7753,15.9881],[175.4577,-36.772,14.8027],[175.4536,-36.7686,18.377]]],
[[[175.433,-36.7829,22.2821],[175.4314,-36.7775,28.9317],[175.4282,-36.7748,19.8283],[175.4248,-36.7806,31.833],[175.4293,-36.7842,11.575],[175.433,-36.7829,22.2821]]],
[[[175.4418,-36.7731,0.0],[175.4419,-36.7732,0.0],[175.4421,-36.7731,0.0],[175.442,-36.773,0.0],[175.4418,-36.7731,0.0]]],
[[[175.6123,-36.7548,0.8894],[175.6125,-36.7534,0.2531],[175.6107,-36.7558,0.3286],[175.6133,-36.7549,1.5835],[175.6123,-36.7548,0.8894]]],
[[[175.4211,-36.751,6.9235],[175.4196,-36.7504,6.9235],[175.4202,-36.7556,19.5019],[175.4223,-36.7566,0.0],[175.4227,-36.7537,21.5897],[175.4211,-36.751,6.9235]]],
[[[175.3925,-36.7509,0.0],[175.3925,-36.7502,0.0],[175.3915,-36.7504,0.0],[175.392,-36.751,0.0],[175.3925,-36.7509,0.0]]],
[[[175.4054,-36.7492,0.0],[175.4057,-36.7489,0.0],[175.4056,-36.7484,0.0],[175.4047,-36.749,0.0],[175.4054,-36.7492,0.0]]],
[[[175.8224,-36.748,1.7131],[175.8226,-36.748,1.7131],[175.823,-36.7477,1.0544],[175.8226,-36.7475,9.5973],[175.8224,-36.748,1.7131]]],
[[[175.8213,-36.7441,0.656],[175.8215,-36.744,0.656],[175.8218,-36.7435,0.656],[175.8212,-36.7436,0.656],[175.8213,-36.7441,0.656]]],
[[[175.412,-36.7414,0.0],[175.4121,-36.7417,0.0],[175.4124,-36.7419,0.0],[175.4122,-36.7414,0.0],[175.412,-36.7414,0.0]]],
[[[175.8271,-36.736,0.0],[175.8272,-36.736,0.0],[175.8279,-36.7357,0.0],[175.8265,-36.7361,14.5088],[175.8271,-36.736,0.0]]],
[[[175.4624,-36.7348,4.8664],[175.4611,-36.7346,4.8664],[175.4606,-36.7349,0.0],[175.4626,-36.7358,4.8664],[175.4624,-36.7348,4.8664]]],
[[[175.4167,-36.7411,0.0],[175.4176,-36.7415,0.0],[175.4174,-36.74,0.0],[175.4164,-36.7409,0.0],[175.4167,-36.7411,0.0]]],
[[[175.8338,-36.7306,0.0],[175.8338,-36.7305,0.0],[175.8335,-36.7303,0.0],[175.8335,-36.7305,0.0],[175.8338,-36.7306,0.0]]],
[[[175.8814,-36.726,3.1909],[175.8765,-36.7224,3.7196],[175.8761,-36.7267,0.0],[175.8822,-36.73,3.2676],[175.8856,-36.7339,3.1088],[175.8827,-36.7303,14.7243],[175.8841,-36.7281,15.2357],[175.8814,-36.726,3.1909]]],
[[[175.8386,-36.7303,11.5437],[175.8387,-36.7301,11.5437],[175.8385,-36.7301,11.5437],[175.8384,-36.7304,11.5437],[175.8386,-36.7303,11.5437]]],
[[[175.8378,-36.73,11.5437],[175.8376,-36.7302,11.5437],[175.8381,-36.7307,11.5437],[175.8382,-36.7299,11.5437],[175.8378,-36.73,11.5437]]],
[[[175.8369,-36.7295,0.0],[175.8373,-36.7283,9.2156],[175.8339,-36.7307,0.0],[175.8354,-36.7315,0.0],[175.8369,-36.7295,0.0]]],
[[[175.8358,-36.7284,0.0],[175.8358,-36.7285,0.0],[175.8359,-36.7285,0.0],[175.8358,-36.7284,0.0]]],
[[[175.8381,-36.7282,9.2156],[175.838,-36.7279,0.0],[175.8377,-36.7282,9.2156],[175.838,-36.7284,9.2156],[175.8381,-36.7282,9.2156]]],
[[[175.836,-36.7282,0.0],[175.8361,-36.728,0.0],[175.8358,-36.7283,0.0],[175.836,-36.7282,0.0]]],
[[[175.8437,-36.7327,0.0],[175.8427,-36.7324,0.0],[175.8431,-36.7337,0.0],[175.8436,-36.7336,0.4158],[175.8437,-36.7327,0.0]]],
[[[175.8223,-36.7476,9.5973],[175.8224,-36.7467,9.5973],[175.8211,-36.7473,9.5973],[175.822,-36.7477,9.5973],[175.8223,-36.7476,9.5973]]],
[[[175.8219,-36.7463,9.5973],[175.8216,-36.7463,9.5973],[175.8214,-36.7465,9.5973],[175.8217,-36.7466,9.5973],[175.8219,-36.7463,9.5973]]],
[[[175.819,-36.7459,32.8926],[175.8193,-36.7462,32.8926],[175.8193,-36.7455,32.8926],[175.8191,-36.7455,32.8926],[175.819,-36.7459,32.8926]]],
[[[175.8208,-36.743899999999996,0.656],[175.8188,-36.7435,5.0656],[175.8188,-36.7448,32.8926],[175.8211,-36.7465,9.5973],[175.8224,-36.7455,6.0862],[175.8208,-36.743899999999996,0.656]]],
[[[175.4035,-36.739,7.4557],[175.4015,-36.7385,17.5051],[175.3973,-36.742,17.0924],[175.3991,-36.7472,0.0],[175.4015,-36.7445,44.0097],[175.407,-36.7428,31.0013],[175.4109,-36.7436,0.0],[175.412,-36.7421,0.0],[175.4035,-36.739,7.4557]]],
[[[175.8222,-36.7179,1.7414],[175.8209,-36.7176,1.7414],[175.8206,-36.7178,1.9328],[175.8217,-36.7186,3.1161],[175.8222,-36.7179,1.7414]]],
[[[175.8819,-36.7183,1.5776],[175.8835,-36.7164,3.4297],[175.8831,-36.7143,0.0],[175.8805,-36.7184,1.5776],[175.8819,-36.7183,1.5776]]],
[[[175.8173,-36.7156,0.0],[175.817,-36.7152,0.0],[175.8167,-36.7152,0.0],[175.8167,-36.7157,0.0],[175.8173,-36.7156,0.0]]],
[[[175.8182,-36.713,5.8486],[175.8176,-36.7126,0.0],[175.8167,-36.7142,5.8486],[175.8194,-36.7139,0.0],[175.8182,-36.713,5.8486]]],
[[[175.8673,-36.7101,4.1757],[175.8657,-36.71,0.0],[175.8654,-36.7106,0.0],[175.868,-36.7117,0.0],[175.8673,-36.7101,4.1757]]],
[[[175.612,-36.7077,0.0],[175.612,-36.7082,0.0],[175.6126,-36.7081,0.0],[175.6122,-36.7076,0.0],[175.612,-36.7077,0.0]]],
[[[175.3909,-36.7036,0.0],[175.3907,-36.7026,0.0],[175.3885,-36.7033,0.0],[175.3897,-36.7038,0.0],[175.3909,-36.7036,0.0]]],
[[[175.3747,-36.6877,0.0],[175.3745,-36.6878,0.0],[175.375,-36.688,0.0],[175.375,-36.6878,0.0],[175.3747,-36.6877,0.0]]],
[[[175.3869,-36.7002,0.0],[175.3867,-36.7004,0.0],[175.3871,-36.7004,0.0],[175.387,-36.7002,0.0],[175.3869,-36.7002,0.0]]],
[[[175.3868,-36.699,0.0],[175.3875,-36.6989,0.0],[175.387,-36.6982,0.0],[175.3864,-36.699,0.0],[175.3868,-36.699,0.0]]],
[[[175.6105,-36.6881,0.0],[175.6101,-36.6869,0.0],[175.6095,-36.687,0.0],[175.6095,-36.6885,0.0],[175.6105,-36.6881,0.0]]],
[[[175.4137,-36.6863,0.0],[175.4134,-36.6862,0.0],[175.4133,-36.6864,0.0],[175.4138,-36.6865,0.0],[175.4137,-36.6863,0.0]]],
[[[175.4113,-36.6809,0.0],[175.4099,-36.6807,0.0],[175.4104,-36.6823,0.0],[175.4114,-36.6822,0.0],[175.4113,-36.6809,0.0]]],
[[[175.3905,-36.7006,0.0],[175.3897,-36.7001,0.0],[175.3895,-36.7002,0.0],[175.3898,-36.7009,0.0],[175.3905,-36.7006,0.0]]],
[[[175.3927,-36.6919,10.9871],[175.3914,-36.692,10.9871],[175.393,-36.6947,0.0],[175.3898,-36.6955,14.3323],[175.3914,-36.6985,23.5924],[175.3988,-36.7009,20.2426],[175.394,-36.6961,0.0],[175.3927,-36.6919,10.9871]]],
[[[175.852,-36.6574,7.1831],[175.8482,-36.656,0.0],[175.8473,-36.6594,0.0],[175.8445,-36.6613,0.0],[175.8512,-36.6601,1.2378],[175.8504,-36.6591,12.9509],[175.8526,-36.6586,7.129],[175.852,-36.6574,7.1831]]],
[[[175.3799,-36.6577,0.0],[175.3788,-36.6577,0.0],[175.3814,-36.6593,0.0],[175.3815,-36.6584,0.0],[175.3799,-36.6577,0.0]]],
[[[175.3702,-36.6512,0.0],[175.369,-36.6506,0.0],[175.3688,-36.6523,3.1158],[175.3706,-36.6523,0.0],[175.3702,-36.6512,0.0]]],
[[[175.3764,-36.6543,0.0],[175.3707,-36.6564,12.4396],[175.37,-36.6595,0.0],[175.3742,-36.6565,0.0],[175.3742,-36.6605,0.0],[175.3765,-36.657,0.0],[175.3764,-36.6543,0.0]]],
[[[175.8493,-36.6549,0.0],[175.849,-36.6552,0.0],[175.8497,-36.6557,0.0],[175.8497,-36.6553,0.0],[175.8493,-36.6549,0.0]]],
[[[175.8474,-36.6437,18.0478],[175.8468,-36.6443,18.0478],[175.8499,-36.6434,4.1092],[175.8492,-36.6427,0.0],[175.8474,-36.6437,18.0478]]],
[[[175.85,-36.6426,1.7951],[175.8498,-36.6423,1.7951],[175.8493,-36.6425,0.0],[175.8498,-36.6427,1.7951],[175.85,-36.6426,1.7951]]],
[[[175.3943,-36.6784,28.7869],[175.3907,-36.68,0.272],[175.3947,-36.6816,0.0],[175.3962,-36.6792,8.1935],[175.3943,-36.6784,28.7869]]],
[[[175.4015,-36.6747,19.2567],[175.3997,-36.6712,0.0],[175.3978,-36.674,0.0],[175.401,-36.6751,19.2567],[175.4008,-36.6772,0.0],[175.4073,-36.6789,0.0],[175.4045,-36.6754,9.9974],[175.4015,-36.6747,19.2567]]],
[[[175.7642,-36.609,0.2142],[175.7642,-36.6096,0.0],[175.7665,-36.609,0.0],[175.7649,-36.6091,0.2142],[175.7642,-36.609,0.2142]]],
[[[175.7597,-36.6107,0.0],[175.7594,-36.6105,0.0],[175.7592,-36.6107,0.0],[175.7597,-36.6108,0.0],[175.7597,-36.6107,0.0]]],
[[[175.8765,-36.6303,1.6013],[175.8779,-36.6318,0.0],[175.8771,-36.6302,1.6013],[175.8761,-36.63,0.0],[175.8765,-36.6303,1.6013]]],
[[[175.9384,-36.6196,10.9053],[175.9386,-36.6174,6.5552],[175.9352,-36.6157,10.0847],[175.93,-36.6175,4.5568],[175.9254,-36.6165,39.1358],[175.9227,-36.6181,0.0],[175.9259,-36.6217,26.8558],[175.9258,-36.6291,10.6724],[175.9275,-36.6304,0.0],[175.9392,-36.6287,11.8007],[175.9452,-36.6298,0.0],[175.9489,-36.6278,50.5361],[175.9477,-36.6244,5.6265],[175.9426,-36.6239,13.1068],[175.9411,-36.6251,54.6781],[175.9384,-36.6196,10.9053]]],
[[[175.9174,-36.6237,0.0],[175.9182,-36.6244,0.0],[175.9185,-36.6245,0.0],[175.9185,-36.6238,0.0],[175.9174,-36.6237,0.0]]],
[[[175.9044,-36.6221,29.4342],[175.901,-36.6216,0.0],[175.8998,-36.6244,5.8687],[175.9061,-36.6262,25.1045],[175.9142,-36.6255,19.3416],[175.9108,-36.6242,1.6896],[175.9078,-36.6257,0.0],[175.9044,-36.6221,29.4342]]],
[[[175.9471,-36.6228,0.0],[175.9466,-36.6223,0.0],[175.9465,-36.6224,0.0],[175.947,-36.623,5.6265],[175.9471,-36.6228,0.0]]],
[[[175.7505,-36.5953,0.0],[175.7504,-36.5951,0.0],[175.7502,-36.5953,0.0],[175.7503,-36.5954,0.0],[175.7505,-36.5953,0.0]]],
[[[175.7491,-36.5948,0.0],[175.7484,-36.5948,0.0],[175.7498,-36.5954,0.0],[175.7498,-36.5952,0.0],[175.7491,-36.5948,0.0]]],
[[[175.7498,-36.5881,5.0739],[175.7494,-36.5883,5.0739],[175.7501,-36.5887,5.0739],[175.7502,-36.5884,5.0739],[175.7498,-36.5881,5.0739]]],
[[[175.7979,-36.6036,0.5046],[175.7976,-36.6036,0.5046],[175.7975,-36.6038,0.5046],[175.7982,-36.6038,0.0],[175.7979,-36.6036,0.5046]]],
[[[175.7969,-36.5994,0.0],[175.7966,-36.6005,0.2101],[175.7979,-36.6004,0.2101],[175.7981,-36.5994,0.0],[175.7969,-36.5994,0.0]]],
[[[175.7552,-36.5842,0.0],[175.7542,-36.585,0.0],[175.7544,-36.5853,0.0],[175.7556,-36.5845,0.0],[175.7552,-36.5842,0.0]]],
[[[175.7648,-36.5837,0.0],[175.7649,-36.5841,0.0],[175.7663,-36.5846,0.0],[175.7659,-36.5842,0.0],[175.7648,-36.5837,0.0]]],
[[[175.7882,-36.5771,0.0],[175.788,-36.5767,0.0],[175.7878,-36.5769,0.0],[175.7881,-36.5772,0.0],[175.7882,-36.5771,0.0]]],
[[[175.7946,-36.5711,0.0],[175.7945,-36.5711,0.0],[175.7944,-36.5714,0.0],[175.7948,-36.5712,0.0],[175.7946,-36.5711,0.0]]],
[[[175.4727,-36.4987,0.5205],[175.4713,-36.4981,0.5205],[175.4711,-36.4983,0.5205],[175.4722,-36.5002,0.0],[175.4727,-36.4987,0.5205]]],
[[[175.4166,-36.4742,0.0],[175.4166,-36.4744,0.0],[175.4169,-36.4744,0.0],[175.417,-36.4742,0.0],[175.4166,-36.4742,0.0]]],
[[[175.4179,-36.4741,0.0],[175.4176,-36.4743,0.0],[175.4175,-36.4744,0.0],[175.4181,-36.4744,0.0],[175.4179,-36.4741,0.0]]],
[[[175.7941,-36.5711,0.0],[175.7943,-36.5709,0.0],[175.7942,-36.5708,0.0],[175.7941,-36.5709,0.0],[175.7941,-36.5711,0.0]]],
[[[175.4136,-36.471,1.0104],[175.4149,-36.471,1.0104],[175.4146,-36.4696,1.0104],[175.4137,-36.4697,1.0104],[175.4136,-36.471,1.0104]]],
[[[175.4016,-36.4674,0.0],[175.4007,-36.4673,0.1095],[175.402,-36.4689,0.0],[175.4023,-36.4681,0.0],[175.4016,-36.4674,0.0]]],
[[[175.7751,-36.5825,0.0],[175.7764,-36.583,17.2083],[175.7775,-36.5825,-0.5914],[175.7763,-36.5818,-0.5914],[175.7751,-36.5825,0.0]]],
[[[175.7742,-36.582,0.0],[175.7753,-36.582,0.0],[175.7753,-36.5817,0.0],[175.7744,-36.5816,0.0],[175.7742,-36.582,0.0]]],
[[[175.7752,-36.5811,0.0],[175.7749,-36.5809,0.0],[175.7745,-36.5811,0.0],[175.7748,-36.5814,0.0],[175.7752,-36.5811,0.0]]],
[[[175.7778,-36.6406,0.0],[175.7779,-36.6405,0.0],[175.7776,-36.6404,0.0],[175.7776,-36.6406,0.0],[175.7778,-36.6406,0.0]]],
[[[175.4387,-36.6405,0.0],[175.4383,-36.6402,0.0],[175.4382,-36.6403,0.0],[175.4385,-36.6407,0.0],[175.4387,-36.6405,0.0]]],
[[[175.7769,-36.6404,0.0],[175.7773,-36.6403,0.0],[175.7768,-36.6401,0.0],[175.7769,-36.6404,0.0]]],
[[[175.8938,-36.6342,0.0],[175.8938,-36.634,0.0],[175.8935,-36.6337,0.0],[175.8933,-36.6341,0.0],[175.8938,-36.6342,0.0]]],
[[[175.8892,-36.6345,0.0],[175.8846,-36.6334,29.9893],[175.8807,-36.6351,54.7047],[175.8821,-36.6382,20.4085],[175.881,-36.6412,34.2468],[175.8869,-36.6471,8.1266],[175.8904,-36.6483,0.0],[175.8916,-36.6435,0.0],[175.8875,-36.6391,34.2237],[175.8906,-36.6363,4.0403],[175.8892,-36.6345,0.0]]],
[[[175.8582,-36.638,2.125],[175.8584,-36.638,2.125],[175.8584,-36.6377,0.0],[175.8581,-36.6378,0.0],[175.8582,-36.638,2.125]]],
[[[175.8603,-36.6395,31.3846],[175.8624,-36.6362,0.0],[175.8609,-36.6346,9.9989],[175.8579,-36.6394,2.125],[175.862,-36.6407,0.0],[175.8603,-36.6395,31.3846]]],
[[[175.8787,-36.6338,0.16],[175.8786,-36.6345,0.16],[175.8789,-36.6348,0.0],[175.8793,-36.6344,0.16],[175.8787,-36.6338,0.16]]],
[[[175.7878,-36.5811,55.1177],[175.7888,-36.5801,0.0],[175.7871,-36.5773,0.0],[175.7719,-36.5864,31.9755],[175.7692,-36.5836,5.9915],[175.7644,-36.5875,2.2464],[175.7608,-36.5861,0.0],[175.7507,-36.5874,0.0],[175.7549,-36.5929,9.7551],[175.7518,-36.595,7.9135],[175.7571,-36.5953,34.5578],[175.7611,-36.5981,0.0],[175.7594,-36.6029,42.4927],[175.7673,-36.6052,1.0933],[175.7735,-36.6035,0.3746],[175.774,-36.6018,1.8848],[175.7709,-36.6009,9.3775],[175.7676,-36.5966,0.0],[175.7682,-36.5928,15.8999],[175.7706,-36.594,2.7427],[175.7727,-36.5916,6.394],[175.7731,-36.5986,0.0],[175.7779,-36.6007,42.8195],[175.7791,-36.6041,16.2988],[175.7827,-36.6031,0.0],[175.7805,-36.607,3.3315],[175.7834,-36.6059,4.6703],[175.7868,-36.6094,5.9095],[175.7883,-36.6171,20.9266],[175.7871,-36.6272,15.2776],[175.7858,-36.6292,55.1145],[175.7788,-36.6309,4.5989],[175.7784,-36.6335,29.4925],[175.7748,-36.6333,0.0],[175.7759,-36.6375,13.4197],[175.7776,-36.6385,0.0],[175.7788,-36.6364,0.0],[175.7822,-36.6377,5.8427],[175.7837,-36.6355,19.1982],[175.7901,-36.6389,0.0],[175.7901,-36.6371,2.5486],[175.7918,-36.6368,2.5486],[175.793,-36.6394,12.1166],[175.795,-36.639,12.2155],[175.7954,-36.6418,0.0],[175.797,-36.6388,16.3652],[175.8015,-36.6411,18.7267],[175.8016,-36.6394,44.5127],[175.8097,-36.6363,0.0],[175.8153,-36.6415,0.0],[175.8149,-36.6399,1.3421],[175.8171,-36.6395,36.8258],[175.8234,-36.6421,4.6878],[175.8278,-36.638,0.0],[175.8342,-36.637,13.5049],[175.8366,-36.6325,26.6515],[175.8319,-36.6295,17.5611],[175.8338,-36.6258,3.2286],[175.8319,-36.6248,34.8501],[175.8316,-36.6225,0.0],[175.8272,-36.6217,0.0],[175.8271,-36.6174,0.0],[175.8222,-36.6149,43.1213],[175.8114,-36.6147,130.3883],[175.8002,-36.6099,71.7057],[175.7971,-36.6074,2.0325],[175.7976,-36.6041,0.5046],[175.7949,-36.6073,7.9634],[175.7903,-36.6054,1.4402],[175.7913,-36.6014,9.2013],[175.795,-36.601,7.4946],[175.7949,-36.5972,0.0],[175.793,-36.5972,4.8943],[175.7925,-36.5941,0.0],[175.7856,-36.5964,10.2981],[175.7828,-36.5933,34.896],[175.7845,-36.5895,11.6032],[175.7866,-36.5888,0.0],[175.7845,-36.5868,3.2101],[175.7884,-36.5857,0.0],[175.7871,-36.5855,0.0],[175.7878,-36.5836,5.8549],[175.7857,-36.5828,21.7719],[175.7878,-36.5811,55.1177]]]]}}