{"type":"Feature","properties":{"GID_2":"NZL.17.1_1","GID_0":"NZL","country":"NewZealand","GID_1":"NZL.17_1","province":"Waikato","NL_NAME_1":"NA","county":"Hamilton","VARNAME_2":"NA","NL_NAME_2":"NA","TYPE_2":"City","ENGTYPE_2":"City","CC_2":"016","HASC_2":"NZ.WK.HM","name":"Hamilton.county"},
"geometry":{"type": "MultiPolygon","coordinates": [[[[175.2115,-37.821,54.086],[175.2118,-37.8324,52.3511],[175.2256,-37.8322,40.2985],[175.2273,-37.8246,40.2457],[175.2325,-37.8219,38.257],[175.2334,-37.8193,38.0397],[175.2268,-37.8175,55.9712],[175.2438,-37.8044,44.2118],[175.2659,-37.809,41.0608],[175.2681,-37.822,42.389],[175.2712,-37.8203,40.7879],[175.2719,-37.8243,42.036],[175.2795,-37.824,42.0544],[175.2847,-37.8264,46.8251],[175.283,-37.8289,42.9778],[175.2897,-37.8318,56.9185],[175.2923,-37.8318,55.1437],[175.2945,-37.8284,33.0831],[175.2968,-37.8278,40.1621],[175.2978,-37.8319,52.6228],[175.3055,-37.8408,68.156],[175.3068,-37.846,70.1912],[175.3081,-37.8459,70.1912],[175.309,-37.842,56.8312],[175.3146,-37.8361,74.1957],[175.32,-37.8335,63.7896],[175.3301,-37.824,21.7093],[175.3296,-37.8208,35.9357],[175.3234,-37.8146,17.6544],[175.3234,-37.8109,25.2901],[175.3249,-37.8136,28.4934],[175.3281,-37.8151,41.2952],[175.3315,-37.8096,39.834],[175.3303,-37.806399999999996,26.8791],[175.3317,-37.8057,32.4203],[175.3323,-37.8006,29.3218],[175.3343,-37.7991,29.6065],[175.3335,-37.7973,27.1897],[175.3354,-37.7958,33.6202],[175.3412,-37.7957,30.874],[175.3448,-37.7928,38.866],[175.3364,-37.785,41.6986],[175.3305,-37.7702,42.4357],[175.3159,-37.7594,39.7731],[175.3067,-37.7451,36.7227],[175.2934,-37.7482,36.9807],[175.2874,-37.7328,39.052],[175.2899,-37.7218,59.1343],[175.2864,-37.7226,43.9179],[175.2782,-37.7195,41.0348],[175.2792,-37.7169,46.2839],[175.2763,-37.7138,43.4158],[175.2622,-37.7097,53.2361],[175.2575,-37.7105,54.2159],[175.252,-37.7173,35.3973],[175.2486,-37.7184,40.3657],[175.2345,-37.7165,30.4426],[175.2278,-37.7198,24.5011],[175.2294,-37.7206,21.8187],[175.2279,-37.7229,15.4942],[175.2227,-37.7191,17.7226],[175.2189,-37.7135,14.6322],[175.216,-37.7027,21.3781],[175.2107,-37.6992,14.2882],[175.2074,-37.7078,23.4969],[175.2085,-37.7173,25.3387],[175.2072,-37.7253,31.3775],[175.2098,-37.7328,33.0647],[175.2066,-37.7359,29.8444],[175.2056,-37.7406,31.0002],[175.1843,-37.743,30.6373],[175.191,-37.7458,39.0858],[175.1908,-37.7502,30.9974],[175.1981,-37.751,37.7943],[175.1994,-37.7537,32.4129],[175.203,-37.7534,34.3946],[175.2066,-37.7572,42.6305],[175.2096,-37.7625,45.1914],[175.2021,-37.7644,23.4366],[175.206,-37.7694,30.8148],[175.2085,-37.7699,35.736],[175.2139,-37.7659,46.7078],[175.2182,-37.7672,52.9579],[175.2176,-37.7742,59.899],[175.2198,-37.78,50.224],[175.2185,-37.7825,55.9768],[175.2214,-37.783,36.0495],[175.2211,-37.7852,27.1353],[175.2236,-37.7847,27.6073],[175.2295,-37.7872,31.1229],[175.2281,-37.7967,33.6949],[175.233,-37.7973,40.226],[175.2316,-37.8033,62.9909],[175.2283,-37.807,54.8294],[175.2197,-37.8114,76.738],[175.2182,-37.8144,63.1876],[175.2113,-37.8144,34.8775],[175.2115,-37.821,54.086]]]]}}