{"type": "Feature","bbox": [179.0158,-47.7681,179.0658,-47.7469],"geometry": {"type": "MultiPolygon","coordinates": [[[[179.0628,-47.7666,2.6435],[179.0631,-47.7655,0.0],[179.0617,-47.7656,0.0],[179.0597,-47.7678,0.699],[179.0622,-47.7681,0.0],[179.0628,-47.7666,2.6435]]],
[[[179.0437,-47.7617,0.0],[179.0425,-47.76,0.0],[179.0394,-47.762,0.0],[179.0414,-47.7633,0.0],[179.0437,-47.7617,0.0]]],
[[[179.0603,-47.7614,0.0],[179.0621,-47.7616,0.0],[179.0658,-47.7589,0.0],[179.0622,-47.7597,0.0],[179.0603,-47.7614,0.0]]],
[[[179.0402,-47.7524,4.8368],[179.0426,-47.7512,0.0],[179.0344,-47.7519,0.0],[179.0346,-47.7529,0.0],[179.0402,-47.7524,4.8368]]],
[[[179.0222,-47.7553,0.0],[179.0237,-47.7567,0.0],[179.0268,-47.7547,0.0],[179.0245,-47.7541,0.0],[179.0222,-47.7553,0.0]]],
[[[179.021,-47.754,0.4011],[179.0184,-47.7534,1.2243],[179.0158,-47.7547,0.0],[179.0168,-47.7553,0.0],[179.021,-47.754,0.4011]]],
[[[179.0291,-47.7501,0.0],[179.0292,-47.749,0.0],[179.023,-47.7496,23.1528],[179.0206,-47.7516,12.4757],[179.0223,-47.7531,0.4011],[179.0337,-47.7512,0.0],[179.0301,-47.7514,1.4896],[179.0291,-47.7501,0.0]]],
[[[179.019,-47.749,0.5297],[179.0222,-47.7489,2.4828],[179.0242,-47.7475,0.3958],[179.0213,-47.7469,14.6207],[179.019,-47.749,0.5297]]]]}
,"properties": {"GID_2": "NZL.13.3_1","GID_0": "NZL","country": "NewZealand","GID_1": "NZL.13_1","province": "SouthernIslands","NL_NAME_1": "NA","county": "BountyIslands","VARNAME_2": "NA","NL_NAME_2": "NA","TYPE_2": "Territory","ENGTYPE_2": "Territory","CC_2": "NZ.02.04","HASC_2": "NA","name": "Bounty_Islands.county","area_km2": 0.5416676,"hist_schema_id": "Elevation0-9000","hist_area_km2": {"0": 0.4418803,"25": 0.0997873}}}