{"type": "Feature","id": "5473","bbox": [179.04086,-47.7164,179.09628,-47.69126],"geometry": {"type": "MultiPolygon","coordinates": [[[[179.07219,-47.71364,0.0],[179.06804,-47.71144,0.0],[179.06837,-47.71413,0.0],[179.07252,-47.7164,0.0],[179.07219,-47.71364,0.0]]],
[[[179.09628,-47.70436,0.0],[179.0949,-47.70477,0.0],[179.09571,-47.70802,0.0],[179.09628,-47.70436,0.0]]],
[[[179.09604,-47.69874,0.0],[179.0949,-47.69948,0.0],[179.0962,-47.70127,0.0],[179.09604,-47.69874,0.0]]],
[[[179.06398,-47.69525,0.0],[179.06121,-47.69394,0.0],[179.05307,-47.69598,0.0],[179.0534,-47.69956,0.0],[179.06398,-47.69525,0.0]]],
[[[179.04217,-47.69183,0.0],[179.04086,-47.69126,0.0],[179.04135,-47.69321,0.0],[179.04217,-47.69183,0.0]]]]}
,"properties": {"ISO3166-1-Alpha-3": "NZL","country": "New Zealand","fill": "#F0F","name": "Bounty Islands","area_km2": 0.3709887,"hist_schema_id": "Elevation0-9000","hist_area_km2": {"0": 0.3709887}}}