{"type":"Feature","properties":{"ISO3166-1-Alpha-3":"NZL","country":"New Zealand","fill":"#FF0","id":"3405","name":"Taranaki"},
"geometry":{"type": "Polygon","coordinates": [[[174.77644,-38.74022,257.7504],[174.68849,-38.73577,161.9841],[174.61761,-38.70736,3.1095],[174.61761,-38.70737,3.1095],[174.61354,-38.71453,30.491],[174.61362,-38.74529,48.8424],[174.6115,-38.7584,120.7026],[174.60222,-38.782,94.9066],[174.594,-38.81862,37.0115],[174.57887,-38.83945,209.123],[174.45899,-38.93727,0.0],[174.41505,-38.96307,0.0],[174.36671,-38.97568,0.0],[174.23357,-38.96819,0.0],[174.2116,-38.97332,0.0],[173.95574,-39.0984,0.0],[173.85271,-39.13445,0.0],[173.80714,-39.16302,0.0],[173.7776,-39.2077,0.0],[173.76441,-39.25547,-0.7639],[173.75929,-39.30136,8.4175],[173.76531,-39.34694,0.0],[173.78443,-39.39324,8.0355],[173.81471,-39.43336,0.0],[173.85125,-39.46396,0.0],[173.98658,-39.54225,44.0495],[174.04461,-39.55755,43.6913],[174.2151,-39.57855,64.2649],[174.26905,-39.59189,103.7054],[174.31902,-39.61386,86.2958],[174.35987,-39.64715,57.838],[174.41814,-39.71852,38.8459],[174.43727,-39.73691,35.0177],[174.54371,-39.81463,0.0],[174.56764,-39.82676,0.0],[174.59327,-39.83148,0.0],[174.65455,-39.83636,7.6131],[174.73504,-39.85947,23.276],[174.77231,-39.85914,27.9282],[174.77233,-39.85914,27.9282],[174.79928,-39.82041,117.4128],[174.81985,-39.80388,175.4465],[174.84528,-39.7923,274.1307],[174.87029,-39.76941,313.5524],[174.89902,-39.75101,459.8865],[174.92145,-39.74522,394.8869],[174.93809,-39.72858,532.3467],[174.9353,-39.71463,366.5372],[174.93571,-39.69525,284.735],[174.94036,-39.68802,399.1719],[174.95059,-39.6845,377.2115],[174.97302,-39.67923,340.9563],[174.99204,-39.66611,354.4319],[174.9848,-39.65655,425.9559],[174.97622,-39.64807,432.3312],[174.97715,-39.60172,474.585],[174.99276,-39.5566,635.8584],[174.98367,-39.52689,559.4584],[174.96961,-39.4963,471.3504],[174.92351,-39.46467,435.1216],[174.89375,-39.43584,386.6942],[174.88496,-39.41527,485.2753],[174.88403,-39.3932,515.8864],[174.89003,-39.38349,535.7545],[174.89447,-39.3732,602.6981],[174.88951,-39.35873,693.0901],[174.86915,-39.35031,625.7588],[174.82409,-39.32566,385.7123],[174.82667,-39.31192,409.7284],[174.83701,-39.29693,189.1144],[174.85344,-39.26386,252.2551],[174.88145,-39.24014,169.816],[174.9045,-39.23678,215.1625],[174.92196,-39.23058,252.9477],[174.94232,-39.1959,232.5288],[175.02656,-39.10986,315.1131],[175.03855,-39.10702,181.2879],[175.05488,-39.11167,161.5616],[175.06769,-39.10526,102.2667],[175.05705,-39.08805,225.413],[175.0372,-39.07436,143.8104],[174.97095,-39.06175,221.017],[174.97116,-39.0309,248.7966],[174.95555,-39.00532,213.8952],[174.91494,-38.9985,317.4478],[174.89261,-38.97876,285.9369],[174.88248,-38.9508,219.6055],[174.88548,-38.91778,393.6229],[174.86967,-38.8939,387.2464],[174.83525,-38.90662,444.6404],[174.80828,-38.87318,448.9034],[174.79877,-38.83463,427.3539],[174.82078,-38.79944,437.6964],[174.82461,-38.79551,422.2133],[174.83008,-38.79117,443.8064],[174.85117,-38.78559,486.2834],[174.86832,-38.77706,451.9254],[174.84063,-38.76296,416.2932],[174.82244,-38.74714,370.2745],[174.81045,-38.73882,296.1993],[174.79629,-38.73583,260.3546],[174.77644,-38.74022,257.7504]]]}}