{"type":"Feature","properties":{"featurecla":"River","scalerank":9,"rivernum":2026,"dissolve":"2026River","name":"Patea","name_alt":null,"note":null,"min_zoom":7.1,"strokeweig":0.2,"name_en":"Patea","min_label":8.1},
"geometry":{"type": "LineString","coordinates": [[174.18493549902038,-39.322669231682369,520.0576],[174.18922091922661,-39.323046152006434,500.988],[174.19587437109743,-39.326388351085718,482.5188],[174.20729355128498,-39.32759525630879,452.1652],[174.22038383101219,-39.330658938798138,420.0111],[174.2465643904666,-39.339231060510748,368.5263],[174.272744949921,-39.341613924669133,327.096],[174.30319609708783,-39.340190395431655,286.7344],[174.32461092822547,-39.338302671877614,258.5966],[174.34031616926933,-39.337343336956707,245.8118],[174.35267921123392,-39.343037453906604,232.0609],[174.35696527209024,-39.352568910540121,221.978],[174.3650577263424,-39.3549517746985,203.0479],[174.37457370983202,-39.3539924397776,204.2198],[174.38314583154462,-39.349226711460837,209.7815],[174.39504467919264,-39.348762517144266,181.692],[174.40646385938021,-39.351609575619214,173.0761],[174.41265311693445,-39.354456634094163,174.0607],[174.41550017540939,-39.363492950123344,168.2454],[174.41788303956776,-39.365875814281722,175.0753],[174.425016158899,-39.369218013361007,159.0327],[174.43549147730954,-39.3735195473612,161.6182],[174.43691500654703,-39.379677858627666,143.6057],[174.44452779333875,-39.38255586339038,129.9477],[174.45262024759089,-39.386362256786235,137.1547],[174.4559469735263,-39.392056373736125,106.218],[174.45928917260557,-39.401092689765306,135.2868],[174.47213188203062,-39.406817753002976,110.9958],[174.47928047450574,-39.416813403953057,97.8382],[174.47928047450574,-39.426809054903146,89.7432],[174.47737727780782,-39.43488603601142,92.9495],[174.47785694526829,-39.444881686961509,108.4419],[174.48355106221817,-39.458219536990875,81.8323],[174.4887809848515,-39.466791658703492,84.6007],[174.49069965469332,-39.476756363365809,78.0],[174.49688891224753,-39.482481426603471,82.6051],[174.4997359707225,-39.491981936949216,157.7969],[174.50544556081627,-39.493436412474466,79.4721],[174.51115515091004,-39.498171194503449,108.3425],[174.51069095659349,-39.504855592662025,97.1646],[174.51592087922683,-39.506279121899496,91.1855],[174.51924760516221,-39.5129325737703,77.0],[174.52305399855805,-39.517234107770491,77.0],[174.52829939433528,-39.520081166245433,102.7529],[174.53637637544355,-39.520545360562004,76.5],[174.54304530045823,-39.523887559641288,144.1354],[174.55398481318534,-39.526270423799666,84.9606],[174.559709876423,-39.53292387567047,96.8424],[174.56540399337291,-39.536730269066325,113.696],[174.56446013159587,-39.540536662462173,75.0],[174.56351626981888,-39.545302390778936,106.4236],[174.56255693489794,-39.550068119095691,93.6778],[174.56398046413543,-39.555762236045588,73.2772],[174.56017407073958,-39.560992158678914,30.8187],[174.56303660235841,-39.565757886995677,36.1665],[174.56493979905633,-39.572411338866473,34.5447],[174.56351626981888,-39.576712872866665,68.668],[174.55779120658121,-39.591938446450079,46.4908],[174.55352061886879,-39.599087038925219,62.2731],[174.54827522309157,-39.600015427558354,39.7463],[174.54590783207706,-39.6081233549544,37.6173],[174.54114210376031,-39.610970413429349,19.456],[174.54637202639364,-39.615736141746105,60.6436],[174.54923455801247,-39.621430258696,23.2912],[174.55590348302715,-39.63238524456699,45.5178],[174.559709876423,-39.6399980313587,46.8174],[174.56017407073958,-39.648570153071311,81.3538],[174.55636767734373,-39.654264270021208,104.1151],[174.55208161648741,-39.661877056812912,81.491],[174.54494849715616,-39.667137925734011,22.327],[174.53591218112697,-39.669520789892388,38.6408],[174.53114645281022,-39.677597771000663,67.8055],[174.52449300093943,-39.686169892713274,29.9013],[174.51544121176636,-39.686169892713274,58.6924],[174.50211883488089,-39.690904674742264,11.2414],[174.49592957732665,-39.699476796454874,46.999],[174.49592957732665,-39.706161194613451,68.9494],[174.49069965469332,-39.708544058771828,44.094],[174.48355106221817,-39.712350452167684,8.961],[174.47737727780782,-39.721386768196858,27.7897],[174.47547408110989,-39.731846613463517,8.8993],[174.47593827542647,-39.73803587101775,17.7135],[174.47974466882232,-39.751373721047116,1.9952],[174.48831679053492,-39.76517576539306,15.3976],[174.48693968072911,-39.77319085392579,0.0],[174.48724914360682,-39.773407477940189,0.0]]}}