{"type":"Feature","properties":{"featurecla":"River","scalerank":9,"rivernum":2026,"dissolve":"2026River","name":"Patea1","name_alt":null,"note":null,"min_zoom":7.1,"strokeweig":0.15,"name_en":"Patea","min_label":8.1},
"geometry":{"type": "LineString","coordinates": [[174.10213806543857,-39.309027483646091,1112.3732],[174.10783218238845,-39.309955872279225,1018.6366],[174.11878716825947,-39.312586306739774,875.8459],[174.13354854752629,-39.316145129833458,744.397],[174.1468554512679,-39.320663287848049,660.3812],[174.15829010459936,-39.322581957689863,612.3057],[174.17303601072231,-39.321622622768956,556.7785],[174.18493549902038,-39.322669231682369,520.0576]]}}