{"type": "Feature","bbox": [173.7515,-39.8684,175.0695,-38.7066],"geometry": {"type": "MultiPolygon","coordinates": [[[[174.8771,-39.4047,560.5229],[174.8766,-39.4032,540.8513],[174.8713,-39.401,550.2543],[174.8699,-39.3955,584.6532],[174.8659,-39.389,657.8186],[174.8702,-39.3905,609.3304],[174.8729,-39.3887,613.999],[174.8766,-39.3917,647.3458],[174.8795,-39.3902,641.9264],[174.8848,-39.3817,639.5466],[174.8819,-39.3784,653.0752],[174.8892,-39.3737,654.5083],[174.8904,-39.3688,681.4456],[174.8882,-39.3647,684.7467],[174.8916,-39.3581,695.8918],[174.8883,-39.3562,660.1243],[174.8871,-39.3535,649.6663],[174.8833,-39.3528,611.4591],[174.8804,-39.3534,636.5231],[174.8769,-39.3568,703.682],[174.8769,-39.3537,690.8004],[174.872,-39.3518,700.2731],[174.8707,-39.3468,683.4757],[174.8642,-39.3434,670.7268],[174.8614,-39.3437,682.8726],[174.8588,-39.3409,656.0803],[174.8539,-39.3413,674.5179],[174.8544,-39.3399,695.3205],[174.8502,-39.3368,668.3892],[174.8425,-39.3359,642.9185],[174.8384,-39.337,685.3431],[174.8271,-39.3325,531.269],[174.8228,-39.334,626.3671],[174.8207,-39.3311,624.8162],[174.8226,-39.3298,607.2065],[174.8198,-39.3261,522.6481],[174.8204,-39.3228,503.5864],[174.8152,-39.318,627.1151],[174.8148,-39.3143,683.2902],[174.8129,-39.3136,701.9964],[174.8179,-39.31,494.8912],[174.8202,-39.3017,355.7634],[174.8309,-39.2962,199.728],[174.832,-39.2926,254.2967],[174.838,-39.2878,164.2944],[174.8407,-39.2764,97.6214],[174.8455,-39.2704,192.3856],[174.8452,-39.2643,286.3326],[174.8471,-39.2599,348.5797],[174.8518,-39.2618,296.475],[174.8556,-39.2614,336.1277],[174.862,-39.2555,221.7248],[174.865,-39.2469,338.5315],[174.8627,-39.2445,306.4554],[174.8644,-39.2428,316.6061],[174.8615,-39.24,302.5642],[174.8618,-39.2357,299.3569],[174.8596,-39.2321,205.9914],[174.8614,-39.2305,124.8372],[174.8682,-39.2318,95.97],[174.8731,-39.2368,128.4963],[174.8804,-39.2367,90.8105],[174.8795,-39.238,97.9183],[174.8885,-39.2412,86.3487],[174.8929,-39.2375,109.9367],[174.8947,-39.2327,81.8465],[174.893,-39.229,73.7063],[174.8959,-39.2267,71.0436],[174.9102,-39.234,71.6674],[174.9147,-39.2335,69.177],[174.9149,-39.2252,113.7272],[174.9229,-39.2197,79.9506],[174.9344,-39.1989,82.9442],[174.9419,-39.1932,134.689],[174.9504,-39.1836,133.0651],[174.9496,-39.1811,102.4743],[174.9416,-39.1805,151.8365],[174.941,-39.1777,138.9063],[174.9457,-39.1741,117.7958],[174.9588,-39.171,84.919],[174.9577,-39.1687,103.8062],[174.9502,-39.1659,196.9599],[174.9499,-39.1633,152.2601],[174.9533,-39.1621,82.1779],[174.963,-39.1627,93.3478],[174.9817,-39.1568,95.991],[174.9841,-39.1545,145.889],[174.9846,-39.1499,134.447],[174.9779,-39.1396,94.6231],[174.98,-39.1387,94.8911],[174.9898,-39.1402,99.2037],[174.9939,-39.1381,143.4814],[174.989,-39.1325,93.3202],[174.9915,-39.1254,105.1983],[174.9818,-39.117,88.5761],[174.983,-39.1121,125.3084],[174.9926,-39.1138,87.2108],[174.994,-39.1255,122.108],[174.9961,-39.128,105.8801],[175.0002,-39.1288,105.6125],[175.0033,-39.1272,129.9961],[175.0046,-39.1235,114.6416],[174.9966,-39.113,107.0975],[174.998,-39.1106,121.5437],[175.001,-39.1106,105.0129],[175.0056,-39.1154,97.9975],[175.0097,-39.1166,124.4348],[175.0195,-39.1091,108.5401],[175.0233,-39.1033,96.4212],[175.0266,-39.1019,101.7253],[175.0471,-39.1067,111.3446],[175.0579,-39.1122,95.471],[175.0678,-39.1091,93.224],[175.0695,-39.1076,98.0464],[175.0692,-39.105,102.2667],[175.0595,-39.0949,108.183],[175.043,-39.0834,100.4483],[175.0426,-39.0763,114.1847],[175.0473,-39.0704,145.0776],[175.012,-39.0658,455.8284],[175.0108,-39.0694,422.5034],[175.0031,-39.0678,452.5169],[175.0014,-39.0707,451.5417],[174.9973,-39.0726,444.3797],[174.9851,-39.069,391.126],[174.9837,-39.0652,337.9746],[174.9805,-39.0653,327.0275],[174.9761,-39.0628,259.0587],[174.9633,-39.0663,169.3632],[174.9599,-39.0622,154.1429],[174.9633,-39.0599,179.4597],[174.9594,-39.0584,155.9634],[174.9615,-39.053,175.3236],[174.9634,-39.0521,159.2371],[174.9667,-39.0549,191.1404],[174.9653,-39.0521,163.1531],[174.9706,-39.0521,162.1315],[174.9707,-39.05,157.4313],[174.976,-39.0476,155.9331],[174.9738,-39.0435,164.6942],[174.9765,-39.042,168.7272],[174.9733,-39.0386,166.92],[174.9734,-39.0355,163.0079],[174.9682,-39.0336,177.4141],[174.9682,-39.0321,164.272],[174.9657,-39.0313,179.8711],[174.9654,-39.0283,155.177],[174.9625,-39.028,184.7405],[174.9651,-39.0235,159.0505],[174.9604,-39.0233,172.1393],[174.9585,-39.0104,175.832],[174.9609,-39.0036,182.2751],[174.9599,-39.0016,153.8885],[174.9549,-38.9994,155.035],[174.9564,-38.9977,175.9259],[174.9609,-38.9978,181.5021],[174.9603,-38.9949,156.8225],[174.952,-38.9988,161.2763],[174.9405,-38.9954,221.8839],[174.9266,-39.0041,210.4659],[174.924,-39.0102,243.5736],[174.9146,-39.0108,343.6126],[174.9136,-39.0075,356.5802],[174.9164,-38.9993,350.7271],[174.9109,-38.992,413.0482],[174.911,-38.9892,398.388],[174.9066,-38.9885,384.9077],[174.8957,-38.9914,358.9473],[174.8932,-38.9905,394.0263],[174.8904,-38.9926,375.3043],[174.885,-38.9916,356.9786],[174.8823,-38.9931,315.718],[174.8777,-38.9886,357.2523],[174.8751,-38.9909,358.1733],[174.8689,-38.9891,483.8481],[174.8762,-38.9862,328.0121],[174.8756,-38.9831,268.3129],[174.8791,-38.9794,352.1242],[174.8811,-38.972,190.6375],[174.8855,-38.969,203.5635],[174.8837,-38.9657,191.791],[174.8798,-38.9669,333.3826],[174.8772,-38.9642,272.6317],[174.8772,-38.9601,273.5565],[174.8801,-38.9582,265.7918],[174.8802,-38.9558,275.1577],[174.8863,-38.9546,221.2393],[174.8841,-38.9527,212.3449],[174.8845,-38.9492,203.4241],[174.8824,-38.9464,213.6267],[174.8759,-38.9451,218.6214],[174.8744,-38.939,233.0958],[174.8781,-38.9332,242.8227],[174.8724,-38.9322,253.1705],[174.8713,-38.9284,268.9605],[174.8739,-38.9257,249.9397],[174.8808,-38.9285,241.1701],[174.884,-38.9277,244.8767],[174.8812,-38.9231,267.6317],[174.8743,-38.9204,276.8211],[174.8804,-38.9201,358.6373],[174.8811,-38.9159,276.5336],[174.8842,-38.9126,270.455],[174.8781,-38.9081,334.6657],[174.8791,-38.9041,281.5988],[174.8739,-38.9021,288.2202],[174.8691,-38.9046,321.0415],[174.8669,-38.9039,283.517],[174.8669,-38.9015,292.2923],[174.8746,-38.8987,315.1349],[174.8709,-38.8932,311.9336],[174.8714,-38.8906,294.7271],[174.8631,-38.89,301.5995],[174.8625,-38.8944,372.7051],[174.8567,-38.8954,394.1616],[174.8553,-38.8919,399.4423],[174.8566,-38.8887,397.9255],[174.8522,-38.891,406.9367],[174.8513,-38.898,404.4104],[174.8466,-38.8984,408.7099],[174.8499,-38.8955,410.7241],[174.8466,-38.8944,407.5104],[174.845,-38.8968,407.6411],[174.8349,-38.9002,421.9022],[174.8349,-38.9023,425.6175],[174.8319,-38.9044,447.1304],[174.8319,-38.9069,477.6539],[174.8282,-38.9079,497.2255],[174.8276,-38.9099,452.9777],[174.8252,-38.9047,525.351],[174.8269,-38.9,455.3439],[174.8237,-38.898,473.9255],[174.8246,-38.8956,461.0904],[174.8196,-38.8944,450.4069],[174.8217,-38.8913,455.3909],[174.8202,-38.8902,461.2254],[174.8207,-38.8867,469.3295],[174.8174,-38.8874,416.4432],[174.8118,-38.8841,466.9981],[174.8125,-38.8827,444.867],[174.8076,-38.8819,457.0615],[174.8059,-38.8775,435.0876],[174.8076,-38.8759,454.4126],[174.8035,-38.871,433.2322],[174.8066,-38.8695,402.8743],[174.7988,-38.8653,447.4045],[174.7995,-38.8617,471.6699],[174.7967,-38.859,465.7152],[174.7998,-38.8541,439.6913],[174.7995,-38.8512,418.137],[174.797,-38.8494,468.7923],[174.7996,-38.8452,450.1029],[174.7984,-38.843,415.7936],[174.7997,-38.8392,420.3651],[174.7983,-38.8376,426.6971],[174.7997,-38.8327,427.9383],[174.7973,-38.8316,439.1829],[174.7993,-38.8289,434.2124],[174.7913,-38.8267,415.1903],[174.7867,-38.8224,420.5424],[174.7866,-38.821,440.4203],[174.8078,-38.82,395.7809],[174.8159,-38.8034,400.2086],[174.8145,-38.8006,418.0579],[174.8184,-38.7965,401.3666],[174.8169,-38.7941,406.1833],[174.8206,-38.795,401.3333],[174.8218,-38.7939,403.6906],[174.8207,-38.7935,399.4285],[174.8222,-38.7921,402.1898],[174.819,-38.7904,402.5297],[174.8208,-38.7883,401.4764],[174.82,-38.787,403.1678],[174.8263,-38.7857,418.0935],[174.8315,-38.7819,416.001],[174.832,-38.7835,404.9158],[174.8371,-38.783,403.6297],[174.8485,-38.7786,425.0327],[174.8505,-38.7796,426.0877],[174.8493,-38.7811,419.7795],[174.8508,-38.783,449.5656],[174.8562,-38.7828,478.0988],[174.8616,-38.7795,478.7365],[174.8629,-38.7746,504.9176],[174.8504,-38.7729,477.4863],[174.8434,-38.7668,467.1306],[174.8344,-38.7644,482.6702],[174.8282,-38.761,412.9957],[174.8277,-38.7585,389.7803],[174.8254,-38.7586,395.2216],[174.8275,-38.7567,401.64],[174.8249,-38.7533,387.9746],[174.8242,-38.748,384.0465],[174.8185,-38.747,354.438],[174.8164,-38.7453,363.1248],[174.8154,-38.7409,365.166],[174.8124,-38.7412,337.2157],[174.8074,-38.7359,335.905],[174.8038,-38.7365,316.7971],[174.7942,-38.731,308.5086],[174.7905,-38.7336,330.2162],[174.7811,-38.735,261.9801],[174.7741,-38.7389,325.7819],[174.7744,-38.7365,327.4851],[174.7674,-38.7373,313.3154],[174.763,-38.7394,326.9563],[174.761,-38.7431,327.7195],[174.7564,-38.745,340.2637],[174.7514,-38.7433,306.4686],[174.7511,-38.7444,306.4686],[174.7481,-38.7441,289.1486],[174.7486,-38.743,289.1486],[174.744,-38.7408,322.6027],[174.7376,-38.7341,313.2941],[174.728,-38.7334,279.0505],[174.7258,-38.7353,260.1115],[174.7089,-38.7319,216.2851],[174.7035,-38.7326,220.2356],[174.7022,-38.7307,249.3751],[174.6934,-38.7337,250.6004],[174.6875,-38.7278,278.1169],[174.6663,-38.7289,192.4936],[174.6616,-38.732,189.4658],[174.6578,-38.7315,193.2919],[174.654,-38.7332,200.4114],[174.6459,-38.726,177.0768],[174.6472,-38.721,181.8049],[174.6169,-38.7229,52.9055],[174.6135,-38.7142,30.491],[174.6149,-38.7066,15.4548],[174.6122,-38.7071,3.8834],[174.6095,-38.7152,27.0834],[174.6087,-38.7281,0.0],[174.6105,-38.7336,5.0007],[174.6074,-38.7368,0.0],[174.6051,-38.7537,19.163],[174.6033,-38.7575,13.2612],[174.6046,-38.7574,13.2612],[174.6014,-38.7622,15.0875],[174.602,-38.7669,23.3845],[174.5995,-38.7674,0.0],[174.5951,-38.7855,12.5741],[174.5919,-38.7949,16.6104],[174.5899,-38.7958,0.0],[174.5912,-38.7965,25.8598],[174.5905,-38.7992,21.3597],[174.5922,-38.8005,10.1546],[174.5883,-38.8016,16.6642],[174.5884,-38.8049,31.3542],[174.5843,-38.8125,24.6741],[174.5854,-38.8139,5.9707],[174.5903,-38.8121,43.0091],[174.5939,-38.8155,13.137],[174.5931,-38.8172,2.5611],[174.5851,-38.8164,30.9361],[174.5821,-38.8179,11.3912],[174.5774,-38.8278,3.0033],[174.5736,-38.8313,0.0],[174.5717,-38.8369,0.0],[174.567,-38.8417,8.2595],[174.56,-38.8559,14.0033],[174.5361,-38.8781,24.986],[174.5174,-38.892,6.6722],[174.5119,-38.8934,28.1962],[174.5077,-38.8903,4.0755],[174.4988,-38.8961,0.0],[174.4948,-38.9028,0.0],[174.479,-38.9156,13.4255],[174.473,-38.9249,15.2005],[174.4432,-38.9549,29.4683],[174.4381,-38.9633,0.375],[174.4352,-38.9633,1.6962],[174.4226,-38.9728,0.0],[174.4134,-38.9774,3.7406],[174.4069,-38.9833,10.441],[174.3997,-38.9864,33.5907],[174.3909,-38.9889,2.9286],[174.3873,-38.9871,0.0],[174.3816,-38.9871,4.0631],[174.3647,-38.9926,2.7498],[174.3615,-38.9921,15.6755],[174.3613,-38.9908,0.0],[174.348,-38.994,6.7742],[174.3366,-38.9935,13.48],[174.3217,-38.99,19.0386],[174.3123,-38.9829,0.0],[174.3022,-38.9825,0.0],[174.2844,-38.9863,30.0564],[174.2668,-38.9868,11.0254],[174.2419,-38.9817,0.0],[174.2277,-38.9879,0.0],[174.2007,-38.9884,5.3609],[174.1856,-38.9954,2.6624],[174.1794,-38.9963,12.5636],[174.1716,-39.0054,15.8251],[174.1581,-39.0147,3.4466],[174.1457,-39.0193,0.0],[174.1377,-39.0184,2.7066],[174.1224,-39.03,4.2299],[174.107,-39.0362,0.0327],[174.0889,-39.0512,2.8233],[174.0834,-39.0503,7.5053],[174.072,-39.0558,0.859],[174.0632,-39.055,5.5576],[174.0518,-39.0582,13.6194],[174.0446,-39.0549,0.0],[174.0506,-39.0582,4.8409],[174.0433,-39.0593,0.5844],[174.0429,-39.0607,5.4451],[174.0369,-39.0594,2.674],[174.0385,-39.0566,1.8245],[174.0332,-39.0576,0.4627],[174.0361,-39.0558,0.0],[174.0313,-39.0569,2.9649],[174.0393,-39.0518,0.0],[174.0308,-39.0551,4.618],[174.0305,-39.0555,3.7065],[174.0294,-39.0544,0.0],[174.0249,-39.0568,1.9151],[174.0245,-39.0587,20.9828],[174.0164,-39.061,1.6294],[174.019,-39.0622,0.0],[174.0175,-39.0683,0.0],[174.0192,-39.0678,0.0],[174.0201,-39.0698,20.8801],[174.0181,-39.0696,2.6072],[174.0106,-39.0798,22.6433],[174.0038,-39.0854,33.1178],[173.991,-39.0894,0.2406],[173.9857,-39.0948,43.7211],[173.9779,-39.0995,6.0514],[173.9684,-39.1024,0.0],[173.9479,-39.1155,1.1317],[173.9112,-39.1201,14.8439],[173.8964,-39.1323,4.0267],[173.8832,-39.1349,14.9628],[173.8761,-39.1404,7.6397],[173.8672,-39.1425,2.7985],[173.855,-39.1503,6.6509],[173.8457,-39.1539,2.7349],[173.8328,-39.1685,9.9466],[173.8214,-39.171,3.8395],[173.8209,-39.175,8.4395],[173.8159,-39.1802,3.4663],[173.8167,-39.1818,9.0205],[173.8068,-39.1864,9.8454],[173.8029,-39.1866,7.2293],[173.7963,-39.1918,7.7575],[173.7916,-39.1929,-0.021],[173.7924,-39.1971,2.3032],[173.7898,-39.1995,2.5809],[173.7896,-39.2026,-0.0536],[173.7871,-39.204,1.0609],[173.7854,-39.2102,3.8517],[173.7778,-39.2167,4.1402],[173.7788,-39.2216,5.2858],[173.7736,-39.2304,3.4667],[173.7761,-39.2334,10.5334],[173.7744,-39.2414,-0.7786],[173.7755,-39.2437,6.4882],[173.7708,-39.2462,-0.9229],[173.7729,-39.2476,2.5154],[173.7722,-39.2499,4.0056],[173.7616,-39.2626,4.7464],[173.7571,-39.2657,2.2794],[173.7515,-39.2787,4.6472],[173.7562,-39.2956,0.5418],[173.7552,-39.3035,1.4688],[173.7609,-39.3146,2.9788],[173.7599,-39.3195,3.7637],[173.7656,-39.3347,0.5433],[173.7695,-39.3386,3.7548],[173.7696,-39.3445,5.8286],[173.7732,-39.3561,0.0],[173.7717,-39.3656,4.251],[173.7737,-39.3683,4.825],[173.7733,-39.3704,-0.0109],[173.7773,-39.3741,5.5156],[173.7767,-39.3768,3.2933],[173.7797,-39.3869,5.4693],[173.785,-39.3949,5.7273],[173.7863,-39.3997,3.906],[173.7915,-39.4037,4.506],[173.7932,-39.4128,0.0058],[173.7976,-39.416,4.8203],[173.7983,-39.4183,2.3331],[173.8078,-39.4217,0.4798],[173.8202,-39.4295,11.9632],[173.8247,-39.4357,0.5382],[173.8315,-39.4401,9.7746],[173.8318,-39.4464,0.985],[173.8387,-39.4457,17.6626],[173.8395,-39.4495,17.0419],[173.8486,-39.4534,15.0872],[173.8495,-39.4552,23.0563],[173.8474,-39.4592,5.4181],[173.856,-39.4572,12.1777],[173.8582,-39.4585,15.8002],[173.8566,-39.4613,13.2703],[173.8579,-39.4639,12.3153],[173.8666,-39.4658,20.3462],[173.8656,-39.469,2.581],[173.8698,-39.4716,0.0],[173.8784,-39.4813,4.5895],[173.8798,-39.4852,0.0],[173.8832,-39.4874,13.8807],[173.8828,-39.4899,1.9621],[173.8894,-39.4896,18.3012],[173.8953,-39.4984,4.1206],[173.9002,-39.5006,3.1865],[173.9053,-39.5059,16.934],[173.9052,-39.5089,5.7961],[173.9071,-39.5091,28.9927],[173.9107,-39.5145,12.3001],[173.9109,-39.519,0.0],[173.9147,-39.5175,24.6687],[173.9157,-39.5203,2.0563],[173.9198,-39.5203,3.1966],[173.923,-39.5184,23.4597],[173.9318,-39.5215,3.0356],[173.9357,-39.5248,5.4323],[173.9353,-39.5263,0.0],[173.9421,-39.5284,32.7435],[173.949,-39.5395,11.6961],[173.9583,-39.5382,14.2276],[173.9728,-39.547,0.0],[173.9842,-39.5508,23.8659],[173.9871,-39.5542,6.1154],[173.9962,-39.5539,6.56],[174.0034,-39.5515,6.5197],[174.0077,-39.5525,41.2935],[174.0076,-39.5537,3.4704],[174.0129,-39.5565,3.1304],[174.0182,-39.5559,38.0921],[174.0214,-39.5582,0.0],[174.028,-39.5592,18.7651],[174.0427,-39.5595,40.2352],[174.0535,-39.5634,12.9853],[174.0769,-39.5774,16.2291],[174.0887,-39.5758,24.7549],[174.1037,-39.5787,15.2959],[174.1086,-39.5772,25.1319],[174.1161,-39.579,18.8808],[174.1301,-39.5785,10.4145],[174.141,-39.5806,22.956],[174.1484,-39.5804,21.534],[174.1616,-39.5854,3.3411],[174.1814,-39.5854,17.0972],[174.2016,-39.5881,0.0],[174.2106,-39.5926,35.6053],[174.2155,-39.5932,0.0],[174.2266,-39.6001,19.7859],[174.2338,-39.6016,0.0],[174.2462,-39.6107,5.6215],[174.2608,-39.6183,0.0],[174.2759,-39.6191,47.7396],[174.2973,-39.6263,0.0],[174.3072,-39.6339,0.0],[174.318,-39.6375,17.8691],[174.3267,-39.6434,0.0],[174.3388,-39.6485,5.962],[174.3528,-39.6591,8.1354],[174.368,-39.6775,0.0],[174.3804,-39.6893,42.3771],[174.3889,-39.7019,24.5176],[174.3935,-39.7045,32.7128],[174.4053,-39.7165,4.1633],[174.4188,-39.7309,19.7734],[174.4185,-39.7323,3.1183],[174.4206,-39.7325,13.2446],[174.4482,-39.7533,0.0],[174.4659,-39.7639,0.0],[174.4751,-39.7652,11.0357],[174.4912,-39.7733,1.169],[174.4897,-39.7742,1.169],[174.4928,-39.7756,0.0],[174.4922,-39.7766,0.0],[174.5046,-39.7794,7.387],[174.5129,-39.7837,0.0],[174.535,-39.8045,1.8498],[174.5591,-39.8175,0.0],[174.5799,-39.8178,9.2352],[174.5947,-39.8235,0.0],[174.6139,-39.8262,10.8045],[174.6363,-39.834,3.5685],[174.6491,-39.8352,6.8061],[174.6816,-39.8494,4.3512],[174.6882,-39.8506,4.6329],[174.6905,-39.8543,4.7467],[174.7053,-39.8627,1.3495],[174.7165,-39.8672,3.8811],[174.7266,-39.8684,4.178],[174.7389,-39.8684,0.7641],[174.7487,-39.8658,5.2105],[174.7618,-39.8661,10.3155],[174.7795,-39.8617,4.3159],[174.7841,-39.858,0.0],[174.7663,-39.8529,38.6012],[174.7793,-39.8431,60.5375],[174.7849,-39.8316,83.4484],[174.7934,-39.8336,79.559],[174.7998,-39.8202,117.4128],[174.7937,-39.8205,115.5753],[174.803,-39.8031,181.8795],[174.8345,-39.8005,222.7335],[174.8366,-39.7962,225.4104],[174.8519,-39.7892,285.5676],[174.8495,-39.7832,303.0704],[174.85,-39.7776,266.4186],[174.8578,-39.7769,326.5577],[174.8625,-39.7734,337.0964],[174.8703,-39.7733,321.6412],[174.8721,-39.7706,335.2855],[174.8713,-39.7667,266.4135],[174.8865,-39.7572,295.8654],[174.8868,-39.7547,336.2217],[174.8893,-39.7533,364.0502],[174.8882,-39.7513,403.9077],[174.8945,-39.7472,316.5458],[174.8995,-39.7487,405.8904],[174.9012,-39.7467,356.971],[174.9034,-39.7471,379.7219],[174.9039,-39.7453,346.8593],[174.9079,-39.7431,328.9469],[174.9073,-39.7416,319.6761],[174.9113,-39.7436,278.367],[174.9124,-39.7424,282.7456],[174.9144,-39.7453,282.8426],[174.9161,-39.7442,366.2511],[174.9155,-39.7473,390.3676],[174.9179,-39.7497,346.856],[174.9175,-39.7453,394.6113],[174.9198,-39.746,394.8869],[174.9231,-39.7435,396.215],[174.924,-39.7404,360.1576],[174.9199,-39.7382,418.7283],[174.9229,-39.7376,467.6998],[174.9249,-39.7351,429.2418],[174.9229,-39.7329,505.2362],[174.9253,-39.7335,460.2669],[174.9268,-39.7321,462.766],[174.9238,-39.7295,507.4761],[174.9272,-39.7254,466.7246],[174.9308,-39.7243,439.8946],[174.9319,-39.7205,425.0963],[174.9278,-39.7176,401.8792],[174.9278,-39.7122,392.8781],[174.922,-39.7038,351.8149],[174.9275,-39.7009,382.5959],[174.9245,-39.6999,375.1831],[174.9226,-39.6954,331.3665],[174.9291,-39.6907,358.3095],[174.9297,-39.6882,349.5596],[174.9284,-39.687,333.5007],[174.9305,-39.685,353.3136],[174.9288,-39.6846,302.8976],[174.9299,-39.6829,292.9424],[174.9357,-39.6856,344.8488],[174.9404,-39.6805,360.1658],[174.9388,-39.6767,363.3911],[174.9421,-39.6779,365.1696],[174.9463,-39.676,332.3645],[174.9502,-39.6774,377.0078],[174.9516,-39.68,398.8488],[174.958,-39.6793,361.7326],[174.9648,-39.6756,381.6961],[174.9698,-39.6768,418.3761],[174.9746,-39.6749,387.4423],[174.9726,-39.672,379.8685],[174.9734,-39.6703,391.6009],[174.988,-39.6654,418.2975],[174.9865,-39.6641,393.4123],[174.9883,-39.6611,424.4694],[174.9837,-39.6611,410.2651],[174.9834,-39.6571,425.9559],[174.9763,-39.657,405.9499],[174.9758,-39.6552,414.4582],[174.9722,-39.6537,405.7831],[174.9758,-39.6491,432.3312],[174.9741,-39.6467,438.6349],[174.9697,-39.6463,422.3094],[174.971,-39.645,478.2911],[174.97,-39.6438,450.9114],[174.9764,-39.6377,381.2586],[174.9744,-39.6379,431.6778],[174.9734,-39.633,372.3308],[174.9706,-39.6314,413.3555],[174.9728,-39.6282,381.5618],[174.97,-39.6255,401.7714],[174.9716,-39.6228,373.9603],[174.9705,-39.6188,422.2878],[174.9725,-39.6129,413.2386],[174.9676,-39.6052,446.079],[174.9696,-39.6041,476.8615],[174.9684,-39.6017,438.3814],[174.9699,-39.5982,501.6957],[174.9693,-39.5953,535.7059],[174.9741,-39.5911,555.135],[174.9718,-39.5849,601.3498],[174.974,-39.5845,579.4373],[174.9715,-39.5821,606.9501],[174.9743,-39.5779,628.1867],[174.9728,-39.5752,630.9081],[174.9757,-39.5728,645.6117],[174.9724,-39.5676,656.8668],[174.9753,-39.5664,595.8528],[174.9737,-39.5635,583.7772],[174.9776,-39.5613,557.4057],[174.9769,-39.5593,568.0812],[174.9798,-39.5573,591.8571],[174.9871,-39.556,617.1832],[174.9889,-39.5522,612.681],[174.987,-39.5472,620.6883],[174.9917,-39.5401,645.3477],[174.9899,-39.5396,643.7867],[174.9897,-39.537,653.1418],[174.988,-39.5385,617.4564],[174.9824,-39.537,616.5142],[174.9781,-39.5329,549.8444],[174.9758,-39.5275,564.6326],[174.9703,-39.5254,549.5955],[174.9704,-39.5219,591.694],[174.972,-39.5207,600.1548],[174.9688,-39.5163,585.6999],[174.9696,-39.5131,613.7308],[174.9653,-39.5075,593.9343],[174.966,-39.5048,585.6451],[174.9695,-39.5037,525.0679],[174.9651,-39.4997,538.2635],[174.9635,-39.4938,557.5193],[174.961,-39.4929,591.2039],[174.9673,-39.4848,593.4631],[174.9636,-39.4853,593.4167],[174.9566,-39.4798,593.2938],[174.9514,-39.4817,571.9141],[174.947,-39.4783,508.2093],[174.9428,-39.4797,520.0769],[174.9305,-39.4769,553.3655],[174.922,-39.4715,567.4882],[174.9154,-39.4627,419.138],[174.9094,-39.459,446.9652],[174.9091,-39.4546,463.2909],[174.907,-39.4547,496.8497],[174.9042,-39.4511,436.64],[174.9066,-39.4474,466.1924],[174.9047,-39.4452,473.1117],[174.897,-39.4453,486.7754],[174.8918,-39.4404,483.4542],[174.8921,-39.4388,486.709],[174.889,-39.4351,506.6672],[174.8846,-39.4355,535.5444],[174.8843,-39.4344,538.5236],[174.8893,-39.4336,517.2194],[174.8877,-39.4273,453.0814],[174.8852,-39.4252,465.7324],[174.8886,-39.4228,416.1583],[174.8875,-39.4149,511.9828],[174.8771,-39.4047,560.5229]]],
[[[174.027,-39.0496,0.0],[174.0281,-39.0496,0.0],[174.0285,-39.0486,1.4581],[174.0267,-39.0487,1.4797],[174.027,-39.0496,0.0]]],
[[[174.0155,-39.0606,0.0],[174.0154,-39.0605,0.0],[174.0153,-39.0605,0.0],[174.0154,-39.0606,0.0],[174.0155,-39.0606,0.0]]],
[[[174.0201,-39.059,0.8735],[174.0193,-39.0589,0.8735],[174.0188,-39.0596,0.0],[174.0195,-39.0597,0.0],[174.0201,-39.059,0.8735]]],
[[[174.0247,-39.0574,1.9151],[174.0246,-39.0574,1.9151],[174.0245,-39.0573,1.9151],[174.0246,-39.0575,1.9151],[174.0247,-39.0574,1.9151]]],
[[[174.0266,-39.0509,0.0],[174.027,-39.0509,0.0],[174.027,-39.0507,0.0],[174.0268,-39.0505,0.0],[174.0266,-39.0509,0.0]]],
[[[174.6005,-38.7664,0.0],[174.6006,-38.7658,22.6408],[174.5994,-38.7661,0.0],[174.5999,-38.7667,0.0],[174.6005,-38.7664,0.0]]],
[[[174.6033,-38.7582,18.7302],[174.6034,-38.7582,18.7302],[174.6036,-38.758,18.7302],[174.6032,-38.7581,18.7302],[174.6033,-38.7582,18.7302]]],
[[[174.0126,-39.061,0.0],[174.0128,-39.0611,0.0],[174.013,-39.0611,0.0],[174.0127,-39.0609,0.0],[174.0126,-39.061,0.0]]],
[[[174.0028,-39.0573,-0.1537],[174.0028,-39.0574,-0.1537],[174.003,-39.0574,-0.1537],[174.0029,-39.0573,-0.1537],[174.0028,-39.0573,-0.1537]]],
[[[174.0022,-39.057,-0.1537],[174.0024,-39.0571,-0.1537],[174.0026,-39.057,-0.1537],[174.0024,-39.0569,-0.1537],[174.0022,-39.057,-0.1537]]],
[[[174.0005,-39.0568,0.0],[174.0004,-39.057,0.0],[174.0005,-39.057,0.0],[174.0005,-39.0569,0.0],[174.0005,-39.0568,0.0]]],
[[[174.003,-39.0569,-0.1537],[174.0033,-39.057,-0.1537],[174.0035,-39.0569,-0.1537],[174.0033,-39.0568,-0.1537],[174.003,-39.0569,-0.1537]]],
[[[174.0033,-39.0561,0.0],[174.0027,-39.0566,-0.1537],[174.0042,-39.0561,0.0],[174.0041,-39.056,0.0],[174.0033,-39.0561,0.0]]],
[[[174.0134,-39.0463,0.0],[174.0134,-39.0462,0.4232],[174.0134,-39.0461,0.4232],[174.0133,-39.0462,0.4232],[174.0134,-39.0463,0.0]]],
[[[174.0135,-39.0461,0.4232],[174.0136,-39.046,0.4232],[174.0135,-39.0459,0.4232],[174.0135,-39.046,0.4232],[174.0135,-39.0461,0.4232]]],
[[[174.0265,-39.0503,0.0],[174.0264,-39.0504,0.0],[174.0264,-39.0506,0.0],[174.0266,-39.0505,0.0],[174.0265,-39.0503,0.0]]],
[[[174.0261,-39.0502,0.0],[174.0264,-39.0503,0.0],[174.0266,-39.0501,0.0],[174.0262,-39.05,0.0],[174.0261,-39.0502,0.0]]],
[[[174.0155,-39.0455,2.1983],[174.0152,-39.0447,2.1983],[174.014,-39.0454,0.4232],[174.0144,-39.0462,2.1983],[174.0155,-39.0455,2.1983]]],
[[[174.0138,-39.0455,0.4232],[174.0139,-39.0454,0.4232],[174.0139,-39.0453,0.4232],[174.0138,-39.0454,0.4232],[174.0138,-39.0455,0.4232]]]]}
,"properties": {"GID_1": "NZL.15_1","GID_0": "NZL","country": "NewZealand","province": "Taranaki","VARNAME_1": "NA","NL_NAME_1": "NA","TYPE_1": "Region","ENGTYPE_1": "Region","CC_1": "07","HASC_1": "NZ.TK","ISO_1": "NZ-TKI","name": "Taranaki.province","area_km2": 7941.322,"hist_schema_id": "Elevation0-9000","hist_area_km2": {"0": 75.869,"25": 323.428,"50": 441.496,"75": 484.761,"100": 477.214,"125": 508.089,"150": 575.873,"175": 626.842,"200": 699.893,"225": 651.065,"250": 536.306,"275": 464.308,"300": 381.576,"325": 328.559,"350": 253.727,"375": 203.286,"400": 161.086,"425": 128.932,"450": 102.218,"475": 79.733,"500": 61.116,"525": 49.399,"550": 41.825,"575": 35.222,"600": 31.124,"625": 26.028,"650": 22.536,"675": 17.241,"700": 13.208,"725": 10.764,"750": 9.715,"775": 8.484,"800": 7.811,"825": 7.204,"850": 6.646,"875": 6.137,"900": 5.842,"925": 6.532,"950": 6.335,"975": 5.777,"1000": 4.645,"1025": 4.874,"1050": 4.464,"1075": 3.808,"1100": 3.726,"1125": 3.709,"1150": 2.938,"1175": 2.79,"1200": 2.002,"1225": 2.199,"1250": 1.69,"1275": 1.543,"1300": 1.263,"1325": 1.346,"1350": 1.083,"1375": 1.083,"1400": 0.87,"1425": 0.837,"1450": 0.886,"1475": 0.689,"1500": 0.607,"1525": 0.788,"1550": 0.574,"1575": 0.607,"1600": 0.64,"1625": 0.525,"1650": 0.476,"1675": 0.492,"1700": 0.509,"1725": 0.394,"1750": 0.295,"1775": 0.492,"1800": 0.509,"1825": 0.312,"1850": 0.328,"1875": 0.312,"1900": 0.427,"1925": 0.279,"1950": 0.377,"1975": 0.263,"2000": 0.263,"2025": 0.279,"2050": 0.164,"2075": 0.18,"2100": 0.18,"2125": 0.18,"2150": 0.164,"2175": 0.098,"2200": 0.197,"2250": 0.131,"2275": 0.131,"2300": 0.115,"2350": 0.066,"2400": 0.066,"2425": 0.082}}}