{"type":"Feature","properties":{"GID_2":"NZL.6.3_1","GID_0":"NZL","country":"NewZealand","GID_1":"NZL.6_1","province":"Hawke'sBay","NL_NAME_1":"NA","county":"Napier","VARNAME_2":"NA","NL_NAME_2":"NA","TYPE_2":"City","ENGTYPE_2":"City","CC_2":"031","HASC_2":"NZ.HB.NR","name":"Napier.county"},
"geometry":{"type": "MultiPolygon","coordinates": [[[[176.9265,-39.5617,0.0],[176.9222,-39.5495,2.3527],[176.9192,-39.5225,4.0663],[176.9209,-39.4861,9.0705],[176.9234,-39.4803,4.1554],[176.9223,-39.4788,4.5681],[176.9242,-39.4762,0.0],[176.9237,-39.4728,2.9319],[176.92,-39.4693,0.0],[176.9174,-39.4699,0.0],[176.9154,-39.4707,0.0],[176.9182,-39.4703,2.7436],[176.9218,-39.4726,2.9319],[176.9215,-39.4772,2.1153],[176.9203,-39.4775,2.1153],[176.9199,-39.4756,0.483],[176.92,-39.4777,2.1153],[176.9188,-39.4774,3.4376],[176.9189,-39.4751,0.54],[176.9173,-39.4771,4.3454],[176.9174,-39.4734,1.0408],[176.9131,-39.4742,0.0],[176.9103,-39.4776,0.8373],[176.8999,-39.4789,2.4469],[176.896,-39.4772,0.0],[176.8935,-39.4818,0.0],[176.8891,-39.4828,1.8229],[176.893,-39.4813,0.0],[176.894,-39.4791,0.0],[176.891,-39.4802,4.1224],[176.8862,-39.4786,3.2343],[176.8793,-39.4701,3.6097],[176.8738,-39.4587,2.4551],[176.8724,-39.446,0.0],[176.8766,-39.4217,0.0],[176.886,-39.3973,0.0],[176.8794,-39.3992,5.3397],[176.8775,-39.3932,7.3949],[176.874,-39.3919,8.8928],[176.8708,-39.3882,8.1764],[176.8673,-39.3924,21.8178],[176.8629,-39.3942,21.892],[176.8539,-39.3928,34.822],[176.8523,-39.4035,43.9786],[176.8541,-39.4035,31.468],[176.8558,-39.4071,58.5471],[176.8583,-39.4083,84.3838],[176.8539,-39.4101,25.5579],[176.8565,-39.416,37.8154],[176.8543,-39.4151,3.5765],[176.8518,-39.4176,5.1333],[176.8483,-39.416,13.9739],[176.8482,-39.4179,2.5525],[176.8455,-39.4187,27.8026],[176.8498,-39.425,1.3632],[176.8474,-39.434,8.6292],[176.8442,-39.4337,15.1098],[176.8314,-39.4385,0.9653],[176.8346,-39.4432,2.9894],[176.8344,-39.4455,16.6282],[176.8318,-39.4467,4.1814],[176.8336,-39.449,7.4841],[176.8369,-39.4481,17.5568],[176.8389,-39.4431,2.4969],[176.842,-39.4473,8.5855],[176.84,-39.4529,20.6342],[176.8313,-39.4543,19.5407],[176.8275,-39.4568,4.2766],[176.8281,-39.4601,3.5267],[176.826,-39.4607,30.935],[176.8255,-39.4627,1.2395],[176.8365,-39.4769,1.3327],[176.8325,-39.4772,3.3307],[176.8265,-39.4827,43.9275],[176.8236,-39.4827,39.0954],[176.8228,-39.4864,33.5543],[176.829,-39.488,27.1908],[176.8135,-39.4949,26.3996],[176.8125,-39.5035,21.4917],[176.8174,-39.5064,21.2435],[176.8163,-39.508,22.1826],[176.8258,-39.5122,33.0761],[176.8264,-39.5148,63.4243],[176.8307,-39.5176,77.6999],[176.8307,-39.5213,65.9117],[176.8287,-39.5237,78.1616],[176.8309,-39.5267,82.5784],[176.8151,-39.5484,21.8929],[176.8113,-39.5516,13.435],[176.8228,-39.5561,12.5821],[176.8308,-39.5545,13.1275],[176.8417,-39.5477,13.5536],[176.8534,-39.5503,10.3746],[176.8633,-39.5503,9.9186],[176.8667,-39.5526,6.9741],[176.8675,-39.5564,7.2333],[176.8733,-39.5659,4.1585],[176.8846,-39.5705,4.4822],[176.8943,-39.5697,3.0839],[176.9169,-39.5614,2.317],[176.9265,-39.5617,0.0]]]]}}