{"type":"Feature","properties":{"ISO3166-1-Alpha-3":"NZL","country":"New Zealand","fill":"#FF0","id":"3401","name":"Marlborough District"},
"geometry":{"type": "MultiPolygon","coordinates": [[[[174.40138,-41.14056,0.0],[174.39796,-41.12721,0.0],[174.39975,-41.1159,0.0],[174.39731,-41.10833,0.0],[174.38087,-41.10638,339.1605],[174.36793,-41.11077,193.0446],[174.35646,-41.11883,89.6225],[174.3436,-41.12575,182.5513],[174.32569,-41.12689,0.0],[174.33204,-41.13795,208.1543],[174.34213,-41.14471,0.0],[174.35426,-41.14593,0.0],[174.36671,-41.14056,0.0],[174.36752,-41.15887,183.1702],[174.35125,-41.17547,151.7851],[174.32911,-41.18174,282.5728],[174.31202,-41.16855,181.2618],[174.26051,-41.21282,253.066],[174.25115,-41.21722,208.6536],[174.22722,-41.21543,42.3068],[174.21648,-41.21624,218.2422],[174.21323,-41.21771,358.216],[174.20248,-41.22568,320.5969],[174.19752,-41.22975,243.6182],[174.19728,-41.23008,243.6182],[174.24806,-41.23211,104.7677],[174.26368,-41.22991,0.0],[174.27361,-41.22479,0.0],[174.29835,-41.20794,0.0],[174.31202,-41.20257,0.0],[174.32976,-41.20192,147.7254],[174.3484,-41.20338,0.0],[174.36598,-41.20257,0.0],[174.38087,-41.19508,0.0],[174.38771,-41.18353,0.0],[174.39381,-41.15358,0.0],[174.40138,-41.14056,0.0]]],
[[[174.0241,-40.90716,0.0],[174.0158,-40.90203,0.0],[174.00392,-40.9,0.0],[173.99204,-40.9,0.0],[173.98365,-40.90097,0.0],[173.93458,-40.92148,110.7379],[173.91969,-40.92506,139.2291],[173.91424,-40.92767,5.9324],[173.9131,-40.93084,145.7199],[173.91049,-40.94378,0.0],[173.90797,-40.94883,64.7736],[173.87745,-40.97234,36.7839],[173.87379,-40.97601,106.6157],[173.84978,-40.97186,0.0],[173.85353,-40.92588,0.0],[173.82887,-40.93857,0.0],[173.80681,-40.96494,0.0],[173.80152,-40.96917,0.0],[173.75066,-40.97568,0.0],[173.73976,-40.97959,0.0],[173.73024,-40.98528,0.0],[173.70729,-40.99424,0.0],[173.69874,-40.99993,0.0],[173.68238,-41.01572,0.0],[173.68116,-41.02109,0.0],[173.68141,-41.03444,152.5834],[173.68767,-41.03737,73.207],[173.72608,-41.01702,72.9352],[173.73862,-41.01979,358.4208],[173.74659,-41.02711,195.892],[173.74757,-41.0372,0.0],[173.73976,-41.04803,0.0],[173.71599,-41.05804,0.0],[173.68898,-41.06471,0.0],[173.67482,-41.07594,0.0],[173.68881,-41.0997,213.8461],[173.67457,-41.10638,98.7019],[173.66969,-41.09686,1.2512],[173.66472,-41.09368,4.5612],[173.65968,-41.09686,0.0],[173.6548,-41.10638,0.0],[173.64796,-41.10638,71.557],[173.64674,-41.08701,0.0],[173.63657,-41.06927,0.0],[173.62086,-41.05625,0.0],[173.6032,-41.0512,0.0],[173.59047,-41.05568,4.1926],[173.59109,-41.06292,202.1553],[173.59037,-41.08085,352.6122],[173.5822,-41.11315,447.2664],[173.56515,-41.14813,234.723],[173.54923,-41.1672,145.0267],[173.51874,-41.19754,856.6597],[173.47719,-41.22772,858.534],[173.39017,-41.32973,811.522],[173.34408,-41.36388,772.9932],[173.311,-41.3814,755.6663],[173.28527,-41.38864,709.7423],[173.27597,-41.41354,493.2656],[173.27452,-41.42838,879.2442],[173.26946,-41.45003,1369.7399],[173.26728,-41.47623,1192.1411],[173.27163,-41.49855,977.1509],[173.26232,-41.51411,1085.3634],[173.24289,-41.52206,1413.9917],[173.21871,-41.52403,1286.5861],[173.17323,-41.5338,1031.8208],[173.14667,-41.56609,798.1622],[173.0675,-41.63456,1424.6554],[173.03929,-41.67074,1094.1941],[172.99691,-41.70955,985.4481],[172.93831,-41.74815,1156.3958],[172.92932,-41.76376,936.2562],[172.92508,-41.77693,721.0345],[172.90813,-41.79233,937.1148],[172.87268,-41.83109,1404.4565],[172.86214,-41.86111,1552.1742],[172.85108,-41.9146,1277.7035],[172.84178,-41.93377,1245.4053],[172.74091,-42.02958,1649.2039],[172.70629,-42.11598,1377.8928],[172.71714,-42.12037,1633.8912],[172.73378,-42.15262,1540.5997],[172.75166,-42.16017,1376.6293],[172.77026,-42.16311,1481.5117],[172.78556,-42.16342,1548.0006],[172.80561,-42.17753,1213.0883],[172.81791,-42.18058,1510.1512],[172.82411,-42.19391,1621.9838],[172.82721,-42.20998,1650.7819],[172.83723,-42.23473,1409.4287],[172.84995,-42.24667,1523.5247],[172.85212,-42.26109,1508.6763],[172.84757,-42.27365,1397.1135],[172.84561,-42.28848,1492.2373],[172.85398,-42.29881,1520.0623],[172.86969,-42.3046,1330.4788],[172.88798,-42.30889,1589.7745],[172.9072,-42.31581,1246.0549],[172.91795,-42.3369,1064.9054],[172.93118,-42.35008,1523.4624],[172.93924,-42.36289,1280.0778],[172.94606,-42.37101,1122.0129],[172.98472,-42.39447,690.59],[172.98317,-42.40883,944.5472],[172.978,-42.42408,1267.1194],[172.97738,-42.43627,1416.0179],[172.98844,-42.44325,1304.5038],[173.00518,-42.44707,1531.6637],[173.02017,-42.45209,874.7166],[173.0457,-42.4711,935.0836],[173.0644,-42.47126,1338.8903],[173.07763,-42.46051,1319.2109],[173.11536,-42.44309,1531.7256],[173.13458,-42.44046,1155.2383],[173.15246,-42.43147,1305.4155],[173.17075,-42.41131,1193.1104],[173.19494,-42.39121,982.8508],[173.21437,-42.35979,1323.4492],[173.2154,-42.34723,1153.562],[173.18884,-42.33338,598.0811],[173.20083,-42.31907,711.7205],[173.22594,-42.30026,993.632],[173.2586,-42.28062,870.0499],[173.31224,-42.24068,690.7066],[173.34501,-42.2274,531.1229],[173.43792,-42.19985,585.7791],[173.45167,-42.18792,692.6097],[173.45838,-42.17262,638.5134],[173.46862,-42.15727,756.0263],[173.47079,-42.12895,1374.7802],[173.49849,-42.07211,1748.7434],[173.56225,-42.0301,1925.1189],[173.58799,-42.01904,1596.0535],[173.60752,-42.00617,2404.7905],[173.62695,-42.00219,2230.8799],[173.65072,-41.99103,2214.9023],[173.66788,-41.97987,2514.7969],[173.68834,-41.96969,1788.8981],[173.70395,-41.95889,1416.4823],[173.721,-41.9271,1730.8026],[173.7331,-41.91589,1623.048],[173.75139,-41.9208,1039.2019],[173.76648,-41.93274,816.6643],[173.77609,-41.94529,692.8613],[173.78539,-41.95077,772.1835],[173.7979,-41.94493,654.0392],[173.8103,-41.93615,740.0997],[173.83035,-41.92964,543.6649],[173.91396,-41.91615,927.8475],[173.93143,-41.91491,718.9089],[173.94735,-41.91723,804.6153],[173.96027,-41.92344,572.5167],[173.97329,-41.92778,587.2478],[174.00233,-41.93284,795.6462],[174.02155,-41.93145,395.1434],[174.03582,-41.93274,286.1149],[174.04698,-41.93656,165.78],[174.05184,-41.9425,93.0765],[174.08169,-41.96911,0.0],[174.08172,-41.96909,0.0],[174.19793,-41.87607,0.0],[174.21518,-41.8567,0.0],[174.28639,-41.75457,0.0],[174.29217,-41.73016,0.0],[174.27345,-41.73561,34.3163],[174.24822,-41.73333,64.7803],[174.22592,-41.7234,1.6197],[174.21648,-41.70599,0.0],[174.21095,-41.6994,0.0],[174.18995,-41.64463,0.0],[174.18914,-41.63397,0.0],[174.18319,-41.6153,0.0],[174.17903,-41.60519,0.0],[174.17404,-41.59241,0.0],[174.17237,-41.57822,0.0],[174.1172,-41.50709,0.0],[174.1032,-41.49798,0.0],[174.10597,-41.51344,0.0],[174.11508,-41.53379,0.2876],[174.12029,-41.53834,1.3998],[174.11541,-41.55853,101.0852],[174.10434,-41.56121,41.904],[174.09352,-41.55592,0.0],[174.08985,-41.55202,0.0],[174.09327,-41.54583,0.0],[174.08872,-41.53265,0.236],[174.07691,-41.52044,0.0],[174.05812,-41.51727,0.9472],[174.06471,-41.50066,0.0],[174.06284,-41.48626,0.0],[174.05201,-41.45582,0.0],[174.05063,-41.43694,0.0],[174.05551,-41.42457,0.0],[174.07927,-41.40057,0.0],[174.09799,-41.37379,0.0],[174.11378,-41.34498,0.0],[174.13307,-41.32008,0.0],[174.16188,-41.30495,0.0],[174.15504,-41.31943,0.0],[174.16863,-41.32204,160.3921],[174.18946,-41.30625,360.7208],[174.19947,-41.30877,77.7247],[174.19752,-41.31487,0.0],[174.18043,-41.3366,0.0],[174.17547,-41.34661,0.0],[174.19028,-41.34336,0.0],[174.21404,-41.32879,0.0],[174.24529,-41.32244,0.0],[174.25196,-41.31463,0.0],[174.25554,-41.30478,0.0],[174.26051,-41.2951,0.0],[174.27036,-41.28558,0.0],[174.29021,-41.27166,0.0],[174.2977,-41.26474,0.0],[174.31324,-41.24131,0.0],[174.32569,-41.21624,0.0],[174.28443,-41.24033,115.9696],[174.26336,-41.24774,16.3167],[174.23658,-41.25042,52.1612],[174.22625,-41.25262,36.2146],[174.21176,-41.26238,161.9599],[174.19947,-41.26474,23.3453],[174.18678,-41.26214,0.0],[174.17237,-41.2553,210.3008],[174.1587,-41.24635,0.0],[174.1482,-41.23675,0.0],[174.13893,-41.23952,127.8866],[174.11817,-41.2431,212.6974],[174.09864,-41.25302,298.1682],[174.08774,-41.25237,267.2579],[174.077,-41.24977,0.0],[174.0656,-41.25042,0.0],[174.0477,-41.25945,0.0],[174.03403,-41.26881,39.1095],[174.01922,-41.27337,38.0131],[173.99733,-41.26775,152.9109],[173.98683,-41.27304,304.2369],[173.95875,-41.27907,37.5611],[173.93523,-41.27955,306.5831],[173.93832,-41.26775,0.0],[173.95232,-41.25799,0.0],[173.97023,-41.24944,0.0],[173.98862,-41.2457,0.0],[174.00408,-41.25042,0.0],[174.01124,-41.24,0.0],[174.02166,-41.23577,65.402],[174.0337,-41.23724,0.0],[174.04566,-41.24358,0.0],[174.06186,-41.22918,0.0],[174.08855,-41.22332,0.0],[174.14096,-41.22308,0.0],[174.15496,-41.22096,0.0],[174.16212,-41.21559,0.0],[174.16749,-41.20908,0.0],[174.17547,-41.20257,0.0],[174.19557,-41.19305,0.0],[174.19597,-41.19508,0.0],[174.19923,-41.19394,0.0],[174.21192,-41.19061,0.0],[174.21648,-41.1889,0.0],[174.2103,-41.1736,0.0],[174.2033,-41.16473,0.0],[174.1823,-41.14739,0.0],[174.17449,-41.13738,0.0],[174.167,-41.1242,0.0],[174.16733,-41.1159,0.0],[174.1823,-41.1207,7.5444],[174.18572,-41.11094,93.9755],[174.19288,-41.09881,186.0178],[174.19972,-41.09157,254.2996],[174.20281,-41.09629,484.2665],[174.20281,-41.13714,0.0],[174.2072,-41.14723,0.0],[174.21681,-41.14739,0.0],[174.22625,-41.14316,0.0],[174.23015,-41.14056,0.0],[174.22779,-41.13812,0.0],[174.24,-41.13047,0.0],[174.25408,-41.12444,0.0],[174.25733,-41.12689,0.0],[174.26043,-41.11826,0.0],[174.26149,-41.09881,0.0],[174.26734,-41.08904,0.0],[174.3187,-41.02663,0.0],[174.32643,-41.00937,0.0],[174.31886,-40.99651,0.0],[174.30454,-41.00058,4.3474],[174.26441,-41.03143,0.0],[174.24342,-41.05218,230.0734],[174.22657,-41.0652,48.0657],[174.2072,-41.07057,164.269],[174.18914,-41.05869,3.657],[174.18458,-41.04998,0.0],[174.18434,-41.04339,0.0],[174.18898,-41.03916,0.0],[174.2103,-41.03655,0.0],[174.21534,-41.03289,0.0],[174.21648,-41.02565,0.0],[174.21648,-41.01393,0.0],[174.21144,-40.99961,0.0],[174.1989,-40.98455,0.0],[174.18312,-40.97308,0.0],[174.16798,-40.96917,0.0],[174.17172,-40.98789,0.0],[174.16196,-41.00384,370.8363],[174.14527,-41.00937,0.0],[174.12827,-40.99651,0.0],[174.11313,-41.01434,535.1962],[174.09425,-41.01914,0.0],[174.07325,-41.01426,0.0],[174.05201,-41.00335,13.5783],[174.01588,-40.97454,190.0532],[173.99855,-40.96885,40.38],[173.99676,-40.98984,0.0],[173.98121,-40.98406,0.0],[173.97438,-40.98797,0.0],[173.9756,-40.99798,114.6933],[173.98365,-41.01084,85.3456],[173.9489,-41.01084,0.0],[173.95631,-41.02264,41.0004],[173.98707,-41.04803,29.327],[174.00017,-41.05291,0.0],[174.0066,-41.04241,0.0],[174.01075,-41.02679,0.0],[174.01726,-41.01702,0.0],[174.0337,-41.01719,106.4148],[174.042,-41.02825,0.0],[174.04135,-41.04306,0.0],[174.02426,-41.06341,148.4146],[174.02882,-41.07317,196.4598],[174.04566,-41.09287,525.9175],[174.01539,-41.09295,0.0],[174.00245,-41.1041,105.3264],[173.99383,-41.12322,89.6537],[173.97633,-41.14739,87.7946],[173.97055,-41.11663,0.0],[173.97316,-41.10117,0.0],[173.98365,-41.08522,0.0],[173.9489,-41.07903,0.0],[173.95045,-41.08929,316.7767],[173.94899,-41.09564,364.29],[173.9441,-41.09873,375.8531],[173.93531,-41.0997,63.8449],[173.92791,-41.10198,0.0],[173.9284,-41.10735,0.0],[173.93043,-41.11443,14.292],[173.92848,-41.1207,220.7273],[173.91578,-41.12908,166.0683],[173.90301,-41.13584,238.7043],[173.89259,-41.1452,221.5457],[173.88746,-41.16107,355.5638],[173.89633,-41.19166,152.8948],[173.9227,-41.19264,223.9936],[173.97633,-41.17539,42.526],[173.96941,-41.1889,18.0605],[173.97486,-41.19232,46.5582],[173.97901,-41.19427,0.0],[173.98357,-41.195,0.0],[173.99024,-41.19508,0.0],[173.99936,-41.19345,75.7432],[174.00148,-41.18922,0.0],[174.00148,-41.18475,0.0],[174.00408,-41.18157,0.0],[174.02125,-41.1775,0.0],[174.13396,-41.17539,322.8889],[174.11215,-41.19345,194.3509],[174.08334,-41.19948,286.77],[174.0241,-41.19508,0.0],[174.03956,-41.20648,332.1832],[174.04566,-41.20957,101.9651],[174.03012,-41.21608,11.0461],[174.00603,-41.22194,63.2018],[173.98178,-41.22422,223.3397],[173.96599,-41.21966,90.8646],[173.95045,-41.21266,0.0],[173.92937,-41.21217,150.4771],[173.88746,-41.21624,0.0],[173.89536,-41.22503,0.0],[173.9065,-41.22666,0.0],[173.91993,-41.22633,0.0],[173.93458,-41.22991,341.2251],[173.93458,-41.23675,356.6679],[173.89698,-41.2444,237.6124],[173.79127,-41.29144,304.8592],[173.78297,-41.28875,64.5512],[173.77426,-41.28395,0.5173],[173.76734,-41.27606,4.5675],[173.76393,-41.26474,0.0],[173.8187,-41.25254,0.0],[173.84718,-41.24147,1.3017],[173.85955,-41.22991,0.0],[173.86183,-41.21787,0.0],[173.87159,-41.19557,0.0],[173.87379,-41.18524,0.0],[173.86744,-41.17116,0.0],[173.85231,-41.16082,0.0],[173.83416,-41.15496,0.0],[173.81861,-41.15488,0.0],[173.82911,-41.14007,82.6487],[173.8449,-41.13616,0.0],[173.85914,-41.12949,0.0],[173.86647,-41.10638,226.0213],[173.87477,-41.11004,203.3561],[173.88152,-41.11012,113.8802],[173.886,-41.10589,76.4551],[173.88746,-41.09629,0.0],[173.88624,-41.09205,0.0],[173.8812,-41.0862,3.813],[173.88014,-41.08221,89.5371],[173.88258,-41.07399,34.2902],[173.88868,-41.07431,128.8238],[173.89552,-41.07781,128.4727],[173.90056,-41.07903,197.7801],[173.90773,-41.08017,48.1549],[173.917,-41.08408,0.0],[173.92506,-41.08465,0.0],[173.92848,-41.07537,0.0],[173.93043,-41.06536,127.2181],[173.93605,-41.0595,0.0],[173.94483,-41.05739,0.0],[173.95574,-41.05869,0.0],[173.92994,-41.04827,0.0],[173.89479,-41.04941,0.0],[173.82887,-41.05869,180.1598],[173.82814,-41.06341,229.3869],[173.80494,-41.08904,0.0],[173.80055,-41.10475,340.4706],[173.79021,-41.11012,80.0688],[173.77866,-41.10768,52.1796],[173.77027,-41.0997,31.549],[173.77955,-41.09254,0.0],[173.78826,-41.08294,0.0],[173.79469,-41.07147,0.0],[173.79811,-41.05869,0.0],[173.78126,-41.05389,0.0],[173.78077,-41.04656,5.0131],[173.79078,-41.03851,173.9315],[173.80494,-41.03135,171.3587],[173.78053,-41.01141,102.6602],[173.79575,-41.0014,211.9713],[173.82439,-40.9983,0.0],[173.83961,-40.99993,272.2592],[173.85385,-41.01084,255.0037],[173.88551,-41.01019,0.0],[173.91798,-41.00189,0.0],[173.93458,-40.98984,0.0],[173.92579,-40.98846,0.0],[173.92237,-40.98594,131.1656],[173.92026,-40.98203,142.4618],[173.91424,-40.97601,0.0],[173.92368,-40.96885,0.0],[173.93377,-40.96551,0.0],[173.94451,-40.96592,43.437],[173.95574,-40.96917,0.0],[173.96046,-40.95525,0.0],[173.96998,-40.94793,0.0],[173.97584,-40.94085,0.0],[173.96941,-40.92767,90.3261],[174.01759,-40.93719,0.0],[174.03484,-40.93353,0.0],[174.0241,-40.90716,0.0]]],
[[[173.95574,-40.77752,0.0],[173.96559,-40.75164,0.0],[173.96909,-40.73773,0.0],[173.96941,-40.7234,0.0],[173.96485,-40.70875,57.9417],[173.95981,-40.71478,92.895],[173.9489,-40.74334,142.2265],[173.93979,-40.75457,117.0783],[173.93043,-40.76263,142.4838],[173.90797,-40.77752,0.0],[173.94215,-40.77752,3.2123],[173.92652,-40.78802,183.6958],[173.89503,-40.79583,226.2885],[173.88746,-40.80535,334.2939],[173.8825,-40.789,0.0],[173.8851,-40.77093,42.0361],[173.88478,-40.75628,0.0],[173.87013,-40.75018,103.3152],[173.86158,-40.75449,259.9208],[173.85646,-40.76385,223.5518],[173.85271,-40.77752,77.943],[173.84197,-40.77532,6.5987],[173.83904,-40.76702,0.0],[173.83774,-40.75897,0.0],[173.83229,-40.75758,145.0719],[173.82683,-40.76629,0.0],[173.81422,-40.80438,76.7572],[173.81178,-40.81902,8.8451],[173.81471,-40.83538,90.7247],[173.8226,-40.84857,123.4667],[173.83351,-40.85882,0.0],[173.84588,-40.86679,72.7067],[173.84588,-40.87314,266.5595],[173.82504,-40.87078,27.7731],[173.81137,-40.86175,178.4498],[173.79965,-40.84987,0.0],[173.78443,-40.83896,29.2451],[173.77866,-40.85019,14.6223],[173.7767,-40.86256,184.8588],[173.77866,-40.87518,8.1398],[173.78443,-40.88665,0.0],[173.78728,-40.88299,0.0],[173.79811,-40.87314,604.9007],[173.80323,-40.88437,201.6681],[173.8025,-40.8943,186.2182],[173.79615,-40.90211,24.5664],[173.78443,-40.90716,0.0],[173.78305,-40.91123,0.0],[173.78273,-40.91465,0.0],[173.7815,-40.91806,0.0],[173.7776,-40.92148,0.0],[173.79054,-40.92702,169.4383],[173.80519,-40.92636,72.4814],[173.81967,-40.92156,77.3604],[173.83229,-40.91465,66.5949],[173.83522,-40.91009,0.0],[173.83815,-40.90301,5.0559],[173.8423,-40.89642,83.5615],[173.84929,-40.89349,107.1624],[173.87379,-40.88665,0.0],[173.87973,-40.88177,0.0],[173.89161,-40.86932,0.0],[173.89747,-40.86679,0.0],[173.91749,-40.86777,0.0],[173.92164,-40.86679,0.0],[173.92774,-40.85524,0.0],[173.93149,-40.82936,0.0],[173.93458,-40.81902,0.0],[173.93898,-40.81357,7.5933],[173.95362,-40.79998,0.0],[173.95916,-40.7973,0.0],[173.96372,-40.79437,0.0],[173.96192,-40.78769,0.0],[173.95574,-40.77752,0.0]]]]}}