{"type":"Feature","properties":{"GID_2":"NZL.7.1_1","GID_0":"NZL","country":"NewZealand","GID_1":"NZL.7_1","province":"Manawatu-Wanganui","NL_NAME_1":"NA","county":"Horowhenua","VARNAME_2":"NA","NL_NAME_2":"NA","TYPE_2":"District","ENGTYPE_2":"District","CC_2":"042","HASC_2":"NZ.MW.HW","name":"Horowhenua.county"},
"geometry":{"type": "MultiPolygon","coordinates": [[[[175.2273,-40.3911,4.1597],[175.2252,-40.4096,6.0276],[175.2189,-40.4356,0.0],[175.219,-40.4467,6.5532],[175.2146,-40.461,5.5186],[175.2146,-40.4785,0.9428],[175.193,-40.5596,11.3216],[175.1808,-40.5975,0.0],[175.169,-40.6281,4.0497],[175.1667,-40.6303,0.9518],[175.1585,-40.6498,0.0],[175.1611,-40.6518,1.2034],[175.159,-40.6543,0.0],[175.1602,-40.6625,0.0],[175.1579,-40.665,0.0],[175.1547,-40.6637,0.0],[175.1524,-40.6663,0.9425],[175.1493,-40.6752,1.7364],[175.1361,-40.7002,5.4651],[175.1707,-40.7107,20.7132],[175.1694,-40.7183,23.6735],[175.1784,-40.7214,20.2885],[175.1838,-40.7179,18.0928],[175.2044,-40.7303,54.8304],[175.2029,-40.7315,58.6575],[175.2065,-40.7321,51.3898],[175.2043,-40.7394,124.6876],[175.202,-40.739,131.6773],[175.1987,-40.7434,125.1095],[175.1898,-40.7418,199.2764],[175.1882,-40.7451,183.5805],[175.1931,-40.7526,188.1779],[175.193,-40.7573,171.5747],[175.2014,-40.7593,101.3046],[175.2011,-40.7612,102.4656],[175.2172,-40.763,274.8577],[175.228,-40.7567,374.99],[175.2348,-40.7559,417.5068],[175.2436,-40.7583,583.0796],[175.2531,-40.7644,640.9024],[175.2699,-40.7686,679.5582],[175.2768,-40.7663,654.6027],[175.2914,-40.7541,724.8915],[175.2977,-40.7521,879.111],[175.3,-40.7533,906.2437],[175.3051,-40.7524,932.0558],[175.3093,-40.7497,901.2489],[175.3266,-40.7494,870.7469],[175.3283,-40.7442,890.6603],[175.3316,-40.7459,850.0039],[175.3361,-40.7517,905.9896],[175.3411,-40.7493,817.8148],[175.3468,-40.7521,1061.6687],[175.3529,-40.7462,967.181],[175.3519,-40.7348,936.2517],[175.3557,-40.7302,1070.0557],[175.3604,-40.7328,1061.6942],[175.3676,-40.7277,828.3019],[175.3715,-40.7268,942.8621],[175.3776,-40.7326,833.1192],[175.3887,-40.731,751.3478],[175.3967,-40.7372,850.716],[175.4076,-40.7358,937.717],[175.4231,-40.7455,1308.2762],[175.4309,-40.7452,1351.1799],[175.434,-40.7465,1423.9028],[175.4397,-40.7441,1381.1051],[175.4424,-40.7406,1288.4501],[175.4428,-40.7355,1362.2434],[175.4461,-40.731,1349.3226],[175.4477,-40.7252,1458.5176],[175.6253,-40.5101,720.919],[175.6093,-40.5026,528.1812],[175.5842,-40.5297,661.6758],[175.581,-40.5259,612.6816],[175.5762,-40.5236,554.65],[175.5691,-40.5241,491.069],[175.5677,-40.5182,423.37],[175.5718,-40.512,393.9081],[175.564,-40.5081,516.6611],[175.5619,-40.5023,636.8909],[175.5563,-40.5011,647.8723],[175.5505,-40.4894,445.1025],[175.5596,-40.4832,375.0087],[175.518,-40.4552,12.0119],[175.4973,-40.4339,11.0561],[175.4883,-40.4372,9.6187],[175.4836,-40.4373,7.2925],[175.4872,-40.4318,6.7722],[175.4842,-40.4305,8.1877],[175.4708,-40.4374,7.445],[175.4687,-40.4335,10.7429],[175.471,-40.4267,11.8046],[175.4688,-40.426,8.1849],[175.4641,-40.428,6.2049],[175.4601,-40.4393,6.3169],[175.4579,-40.4414,8.5297],[175.4513,-40.4404,7.5556],[175.4483,-40.4382,9.994],[175.4561,-40.431399999999996,5.2465],[175.453,-40.4289,5.9728],[175.4496,-40.4296,5.9337],[175.4445,-40.4381,7.3468],[175.4286,-40.4357,5.4745],[175.4264,-40.4375,7.8952],[175.3106,-40.4025,19.1588],[175.2785,-40.3963,10.2937],[175.2797,-40.386,8.3216],[175.2273,-40.3911,4.1597]]]]}}