{"type":"Feature","properties":{"featurecla":"River","scalerank":10,"rivernum":2027,"dissolve":"2027River","name":"Piako","name_alt":null,"note":null,"min_zoom":7.2,"strokeweig":0.2,"name_en":"Piako","min_label":8.2},
"geometry":{"type": "LineString","coordinates": [[175.62311118187921,-37.7386016181095,49.2814],[175.62356588427622,-37.735284965331296,39.5425],[175.62119849326172,-37.714489059949067,35.2671],[175.59918020951255,-37.701986759689518,32.2722],[175.57895681045409,-37.692455303056,30.9123],[175.55992484347482,-37.683542772177908,27.8736],[175.549217427906,-37.669864512983054,27.0904],[175.54445169958925,-37.6561862537882,30.4321],[175.54148085596319,-37.639537150967307,22.497],[175.53851001233716,-37.625239966017034,15.8528],[175.5373031071141,-37.613944570980557,16.5584],[175.53790655972563,-37.6002663117857,15.1264],[175.53018546092673,-37.586000073123195,13.6959],[175.516491728588,-37.569320024014537,9.85],[175.50877062978907,-37.5389926619988,8.598],[175.50519633355151,-37.513400082012041,6.2201],[175.50935860925674,-37.496750979191155,6.2151],[175.5117414734151,-37.481896761060995,4.4688],[175.51827114013483,-37.466423617175415,3.9414],[175.52006602482555,-37.447391650196145,2.0269]]}}