{"type":"Feature","properties":{"featurecla":"River","scalerank":0,"rivernum":2034,"dissolve":"2034River","name":"Tongariro1","name_alt":null,"note":null,"min_zoom":7.2,"strokeweig":0.15,"name_en":"Tongariro","min_label":8.2},
"geometry":{"type": "LineString","coordinates": [[175.83220346749778,-39.082594767917577,506.9723],[175.83667749501234,-39.100789913233925,574.9771],[175.82465486221324,-39.120688376270785,606.2903],[175.820492586508,-39.138265867724805,659.8837],[175.81263222941413,-39.151665610329722,654.2874]]}}