{"type":"Feature","properties":{"featurecla":"River","scalerank":10,"rivernum":2027,"dissolve":"2027River","name":"Piako1","name_alt":null,"note":null,"min_zoom":7.2,"strokeweig":0.2,"name_en":"Piako","min_label":8.2},
"geometry":{"type": "LineString","coordinates": [[175.52006602482555,-37.447391650196145,2.0269],[175.52006602482555,-37.43547732940425,2.2572],[175.51590374912033,-37.425976819058505,2.1151],[175.52184543637242,-37.420035131806436,4.2425],[175.53018546092673,-37.410503675172919,4.6185],[175.52780259676834,-37.396237436510411,2.8999],[175.51887459274639,-37.388500864567625,2.2289],[175.50816717717754,-37.374822605372771,3.4788],[175.50400490147231,-37.354583733170429,1.0229],[175.5117414734151,-37.326639235313067,1.2093],[175.5099465887244,-37.309371206736756,1.2043],[175.50341692200467,-37.284985531973078,1.4271],[175.49923917315556,-37.264158680303083,1.09],[175.50697574509837,-37.255834128892637,0.8245],[175.49626832952953,-37.246921598014545,0.2209],[175.49507689745036,-37.236802161913374,0.5975],[175.49137881606168,-37.215944363955607,1.0382]]}}