{"type":"Feature","properties":{"featurecla":"River","scalerank":9,"rivernum":2018,"dissolve":"2018River","name":"Mokau","name_alt":null,"note":null,"min_zoom":7.1,"strokeweig":0.2,"name_en":"Mokau","min_label":8.1},
"geometry":{"type": "LineString","coordinates": [[175.33591410127363,-38.488345259120592,329.866],[175.33536310626337,-38.488331931954811,329.866],[175.30966221426939,-38.481678480084007,345.6513],[175.29301311144852,-38.472642164054832,272.2639],[175.28397679541933,-38.463110707421308,244.8213],[175.27302180954837,-38.457880784787982,220.7419],[175.26113843504422,-38.456952396154847,234.5018],[175.25398984256907,-38.453610197075562,223.0149],[175.24541772085647,-38.450763138600614,216.8655],[175.23495787558983,-38.441695876283667,208.8947],[175.23447820812936,-38.435042424412863,205.7164],[175.22828895057512,-38.429348307462973,208.7859],[175.21925263454597,-38.424087438541875,201.7439],[175.20258805858117,-38.418393321591978,201.9166],[175.18974534915614,-38.417898180987642,202.384],[175.17736683404769,-38.414586928196123,196.7529],[175.16356478970175,-38.410285394195931,190.7919],[175.15214560951418,-38.411244729116838,221.1428],[175.14168576424754,-38.411244729116838,154.362],[175.12977144345564,-38.408397670641889,150.536],[175.11454586987222,-38.410285394195931,160.8092],[175.10835661231798,-38.419352656512885,151.9492],[175.1002796312097,-38.426006108383682,200.4044],[175.092666844418,-38.426006108383682,148.5793],[175.07790546515116,-38.430771836700444,142.0361],[175.07125201328034,-38.436961094254677,143.2369],[175.06410342080522,-38.444573881046381,141.3036],[175.05172490569674,-38.446925798916993,138.3114],[175.04507145382595,-38.452650862154655,139.836],[175.03697899957379,-38.463110707421308,138.9195],[175.02746301608417,-38.465493571579692,135.6253],[175.01985022929244,-38.470754440500791,135.6028],[175.02079409106949,-38.477407892371588,134.8387],[175.02508015192578,-38.484061344242392,150.1524],[175.02461595760923,-38.494056995192473,139.5684],[175.02508015192578,-38.497399194271765,135.8378],[175.02842235100508,-38.4983275829049,132.961],[175.03841800195516,-38.501669781984184,134.4384],[175.0479185123009,-38.506435510300939,132.1064],[175.05030137645929,-38.512624767855172,138.3914],[175.04697465052388,-38.520237554646883,134.4612],[175.03936186373218,-38.524043948042731,140.1425],[175.03411646795496,-38.527355200834251,130.0708],[175.02888654532163,-38.527355200834251,130.6181],[175.0227127609113,-38.5311615942301,144.358],[175.01508450097569,-38.532616069755349,130.8598],[175.00462465570905,-38.532616069755349,151.2348],[174.98986327644218,-38.533544458388484,125.0618],[174.9732141736213,-38.541157245180187,130.4284],[174.95560573587952,-38.54592297349695,70.4682],[174.93799729813773,-38.550688701813705,83.0406],[174.92848131464808,-38.5497293668928,131.4435],[174.91706213446054,-38.550688701813705,85.0612],[174.91419960284171,-38.555454430130467,72.5855],[174.90991354198539,-38.560684352763793,79.1595],[174.90801034528747,-38.56733780463459,88.5659],[174.90706648351045,-38.572567727267923,32.9654],[174.90706648351045,-38.577333455584679,27.0981],[174.90373975757504,-38.582563378218005,49.3855],[174.90373975757504,-38.590671305614052,24.6708],[174.90516328681252,-38.595901228247378,29.293],[174.90610714858954,-38.601131150880704,22.8716],[174.9056274811291,-38.608743937672415,22.3676],[174.90610714858954,-38.617780253701589,21.2089],[174.9032600901146,-38.622545982018352,44.4669],[174.9032600901146,-38.628735239572585,32.854],[174.90610714858954,-38.635388691443382,45.5681],[174.90420395189162,-38.640618614076708,22.5601],[174.89993336417919,-38.65253293486861,32.2134],[174.8865955141498,-38.667758508452025,35.4406],[174.87232927548732,-38.681560552797961,46.2832],[174.85852723114138,-38.707741112252364,31.6828],[174.845189381112,-38.718200957519024,126.5825],[174.83186700422652,-38.718200957519024,62.963],[174.82473388489527,-38.71297103488569,129.8894],[174.81425856648474,-38.701551854698131,81.4145],[174.80235971883673,-38.699168990539754,36.9185],[174.79284373534708,-38.69155620374805,15.7261],[174.7838074193179,-38.692979732985521,80.3104],[174.77525077074915,-38.697745461302283,22.635],[174.77000537497196,-38.70439891317308,72.9359],[174.76144872640322,-38.703439578252173,48.4955],[174.7543001339281,-38.699168990539754,55.1463],[174.74526381789892,-38.697745461302283,90.2266],[174.74049808958216,-38.697745461302283,18.2406],[174.73430883202792,-38.698209655618847,9.0147],[174.73003824431549,-38.69725032069794,45.6748],[174.72527251599874,-38.694867456539562,39.4684],[174.71337366835073,-38.694867456539562,5.7702],[174.70528121409856,-38.698209655618847,6.021],[174.69482136883192,-38.69725032069794,54.654],[174.68671344143587,-38.699633184856324,36.4801],[174.68386638296093,-38.704863107489651,7.0403],[174.67673326362967,-38.710123976410749,32.9557],[174.670064338615,-38.710123976410749,92.0443],[174.66054835512534,-38.709628835806406,49.5263],[174.65530295934815,-38.706317583014894,1.8839],[174.6543590975711,-38.711052365043884,25.1985],[174.65055270417525,-38.7139303698066,9.9992],[174.64580244900239,-38.709628835806406,0.0],[174.64009285890862,-38.708205306568935,0.0],[174.63478557055586,-38.700623466065,1.3944]]}}