{"type":"Feature","properties":{"featurecla":"River","scalerank":6,"rivernum":2031,"dissolve":"2031River","name":"Rangitikei2","name_alt":null,"note":null,"min_zoom":5.0,"strokeweig":0.15,"name_en":"Rangitikei","min_label":6.0},
"geometry":{"type": "LineString","coordinates": [[176.037549848935,-39.075661527563739,1369.866],[176.03340304637362,-39.086368943132562,1201.6223],[176.02566647443084,-39.094105515075356,1155.5454],[176.01792990248805,-39.101842087018149,1148.6287],[176.01375215363896,-39.112549502586972,1093.9775],[176.00364819068164,-39.121462033465065,1054.3125],[176.00663450745157,-39.136347197883,1079.9626],[176.00463345516164,-39.140482953450693,1048.5109]]}}