{"type":"Feature","properties":{"featurecla":"Lake Centerline","scalerank":6,"rivernum":274,"dissolve":"274Lake Centerline","name":"Waikato","name_alt":null,"note":null,"min_zoom":5.0,"strokeweig":0.2,"name_en":"Waikato","min_label":6.0},
"geometry":{"type": "LineString","coordinates": [[175.79053657994552,-38.956054125328194,358.7575],[175.78728721972956,-38.9251387838448,355.5],[175.82064731794688,-38.892428557670677,355.5],[175.87500447241695,-38.850929585769542,355.5],[175.97909231133525,-38.810885089393658,355.5],[176.02425841833724,-38.779319875867067,355.5],[176.05129000070536,-38.751963357477358,355.5],[176.05176966816583,-38.711114257619421,355.5],[176.05419895175586,-38.701180499244877,355.5],[176.05908846522371,-38.693908121618655,355.5]]}}