{"type":"Feature","properties":{"featurecla":"River","scalerank":9,"rivernum":2039,"dissolve":"2039River","name":"Waihou1","name_alt":null,"note":null,"min_zoom":7.1,"strokeweig":0.15,"name_en":"Waihou","min_label":8.1},
"geometry":{"type": "LineString","coordinates": [[175.98664320555139,-38.080707429433033,523.6609],[175.97234602060112,-38.074270601576629,476.2378],[175.95308195646356,-38.068576484626732,360.9376],[175.91952070737574,-38.067864720008,281.1005],[175.91487523754103,-38.067508270279227,343.9431]]}}