{"type":"Feature","properties":{"featurecla":"River","scalerank":10,"rivernum":2045,"dissolve":"2045River","name":"Waitoa1","name_alt":null,"note":null,"min_zoom":7.2,"strokeweig":0.15,"name_en":"Waitoa","min_label":8.2},
"geometry":{"type": "LineString","coordinates": [[175.65033442319827,-37.9048396760295,104.5663],[175.66223327084629,-37.9048396760295,116.5815],[175.67889784681105,-37.895308219395986,94.7395],[175.69495897016429,-37.88995451161157,101.7956],[175.71279950506437,-37.886395688517887,87.6573],[175.72138781650517,-37.88038238206714,89.8498]]}}