{"type":"Feature","properties":{"featurecla":"River","scalerank":9,"rivernum":2039,"dissolve":"2039River","name":"Waihou","name_alt":null,"note":null,"min_zoom":7.1,"strokeweig":0.2,"name_en":"Waihou","min_label":8.1},
"geometry":{"type": "LineString","coordinates": [[175.91487523754103,-38.067508270279227,343.9431],[175.90096840785694,-38.066441190770526,208.4149],[175.87028516353183,-38.0614278921516,214.871],[175.8467195653941,-38.050008711964033,203.0604],[175.84172173991905,-38.042891065776665,149.7202],[175.83386138282518,-38.037877767157738,138.1352],[175.8224422026376,-38.031440939301341,140.692],[175.81102302245006,-38.016462936020091,103.2796],[175.80245090073743,-38.009345289832723,104.7918],[175.8017391361187,-37.9922010464075,102.0199],[175.80245090073743,-37.975056802982273,99.8517],[175.80245090073743,-37.962214093557243,87.7594],[175.80604067011888,-37.945100796419787,80.1925],[175.79960384226248,-37.929380082232036,72.096],[175.79675678378754,-37.904406428000705,73.5547],[175.798180313025,-37.884415126100535,68.2013],[175.79318248754998,-37.8715724166755,65.5436],[175.79960384226248,-37.860865001106681,68.1063],[175.81602084792507,-37.847991345393872,58.1381],[175.83814744368146,-37.837283929825048,67.0938],[175.84385703377524,-37.8280000434937,49.4218],[175.84529603615661,-37.811598510974981,49.3835],[175.83958644606284,-37.797301326024709,48.7459],[175.83887468144411,-37.7830350873622,46.219],[175.84529603615661,-37.764498260987274,51.0016],[175.84885485925031,-37.749489311418259,27.4984],[175.85171739086911,-37.7259391864244,26.6563],[175.84600780077534,-37.712384712380633,26.4908],[175.83172608896896,-37.704524355286757,22.0634],[175.81673261254383,-37.697375762811618,20.197],[175.80888772859385,-37.683821288767845,19.5453],[175.80031560688121,-37.670266814724073,18.5256],[175.79389425216871,-37.6502755128239,17.3297],[175.78032430498104,-37.62814891706752,26.9026],[175.76605806631855,-37.618153266117432,16.7485],[175.76319553469972,-37.607445850548615,17.1425],[175.75819770922467,-37.5867427840297,16.728],[175.74535499979964,-37.576747133079614,12.7135],[175.73108876113713,-37.565327952892055,14.681],[175.72036587242442,-37.55319700808576,12.8949],[175.70323710214308,-37.539611587754216,9.9695],[175.69181792195553,-37.531070412329377,7.7589],[175.68682009648049,-37.521786525998031,6.5066],[175.68111050638669,-37.510367345810465,7.1768],[175.6768244455304,-37.50250698871659,7.7825],[175.66682879458031,-37.493934867003979,6.9639],[175.65898391063033,-37.48966427929156,5.4131],[175.65183531815518,-37.477502388197493,5.3905],[175.64541396344265,-37.451816969347426,4.1848],[175.63685731487394,-37.4346727259222,5.6531],[175.63255578087376,-37.426843315116095,4.5415],[175.63042048701755,-37.410410836309609,3.6324],[175.63185948939889,-37.397568126884572,2.0625],[175.62899695778006,-37.388284240553226,3.3833],[175.6339947832551,-37.381878358984594,3.1329],[175.64255143182382,-37.366157644796843,2.773],[175.65041178891769,-37.349756112278122,3.8086],[175.64827649506151,-37.331188339615423,1.0237],[175.64112790258636,-37.324751511759025,2.0763],[175.62543813468636,-37.324751511759025,1.3365],[175.61473071911755,-37.328341281140482,2.4649],[175.60900565587988,-37.32403974714029,2.4453],[175.60971742049861,-37.311908802333988,1.3099],[175.61686601297376,-37.300489622146429,0.4146],[175.62257560306753,-37.294764558908767,1.4705],[175.62115207383007,-37.2876469127214,1.3801],[175.61400348135493,-37.286935148102664,1.6119],[175.60329606578611,-37.277651261771311,2.1553],[175.60258430116738,-37.266943846202487,1.1237],[175.60615859740494,-37.259795253727347,0.4517],[175.61151230518936,-37.250542313683773,1.5299]]}}