{"type":"Feature","properties":{"featurecla":"River","scalerank":0,"rivernum":2034,"dissolve":"2034River","name":"Tongariro","name_alt":null,"note":null,"min_zoom":7.2,"strokeweig":0.2,"name_en":"Tongariro","min_label":8.2},
"geometry":{"type": "LineString","coordinates": [[175.79053657994552,-38.956054125328194,358.7575],[175.79522494254286,-38.968154123846716,364.257],[175.81213708880981,-38.978706807976685,369.084],[175.81679450511936,-38.993530079819074,375.8026],[175.81356061804729,-39.010643376956523,387.7145],[175.81910000355833,-39.035617031187854,416.4175],[175.83667749501234,-39.049480968109336,439.2404],[175.83065844204086,-39.076311399606936,493.7959],[175.83220346749778,-39.082594767917577,506.9723]]}}