{"type":"Feature","properties":{"featurecla":"River","scalerank":10,"rivernum":2027,"dissolve":"2027River","name":"Piako2","name_alt":null,"note":null,"min_zoom":7.2,"strokeweig":0.15,"name_en":"Piako","min_label":8.2},
"geometry":{"type": "LineString","coordinates": [[175.62714018051378,-37.820356310414226,165.3815],[175.63427329984503,-37.806090071751719,128.7365],[175.63843557555026,-37.794794676715242,86.5245],[175.63605271139187,-37.773379845577594,60.1378],[175.62594874843461,-37.763260409476423,63.7776],[175.62119849326172,-37.7525529939076,42.2621],[175.62311118187921,-37.7386016181095,49.2814]]}}