{"type":"Feature","properties":{"featurecla":"River","scalerank":10,"rivernum":2045,"dissolve":"2045River","name":"Waitoa","name_alt":null,"note":null,"min_zoom":7.2,"strokeweig":0.2,"name_en":"Waitoa","min_label":8.2},
"geometry":{"type": "LineString","coordinates": [[175.72138781650517,-37.88038238206714,89.8498],[175.73065551310833,-37.873893388258338,75.6305],[175.74253888761245,-37.864980857380246,81.6414],[175.74908402747604,-37.853685462343769,69.3332],[175.74789259539688,-37.837624338990537,62.6699],[175.74611318385,-37.825710018198635,64.8478],[175.74075947606562,-37.806090071751719,56.7584],[175.74433377230318,-37.790616927866132,55.4376],[175.74373031969165,-37.776938668671278,50.5568],[175.74136292867715,-37.764436368411729,48.6941],[175.74075947606562,-37.753140973375253,46.578],[175.73183147204364,-37.744816421964813,42.9822],[175.71756523338112,-37.736491870554367,42.0145],[175.71815321284879,-37.724577549762472,39.2858],[175.71221152559673,-37.706752488006281,35.979],[175.69554694963193,-37.694250187746725,33.636],[175.68126523782556,-37.690691364653041,36.8065],[175.66758697863071,-37.67760108492584,34.2552],[175.65629158359422,-37.662127941040261,27.455],[175.65152585527747,-37.646066817687029,25.8822],[175.64439273594621,-37.635947381585858,24.7158],[175.63964248077335,-37.62168114292335,21.5143],[175.63605271139187,-37.601442270721009,17.5046],[175.6336853203774,-37.584793167900116,13.9942],[175.63427329984503,-37.571702888172915,14.5479],[175.63964248077335,-37.560407493136445,14.2468],[175.63605271139187,-37.546729233941583,12.6241],[175.63071447675136,-37.529492151653045,8.4335],[175.61465335339813,-37.512224123076741,6.9313],[175.5932230491166,-37.504487551133948,6.1906],[175.57776537837489,-37.4949870407882,3.1133],[175.55992484347482,-37.493192156097471,2.9074],[175.54326026751005,-37.484867604687032,3.1411],[175.53255285194123,-37.467011596643069,5.1055],[175.52006602482555,-37.447391650196145,2.0269]]}}