{"type":"Feature","properties":{"featurecla":"River","scalerank":9,"rivernum":2018,"dissolve":"2018River","name":"Mokau1","name_alt":null,"note":null,"min_zoom":7.1,"strokeweig":0.15,"name_en":"Mokau","min_label":8.1},
"geometry":{"type": "LineString","coordinates": [[175.44195759449113,-38.4859800140842,459.7795],[175.4205427633535,-38.486444208400769,426.5519],[175.39770440297838,-38.489786407480054,389.6205],[175.38818841948876,-38.493592800875909,389.1649],[175.36963611996993,-38.491674131034095,363.9227],[175.355834075624,-38.488827072559147,358.5183],[175.33591410127363,-38.488345259120592,329.866]]}}