{"type": "Feature","bbox": [172.03,-34.1908,182.1474,-29.2318],"geometry": {"type": "MultiPolygon","coordinates": [[[[172.055,-34.1819,0.0],[172.0562,-34.1828,0.0],[172.0575,-34.1826,0.0],[172.0559,-34.1812,0.0],[172.055,-34.1819,0.0]]],
[[[172.0572,-34.1767,0.0],[172.0544,-34.1753,3.12],[172.0533,-34.1764,3.7784],[172.0558,-34.18,0.0],[172.0572,-34.1767,0.0]]],
[[[172.0744,-34.1756,0.0],[172.0683,-34.17,0.0],[172.0672,-34.1706,0.0],[172.0669,-34.1775,0.0],[172.0715,-34.1785,0.0],[172.0717,-34.1825,0.0],[172.0772,-34.18,0.314],[172.0744,-34.1756,0.0]]],
[[[172.1508,-34.1444,0.0],[172.1465,-34.1435,0.0],[172.1441,-34.1447,101.868],[172.1441,-34.149,149.6643],[172.1418,-34.1513,55.0651],[172.1374,-34.1523,0.0],[172.1272,-34.1523,8.0713],[172.1195,-34.1484,2.5726],[172.1194,-34.1517,0.0],[172.1217,-34.1544,22.3465],[172.1208,-34.1569,0.0],[172.1275,-34.1589,34.7978],[172.1297,-34.1642,72.6857],[172.1321,-34.166,17.6051],[172.1357,-34.1653,78.0299],[172.1367,-34.1702,3.9738],[172.1408,-34.1711,6.4851],[172.1456,-34.169,0.0],[172.1469,-34.1669,0.0],[172.1522,-34.1676,0.0],[172.1522,-34.1664,0.0],[172.1456,-34.1654,34.2291],[172.1455,-34.1629,24.6707],[172.1485,-34.1615,0.0],[172.1444,-34.1554,0.0],[172.1479,-34.1526,24.0204],[172.1537,-34.1532,0.0],[172.1538,-34.1507,82.5933],[172.1575,-34.1488,2.1613],[172.1563,-34.1476,0.0],[172.1581,-34.1453,0.0],[172.1553,-34.1436,0.0],[172.1508,-34.1444,0.0]]],
[[[172.1662,-34.134,0.0],[172.1679,-34.1352,0.0],[172.1693,-34.1336,8.4174],[172.1672,-34.1297,6.2489],[172.1656,-34.1323,0.0],[172.1662,-34.134,0.0]]],
[[[172.0327,-34.184,17.0816],[172.0306,-34.1832,24.1741],[172.03,-34.1847,0.0],[172.0352,-34.1873,31.4056],[172.0369,-34.1908,0.0],[172.0373,-34.1865,4.342],[172.0327,-34.184,17.0816]]],
[[[172.0353,-34.1783,0.0],[172.0378,-34.1797,0.0],[172.0392,-34.1781,0.0],[172.0383,-34.1774,0.0],[172.0353,-34.1783,0.0]]],
[[[172.049,-34.1761,0.0],[172.0462,-34.175,0.0],[172.0452,-34.1767,1.0616],[172.0406,-34.1766,0.0],[172.0404,-34.178,0.0],[172.0428,-34.1794,0.0],[172.0525,-34.1769,0.883],[172.0522,-34.1758,0.0],[172.049,-34.1761,0.0]]],
[[[182.1457,-29.2544,1.0],[182.1474,-29.2544,1.0],[182.1469,-29.2514,1.0],[182.1439,-29.2494,1.0],[182.1439,-29.2508,1.0],[182.1457,-29.2544,1.0]]],
[[[181.1736,-31.3542,1.0],[181.1733,-31.3561,1.0],[181.1764,-31.3544,1.0],[181.1753,-31.3528,1.0],[181.1736,-31.3542,1.0]]],
[[[181.445,-30.5389,1.0],[181.442,-30.5375,1.0],[181.4389,-30.5405,1.0],[181.4422,-30.5452,1.0],[181.4451,-30.5455,1.0],[181.4467,-30.5439,1.0],[181.445,-30.5389,1.0]]],
[[[181.4317,-30.5342,1.0],[181.43,-30.5344,1.0],[181.4297,-30.5372,1.0],[181.4342,-30.5394,1.0],[181.4345,-30.5364,1.0],[181.4317,-30.5342,1.0]]],
[[[181.5861,-30.2343,1.0],[181.5853,-30.2328,1.0],[181.5831,-30.2336,1.0],[181.5842,-30.2375,1.0],[181.5853,-30.2367,1.0],[181.5861,-30.2343,1.0]]],
[[[181.5766,-30.2253,1.0],[181.5653,-30.2258,1.0],[181.5592,-30.2301,1.0],[181.5603,-30.2344,1.0],[181.5686,-30.2431,1.0],[181.5749,-30.2403,1.0],[181.5748,-30.2387,1.0],[181.5833,-30.2322,1.0],[181.5766,-30.2253,1.0]]],
[[[182.0964,-29.2818,1.0],[182.0977,-29.281,1.0],[182.096,-29.2811,1.0],[182.0952,-29.2831,1.0],[182.096,-29.2831,1.0],[182.0964,-29.2818,1.0]]],
[[[182.0545,-29.2414,1.0],[182.0463,-29.2381,1.0],[182.025,-29.2397,1.0],[182.0178,-29.2428,1.0],[182.0196,-29.2459,1.0],[182.0224,-29.2448,1.0],[182.027,-29.2466,1.0],[182.0276,-29.2497,1.0],[182.0314,-29.2481,1.0],[182.0345,-29.2519,1.0],[182.0428,-29.2522,1.0],[182.0556,-29.2652,1.0],[182.0578,-29.2705,1.0],[182.0511,-29.2772,1.0],[182.0473,-29.2881,1.0],[182.0408,-29.293,1.0],[182.041,-29.2967,1.0],[182.0497,-29.2969,1.0],[182.0516,-29.2948,1.0],[182.0595,-29.2963,1.0],[182.065,-29.2954,1.0],[182.0692,-29.2975,1.0],[182.0714,-29.2967,1.0],[182.0755,-29.2997,1.0],[182.0781,-29.2958,1.0],[182.0775,-29.2928,1.0],[182.08,-29.2908,1.0],[182.0792,-29.2858,1.0],[182.0853,-29.2794,1.0],[182.0923,-29.2773,1.0],[182.0973,-29.2777,1.0],[182.0995,-29.2757,1.0],[182.1017,-29.2775,1.0],[182.1042,-29.2763,1.0],[182.1061,-29.2778,1.0],[182.1045,-29.2817,1.0],[182.1085,-29.2836,1.0],[182.1108,-29.2797,1.0],[182.1136,-29.2797,1.0],[182.1148,-29.2775,1.0],[182.1133,-29.2753,1.0],[182.1145,-29.2717,1.0],[182.1128,-29.2694,1.0],[182.1133,-29.2675,1.0],[182.1042,-29.2578,1.0],[182.102,-29.2519,1.0],[182.0826,-29.2483,1.0],[182.0705,-29.2419,1.0],[182.0661,-29.2428,1.0],[182.0638,-29.2414,1.0],[182.0545,-29.2414,1.0]]],
[[[182.1442,-29.2458,1.0],[182.1437,-29.2444,1.0],[182.1413,-29.2445,1.0],[182.1431,-29.2467,1.0],[182.1442,-29.2458,1.0]]],
[[[182.1259,-29.2423,1.0],[182.1229,-29.2406,1.0],[182.1188,-29.2491,1.0],[182.1217,-29.2486,1.0],[182.1269,-29.2439,1.0],[182.1259,-29.2423,1.0]]],
[[[182.1249,-29.2321,1.0],[182.124,-29.2328,1.0],[182.1241,-29.2342,1.0],[182.1263,-29.2318,1.0],[182.1249,-29.2321,1.0]]]]}
,"properties": {"GID_1": "NZL.10_1","GID_0": "NZL","country": "NewZealand","province": "NorthernIslands","VARNAME_1": "NA","NL_NAME_1": "NA","TYPE_1": "Groupofislands","ENGTYPE_1": "Groupofislands","CC_1": "NA","HASC_1": "NZ.01","ISO_1": "NA","name": "Northern_Islands.province","area_km2": 6.070285,"hist_schema_id": "Elevation0-9000","hist_area_km2": {"0": 1.824479,"25": 0.526329,"50": 0.421054,"75": 0.649158,"100": 0.684265,"125": 0.649142,"150": 0.438611,"175": 0.263172,"200": 0.245628,"225": 0.192995,"250": 0.122816,"275": 0.052636}}}