{"type":"Feature","properties":{"featurecla":"Lake Centerline","scalerank":10,"rivernum":2001,"dissolve":"2001Lake Centerline","name":"Ahuriri1","name_alt":null,"note":null,"min_zoom":7.2,"strokeweig":0.2,"name_en":"Ahuriri","min_label":8.2},
"geometry":{"type": "LineString","coordinates": [[170.14522192586639,-44.538083620915309,361.0],[170.153794047579,-44.54018796848375,361.0],[170.16023087543539,-44.538207406066391,361.0],[170.16369685966578,-44.530780297001314,365.4977],[170.17197499164456,-44.526602548152205,361.0],[170.17910811097582,-44.535422240166987,361.0],[170.17975798301902,-44.542013799462246,361.0],[170.18511169080341,-44.546315333462438,361.0],[170.19338982278219,-44.547305614671117,361.0],[170.20901769810663,-44.550926330340339,361.0],[170.209373580416,-44.561293336743681,361.0],[170.19625235440105,-44.563769039765376,310.8]]}}