{"type":"Feature","properties":{"featurecla":"River","scalerank":9,"rivernum":2029,"dissolve":"2029River","name":"Rakaia1","name_alt":null,"note":null,"min_zoom":7.1,"strokeweig":0.15,"name_en":"Rakaia","min_label":8.1},
"geometry":{"type": "LineString","coordinates": [[170.90238474876347,-43.30246024278825,988.577],[170.91309216433228,-43.295342596600882,988.241],[170.93122668896621,-43.287606024658089,894.972],[170.9562158163414,-43.282530833463618,849.72],[170.99280980163081,-43.27213288077251,786.2596],[170.99839577973148,-43.2715557635285,777.4343]]}}