{"type":"Feature","properties":{"featurecla":"River","scalerank":6,"rivernum":2040,"dissolve":"2040River","name":"Waimakariri1","name_alt":null,"note":null,"min_zoom":5.0,"strokeweig":0.15,"name_en":"Waimakariri","min_label":6.0},
"geometry":{"type": "LineString","coordinates": [[171.46040820985311,-42.936582282469772,884.6919],[171.45754567823428,-42.941348010786534,868.4546],[171.45468314661545,-42.950384326815708,839.4084],[171.45279542306139,-42.960132407463625,897.7181],[171.45350718768015,-42.971551587651184,775.2067],[171.458257442853,-42.979876139061631,787.2587],[171.46992419334273,-42.989067186529667,741.9997],[171.48241102045841,-42.992626009623351,727.0038],[171.4901475924012,-42.98965516599732,718.239],[171.50323787212841,-42.991450050688044,723.3919],[171.51308013364908,-42.997598795412458,694.3287]]}}