{"type":"Feature","properties":{"featurecla":"Lake Centerline","scalerank":10,"rivernum":2049,"dissolve":"2049Lake Centerline","name":"Ohau1","name_alt":null,"note":null,"min_zoom":7.2,"strokeweig":0.15,"name_en":"Ohau","min_label":8.2},
"geometry":{"type": "LineString","coordinates": [[170.1925992721799,-44.343425497450539,363.9817],[170.20049691597563,-44.351084342240362,361.0],[170.20916516199577,-44.364320693692875,361.0],[170.21576864569784,-44.378848357837413,361.0],[170.22105143265949,-44.4092243828669,361.0],[170.21841003917865,-44.429034833973091,361.0],[170.21708934243824,-44.443562498117629,361.0],[170.21973073591906,-44.452807375300523,361.0],[170.21841003917865,-44.463372949223825,361.0],[170.21224077016029,-44.471952727328805,361.0],[170.21005164405244,-44.475966125193196,361.0],[170.21224077016029,-44.479979523057587,361.0],[170.21114620710637,-44.484722629624592,361.0],[170.2031194113776,-44.486911755732443,361.0],[170.1987411591619,-44.491654862299448,361.0],[170.19910601351319,-44.498951949325615,361.0],[170.19983572221582,-44.508438162459626,361.0],[170.20202484832367,-44.515735249485793,361.0],[170.20421397443153,-44.522302627809339,361.0],[170.20238970267496,-44.529599714835506,361.0],[170.19253863518966,-44.535437384456436,361.0],[170.18597125686611,-44.538721073618213,361.0],[170.18560640251479,-44.541639908428678,361.0],[170.18560640251479,-44.546383014995683,361.0]]}}