{"type":"Feature","properties":{"featurecla":"River","scalerank":6,"rivernum":2005,"dissolve":"2005River","name":"Clarence1","name_alt":null,"note":null,"min_zoom":5.0,"strokeweig":0.15,"name_en":"Clarence","min_label":6.0},
"geometry":{"type": "LineString","coordinates": [[172.70621291665688,-42.119940694476512,1261.3904],[172.70378363306685,-42.129657828836656,1238.1743],[172.699977239671,-42.142995678866029,1204.585],[172.70236010382936,-42.1563335288954,1192.8018],[172.70902902884404,-42.176789025112143,1129.3604],[172.71425895147738,-42.18344247698294,1111.3727],[172.72471879674404,-42.187248870378795,1100.5575],[172.73059132686555,-42.201419296790505,1099.0]]}}