{"type":"Feature","properties":{"featurecla":"River","scalerank":10,"rivernum":2001,"dissolve":"2001River","name":"Ahuriri","name_alt":null,"note":null,"min_zoom":7.2,"strokeweig":0.2,"name_en":"Ahuriri","min_label":8.2},
"geometry":{"type": "LineString","coordinates": [[169.6255195782993,-44.210577868622934,794.3353],[169.62374603063449,-44.220358084368762,771.7477],[169.60589002259053,-44.243908209362615,762.0881],[169.60446649335307,-44.262475982025315,753.4796],[169.60875255420936,-44.274606926831609,742.0907],[169.61232685044695,-44.29815705182547,732.6164],[169.61945996977818,-44.312423290487978,728.0775],[169.61803644054072,-44.32529694620078,725.6656],[169.62801661834692,-44.343833772575707,737.8159],[169.64016303629711,-44.364536839094619,715.9274],[169.65371751034087,-44.38025755328237,713.4945],[169.67084628062221,-44.3931002627074,754.767],[169.68585523019124,-44.403807678276223,694.4158],[169.699409704235,-44.425934274032606,677.8814],[169.71440318066013,-44.458768285357813,629.9015],[169.73724154103525,-44.476624293401777,629.5328],[169.77649690707295,-44.500886183014366,565.2186],[169.81790304011076,-44.512305363201925,532.2213],[169.84931352219851,-44.50732301087077,507.5439],[169.87001658871742,-44.493768536827,489.5833],[169.91284625099271,-44.476624293401777,455.5702],[169.94568026231792,-44.459480049976548,427.0423],[169.98208856988069,-44.465916877832953,411.1829],[170.01063652034958,-44.473034524020321,395.9624],[170.047772065675,-44.475912528783041,380.0811],[170.05561694962498,-44.488043473589336,383.9418],[170.06061477510002,-44.506611246252035,361.3309],[170.06917142366876,-44.519453955677065,361.0],[170.08487666471262,-44.528026077389676,361.0],[170.1048679666128,-44.536598199102293,361.0],[170.11986144303791,-44.535855488195786,361.0],[170.129857093988,-44.531584900483359,361.0],[170.14522192586639,-44.538083620915309,361.0]]}}