{"type":"Feature","properties":{"featurecla":"River","scalerank":9,"rivernum":2009,"dissolve":"2009River","name":"Hurunui","name_alt":null,"note":null,"min_zoom":7.1,"strokeweig":0.2,"name_en":"Hurunui","min_label":8.1},
"geometry":{"type": "LineString","coordinates": [[171.99989297018456,-42.694874834472287,656.6185],[172.02144893400043,-42.693808654904984,620.9771],[172.05357118070691,-42.690837811278953,595.5864],[172.07973626701744,-42.694396634372637,576.6616],[172.12137449721354,-42.701545226847777,551.4678],[172.15171733237315,-42.694396634372637,604.1703],[172.16421963263269,-42.693808654904984,527.0],[172.19335556256925,-42.702721185783084,527.0],[172.23083151706015,-42.702721185783084,527.0],[172.27903036026373,-42.722960057985425,533.7611],[172.28794289114182,-42.734843432489548,522.7271],[172.28794289114182,-42.747933712216749,511.6926],[172.29923828617831,-42.754494325224236,505.3911],[172.31291654537316,-42.759229107253226,617.7511],[172.31709429422227,-42.772938312735853,501.5645],[172.32661027771189,-42.78423370777233,485.0062],[172.33671424066918,-42.797911966967185,475.4641],[172.34503879207961,-42.816943933946447,498.3052],[172.35515822818078,-42.826475390579965,505.9941],[172.36766052844035,-42.839565670307174,432.0677],[172.38430963126123,-42.849654160120572,424.6544],[172.40572446239887,-42.848478201185266,432.9226],[172.42546819399689,-42.834304801386075,392.9273],[172.43202880700437,-42.827187155198708,373.8708],[172.44213276996163,-42.814684854939152,434.0604],[172.46532701264613,-42.813508896003853,409.0213],[172.49328698364738,-42.8099191266224,351.915],[172.511730971159,-42.802801480435029,370.1064],[172.52601268296539,-42.790887159643127,333.4018],[172.55336920135511,-42.790299180175474,332.2593],[172.56587150161465,-42.801594575211951,297.7743],[172.58490346859392,-42.810538052377815,296.5933],[172.6015525714148,-42.816479739629884,279.5571],[172.61940857945876,-42.821245467946639,270.3978],[172.64199936953173,-42.823597385817251,259.0204],[172.66341420066937,-42.831952883515463,249.8406],[172.68304962026016,-42.840865414393562,249.3122],[172.70327301931863,-42.855719632523716,224.5529],[172.72587928253546,-42.868221932783271,209.2955],[172.74848554575229,-42.871811702164727,198.0764],[172.77466610520671,-42.872399681632373,185.0556],[172.80024321204957,-42.859309401905172,170.9723],[172.82343745473406,-42.8480140068687,157.337],[172.85675113351971,-42.839689455458256,145.2043],[172.89006481230535,-42.834304801386075,129.266],[172.91147964344302,-42.83907052970283,166.9837],[172.92634933471706,-42.8480140068687,148.8429],[172.94836761846625,-42.856926537746794,117.8043],[172.97037042907155,-42.871811702164727,127.3],[172.98643155242479,-42.870604796941649,108.4295],[173.01261211187918,-42.870016817473996,99.523],[173.03223205832609,-42.871811702164727,95.9574],[173.05067604583772,-42.877134463661363,86.9635],[173.06495775764409,-42.884871035604156,86.8599],[173.08279829254417,-42.886077940827228,94.9569],[173.09766798381821,-42.893814512770021,154.2815],[173.12086222650271,-42.899756200022082,56.131],[173.14229253078423,-42.899168220554436,47.231],[173.15716222205828,-42.891431648611643,42.4766],[173.17560620956991,-42.886077940827228,34.9433],[173.19819699964285,-42.88072423304282,30.2109],[173.22199469493887,-42.882519117733544,21.103],[173.25472039425688,-42.890812722856218,12.0254],[173.27136949707779,-42.902139064180467,24.1243],[173.28029750109977,-42.911639574526212,7.4231],[173.30005670584166,-42.927824483030534,0.0]]}}