{"type":"Feature","properties":{"featurecla":"River","scalerank":9,"rivernum":2038,"dissolve":"2038River","name":"Waiau3","name_alt":null,"note":null,"min_zoom":7.1,"strokeweig":0.15,"name_en":"Waiau","min_label":8.1},
"geometry":{"type": "LineString","coordinates": [[172.65669885622302,-42.111090056173957,1183.5082],[172.66675639974864,-42.116165247368428,1177.0736],[172.6691856833387,-42.125665757714174,1016.954],[172.66681829232419,-42.138756037441382,974.4734],[172.6602731524606,-42.154817160794614,893.3596],[172.6602731524606,-42.176819971399908,878.6711],[172.66146458453977,-42.191674189530069,837.3237],[172.65669885622302,-42.2077353128833,823.0266],[172.65482086822774,-42.212006292673962,818.4906]]}}