{"type":"Feature","properties":{"featurecla":"River","scalerank":10,"rivernum":2050,"dissolve":"2050River","name":"Tekapo","name_alt":null,"note":null,"min_zoom":7.2,"strokeweig":0.15,"name_en":"Tekapo","min_label":8.2},
"geometry":{"type": "LineString","coordinates": [[170.47888307491536,-44.003246298889849,711.366],[170.44993854789092,-44.034536076254561,661.464],[170.43429872298165,-44.071935657559337,623.5974],[170.43565870775637,-44.125655056160738,575.1711],[170.41933889045973,-44.156254713591913,547.6072],[170.38261930154232,-44.182094424311572,517.9257],[170.35677959082267,-44.224933944715225,480.3808],[170.3241399562294,-44.261653533632639,447.591],[170.31598004758109,-44.294973160613253,425.0925],[170.28906392338013,-44.301864232402593,410.1927],[170.24934079361987,-44.305173046423647,387.1564],[170.2303010067738,-44.313332955071957,375.5184],[170.21121986697338,-44.342820783673289,361.9837],[170.21120742315361,-44.342917559291344,361.0]]}}