{"type":"Feature","properties":{"featurecla":"River","scalerank":10,"rivernum":2001,"dissolve":"2001River","name":"Ahuriri2","name_alt":null,"note":null,"min_zoom":7.2,"strokeweig":0.15,"name_en":"Ahuriri","min_label":8.2},
"geometry":{"type": "LineString","coordinates": [[169.67941840233482,-44.091869097542883,1191.8036],[169.66728745752852,-44.116130987155479,1031.5201],[169.64658439100961,-44.142559116912054,877.2032],[169.63730050467825,-44.166109241905907,832.1701],[169.62801661834692,-44.196807959374908,792.1345],[169.6255195782993,-44.210577868622934,794.3353]]}}