{"type":"Feature","properties":{"featurecla":"River","scalerank":10,"rivernum":2024,"dissolve":"2024River","name":"Orari","name_alt":null,"note":null,"min_zoom":7.2,"strokeweig":0.2,"name_en":"Orari","min_label":8.2},
"geometry":{"type": "LineString","coordinates": [[170.92851888878621,-43.870200838238034,607.2555],[170.95421978078016,-43.877813625029738,574.1614],[170.97515494445736,-43.879732294871552,546.5643],[170.99895263975338,-43.873543037317319,515.7352],[171.02703639590572,-43.868313114683993,489.7806],[171.04130263456824,-43.852128206179671,466.5076],[171.06319713316634,-43.847362477862916,444.6759],[171.07367245157687,-43.847362477862916,433.9287],[171.09366375347705,-43.854046876021485,412.0384],[171.12077270156459,-43.867848920367429,391.3979],[171.13172768743556,-43.872614648684184,379.4349],[171.14218753270222,-43.886880887346692,495.5992],[171.170750956315,-43.897340732613344,348.4599],[171.17551668463176,-43.906377048642526,351.5161],[171.18217013650258,-43.920674233592806,373.5942],[171.19645184830895,-43.939211059967732,338.7549],[171.20929455773398,-43.957778832630432,248.8668],[171.22167307284246,-43.973963741134746,233.7],[171.24974135585092,-44.004879082618146,195.1027],[171.27211552190946,-44.048668079814341,150.106],[171.28449403701791,-44.073889304347837,126.4592],[171.29114748888873,-44.098646334564769,102.9407],[171.29543354974504,-44.1181424958606,89.4292],[171.31208265256592,-44.132439680810883,74.3069],[171.32065477427852,-44.144818195919349,64.512],[171.33065042522861,-44.152895177027624,59.8976],[171.33636001532238,-44.171927144006887,44.3758],[171.35302459128718,-44.201449902540581,27.6628],[171.3649079657913,-44.211909747807233,25.6449],[171.37300042004347,-44.22571179215317,14.8106],[171.39060885778525,-44.234748108182352,5.8451],[171.41107982714587,-44.2428560355784,0.0],[171.42738852080129,-44.252047083046435,0.0]]}}