{"type":"Feature","properties":{"featurecla":"River","scalerank":6,"rivernum":2040,"dissolve":"2040River","name":"Waimakariri","name_alt":null,"note":null,"min_zoom":5.0,"strokeweig":0.2,"name_en":"Waimakariri","min_label":6.0},
"geometry":{"type": "LineString","coordinates": [[171.51308013364908,-42.997598795412458,694.3287],[171.51750411079092,-43.000362581566144,688.6938],[171.5329772546765,-43.001538540501443,674.2195],[171.547243493339,-43.000362581566144,663.7216],[171.56926177708817,-43.006892248285858,649.5513],[171.57996919265702,-43.016423704919376,633.5244],[171.60019259171546,-43.021158486948366,620.6816],[171.62399028701148,-43.018806569077753,604.9393],[171.64421368606995,-43.014040840761,590.2139],[171.66265767358155,-43.017599663854682,578.6805],[171.69597135236722,-43.014752605379734,561.2474],[171.72832569623196,-43.005252095033988,540.8165],[171.752123391528,-43.005252095033988,529.8264],[171.76544576841349,-43.006180483667123,523.395],[171.79875944719913,-43.011905546904785,506.7648],[171.81494435570346,-43.022365392171437,494.0],[171.82159780757425,-43.042356694071614,563.3239],[171.83303246090571,-43.05473520918008,567.7032],[171.85491148635992,-43.065195054446733,455.9609],[171.87966851657686,-43.065195054446733,444.6355],[171.91488539206043,-43.080420628030147,427.9153],[171.93105482742087,-43.086145691267809,422.8359],[171.95104612932104,-43.101371264851224,425.5151],[171.96152144773157,-43.117556173355538,405.2479],[171.95865891611274,-43.131822412018046,510.9063],[171.94914293262312,-43.154660772393171,455.5912],[171.95010226754403,-43.172733404451527,475.9609],[171.94818359770221,-43.189877647876756,415.683],[171.93868308735645,-43.20606255638107,456.6082],[171.93486122081671,-43.209868949776926,433.2129],[171.9339173590397,-43.219400406410443,478.699],[171.94629587414818,-43.227013193202154,337.5938],[171.95579638449391,-43.2365137035479,407.9346],[171.95579638449391,-43.246045160181417,406.2471],[171.94723973592519,-43.257464340368976,326.3889],[171.94629587414818,-43.271730579031484,357.194],[171.95198999109806,-43.285068429060857,334.1284],[171.96342464442949,-43.301222391277406,295.1324],[171.97959407978993,-43.313600906385872,285.8889],[171.98245661140876,-43.32313236301939,282.3761],[171.99197259489841,-43.3383579366028,272.3988],[172.00054471661102,-43.3450113884736,267.875],[172.02338307698614,-43.349777116790364,256.75],[172.04622143736125,-43.355502180028026,288.9549],[172.07001913265728,-43.361196296977923,240.8893],[172.0852447062407,-43.374534147007289,232.7676],[172.10619534306176,-43.397372507382414,218.1713],[172.1290337034369,-43.418323144203491,201.875],[172.15091272889111,-43.429711378103278,191.0],[172.18328254589974,-43.437355111182754,177.2641],[172.21849942138334,-43.448774291370313,162.2594],[172.24610351007522,-43.450662014924355,150.7574],[172.27178892892528,-43.452580684766168,140.2434],[172.29654595914221,-43.459234136636972,129.1458],[172.32890030300695,-43.461152806478779,113.4675],[172.35744825347587,-43.455427743241117,102.6993],[172.44408238609122,-43.452549738478396,73.0469],[172.5164502800441,-43.44722697698176,52.4355],[172.5897465626301,-43.434848461873294,14.7757],[172.64399540509294,-43.418663553368972,7.8169],[172.69504130677149,-43.401550256231516,1.5591],[172.74310089168011,-43.390038237180647,0.0]]}}