{"type":"Feature","properties":{"featurecla":"River","scalerank":9,"rivernum":2044,"dissolve":"2044River","name":"Waitaki","name_alt":null,"note":null,"min_zoom":7.1,"strokeweig":0.2,"name_en":"Waitaki","min_label":8.1},
"geometry":{"type": "LineString","coordinates": [[170.19625235440105,-44.563769039765376,310.8],[170.19006309684681,-44.572341161477986,277.8672],[170.18815990014889,-44.584255482269882,271.015],[170.1967165487176,-44.589949599219779,269.5],[170.20386514119275,-44.595674662457448,269.5],[170.22005004969708,-44.603751643565715,270.8255],[170.23716334683451,-44.614211488832375,269.5],[170.25477178457632,-44.613747294515804,269.5],[170.27524275393694,-44.6127879595949,269.5],[170.29760144685162,-44.616594352990752,269.5],[170.32139914214764,-44.625661615307706,269.5],[170.33996691481033,-44.640392048286778,269.5],[170.35567215585419,-44.655153427553621,264.5706],[170.3580395468687,-44.658495626632906,235.4671],[170.3580395468687,-44.663230408661896,230.0],[170.36614747426472,-44.666108413424617,231.6578],[170.37328059359598,-44.660878490791291,230.0],[170.38231690962516,-44.665613272820273,230.0],[170.39373608981273,-44.670843195453607,230.0],[170.41182419501496,-44.679415317166217,230.0],[170.4289529652963,-44.6894109681163,210.6633],[170.44419401202362,-44.69844728414548,209.0548],[170.46749656671528,-44.717974391729086,200.246],[170.48392904552179,-44.735087688866543,195.7305],[170.49890704880303,-44.745083339816624,192.2736],[170.51605129222827,-44.75650252000419,184.7773],[170.5353153563658,-44.774358528048147,180.2272],[170.55173236202842,-44.790048295948132,169.625],[170.5845663733536,-44.80363371627967,159.609],[170.60384591063504,-44.812917602611023,154.625],[170.62026291629763,-44.82362501817984,147.5],[170.64525204367285,-44.830030899748472,141.944],[170.67379999414177,-44.840738315317296,134.2215],[170.703786946992,-44.852188441792627,125.1406],[170.73590919369849,-44.85859432336126,116.1104],[170.76659243802359,-44.869301738930083,107.9911],[170.79657939087386,-44.873603272930275,97.962],[170.8258545791054,-44.880720919117643,89.625],[170.84296787624282,-44.882887159261621,87.2385],[170.88743769177,-44.890097644312306,73.0],[170.92578014231847,-44.8976175922407,63.4497],[171.00079394387578,-44.912781273248569,42.1574],[171.01355928758139,-44.915349815133574,36.8779],[171.1083013475928,-44.943325259278708,10.3339],[171.17254584100573,-44.95332091022879,0.0]]}}