{"type":"Feature","properties":{"featurecla":"River","scalerank":10,"rivernum":2024,"dissolve":"2024River","name":"Orari1","name_alt":null,"note":null,"min_zoom":7.2,"strokeweig":0.15,"name_en":"Orari","min_label":8.2},
"geometry":{"type": "LineString","coordinates": [[170.89639664207976,-43.822141253329413,828.0335],[170.89758807415893,-43.835231533056621,766.3024],[170.90472119349019,-43.845938948625438,690.9885],[170.91519651190072,-43.8563987938921,719.7115],[170.92851888878621,-43.870200838238034,607.2555]]}}