{"type":"Feature","properties":{"featurecla":"River","scalerank":9,"rivernum":2038,"dissolve":"2038River","name":"Waiau2","name_alt":null,"note":null,"min_zoom":7.1,"strokeweig":0.2,"name_en":"Waiau","min_label":8.1},
"geometry":{"type": "LineString","coordinates": [[172.65482086822774,-42.212006292673962,818.4906],[172.65015371635943,-42.222620477301234,815.2335],[172.64182916494897,-42.232151933934752,830.2199],[172.632901160927,-42.2535667650724,824.0466],[172.62576804159573,-42.267245024267254,774.4767],[172.62338517743734,-42.284482106555792,762.2153],[172.61089835032169,-42.312426604413155,745.212],[172.6031617783789,-42.33446036130622,751.8165],[172.60019093475287,-42.342784912716667,735.8779],[172.60494118992574,-42.355875192443868,744.5836],[172.61625205810611,-42.374319179955485,663.0685],[172.61803146965295,-42.389761377553292,628.2245],[172.61566407863845,-42.414765978072396,596.3946],[172.60673607461646,-42.437975693900768,570.2117],[172.59126293073089,-42.453417891498582,610.7335],[172.57758467153604,-42.466508171225783,528.5331],[172.57103953167243,-42.487923002363431,512.2707],[172.56390641234117,-42.509337833501071,548.4523],[172.55794925194522,-42.535518392955481,508.1706],[172.54903672106713,-42.551579516308713,511.6314],[172.53772585288678,-42.565257775503568,546.3106],[172.53950526443361,-42.574170306381667,451.9845],[172.55140411208163,-42.583113783547532,437.2065],[172.55675781986605,-42.587848565576522,430.4982],[172.562714980262,-42.592026314425624,384.9138],[172.57580525998918,-42.5932332196487,549.6664],[172.59245436281009,-42.585496647705909,374.3877],[172.61148632978933,-42.5801429399215,397.8507],[172.6275474531426,-42.578348055230769,369.3065],[172.64004975340214,-42.573582326914014,371.2048],[172.66502340763347,-42.573582326914014,385.4213],[172.6864382387711,-42.569435524352677,329.8574],[172.7019113826567,-42.565257775503568,322.4107],[172.72867992157876,-42.571199462755629,307.875],[172.76199360036441,-42.574170306381667,295.1124],[172.78042211473212,-42.578936034698422,287.7377],[172.77745127110609,-42.590262376022672,292.0233],[172.76912671969566,-42.605704573620478,285.3924],[172.76556789660197,-42.615824009721649,290.8261],[172.76973017230719,-42.622972602196789,273.2486],[172.77209756332169,-42.639033725550021,265.4221],[172.76615587606963,-42.664007379781353,253.8349],[172.77092160438639,-42.667566202875037,351.8875],[172.78459986358124,-42.6723319311918,256.0185],[172.79589525861772,-42.686629116142079,243.7173],[172.81136840250329,-42.693746762329447,232.0346],[172.83278323364095,-42.6985124906462,226.6734],[172.85537402371389,-42.702690239495311,215.6962],[172.88334946785903,-42.6985124906462,202.9957],[172.90476429899667,-42.68959995976811,194.3253],[172.93331224946559,-42.677685638976207,180.8273],[172.96186019993448,-42.664007379781353,165.729],[172.98626134784203,-42.647358276960468,151.5086],[173.01838359454851,-42.644387433334437,144.148],[173.03325328582255,-42.6503291205865,133.817],[173.03741556152778,-42.6634194003137,129.4368],[173.04038640515381,-42.676509680040908,124.0968],[173.0689343556227,-42.686629116142079,112.7836],[173.10166005494071,-42.677685638976207,101.172],[173.11236747050953,-42.666978223407384,96.6781],[173.11711772568242,-42.665214285004431,96.5009],[173.13794457735241,-42.665802264472084,90.6034],[173.14210685305761,-42.674126815882524,246.6946],[173.15043140446807,-42.684246251983694,81.375],[173.153417721238,-42.693158782861794,98.3643],[173.15103485707959,-42.702690239495311,85.3947],[173.15877142902238,-42.7074250215243,68.5154],[173.17542053184329,-42.713985634531788,59.4012],[173.18493651533291,-42.721722206474574,93.712],[173.20160109129768,-42.721722206474574,50.7449],[173.22122103774461,-42.723486144877533,45.5238],[173.24443075357297,-42.724074124345186,39.2371],[173.26405070001988,-42.727663893726643,32.0898],[173.28665696323674,-42.721103280719156,26.3623],[173.29499698779105,-42.72289816540988,25.4653],[173.30390951866914,-42.731810696287972,24.3681],[173.32294148564841,-42.74193013238915,61.7239],[173.33663521798715,-42.756227317339423,43.5673],[173.35150490926119,-42.760962099368413,5.5544],[173.36221232483,-42.769905576534278,37.3919],[173.37172830831966,-42.776435243253992,0.0],[173.39024966155071,-42.792929614636023,0.0]]}}