{"type":"Feature","properties":{"featurecla":"River","scalerank":6,"rivernum":2005,"dissolve":"2005River","name":"Clarence","name_alt":null,"note":null,"min_zoom":5.0,"strokeweig":0.2,"name_en":"Clarence","min_label":6.0},
"geometry":{"type": "LineString","coordinates": [[172.73059132686555,-42.201419296790505,1099.0],[172.73281125099621,-42.2067759779624,1099.0],[172.73900050855042,-42.21104656567482,1099.0],[172.74423043118375,-42.219154493070867,1093.0879],[172.75328222035682,-42.224848610020757,1064.7399],[172.76041533968808,-42.232461396812468,1048.1396],[172.76279820384644,-42.245799246841834,1035.396],[172.76945165571726,-42.254835562871015,1031.5026],[172.77373771657358,-42.265295408137668,998.093],[172.77612058073194,-42.278633258167041,981.4632],[172.77707991565285,-42.293363691146119,965.0378],[172.773273522257,-42.307660876096392,947.5402],[172.76945165571726,-42.317192332729917,971.6176],[172.77089065809861,-42.323845784600714,940.9819],[172.77660024819238,-42.330004095867174,920.3098],[172.78658042599858,-42.345260615738361,902.1217],[172.79230548923627,-42.3657161119551,881.0621],[172.79563221517165,-42.386171608171843,860.6447],[172.79895894110706,-42.405203575151106,840.7186],[172.79563221517165,-42.425690017655619,826.1988],[172.79657607694867,-42.438532727080648,814.6045],[172.80276533450291,-42.446145513872359,809.0464],[172.81799090808633,-42.451839630822249,804.135],[172.83846187744695,-42.457564694059919,787.7275],[172.85082491941154,-42.455181829901534,789.5903],[172.86320343452,-42.454222494980627,783.421],[172.86606596613882,-42.456605359139012,770.7593],[172.87415842039098,-42.462330422376674,786.9268],[172.89414972229116,-42.462794616693245,755.4025],[172.90699243171619,-42.457564694059919,752.3717],[172.91270202181,-42.444721984634882,743.264],[172.9188912793642,-42.427113546893089,737.723],[172.92412120199754,-42.409969303467868,724.8936],[172.93602004964555,-42.3985501232803,709.8408],[172.96458347325833,-42.394743729884453,703.5095],[172.99503462042514,-42.39282506004264,689.2681],[173.01787298080029,-42.391401530805169,680.1473],[173.05308985628386,-42.395238870488789,679.8828],[173.07831108081737,-42.3975907883594,667.1974],[173.09830238271752,-42.4028516572805,713.4338],[173.11020123036553,-42.40139718175525,675.8898],[173.12256427233012,-42.398085928963738,713.9678],[173.1349427874386,-42.399509458201209,691.4056],[173.1511276959429,-42.395238870488789,619.796],[173.15826081527416,-42.380477491221946,617.1437],[173.16635326952633,-42.370481840271857,614.8478],[173.17729278225343,-42.350954732688251,606.7067],[173.18883574759207,-42.333377241234231,598.0811],[173.20082743410342,-42.319080056283951,711.7205],[173.20964712611817,-42.312457550700927,709.3745],[173.2259403466297,-42.300264713319088,993.632],[173.24636489655867,-42.287979037073931,880.9136],[173.25860415337218,-42.2806138205844,870.0499],[173.27834788497017,-42.265914333893093,859.6677],[173.2928152745032,-42.255145025748732,681.3284],[173.29852486459697,-42.250905384324078,560.3309],[173.3053794673383,-42.245768300554069,537.2463],[173.3122340700796,-42.2406931093596,690.7066],[173.32114660095769,-42.237072393690369,786.8239],[173.33213253311646,-42.232616128251323,622.5089],[173.33773381120304,-42.230357049244027,512.7708],[173.3440004344767,-42.227819453646788,531.1229],[173.34998854116043,-42.225900783804981,575.1213],[173.36345017634088,-42.221939658970271,567.1823],[173.36854084067923,-42.220423290869483,636.9939],[173.3724245997945,-42.21927827822195,621.2509],[173.37878406193147,-42.217390554667908,538.7308],[173.39639249967328,-42.212160632034582,735.4843],[173.41248456931427,-42.20739490371782,546.56],[173.42297536086869,-42.204300274940707,762.5764],[173.42959786645173,-42.202319712523348,762.5356],[173.43792241786218,-42.19984400950166,585.7791],[173.44335349136603,-42.198637104278582,522.0002],[173.45331819602833,-42.198203856249783,457.0301],[173.46187484459705,-42.194397462853935,511.2026],[173.46473737621591,-42.187713064695359,453.8803],[173.46996729884921,-42.182483142062033,522.147],[173.4799629497993,-42.1815547534289,450.9977],[173.48519287243263,-42.1815547534289,443.0882],[173.48995860074939,-42.180100277903655,446.3607],[173.49280565922433,-42.175365495874665,435.2304],[173.5008981134765,-42.168216903399525,446.5139],[173.51327662858498,-42.165834039241147,425.3088],[173.52850220216837,-42.159180587370351,432.0141],[173.54182457905387,-42.155838388291059,450.1646],[173.55372342670188,-42.146337877945314,406.7816],[173.56800513850828,-42.142036343945122,397.885],[173.58180718285422,-42.139189285470174,393.205],[173.59703275643761,-42.133495168520284,381.1006],[173.60274234653139,-42.123004376965859,376.2821],[173.6146411941794,-42.115855784490719,369.3304],[173.62321331589203,-42.114927395857585,365.9102],[173.63129029700031,-42.109697473224259,358.8178],[173.64366881210876,-42.103013075065682,397.8826],[173.649858069663,-42.091129700561559,340.3449],[173.65651152153379,-42.083516913769849,369.7426],[173.66984937156317,-42.077791850532186,328.8141],[173.69078453524037,-42.073521262819767,317.5278],[173.70220371542791,-42.069250675107341,310.5644],[173.71552609231341,-42.06067855339473,333.0974],[173.72456240834259,-42.059224077869487,340.9089],[173.7331345300552,-42.056377019394539,310.9515],[173.73932378760944,-42.050682902444642,279.8789],[173.74931943855952,-42.0425749750486,273.3411],[173.76264181544502,-42.03307446470285,363.835],[173.77215779893464,-42.02639006654428,246.0063],[173.78119411496382,-42.017848891119442,323.3369],[173.78691917820149,-42.011659633565209,231.8133],[173.79643516169114,-42.010205158039959,416.4316],[173.80452761594327,-42.010205158039959,250.2759],[173.813084264512,-42.008317434485917,226.1869],[173.81975318952669,-42.004975235406633,207.7515],[173.82213605368509,-42.00024045337765,206.2807],[173.82546277962047,-41.996898254298358,232.8248],[173.82736597631839,-41.99309186090251,255.4753],[173.82878950555587,-41.988821273190084,207.3603],[173.83307556641216,-41.987366797664841,197.1108],[173.84164768812479,-41.989749661823218,175.2794],[173.85210753339146,-41.992627666585939,287.7229],[173.85973579332705,-41.995474725060888,187.7859],[173.86829244189576,-42.002128176931684,266.7993],[173.87496136691044,-42.009740963723395,168.7579],[173.8820944862417,-42.0173537505151,254.2085],[173.886380547098,-42.017848891119442,215.2945],[173.89351366642927,-42.016889556198535,157.8008],[173.89922325652304,-42.01308316280268,140.2116],[173.90302964991889,-42.012618968486109,224.2796],[173.90825957255223,-42.012618968486109,140.8004],[173.91064243671059,-42.016889556198535,194.6022],[173.91398463578989,-42.018777279752577,125.1242],[173.91398463578989,-42.024502342990239,124.7465],[173.9096985749336,-42.030691600544472,120.8675],[173.89684039236465,-42.0359215231778,121.0627],[173.88542121217711,-42.048764232602835,108.6391],[173.88542121217711,-42.055912825077968,104.1442],[173.87923195462287,-42.062566276948772,100.9631],[173.86877210935623,-42.068291340186434,95.0587],[173.85781712348523,-42.073026122215424,253.2691],[173.85125651047775,-42.076925354474589,87.0222],[173.84887364631936,-42.087013844287995,160.7479],[173.84887364631936,-42.099516144547543,114.0835],[173.85303592202459,-42.115577267900775,70.3459],[173.870288477457,-42.133433275944739,170.6663],[173.88814448550096,-42.150082378765624,36.763],[173.90658847301259,-42.161996699557527,52.9429],[173.9262084194595,-42.172085189370925,1.6375],[173.93869524657515,-42.178057822910759,0.0]]}}