{"type":"Feature","properties":{"featurecla":"River","scalerank":10,"rivernum":2049,"dissolve":"2049River","name":"Ohau","name_alt":null,"note":null,"min_zoom":7.2,"strokeweig":0.15,"name_en":"Ohau","min_label":8.2},
"geometry":{"type": "LineString","coordinates": [[169.93479419989521,-44.277634715877795,523.5635],[169.96087417479819,-44.274513315344819,518.5431],[170.00889548544953,-44.263489513078511,515.421],[170.046719462925,-44.270551225123583,487.9807],[170.09690593906069,-44.281116799046877,461.4661],[170.17916557924434,-44.336928690913332,385.1482],[170.1925992721799,-44.343425497450539,363.9817]]}}