{"type":"Feature","properties":{"featurecla":"River","scalerank":9,"rivernum":2030,"dissolve":"2030River","name":"Rangitata","name_alt":null,"note":null,"min_zoom":7.1,"strokeweig":0.2,"name_en":"Rangitata","min_label":8.1},
"geometry":{"type": "LineString","coordinates": [[170.88268578861812,-43.590440967795452,502.0014],[170.8872210677556,-43.594469414196958,498.0889],[170.92290213755575,-43.615884245334605,473.0],[170.94789126493097,-43.638505981695324,459.0509],[170.97643921539986,-43.6718041873371,441.75],[171.02997629324398,-43.697984746791505,430.8659],[171.06448140410885,-43.705133339266645,422.2675],[171.12159277819052,-43.718192672706074,567.7683],[171.153715024897,-43.737255585973109,408.8779],[171.18941156784103,-43.742021314289872,420.2145],[171.22866693387874,-43.759846376046063,448.1619],[171.25244915603088,-43.78958575859415,341.6335],[171.26317204474358,-43.827680638840455,311.0591],[171.26198061266439,-43.852654293071787,290.2052],[171.26911373199567,-43.880010811461496,264.7527],[171.2738794603124,-43.909750194009582,234.7527],[171.28339544380205,-43.933547889305608,219.6239],[171.30004454662293,-43.968053000170457,187.2296],[171.32741653815651,-44.009706703510446,153.8309],[171.35938405342415,-44.032978311914363,129.8275],[171.41024427737605,-44.059251710232076,97.443],[171.44642048778053,-44.074941478132061,76.9987],[171.46593212222027,-44.099698508348993,61.9609],[171.48496408919954,-44.124455538565925,41.9084],[171.50305219440179,-44.148717428178514,26.7912],[171.51637457128726,-44.166325865920307,16.2471],[171.5325440066477,-44.182974968741192,0.0]]}}