{"type":"Feature","properties":{"featurecla":"River","scalerank":9,"rivernum":2029,"dissolve":"2029River","name":"Rakaia","name_alt":null,"note":null,"min_zoom":7.1,"strokeweig":0.2,"name_en":"Rakaia","min_label":8.1},
"geometry":{"type": "LineString","coordinates": [[170.99839577973148,-43.2715557635285,777.4343],[171.03294713687,-43.267986078211173,731.6301],[171.0549654206192,-43.280488378470721,701.3171],[171.08857308913869,-43.303388631421385,650.3767],[171.14478702087501,-43.304255127478974,596.4214],[171.19047921476914,-43.294971241147628,554.024],[171.25114941194448,-43.289988888816474,503.6755],[171.29826513507609,-43.281416767103856,472.2938],[171.34180656197012,-43.279993237866385,448.75],[171.37250527943911,-43.291412418053945,429.9562],[171.40962535162063,-43.320687606285468,402.7898],[171.4374615374708,-43.339255378948167,389.75],[171.48386549598365,-43.34850831899174,372.5901],[171.50241779550248,-43.369242331798425,359.9554],[171.53240474835272,-43.383508570460933,346.4529],[171.56166446344037,-43.395639515267227,336.2339],[171.58951612243442,-43.419189640261081,324.5436],[171.62163836914087,-43.461307537917641,302.7099],[171.62092660452214,-43.469879659630251,300.1311],[171.6159287790471,-43.479875310580333,292.5564],[171.62092660452214,-43.486281192148965,290.6339],[171.63876713942221,-43.504137200192929,379.5081],[171.65160984884724,-43.518403438855437,345.4193],[171.67375191774752,-43.534835917661923,263.6278],[171.69445498426643,-43.5426962747558,255.6866],[171.71085651678516,-43.544119803993276,249.75],[171.72513822859153,-43.551268396468416,244.2131],[171.73728464654172,-43.567669928987129,235.875],[171.757260475298,-43.5812244030309,227.6273],[171.78367313191069,-43.597656881837388,217.0026],[171.80366443381087,-43.611923120499895,206.4863],[171.82365573571104,-43.637608539349962,192.25],[171.84791762532365,-43.655464547393926,181.1598],[171.86933245646128,-43.666883727581485,171.7326],[171.91647912588064,-43.690650476589738,151.625],[171.96930443910603,-43.711384489396416,131.5933],[171.9807236192936,-43.717078606346313,128.0619],[172.04783064432536,-43.743506736102887,101.5811],[172.09564265893181,-43.762755327096549,82.3801],[172.12420608254459,-43.795589338421756,62.2418],[172.159175387726,-43.818458645084647,45.8675],[172.19915799152636,-43.860545596453434,19.1024],[172.23199200285154,-43.896257612541355,0.0]]}}