{"type":"Feature","properties":{"featurecla":"River","scalerank":9,"rivernum":2009,"dissolve":"2009River","name":"Hurunui1","name_alt":null,"note":null,"min_zoom":7.1,"strokeweig":0.15,"name_en":"Hurunui","min_label":8.1},
"geometry":{"type": "LineString","coordinates": [[171.88961774809528,-42.730572844777129,954.6564],[171.89487861701639,-42.725095351841631,850.3085],[171.90270802782248,-42.722495863668854,823.5281],[171.92483462357887,-42.71652323012902,762.4549],[171.94815265141443,-42.709405583941653,725.1401],[171.97325009079685,-42.704516070473808,660.1998],[171.99704778609288,-42.695015560128063,707.9349],[171.99989297018456,-42.694874834472287,656.6185]]}}