{"type": "Feature","bbox": [174.7777,-38.4945,175.6989,-37.9626],"geometry": {"type": "MultiPolygon","coordinates": [[[[175.1024,-37.9789,771.868],[175.101,-37.9786,771.868],[175.099,-37.9838,836.4581],[175.0401,-37.9868,423.2895],[175.0402,-37.9783,515.7195],[175.0324,-37.9782,509.5371],[175.0157,-37.9743,244.6429],[175.0154,-37.9772,236.8243],[175.0129,-37.9791,228.8727],[175.0076,-37.979,340.0051],[175.0061,-37.9759,396.8273],[174.9954,-37.9785,348.8766],[174.9908,-37.9724,482.2585],[174.9775,-37.9765,282.2037],[174.9773,-37.9734,338.6451],[174.9759,-37.9729,310.1205],[174.9766,-37.9693,359.2656],[174.9697,-37.9685,322.7504],[174.9577,-37.9626,209.9074],[174.9531,-37.963,286.7982],[174.9539,-37.9705,332.8876],[174.9475,-37.9717,305.032],[174.941,-37.9751,317.9473],[174.9414,-37.9785,328.3904],[174.9375,-37.981,315.1805],[174.9352,-37.9877,334.4227],[174.926,-37.9903,195.9098],[174.9214,-37.9846,166.6553],[174.914,-37.9841,190.5712],[174.9136,-37.9828,144.7684],[174.9099,-37.9844,175.2696],[174.8938,-37.9761,50.1675],[174.8684,-37.9789,6.7031],[174.8665,-37.9826,4.3042],[174.8672,-37.9841,5.8371],[174.8648,-37.9844,0.0],[174.8653,-37.9883,3.9739],[174.8688,-37.99,8.3137],[174.8696,-37.9913,33.8879],[174.8682,-37.9911,8.3137],[174.8678,-37.9931,0.0],[174.873,-37.9977,33.5335],[174.8676,-37.9967,18.2236],[174.8652,-37.9908,2.548],[174.8606,-37.9895,0.0],[174.8583,-37.9942,7.8489],[174.8606,-37.9958,14.2389],[174.8583,-37.9958,4.3359],[174.8567,-37.9971,5.3506],[174.8574,-37.9987,8.7137],[174.8548,-37.9992,1.2595],[174.8587,-38.0017,3.2288],[174.8517,-38.0024,3.4428],[174.8542,-38.006,18.4591],[174.8529,-38.0122,0.0],[174.8551,-38.016,3.8118],[174.8509,-38.0139,3.0932],[174.8476,-38.0093,0.0],[174.8463,-38.0145,21.4736],[174.8442,-38.0161,0.0],[174.8477,-38.0212,22.2167],[174.8509,-38.0224,5.7189],[174.8486,-38.0247,8.2003],[174.8447,-38.023,8.4158],[174.8351,-38.0254,14.0436],[174.8345,-38.0236,8.3439],[174.8378,-38.0207,0.0],[174.8318,-38.0167,12.1254],[174.8229,-38.0193,3.2953],[174.8221,-38.0183,6.8672],[174.8242,-38.0159,21.7633],[174.8247,-38.0123,48.5413],[174.8285,-38.0086,0.0],[174.8238,-38.0065,5.4863],[174.8143,-38.0089,0.0],[174.8064,-38.0161,11.7354],[174.7981,-38.019,9.5399],[174.7858,-38.0325,1.0057],[174.7828,-38.0534,1.9912],[174.7784,-38.0679,0.0],[174.7777,-38.0807,0.0],[174.7794,-38.0838,0.0],[174.782,-38.0845,0.0],[174.7852,-38.0829,13.7846],[174.7859,-38.0809,21.1972],[174.7938,-38.0797,0.0],[174.8047,-38.0807,0.0],[174.8111,-38.0791,1.2225],[174.8169,-38.0702,1.6267],[174.8252,-38.0646,0.0],[174.8226,-38.0647,11.188],[174.8289,-38.0598,0.6544],[174.8299,-38.0546,0.0],[174.8278,-38.0492,0.2701],[174.8281,-38.0448,2.1254],[174.8322,-38.0444,4.2758],[174.8344,-38.046,6.6903],[174.8422,-38.0396,4.5352],[174.8432,-38.0396,4.5352],[174.8409,-38.0419,1.238],[174.8438,-38.0442,10.6633],[174.8427,-38.0462,6.6364],[174.8407,-38.0443,0.0],[174.8394,-38.0475,31.1526],[174.8411,-38.0508,6.2871],[174.8409,-38.0584,0.0],[174.8421,-38.0601,0.0],[174.8442,-38.0577,32.3153],[174.8471,-38.0579,30.6246],[174.8461,-38.0611,30.0378],[174.8473,-38.0616,1.3815],[174.8533,-38.0573,55.6078],[174.854,-38.0536,0.0],[174.8564,-38.0509,1.17],[174.8538,-38.0435,1.0],[174.8588,-38.0368,5.3071],[174.8559,-38.0418,20.3104],[174.8576,-38.0455,5.0391],[174.8613,-38.0471,6.6971],[174.8586,-38.0474,3.2228],[174.86,-38.0493,27.0364],[174.8588,-38.0526,4.75],[174.8566,-38.0513,0.6189],[174.8598,-38.0558,0.0],[174.8669,-38.0536,0.0],[174.8743,-38.0486,2.7175],[174.8791,-38.0492,31.9337],[174.8884,-38.0467,3.2048],[174.8865,-38.0511,0.0],[174.8794,-38.0528,0.0],[174.8823,-38.0571,2.203],[174.8901,-38.0563,0.0],[174.8917,-38.0584,1.9625],[174.8902,-38.0648,0.0],[174.9003,-38.0565,0.0],[174.9038,-38.0564,0.0],[174.9067,-38.0542,13.8101],[174.9065,-38.0512,3.3411],[174.9052,-38.0511,3.3411],[174.9067,-38.051,3.3411],[174.9077,-38.0538,1.4194],[174.9084,-38.0499,2.8347],[174.909,-38.0536,1.4194],[174.9111,-38.0551,2.3366],[174.9072,-38.0551,1.7771],[174.9075,-38.058,16.6888],[174.9064,-38.0585,21.1999],[174.9024,-38.0579,0.0],[174.9022,-38.0604,8.0689],[174.8967,-38.0626,0.0],[174.8938,-38.0679,0.0],[174.8956,-38.0705,1.1802],[174.8991,-38.0657,15.0442],[174.9073,-38.0659,13.4818],[174.8972,-38.0719,0.0],[174.8999,-38.0751,1.1823],[174.8945,-38.0759,1.1804],[174.8903,-38.0718,0.4516],[174.8839,-38.069,2.3349],[174.8769,-38.0746,5.4479],[174.8759,-38.0783,0.0],[174.8788,-38.0759,6.1782],[174.8823,-38.0783,0.0],[174.8926,-38.0792,7.7112],[174.9022,-38.0751,1.5953],[174.9113,-38.079,0.9644],[174.9129,-38.0743,28.83],[174.9145,-38.076,0.2863],[174.9174,-38.075,3.5404],[174.9125,-38.0818,7.863],[174.91,-38.0824,6.2397],[174.9084,-38.0811,0.0],[174.9034,-38.0839,10.8953],[174.9077,-38.0865,0.0],[174.9125,-38.0844,16.175],[174.9136,-38.0851,15.684],[174.9128,-38.0905,0.0],[174.9148,-38.0898,9.7051],[174.9151,-38.0878,36.2932],[174.9187,-38.0877,15.8511],[174.9212,-38.0919,1.3042],[174.9164,-38.0879,13.3106],[174.9162,-38.0922,2.0459],[174.9118,-38.093,49.103],[174.9101,-38.09,19.4995],[174.9107,-38.0877,0.0],[174.9082,-38.0887,20.2637],[174.9038,-38.0873,5.4655],[174.9032,-38.0897,1.3747],[174.906,-38.0903,4.2872],[174.9038,-38.0916,16.0558],[174.8989,-38.089,4.0885],[174.8975,-38.0962,8.9827],[174.8957,-38.0905,12.7352],[174.899,-38.0874,0.0],[174.896,-38.0857,0.7023],[174.8887,-38.0886,6.6908],[174.8886,-38.091,3.1322],[174.8832,-38.0894,0.0],[174.8796,-38.0938,0.0],[174.873,-38.0943,0.0],[174.8712,-38.0967,13.246],[174.8712,-38.0952,5.5409],[174.8693,-38.0952,0.0],[174.8699,-38.097,3.365],[174.8654,-38.0986,0.0],[174.8669,-38.0994,14.9105],[174.8671,-38.1032,0.0],[174.8694,-38.1035,0.657],[174.8668,-38.1053,4.4999],[174.8695,-38.1072,4.2497],[174.8715,-38.1056,26.5671],[174.8739,-38.1063,2.6612],[174.8757,-38.1112,12.7354],[174.8743,-38.114,25.1758],[174.8753,-38.1154,7.1964],[174.8797,-38.1136,23.1334],[174.8849,-38.1143,3.1303],[174.8862,-38.1118,31.8182],[174.8913,-38.1103,1.3428],[174.8944,-38.1067,7.1178],[174.892,-38.1112,1.3428],[174.8863,-38.115,0.0],[174.8896,-38.1164,1.0349],[174.8922,-38.1151,11.3113],[174.8907,-38.1166,17.7173],[174.8921,-38.1176,17.7173],[174.8907,-38.1175,17.7173],[174.8923,-38.1197,26.7976],[174.8882,-38.1195,31.8258],[174.8878,-38.1176,0.0],[174.8832,-38.1165,17.249],[174.8813,-38.1201,19.1529],[174.8802,-38.1162,0.0],[174.878,-38.1165,0.9766],[174.8768,-38.1202,20.8804],[174.8745,-38.1177,0.0],[174.8729,-38.1194,13.8027],[174.874,-38.1209,9.8406],[174.8715,-38.1213,6.6812],[174.873,-38.1214,27.5838],[174.8746,-38.1269,24.4922],[174.8692,-38.1211,0.0],[174.8676,-38.1222,2.5594],[174.8683,-38.1233,17.3182],[174.8662,-38.1237,9.3088],[174.8665,-38.1206,1.6711],[174.8627,-38.1214,22.5445],[174.8672,-38.1191,1.3305],[174.8636,-38.1169,30.1602],[174.8646,-38.1143,0.322],[174.8608,-38.114,17.7509],[174.863,-38.1131,9.8054],[174.8607,-38.1108,13.2019],[174.8619,-38.1078,2.4653],[174.8607,-38.1069,2.792],[174.8599,-38.1091,8.187],[174.8591,-38.1084,17.1906],[174.8608,-38.1043,5.2613],[174.8592,-38.0995,0.0],[174.8564,-38.1011,0.0],[174.8538,-38.1002,0.0],[174.8524,-38.1023,0.0],[174.8549,-38.1018,12.0811],[174.855,-38.104,12.4971],[174.8528,-38.1034,3.3151],[174.8497,-38.107,4.6152],[174.8527,-38.1074,7.3465],[174.8498,-38.1096,22.0011],[174.85,-38.1136,15.1158],[174.8528,-38.1121,18.9642],[174.8563,-38.1132,4.6811],[174.8542,-38.1169,18.5582],[174.8549,-38.1194,5.5591],[174.8517,-38.1149,4.5561],[174.8493,-38.1176,2.9167],[174.8466,-38.1165,5.3695],[174.8483,-38.1149,1.1635],[174.8459,-38.1087,1.2348],[174.8495,-38.1045,6.2452],[174.8479,-38.1022,0.0],[174.844,-38.1059,2.7038],[174.8411,-38.103,10.7713],[174.8382,-38.1036,8.4795],[174.8362,-38.105,0.0],[174.8367,-38.1066,6.0472],[174.8316,-38.1075,3.909],[174.8329,-38.11,20.551],[174.8304,-38.1093,3.2601],[174.83,-38.1077,0.0],[174.8271,-38.1079,0.0],[174.828,-38.1096,16.6263],[174.8263,-38.1113,0.0],[174.8301,-38.1135,3.1978],[174.8298,-38.1174,3.7227],[174.8251,-38.1213,24.7265],[174.82,-38.1215,16.1231],[174.8196,-38.1227,16.1231],[174.823,-38.1252,13.5448],[174.818,-38.1257,0.0],[174.8184,-38.1289,0.0],[174.828,-38.1257,20.5897],[174.8277,-38.1272,15.544],[174.8294,-38.1274,7.5795],[174.8321,-38.1233,10.0672],[174.8329,-38.1258,0.0],[174.8359,-38.1245,9.042],[174.8353,-38.1182,5.6084],[174.8369,-38.118,5.6084],[174.8381,-38.1201,1.766],[174.8373,-38.1176,23.156],[174.8425,-38.117,10.6399],[174.8414,-38.1188,8.3373],[174.8424,-38.1201,22.376],[174.8401,-38.1212,7.2467],[174.8435,-38.1238,14.382],[174.8429,-38.1283,0.0],[174.847,-38.128,0.0],[174.8465,-38.1267,17.1005],[174.8554,-38.1294,32.3625],[174.8518,-38.1377,3.5525],[174.8583,-38.1403,14.8775],[174.8562,-38.1478,19.9379],[174.852,-38.1511,4.7381],[174.8559,-38.1509,57.703],[174.8574,-38.1525,6.6603],[174.8546,-38.1552,26.6713],[174.8527,-38.155,16.6199],[174.8478,-38.1609,46.0422],[174.8403,-38.1631,89.4141],[174.8373,-38.1682,197.805],[174.8394,-38.1739,226.815],[174.8352,-38.1736,226.8327],[174.8359,-38.2074,272.9502],[174.8507,-38.2074,255.6357],[174.8492,-38.2032,239.5869],[174.8688,-38.1966,138.5514],[174.8677,-38.1944,85.4501],[174.8824,-38.1896,255.8701],[174.8844,-38.1921,287.5075],[174.891,-38.1938,268.6414],[174.892,-38.192,286.0392],[174.8967,-38.1929,286.0089],[174.9007,-38.1907,323.8638],[174.905,-38.1928,323.2681],[174.9188,-38.1935,256.9488],[174.9335,-38.1905,116.3727],[174.94,-38.1934,137.314],[174.9485,-38.1939,307.7384],[174.9528,-38.1958,312.7873],[174.9781,-38.1974,475.9717],[174.9797,-38.196,472.7596],[174.9782,-38.1939,437.3573],[174.9726,-38.1911,252.8911],[174.9755,-38.1827,410.5122],[174.9731,-38.1783,412.122],[174.979,-38.1767,445.8315],[174.9741,-38.1708,308.5367],[174.9762,-38.1648,389.3212],[174.9855,-38.1647,397.8679],[174.9875,-38.1623,402.0198],[174.993,-38.1633,459.7634],[174.9947,-38.1652,467.5479],[175.0186,-38.1636,481.0323],[175.0207,-38.1655,411.591],[175.0204,-38.1673,384.8086],[175.0134,-38.1716,420.6039],[175.0121,-38.1742,409.8068],[175.0485,-38.1747,345.3128],[175.0499,-38.177,344.1167],[175.0518,-38.1768,373.2124],[175.0518,-38.1948,328.5596],[175.0566,-38.201,220.3986],[175.0744,-38.2053,135.9912],[175.0839,-38.2056,267.1554],[175.1119,-38.2168,157.1699],[175.1304,-38.2215,42.7265],[175.1315,-38.2228,42.2114],[175.1267,-38.2277,51.2292],[175.1411,-38.2277,109.4391],[175.1407,-38.2248,61.308],[175.1495,-38.2229,40.8399],[175.1631,-38.2232,93.4293],[175.1794,-38.2169,40.806399999999996],[175.1846,-38.2245,70.6559],[175.1875,-38.2363,80.5962],[175.1874,-38.2444,37.1294],[175.1815,-38.2471,38.7381],[175.1889,-38.2532,36.8315],[175.1832,-38.2596,56.6834],[175.1835,-38.261,56.6834],[175.186,-38.2611,71.6176],[175.1897,-38.2561,43.5202],[175.1918,-38.2562,49.2095],[175.1948,-38.2571,42.2878],[175.1955,-38.2598,39.2572],[175.2187,-38.2648,79.8329],[175.2112,-38.2761,122.2824],[175.2123,-38.2855,45.7845],[175.2307,-38.2883,75.3219],[175.2201,-38.306,151.5874],[175.2193,-38.3099,80.2009],[175.2346,-38.3065,71.4461],[175.2578,-38.3108,158.2432],[175.2665,-38.3096,228.9396],[175.2646,-38.3015,137.5048],[175.2885,-38.3038,279.4572],[175.2885,-38.3082,283.1154],[175.2939,-38.3094,322.1263],[175.3042,-38.3059,351.9982],[175.3192,-38.3068,275.7225],[175.3182,-38.3149,315.5785],[175.3237,-38.3162,349.4355],[175.3224,-38.3236,372.0035],[175.3251,-38.3261,381.7717],[175.3305,-38.3391,214.9352],[175.3309,-38.3444,142.4973],[175.3354,-38.3479,158.752],[175.3313,-38.3496,123.8597],[175.3339,-38.3513,124.2293],[175.331,-38.3534,138.3103],[175.3334,-38.3562,157.9738],[175.3333,-38.3634,152.3726],[175.3491,-38.3596,286.4949],[175.3543,-38.3729,362.3265],[175.3443,-38.3753,142.421],[175.3452,-38.3774,167.3031],[175.3502,-38.3825,150.0279],[175.3522,-38.3892,162.273],[175.355,-38.3901,172.7357],[175.358,-38.3937,180.3015],[175.3688,-38.3986,213.2117],[175.372,-38.4025,237.6275],[175.3878,-38.3985,434.6737],[175.3893,-38.4023,449.3641],[175.4116,-38.397,500.0977],[175.4026,-38.3738,514.3786],[175.4225,-38.3691,745.1949],[175.4352,-38.4024,709.6587],[175.4732,-38.3965,681.6313],[175.4798,-38.4138,582.7006],[175.5238,-38.4478,534.4692],[175.5231,-38.4501,529.2861],[175.5439,-38.4679,598.7881],[175.5382,-38.4703,583.1317],[175.5655,-38.4945,552.0237],[175.6122,-38.4876,585.6825],[175.6059,-38.4616,530.0101],[175.6154,-38.4487,513.3646],[175.6114,-38.4478,508.7878],[175.6111,-38.4421,488.6044],[175.617,-38.4413,463.0421],[175.6232,-38.4309,424.0894],[175.631,-38.4269,381.2071],[175.6364,-38.4277,359.3481],[175.6407,-38.4265,384.0954],[175.6476,-38.4221,297.1235],[175.649,-38.4135,286.9897],[175.6531,-38.4094,277.3792],[175.6594,-38.4077,277.0342],[175.6664,-38.408,282.6758],[175.6723,-38.4049,272.7695],[175.6753,-38.3996,271.0999],[175.6794,-38.3972,263.3863],[175.681,-38.3886,256.6074],[175.6836,-38.3857,257.3181],[175.6868,-38.3849,248.7278],[175.6883,-38.382,248.9218],[175.6957,-38.3815,241.6316],[175.6989,-38.3786,240.3369],[175.6948,-38.3719,239.7108],[175.6978,-38.3687,250.5584],[175.6964,-38.3682,238.4094],[175.6968,-38.366,244.1801],[175.6938,-38.3656,223.6179],[175.6897,-38.3621,222.2398],[175.6913,-38.3542,227.2262],[175.6894,-38.3523,224.9082],[175.6929,-38.3475,219.5714],[175.6869,-38.3418,225.2877],[175.6865,-38.3383,223.6584],[175.6891,-38.3368,226.7858],[175.6889,-38.3324,195.9341],[175.6854,-38.333,218.1674],[175.6788,-38.331,210.135],[175.6776,-38.3277,192.6326],[175.6675,-38.3248,212.2588],[175.6611,-38.3213,198.8973],[175.6603,-38.3194,223.3851],[175.6655,-38.3103,171.9246],[175.6679,-38.3105,180.1554],[175.669,-38.3075,170.6155],[175.6726,-38.3081,187.0316],[175.6751,-38.306,187.7915],[175.6745,-38.3035,172.8673],[175.6833,-38.3012,125.0],[175.6809,-38.2931,124.5],[175.6857,-38.2867,114.69],[175.6854,-38.2806,120.1137],[175.6812,-38.2757,126.0382],[175.6794,-38.2675,114.7802],[175.6799,-38.2607,115.3237],[175.6777,-38.2575,120.2901],[175.6809,-38.2499,129.1295],[175.6777,-38.2418,113.1967],[175.6773,-38.2307,110.5],[175.6806,-38.2283,110.5],[175.6753,-38.2238,110.5],[175.6778,-38.2193,110.0],[175.6776,-38.2133,110.0],[175.6729,-38.2039,110.0],[175.6724,-38.1929,110.0],[175.6753,-38.1852,109.5],[175.6697,-38.1704,109.5],[175.6656,-38.1713,109.5],[175.6627,-38.1684,109.5],[175.6649,-38.1646,109.5],[175.659,-38.162,109.5],[175.6498,-38.1617,131.9909],[175.6527,-38.1578,109.0],[175.6469,-38.156,109.0],[175.6423,-38.1492,109.0],[175.5702,-38.1717,168.0254],[175.5524,-38.1987,247.7489],[175.5173,-38.1585,89.8002],[175.5156,-38.159,87.4023],[175.5131,-38.1563,87.0413],[175.5113,-38.1569,98.2534],[175.5065,-38.1494,80.6968],[175.5087,-38.1454,80.6827],[175.5051,-38.1448,79.7601],[175.5043,-38.1432,77.9443],[175.508,-38.1411,87.9996],[175.506,-38.1361,109.8364],[175.5007,-38.1357,80.7194],[175.4989,-38.1313,72.1628],[175.4912,-38.1308,71.9652],[175.4906,-38.128,65.0333],[175.4879,-38.1273,66.1554],[175.4869,-38.1286,68.0569],[175.4825,-38.1271,81.3379],[175.4745,-38.1289,74.1082],[175.4726,-38.1255,60.6801],[175.4733,-38.1228,59.7088],[175.4707,-38.1221,64.2067],[175.4691,-38.1238,59.7928],[175.4722,-38.1276,62.7152],[175.4704,-38.129,60.0515],[175.4674,-38.1285,61.7174],[175.4684,-38.1264,59.0003],[175.4672,-38.1259,86.4415],[175.4598,-38.127,60.4626],[175.4567,-38.1256,57.8572],[175.4514,-38.1261,53.2647],[175.4509,-38.1249,53.2647],[175.4532,-38.1244,66.7046],[175.4517,-38.1213,51.5779],[175.4542,-38.1194,50.7824],[175.4519,-38.1152,50.5479],[175.4532,-38.1138,51.2559],[175.4491,-38.1097,49.3235],[175.4468,-38.1099,51.5953],[175.4446,-38.1049,47.8692],[175.4427,-38.107,48.0736],[175.439,-38.1052,49.2665],[175.4391,-38.1033,45.5883],[175.4329,-38.1025,45.2964],[175.4335,-38.1012,43.8861],[175.4316,-38.1004,43.7394],[175.4332,-38.0999,43.8861],[175.4295,-38.098,43.0334],[175.423,-38.0989,44.2618],[175.419,-38.0978,41.9829],[175.4194,-38.0955,43.2321],[175.4163,-38.094,46.6856],[175.4109,-38.0948,44.6468],[175.4091,-38.0906,41.0442],[175.4051,-38.0888,39.1866],[175.4008,-38.0885,40.1745],[175.3999,-38.0902,38.2663],[175.3994,-38.089,40.1745],[175.3961,-38.0876,39.3634],[175.3934,-38.0895,36.8187],[175.3878,-38.0888,41.7926],[175.3819,-38.0859,34.9763],[175.3806,-38.0832,36.8931],[175.3779,-38.0822,34.4478],[175.3784,-38.0808,35.7149],[175.3765,-38.0828,34.4478],[175.3699,-38.0814,42.5169],[175.3533,-38.0867,44.6083],[175.3421,-38.0835,46.6404],[175.3401,-38.0855,50.9443],[175.3317,-38.0851,109.7672],[175.3218,-38.0894,95.4058],[175.3191,-38.0859,66.523],[175.2997,-38.0862,62.649],[175.2981,-38.0884,47.5462],[175.2839,-38.0884,41.2952],[175.2838,-38.0918,43.9137],[175.282,-38.0911,44.3005],[175.2826,-38.0883,43.0386],[175.254,-38.0875,41.8129],[175.2442,-38.0851,31.364],[175.2083,-38.069,29.7364],[175.205,-38.0661,23.9687],[175.2055,-38.0632,24.1623],[175.2003,-38.067,25.7742],[175.1993,-38.0653,28.3848],[175.201,-38.0626,23.1331],[175.1981,-38.0604,21.8926],[175.1981,-38.0586,25.0333],[175.1954,-38.0598,24.9637],[175.1971,-38.0556,26.215],[175.195,-38.0547,24.479],[175.1915,-38.0567,26.4338],[175.192,-38.0524,26.3898],[175.196,-38.0506,27.8217],[175.1959,-38.046,21.9459],[175.1994,-38.0469,26.8611],[175.1977,-38.0421,24.7578],[175.2064,-38.0374,31.0772],[175.2033,-38.0329,37.7463],[175.2044,-38.0269,25.58],[175.2016,-38.021,24.1122],[175.2038,-38.0201,24.6852],[175.2039,-38.0166,20.8043],[175.2079,-38.0147,40.2523],[175.211,-38.0105,23.3809],[175.2139,-38.0106,27.1378],[175.214,-38.0061,28.5048],[175.2023,-38.0053,23.2577],[175.2008,-38.0017,18.7322],[175.1958,-38.0031,28.8794],[175.1967,-38.0074,27.8366],[175.1629,-38.0016,234.7991],[175.1629,-38.0119,344.6853],[175.1546,-38.0112,320.5077],[175.1513,-38.0272,184.2505],[175.1312,-38.0272,294.5431],[175.1312,-38.0136,397.9334],[175.1043,-38.004,559.2803],[175.1202,-37.9944,862.426],[175.1024,-37.9789,771.868]],
[[175.3999,-38.0902,38.2663],[175.399,-38.0919,42.0745],[175.3979,-38.0914,43.8424],[175.3999,-38.0902,38.2663]]],
[[[174.8639,-38.1029,0.0],[174.8621,-38.1027,0.0],[174.8619,-38.1053,2.5609],[174.8649,-38.1084,14.2207],[174.8632,-38.1115,4.645],[174.8664,-38.1135,17.8419],[174.8655,-38.1177,12.7584],[174.8688,-38.1186,5.11],[174.8696,-38.1158,29.7117],[174.8726,-38.117,0.0],[174.8724,-38.1108,0.0],[174.8705,-38.1092,0.0],[174.8673,-38.1107,9.6165],[174.8639,-38.1029,0.0]]],
[[[174.8038,-38.1001,2.1872],[174.8,-38.1012,0.0],[174.802,-38.1049,0.0],[174.8018,-38.1035,0.0],[174.8051,-38.1023,0.0],[174.8038,-38.1001,2.1872]]]]}
,"properties": {"GID_2": "NZL.17.4_1","GID_0": "NZL","country": "NewZealand","GID_1": "NZL.17_1","province": "Waikato","NL_NAME_1": "NA","county": "Otorohanga","VARNAME_2": "NA","NL_NAME_2": "NA","TYPE_2": "District","ENGTYPE_2": "District","CC_2": "018","HASC_2": "NZ.WK.OH","name": "Otorohanga.county","area_km2": 1997.18,"hist_schema_id": "Elevation0-9000","hist_area_km2": {"0": 22.265,"25": 101.725,"50": 236.591,"75": 174.081,"100": 124.497,"125": 114.38,"150": 111.032,"175": 98.978,"200": 91.972,"225": 83.357,"250": 81.209,"275": 74.774,"300": 73.246,"325": 74.588,"350": 69.236,"375": 58.349,"400": 41.825,"425": 36.471,"450": 33.836,"475": 26.431,"500": 23.364,"525": 28.523,"550": 44.809,"575": 39.342,"600": 29.691,"625": 20.871,"650": 19.142,"675": 15.703,"700": 10.649,"725": 9.784,"750": 7.123,"775": 6.293,"800": 4.346,"825": 3.28,"850": 2.565,"875": 1.367,"900": 0.683,"925": 0.566,"950": 0.183,"975": 0.05}}}