{"type": "Feature","bbox": [176.0938,-40.4313,176.9673,-39.6801],"geometry": {"type": "MultiPolygon","coordinates": [[[[176.6226,-40.428,23.9028],[176.6263,-40.4201,5.0782],[176.6355,-40.4078,21.6026],[176.6353,-40.4044,5.5673],[176.6326,-40.4021,6.0948],[176.6356,-40.3968,3.6254],[176.6361,-40.3888,0.0],[176.6499,-40.3667,20.0911],[176.6496,-40.36,45.01],[176.6529,-40.3519,0.0],[176.6729,-40.3221,0.0],[176.6668,-40.3152,5.6956],[176.6669,-40.3011,3.2234],[176.6721,-40.2904,0.0],[176.686,-40.2703,0.0],[176.6856,-40.2689,0.0],[176.6782,-40.2656,1.5937],[176.687,-40.2564,1.6159],[176.6964,-40.25,0.8342],[176.7017,-40.2491,0.849],[176.7179,-40.2383,2.0276],[176.7226,-40.2369,0.0],[176.7238,-40.2347,1.7157],[176.7324,-40.2322,0.4831],[176.7403,-40.2275,2.6632],[176.7677,-40.2181,1.9946],[176.782,-40.2171,7.5133],[176.787,-40.2183,4.8325],[176.7945,-40.2053,36.6864],[176.8143,-40.191,78.7611],[176.8226,-40.1833,22.639],[176.8275,-40.1726,0.3198],[176.826,-40.1708,4.4649],[176.8274,-40.1681,0.0],[176.8373,-40.162,11.4545],[176.8453,-40.1547,38.6883],[176.8464,-40.1507,0.0703],[176.8448,-40.1465,3.8396],[176.8457,-40.143,0.0],[176.8616,-40.1368,12.648],[176.8694,-40.1309,35.6709],[176.8712,-40.1235,0.5504],[176.8737,-40.1196,2.325],[176.8699,-40.1059,13.8208],[176.8705,-40.0984,0.0],[176.8887,-40.0863,2.9001],[176.8948,-40.0767,8.2743],[176.8939,-40.074,1.5989],[176.8889,-40.0725,0.0],[176.8824,-40.0669,58.8785],[176.8793,-40.0607,35.5363],[176.8793,-40.0498,33.6375],[176.883,-40.0378,0.0],[176.8883,-40.0254,32.5043],[176.904,-40.0032,10.7317],[176.9035,-40.0009,6.0325],[176.9082,-39.9873,0.2412],[176.908,-39.9816,1.5038],[176.9138,-39.9755,2.8083],[176.9155,-39.9708,-0.2135],[176.9272,-39.9584,5.7094],[176.9321,-39.9353,0.0],[176.9406,-39.9248,3.0538],[176.9499,-39.9214,8.6346],[176.9588,-39.9122,0.0],[176.9629,-39.9038,0.0],[176.9614,-39.8972,0.0],[176.9625,-39.8927,29.8413],[176.9648,-39.8861,62.0633],[176.9673,-39.8841,0.0],[176.9173,-39.8763,526.6918],[176.9116,-39.8833,567.4288],[176.9112,-39.8858,565.0301],[176.9074,-39.8886,520.6593],[176.9063,-39.8926,509.9291],[176.8534,-39.8889,289.2222],[176.8593,-39.8442,300.0227],[176.8402,-39.8435,149.1363],[176.833,-39.852,178.9409],[176.8208,-39.8482,328.8298],[176.8135,-39.8427,149.886],[176.8212,-39.8331,196.4377],[176.8213,-39.8303,163.7687],[176.8206,-39.8285,119.1465],[176.8158,-39.8261,95.1389],[176.8166,-39.8222,83.0383],[176.8126,-39.8175,111.9161],[176.8141,-39.8136,91.2898],[176.813,-39.8117,86.3136],[176.8091,-39.8107,141.4673],[176.811,-39.8086,76.603],[176.8099,-39.8059,95.2538],[176.8059,-39.8072,57.1777],[176.8028,-39.8063,53.1402],[176.7939,-39.8171,55.8068],[176.7871,-39.8201,60.4589],[176.7822,-39.8182,55.6679],[176.7748,-39.8073,60.7466],[176.7692,-39.8074,60.9941],[176.7601,-39.8171,62.2431],[176.7448,-39.827,64.4627],[176.7355,-39.8379,69.8952],[176.7337,-39.8418,71.6392],[176.7345,-39.8468,75.6449],[176.7318,-39.85,72.4165],[176.7324,-39.8551,73.4492],[176.7298,-39.8577,72.0],[176.7194,-39.8545,72.2705],[176.7144,-39.8574,72.7374],[176.705,-39.8579,108.463],[176.6929,-39.8632,92.7253],[176.6817,-39.8616,87.0437],[176.6787,-39.8603,109.394],[176.6774,-39.8559,135.9071],[176.671,-39.8538,143.7861],[176.671,-39.8479,138.9345],[176.6676,-39.8401,198.6034],[176.67,-39.8345,190.9912],[176.6586,-39.8255,86.0711],[176.6524,-39.8259,102.2027],[176.6423,-39.8206,96.2785],[176.6398,-39.8246,80.8095],[176.6345,-39.821,142.7037],[176.6208,-39.816,171.6046],[176.6024,-39.8113,421.1003],[176.5842,-39.8014,284.1005],[176.5715,-39.7912,288.0171],[176.571,-39.7924,281.2132],[176.5476,-39.7855,357.9858],[176.4942,-39.7672,242.8203],[176.4948,-39.7648,246.2026],[176.4916,-39.7633,267.4821],[176.4944,-39.7607,312.1693],[176.492,-39.7603,253.4919],[176.4872,-39.7558,256.1275],[176.4813,-39.7575,288.184],[176.4812,-39.7539,272.1669],[176.4788,-39.7521,278.6815],[176.4779,-39.7481,287.6385],[176.4807,-39.7462,290.1271],[176.4799,-39.7429,286.454],[176.4813,-39.7398,278.3964],[176.4798,-39.7377,282.3705],[176.4819,-39.7353,288.5783],[176.4834,-39.7363,304.3637],[176.4837,-39.7336,294.5388],[176.4873,-39.7341,289.4058],[176.4906,-39.7321,291.2465],[176.4912,-39.7286,310.2738],[176.4929,-39.729,297.3757],[176.4925,-39.7266,307.8327],[176.4948,-39.7254,319.6209],[176.4938,-39.7241,314.8434],[176.4952,-39.7235,314.8434],[176.494,-39.7216,312.2929],[176.4948,-39.72,319.0388],[176.4868,-39.7172,312.8345],[176.4884,-39.7157,313.4737],[176.4861,-39.714,317.7878],[176.4871,-39.712,321.9901],[176.486,-39.7118,321.9901],[176.4882,-39.71,341.7679],[176.4859,-39.7083,337.0872],[176.4813,-39.7086,338.149],[176.4789,-39.7063,338.838],[176.4788,-39.7036,344.6473],[176.4692,-39.7019,349.7657],[176.4652,-39.6974,376.8709],[176.459,-39.6986,378.309],[176.4508,-39.6972,388.3548],[176.4469,-39.6934,395.4672],[176.4454,-39.6886,418.4894],[176.4326,-39.6877,464.0034],[176.4094,-39.6801,450.4304],[176.409,-39.6813,447.6849],[176.3884,-39.6885,347.2579],[176.3849,-39.6958,411.3293],[176.3759,-39.7047,449.1994],[176.3747,-39.7085,477.4514],[176.3593,-39.7176,511.8195],[176.3639,-39.7266,487.0918],[176.3579,-39.7465,449.0294],[176.3594,-39.7486,446.0827],[176.3569,-39.7494,450.8249],[176.3478,-39.7772,424.1967],[176.336,-39.7699,472.5615],[176.3263,-39.7682,558.8672],[176.3273,-39.764,597.8978],[176.3156,-39.7521,579.6385],[176.2689,-39.7485,422.1334],[176.1839,-39.6862,1380.2416],[176.1805,-39.7111,1488.4424],[176.1691,-39.7179,1433.1196],[176.1768,-39.744,1452.4878],[176.138,-39.8239,1615.0607],[176.135,-39.8506,1585.2273],[176.1268,-39.8615,1642.213],[176.1172,-39.8868,1587.574],[176.1231,-39.888,1493.766],[176.1269,-39.8916,1342.3115],[176.1261,-39.9048,1309.9368],[176.1203,-39.9097,1289.626],[176.1068,-39.9171,1382.7356],[176.1136,-39.9247,1371.3639],[176.1154,-39.9294,1385.1807],[176.1117,-39.938,1430.3173],[176.1096,-39.9392,1477.0881],[176.1097,-39.9419,1422.2426],[176.1245,-39.9478,1208.9747],[176.1171,-39.9577,1162.5088],[176.1211,-39.9624,1204.1355],[176.1161,-39.9696,1152.196],[176.1121,-39.9705,1186.9558],[176.1032,-39.9772,1136.537],[176.1016,-39.9843,1097.2793],[176.0938,-39.9955,1055.0044],[176.1255,-40.0136,936.1838],[176.1245,-40.0188,770.21],[176.1334,-40.0247,576.5519],[176.1365,-40.0285,532.7667],[176.1543,-40.0122,627.1406],[176.1652,-40.0176,503.7752],[176.1806,-40.0162,466.9393],[176.1813,-40.0182,462.373],[176.205,-40.019,424.5818],[176.2135,-40.0178,418.3765],[176.2135,-40.0256,401.2104],[176.2175,-40.0263,392.2475],[176.2178,-40.0288,392.0168],[176.2388,-40.0273,364.7381],[176.2387,-40.0384,375.5722],[176.2487,-40.0402,362.0514],[176.2511,-40.0437,357.5963],[176.2622,-40.0451,353.0672],[176.2611,-40.0517,359.6219],[176.2641,-40.0522,356.7618],[176.2652,-40.0543,357.9771],[176.2638,-40.0627,355.5026],[176.2672,-40.0648,331.2858],[176.2801,-40.0677,312.1677],[176.2834,-40.0667,309.5343],[176.2932,-40.0687,328.0091],[176.2972,-40.0681,308.6935],[176.2989,-40.0711,304.111],[176.3027,-40.0723,296.7221],[176.2998,-40.0761,302.2262],[176.3079,-40.0789,305.506],[176.3106,-40.0814,330.1836],[176.3169,-40.0825,326.5451],[176.3209,-40.0856,380.2929],[176.3198,-40.0891,399.6453],[176.3229,-40.0897,397.8122],[176.3232,-40.0937,427.9469],[176.3204,-40.0946,447.8852],[176.3198,-40.0982,463.9532],[176.3162,-40.1026,402.4434],[176.318,-40.1064,377.0499],[176.3162,-40.1081,351.1762],[176.3171,-40.1091,366.2628],[176.3121,-40.1127,339.4316],[176.3093,-40.1178,303.7669],[176.3132,-40.1239,312.6422],[176.322,-40.1198,315.2098],[176.3215,-40.1213,314.6022],[176.3244,-40.1231,323.7217],[176.3296,-40.1225,318.9855],[176.3345,-40.1276,327.1511],[176.3365,-40.1279,324.6363],[176.3338,-40.1386,344.9366],[176.3371,-40.1388,343.9319],[176.3366,-40.1397,355.9572],[176.3432,-40.1455,399.473],[176.3697,-40.1516,280.0714],[176.3721,-40.1548,237.4938],[176.3788,-40.1581,205.729],[176.3783,-40.1632,234.8477],[176.3711,-40.1662,274.4194],[176.366,-40.1732,353.2385],[176.3656,-40.1797,344.0563],[176.3635,-40.181,345.8812],[176.367,-40.1863,331.639],[176.3659,-40.1864,330.6808],[176.3658,-40.1891,326.9144],[176.3613,-40.1921,320.2764],[176.3639,-40.1928,337.0885],[176.3622,-40.1965,311.6628],[176.3587,-40.1979,310.2494],[176.3611,-40.2012,303.4423],[176.3617,-40.2153,384.7009],[176.3645,-40.2137,389.8584],[176.3702,-40.2144,441.6459],[176.3703,-40.2342,449.2724],[176.3803,-40.2374,441.2177],[176.3803,-40.2463,375.9751],[176.3785,-40.2465,375.9751],[176.3812,-40.2491,377.919],[176.3792,-40.2539,409.9683],[176.3797,-40.2585,409.4965],[176.3817,-40.2628,436.7972],[176.3863,-40.2657,480.1342],[176.3795,-40.2676,482.2337],[176.3781,-40.2725,476.5348],[176.3809,-40.2726,445.4737],[176.3814,-40.2744,458.2465],[176.3833,-40.2748,425.1246],[176.3807,-40.2772,426.012],[176.3861,-40.2793,412.7299],[176.3926,-40.277,411.3715],[176.3992,-40.2849,465.9595],[176.3891,-40.3125,463.1919],[176.39,-40.3201,444.3965],[176.3889,-40.323,429.4728],[176.392,-40.3293,405.4901],[176.3971,-40.329,287.6739],[176.4059,-40.333,228.0662],[176.3707,-40.3586,327.4722],[176.3919,-40.3617,283.3641],[176.3869,-40.3722,293.6974],[176.3915,-40.3778,277.386],[176.4033,-40.3767,325.2243],[176.407,-40.3786,368.0509],[176.4178,-40.3923,350.8689],[176.4282,-40.3911,376.2527],[176.4305,-40.3893,367.3939],[176.4322,-40.392,411.2601],[176.4364,-40.3915,442.909],[176.4371,-40.3952,457.2724],[176.4349,-40.396,441.5951],[176.4361,-40.3995,412.6405],[176.4339,-40.4029,418.634],[176.4403,-40.4067,378.2087],[176.4589,-40.4098,250.9046],[176.4603,-40.4116,246.5667],[176.4617,-40.4117,230.7242],[176.4616,-40.409,209.9824],[176.4682,-40.4112,205.3468],[176.4805,-40.4088,192.472],[176.4829,-40.4098,192.1255],[176.4834,-40.412,233.6063],[176.4916,-40.4119,278.317],[176.4929,-40.4001,136.0143],[176.55,-40.4212,197.8806],[176.5587,-40.4072,108.0952],[176.5786,-40.4146,252.4847],[176.5793,-40.4182,239.9899],[176.5831,-40.4198,217.1427],[176.5873,-40.4313,259.1971],[176.5897,-40.4226,158.8152],[176.6226,-40.428,23.9028]]]]}
,"properties": {"GID_2": "NZL.6.1_1","GID_0": "NZL","country": "NewZealand","GID_1": "NZL.6_1","province": "Hawke'sBay","NL_NAME_1": "NA","county": "CentralHawke'sBay","VARNAME_2": "NA","NL_NAME_2": "NA","TYPE_2": "District","ENGTYPE_2": "District","CC_2": "032","HASC_2": "NZ.HB.CH","name": "Central_Hawke's_Bay.county","area_km2": 3324.134,"hist_schema_id": "Elevation0-9000","hist_area_km2": {"0": 38.081,"25": 53.473,"50": 95.837,"75": 180.906,"100": 202.892,"125": 245.323,"150": 299.275,"175": 363.909,"200": 316.699,"225": 248.521,"250": 190.75,"275": 154.757,"300": 124.973,"325": 106.944,"350": 92.035,"375": 79.593,"400": 66.988,"425": 62.429,"450": 57.566,"475": 48.778,"500": 37.36,"525": 27.801,"550": 20.24,"575": 16.851,"600": 14.835,"625": 12.347,"650": 11.243,"675": 10.853,"700": 9.259,"725": 9.292,"750": 8.544,"775": 7.812,"800": 6.739,"825": 6.755,"850": 6.397,"875": 6.413,"900": 6.202,"925": 5.617,"950": 5.551,"975": 4.591,"1000": 4.818,"1025": 4.298,"1050": 4.184,"1075": 3.923,"1100": 3.793,"1125": 3.76,"1150": 3.582,"1175": 3.582,"1200": 2.833,"1225": 3.045,"1250": 2.605,"1275": 2.703,"1300": 2.41,"1325": 2.524,"1350": 2.117,"1375": 1.824,"1400": 1.45,"1425": 1.433,"1450": 1.172,"1475": 1.189,"1500": 0.553,"1525": 0.602,"1550": 0.293,"1575": 0.228,"1600": 0.26,"1625": 0.212,"1650": 0.195,"1675": 0.098}}}