{"type":"Feature","properties":{"GID_1":"NZL.7_1","GID_0":"NZL","country":"NewZealand","province":"Manawatu-Wanganui","VARNAME_1":"NA","NL_NAME_1":"NA","TYPE_1":"Region","ENGTYPE_1":"Region","CC_1":"08","HASC_1":"NZ.MW","ISO_1":"NZ-MWT","name":"Manawatu-Wanganui.province"},
"geometry":{"type": "MultiPolygon","coordinates": [[[[176.1255,-40.0136,936.1838],[176.0938,-39.9955,1055.0044],[176.1016,-39.9843,1097.2793],[176.1032,-39.9772,1136.537],[176.1121,-39.9705,1186.9558],[176.1161,-39.9696,1152.196],[176.1211,-39.9624,1204.1355],[176.1171,-39.9577,1162.5088],[176.1245,-39.9478,1208.9747],[176.1097,-39.9419,1422.2426],[176.1096,-39.9392,1477.0881],[176.1117,-39.938,1430.3173],[176.1154,-39.9294,1385.1807],[176.1136,-39.9247,1371.3639],[176.1068,-39.9171,1382.7356],[176.1203,-39.9097,1289.626],[176.1261,-39.9048,1309.9368],[176.1269,-39.8916,1342.3115],[176.1231,-39.888,1493.766],[176.1172,-39.8868,1587.574],[176.1268,-39.8615,1642.213],[176.135,-39.8506,1585.2273],[176.138,-39.8239,1615.0607],[176.1768,-39.744,1452.4878],[176.1691,-39.7179,1433.1196],[176.1805,-39.7111,1488.4424],[176.1842,-39.6838,1433.8448],[176.1927,-39.6798,1424.4695],[176.2009,-39.673,1444.4922],[176.1959,-39.6636,1496.7365],[176.1651,-39.6487,1280.1003],[176.1813,-39.6169,1193.8955],[176.179,-39.6053,1164.1738],[176.1735,-39.6021,1141.9983],[176.1614,-39.6029,1142.6921],[176.1576,-39.5968,1241.7139],[176.1527,-39.5983,1211.9982],[176.1472,-39.5925,1172.645],[176.1427,-39.5847,1150.2744],[176.1448,-39.5824,1090.6636],[176.1547,-39.5836,991.5348],[176.1603,-39.5807,991.1279],[176.1664,-39.5828,919.0334],[176.1703,-39.5815,903.8464],[176.1744,-39.5787,845.5504],[176.1741,-39.5766,846.7755],[176.1823,-39.5717,811.3108],[176.1835,-39.5665,785.4435],[176.1868,-39.5646,777.4915],[176.1897,-39.5596,777.2983],[176.1992,-39.5571,764.509],[176.1982,-39.5545,743.2811],[176.2001,-39.5535,695.4926],[176.2,-39.5464,663.7599],[176.2065,-39.5407,651.6698],[176.2105,-39.5334,527.2289],[176.2198,-39.5319,440.8829],[176.223,-39.5339,433.8435],[176.225,-39.5321,427.291],[176.2279,-39.533,442.5219],[176.2353,-39.5304,420.923],[176.2389,-39.5255,414.3094],[176.2477,-39.5231,402.6511],[176.2514,-39.5183,405.7552],[176.2568,-39.515,384.2797],[176.2574,-39.5123,376.6133],[176.2651,-39.5149,417.1466],[176.2695,-39.5115,409.7486],[176.2717,-39.5071,366.4768],[176.2784,-39.5068,370.0864],[176.278,-39.5033,387.3543],[176.2812,-39.5025,366.4472],[176.285,-39.5049,367.2817],[176.2918,-39.5016,348.7675],[176.3,-39.5071,364.7869],[176.3013,-39.505,345.6964],[176.2989,-39.5042,377.4123],[176.302,-39.5022,333.6995],[176.3066,-39.504,330.3173],[176.31,-39.5021,352.6368],[176.3162,-39.5039,336.837],[176.3128,-39.5061,340.1366],[176.313,-39.5076,317.5155],[176.3185,-39.5081,390.2252],[176.3236,-39.5059,291.18],[176.3241,-39.5014,296.4824],[176.3327,-39.5044,299.836],[176.3407,-39.5024,255.3613],[176.338,-39.5011,253.0747],[176.3396,-39.4966,288.0506],[176.3337,-39.4991,281.252],[176.3322,-39.4984,294.2157],[176.336,-39.4934,294.9899],[176.3352,-39.4913,369.6842],[176.3375,-39.4906,322.3771],[176.3372,-39.4883,298.2815],[176.334,-39.4893,314.1392],[176.3255,-39.488,316.5582],[176.3253,-39.4936,345.1919],[176.3219,-39.4934,347.8194],[176.3206,-39.4976,337.8125],[176.3158,-39.4973,344.5467],[176.3177,-39.4938,341.5202],[176.3154,-39.4928,363.2979],[176.3192,-39.4877,422.3318],[176.3135,-39.4828,360.2572],[176.3165,-39.4792,423.2712],[176.3182,-39.4809,376.0716],[176.3215,-39.4791,403.1436],[176.3184,-39.4748,413.8866],[176.3127,-39.4748,372.7194],[176.3143,-39.472,367.1873],[176.3088,-39.4706,379.2148],[176.3115,-39.4688,403.9439],[176.3073,-39.4628,430.728],[176.3098,-39.4598,425.67],[176.3132,-39.4588,411.1017],[176.31,-39.4551,456.3809],[176.3139,-39.4533,397.6668],[176.3104,-39.4452,451.5662],[176.3051,-39.4439,418.8515],[176.3058,-39.4415,404.1103],[176.3083,-39.4409,435.2225],[176.3023,-39.4372,425.9676],[176.3084,-39.4317,452.4553],[176.3058,-39.429,471.7375],[176.3161,-39.4198,458.0746],[176.3092,-39.4181,499.5219],[176.3143,-39.4134,459.0319],[176.3176,-39.415,538.2586],[176.3219,-39.4147,533.5346],[176.3207,-39.4106,486.8644],[176.324,-39.4109,469.8669],[176.3246,-39.4094,470.1601],[176.3196,-39.4066,478.2602],[176.3211,-39.4054,489.7469],[176.3267,-39.4061,474.0894],[176.3239,-39.403,515.7125],[176.3258,-39.4001,469.1153],[176.324,-39.3986,475.2448],[176.3276,-39.3966,485.6306],[176.3282,-39.3934,489.1333],[176.3257,-39.3919,505.2863],[176.3222,-39.3937,489.2742],[176.3208,-39.3902,498.2224],[176.3234,-39.3868,495.4812],[176.327,-39.388,500.2491],[176.3313,-39.3867,505.7822],[176.3328,-39.3838,490.4114],[176.3319,-39.379,507.1915],[176.3306,-39.3783,499.4308],[176.3285,-39.3799,541.8513],[176.3276,-39.3785,511.7745],[176.3315,-39.3771,538.9539],[176.3321,-39.375,511.7323],[176.3292,-39.3731,516.9537],[176.3284,-39.3686,551.9773],[176.3216,-39.3706,525.1079],[176.3109,-39.3703,526.731],[176.3115,-39.3665,541.312],[176.305,-39.3654,543.5633],[176.3067,-39.3612,548.3812],[176.3033,-39.3598,557.8891],[176.3024,-39.3566,559.4931],[176.2984,-39.3587,553.8875],[176.2936,-39.3579,559.9333],[176.2916,-39.363,631.9652],[176.2865,-39.3623,574.1677],[176.285,-39.3597,573.5693],[176.2829,-39.3602,612.6606],[176.2804,-39.3585,578.8947],[176.2784,-39.3595,573.1688],[176.2784,-39.3616,581.1694],[176.2759,-39.3623,583.7108],[176.2756,-39.3585,609.2233],[176.2732,-39.3596,653.6738],[176.2708,-39.3584,607.8881],[176.2715,-39.3525,612.5453],[176.2654,-39.3493,613.0416],[176.2701,-39.3461,607.9766],[176.266,-39.3444,636.3089],[176.2664,-39.3415,626.7614],[176.2638,-39.3373,610.1398],[176.2728,-39.3377,619.1945],[176.271,-39.3346,649.1432],[176.2763,-39.3299,651.8503],[176.2725,-39.3288,639.3645],[176.2774,-39.327,641.6017],[176.2775,-39.3194,699.5338],[176.2816,-39.3186,660.7286],[176.2823,-39.3145,677.1993],[176.2799,-39.3126,672.4417],[176.2817,-39.3091,709.3771],[176.286,-39.3104,679.3109],[176.2913,-39.3069,725.8615],[176.294,-39.3078,716.2379],[176.3019,-39.3016,712.1965],[176.3017,-39.2976,715.2758],[176.3051,-39.2919,719.6469],[176.3043,-39.2859,735.562],[176.2993,-39.2852,734.3964],[176.301,-39.2838,788.5106],[176.2992,-39.2759,765.0973],[176.2933,-39.2772,780.6706],[176.2954,-39.2671,755.5656],[176.2928,-39.2638,763.8204],[176.293,-39.2586,806.523],[176.288,-39.2591,808.4805],[176.2917,-39.2554,790.089],[176.2881,-39.2548,770.0323],[176.2874,-39.2513,795.3651],[176.2924,-39.2512,801.1542],[176.2897,-39.2464,811.3525],[176.2788,-39.2426,863.5081],[176.2757,-39.2399,851.5883],[176.2571,-39.2446,853.3383],[176.258,-39.2406,885.8287],[176.2552,-39.24,861.4116],[176.2552,-39.2365,892.3411],[176.2517,-39.2389,856.0383],[176.2495,-39.2374,859.9365],[176.249,-39.2346,839.4495],[176.2445,-39.2344,1001.3862],[176.2421,-39.236,881.7535],[176.2397,-39.2329,973.0358],[176.231,-39.2321,875.5985],[176.223,-39.2356,892.145],[176.2195,-39.2313,897.4513],[176.2151,-39.2309,933.5281],[176.2115,-39.2324,901.4849],[176.2094,-39.2314,996.6273],[176.2093,-39.2285,908.9796],[176.2051,-39.2257,927.1172],[176.2,-39.2257,901.5233],[176.196,-39.2213,925.4075],[176.1961,-39.2149,909.7067],[176.1929,-39.2114,974.7588],[176.1958,-39.2083,940.8711],[176.1932,-39.2018,989.1946],[176.1955,-39.1987,970.4667],[176.1947,-39.1964,928.2437],[176.1905,-39.1949,926.8108],[176.1865,-39.1894,968.3309],[176.1798,-39.1851,923.051],[176.18,-39.1806,925.8295],[176.1824,-39.1794,926.7314],[176.1801,-39.1768,928.3033],[176.1822,-39.1739,953.9642],[176.1782,-39.1699,956.0559],[176.1809,-39.1691,965.6642],[176.1758,-39.1531,941.7595],[176.1769,-39.1446,946.6174],[176.1624,-39.1363,956.2586],[176.1546,-39.1383,970.7202],[176.1469,-39.1345,999.1646],[176.1414,-39.1365,973.2169],[176.14,-39.1389,978.2429],[176.1358,-39.1397,980.4775],[176.1344,-39.143,999.0134],[176.1162,-39.1471,1045.858],[176.1118,-39.152,1024.4038],[176.1028,-39.1512,1046.4019],[176.0961,-39.1546,1092.0631],[176.081,-39.1572,1100.0126],[176.0775,-39.156,1082.0095],[176.0441,-39.1569,1675.0012],[175.976,-39.15,1427.4659],[175.9716,-39.1577,1515.5703],[175.964,-39.1595,1651.9314],[175.9638,-39.1623,1620.5839],[175.9677,-39.1704,1560.2079],[175.9647,-39.1793,1503.869],[175.9597,-39.1842,1566.8899],[175.95,-39.188,1553.6761],[175.945,-39.1869,1564.6835],[175.9212,-39.1897,1578.2104],[175.9189,-39.191,1568.7021],[175.9195,-39.1987,1533.7562],[175.9035,-39.1999,1488.5594],[175.8992,-39.2038,1499.6102],[175.886,-39.2059,1653.01],[175.8882,-39.2114,1539.1174],[175.8929,-39.2138,1434.4392],[175.8927,-39.2236,1436.9014],[175.8864,-39.2271,1378.9817],[175.8856,-39.2293,1378.7092],[175.8726,-39.2391,1376.3428],[175.8585,-39.2444,1526.1865],[175.8547,-39.2442,1610.4202],[175.8566,-39.252,1623.704],[175.869,-39.2591,1632.9934],[175.8681,-39.263,1632.5581],[175.8627,-39.2665,1515.7416],[175.8426,-39.2707,1342.5463],[175.836,-39.2768,1455.4263],[175.8335,-39.2833,1344.9019],[175.8286,-39.289,1298.7344],[175.8126,-39.3003,1338.0338],[175.7909,-39.2998,1353.0686],[175.7836,-39.2943,1224.5304],[175.7801,-39.2934,1245.2881],[175.7696,-39.295,1362.9353],[175.7653,-39.2914,1299.7545],[175.7518,-39.2879,1131.3531],[175.741,-39.2926,1067.26],[175.7411,-39.2975,1071.1021],[175.7048,-39.2883,1100.9912],[175.6692,-39.2969,1226.5054],[175.5579,-39.276,2672.1177],[175.6347,-39.1584,2247.022],[175.6372,-39.1291,1938.0176],[175.6428,-39.1043,1328.2976],[175.6478,-39.1001,1283.7014],[175.6456,-39.1001,1267.0533],[175.6421,-39.0967,1211.0405],[175.6399,-39.0974,1196.1963],[175.6374,-39.0901,1122.2102],[175.6354,-39.0887,1085.5515],[175.6324,-39.0889,1080.8044],[175.626,-39.0858,995.0902],[175.622,-39.087,967.572],[175.6187,-39.0826,895.0212],[175.6172,-39.0749,839.955],[175.6246,-39.0599,753.5129],[175.6184,-39.0579,768.427],[175.615,-39.0551,770.4338],[175.6136,-39.0506,686.4171],[175.6318,-39.0456,678.5035],[175.6312,-39.0489,683.2664],[175.6358,-39.0453,665.1],[175.648,-39.0279,618.8751],[175.6481,-39.0144,634.427],[175.682,-38.9797,1055.2148],[175.6412,-38.9803,659.4835],[175.6269,-38.974,654.5616],[175.6063,-38.9818,701.8622],[175.5626,-38.9868,684.3481],[175.5656,-38.9773,645.5553],[175.565,-38.9725,637.9468],[175.5694,-38.9701,636.9464],[175.5675,-38.9687,638.4172],[175.5608,-38.9727,651.5505],[175.5539,-38.9557,690.5664],[175.5649,-38.9385,725.4652],[175.566,-38.9299,718.0115],[175.5761,-38.9185,772.4428],[175.58,-38.9107,723.4707],[175.5613,-38.8924,770.0563],[175.5607,-38.8842,787.8628],[175.5552,-38.8772,782.1133],[175.5492,-38.8728,847.205],[175.5447,-38.8645,891.5054],[175.5464,-38.8599,940.5121],[175.5604,-38.8434,945.7864],[175.5615,-38.8386,1017.4864],[175.5698,-38.833,1012.033],[175.577,-38.8309,1051.4775],[175.5772,-38.8232,991.7026],[175.5734,-38.8144,877.381],[175.5637,-38.8037,792.2896],[175.5555,-38.7902,965.4274],[175.5534,-38.7893,994.3004],[175.5417,-38.7951,965.6504],[175.5375,-38.7791,860.6003],[175.5352,-38.7764,854.0455],[175.5306,-38.7749,826.1001],[175.5278,-38.7701,818.0602],[175.5269,-38.7634,795.3753],[175.5197,-38.7586,890.8766],[175.5184,-38.7519,897.247],[175.5197,-38.75,940.6001],[175.5237,-38.7498,913.1122],[175.5239,-38.7457,921.876],[175.5294,-38.7436,924.6771],[175.5345,-38.7347,906.7814],[175.5581,-38.709,821.3206],[175.565,-38.6954,851.937],[175.5731,-38.6904,874.0599],[175.5796,-38.6818,888.1569],[175.5807,-38.6776,892.0784],[175.5758,-38.6745,906.0861],[175.5754,-38.6724,905.612],[175.5787,-38.6655,896.0042],[175.5767,-38.663,898.4028],[175.5786,-38.6599,891.5798],[175.5778,-38.6559,914.8378],[175.5793,-38.6527,929.0425],[175.5759,-38.6499,945.3212],[175.5923,-38.6374,1022.147],[175.6003,-38.6341,1055.2637],[175.6147,-38.6181,967.1139],[175.6217,-38.6067,928.8335],[175.6286,-38.6006,911.1147],[175.6289,-38.5954,931.1901],[175.6326,-38.5915,909.0473],[175.6327,-38.5795,877.6256],[175.6349,-38.5699,872.5926],[175.6337,-38.5661,878.2585],[175.6368,-38.5645,906.0695],[175.6355,-38.5578,984.8344],[175.6369,-38.5525,1069.656],[175.6281,-38.5519,1131.9297],[175.6285,-38.5577,1009.1755],[175.6311,-38.5623,934.9266],[175.6267,-38.5697,816.6872],[175.6171,-38.5723,752.001],[175.6157,-38.5756,726.9269],[175.6105,-38.5788,709.7247],[175.6055,-38.5851,686.1884],[175.5943,-38.5877,655.3477],[175.5916,-38.5859,645.7144],[175.5866,-38.59,650.4877],[175.5774,-38.5916,629.903],[175.5699,-38.5899,577.7248],[175.5695,-38.5938,568.4395],[175.5679,-38.5943,568.4395],[175.5597,-38.5953,550.0212],[175.55,-38.5934,541.0665],[175.5453,-38.5975,525.7969],[175.5416,-38.598,532.983],[175.5364,-38.5971,521.4069],[175.5332,-38.5939,500.2528],[175.5286,-38.5935,492.3143],[175.5257,-38.591,467.3186],[175.5268,-38.5891,472.2077],[175.5208,-38.583,458.4312],[175.5143,-38.5828,451.1404],[175.5005,-38.5591,732.7127],[175.4724,-38.5635,510.5362],[175.4511,-38.5629,498.6081],[175.4461,-38.5645,475.0661],[175.422,-38.5563,336.5571],[175.4207,-38.5508,378.3366],[175.401,-38.5511,576.5195],[175.4011,-38.56,461.0377],[175.3923,-38.5602,532.6655],[175.3896,-38.5582,495.7594],[175.382,-38.5577,532.4789],[175.3778,-38.5727,393.3585],[175.3355,-38.5815,467.2283],[175.3318,-38.5703,441.6183],[175.3354,-38.5695,469.8538],[175.3361,-38.5672,482.7899],[175.3322,-38.5634,458.831],[175.3347,-38.5593,490.7666],[175.3299,-38.556399999999996,495.1342],[175.3292,-38.5543,504.3345],[175.3264,-38.5543,461.512],[175.3247,-38.5514,469.8659],[175.3178,-38.556,433.4989],[175.303,-38.5715,484.339],[175.3009,-38.5887,470.5756],[175.3064,-38.5954,358.8639],[175.3002,-38.6006,451.0326],[175.2851,-38.588,414.2433],[175.2653,-38.6137,400.7087],[175.2622,-38.6122,440.1328],[175.2563,-38.6132,489.1557],[175.2544,-38.6166,458.7671],[175.2518,-38.6142,511.8954],[175.2485,-38.6154,501.6331],[175.2404,-38.624,525.5598],[175.2364,-38.6253,522.802],[175.2343,-38.6322,584.3694],[175.2309,-38.632,563.0786],[175.2132,-38.6394,473.9377],[175.2022,-38.6374,419.3338],[175.1966,-38.6335,541.7671],[175.1949,-38.6293,473.5935],[175.1844,-38.631,438.6768],[175.1733,-38.6274,450.0203],[175.167,-38.6271,371.6851],[175.159,-38.6296,312.2258],[175.1429,-38.6302,281.6848],[175.141,-38.6318,277.337],[175.1374,-38.6308,333.6686],[175.1357,-38.6263,385.0296],[175.1195,-38.6264,462.0811],[175.1165,-38.6219,398.226],[175.1092,-38.6245,520.6931],[175.1079,-38.6277,438.7782],[175.0997,-38.6314,343.4513],[175.0984,-38.6338,306.5827],[175.0925,-38.635,251.9997],[175.0931,-38.638,268.6557],[175.0885,-38.6378,235.366],[175.0875,-38.6358,229.8161],[175.0744,-38.6297,165.2846],[175.0695,-38.6301,158.4001],[175.07,-38.6377,298.7062],[175.0574,-38.6405,367.8742],[175.058,-38.6443,382.8442],[175.0539,-38.6456,408.3329],[175.0511,-38.6494,403.6144],[175.0392,-38.6516,423.341],[175.0398,-38.655,417.1154],[175.0325,-38.6569,402.7661],[175.0293,-38.656,384.0587],[175.0265,-38.6592,427.5031],[175.0247,-38.6578,378.6059],[175.0222,-38.6595,363.9895],[175.0181,-38.659,364.8585],[175.017,-38.6604,430.759],[175.0026,-38.6634,408.1395],[175.0005,-38.6663,421.4029],[174.9943,-38.6648,322.0094],[174.9865,-38.6655,259.03],[174.9811,-38.6619,231.5524],[174.979,-38.6663,257.17],[174.9756,-38.6653,300.828],[174.9716,-38.6673,321.8649],[174.9674,-38.6676,375.985],[174.9609,-38.6636,455.9239],[174.9582,-38.6642,443.136],[174.9544,-38.6675,432.619],[174.9558,-38.673,465.6782],[174.9541,-38.6744,435.4444],[174.9596,-38.6783,429.2092],[174.9579,-38.6874,411.1188],[174.9616,-38.6902,425.6096],[174.9611,-38.6927,412.779],[174.9643,-38.6968,432.166],[174.9629,-38.6992,438.26],[174.9571,-38.6993,418.0355],[174.9533,-38.7014,426.0377],[174.9532,-38.7044,433.7419],[174.951,-38.7061,443.1725],[174.9541,-38.7151,407.5858],[174.9425,-38.72,408.5928],[174.9415,-38.7211,453.3377],[174.9439,-38.7228,451.9257],[174.9348,-38.7306,429.5729],[174.9333,-38.7388,435.4392],[174.938,-38.7414,442.1241],[174.9379,-38.7502,473.8275],[174.9324,-38.7524,499.4258],[174.9327,-38.7544,487.4494],[174.931,-38.7556,470.1416],[174.9275,-38.7563,461.075],[174.9202,-38.7534,440.3007],[174.9148,-38.7548,437.7552],[174.896,-38.7547,506.6375],[174.8892,-38.7611,463.8018],[174.8839,-38.7631,473.1841],[174.8739,-38.7658,465.2915],[174.8672,-38.7653,481.8966],[174.8663,-38.7694,469.5065],[174.8629,-38.773,488.0329],[174.862,-38.779,489.9883],[174.8588,-38.782,497.3531],[174.8513,-38.7832,449.5656],[174.8493,-38.7811,419.7795],[174.8505,-38.7796,426.0877],[174.8485,-38.7786,425.0327],[174.8371,-38.783,403.6297],[174.832,-38.7835,404.9158],[174.8315,-38.7819,416.001],[174.8263,-38.7857,418.0935],[174.82,-38.787,403.1678],[174.8208,-38.7883,401.4764],[174.819,-38.7904,402.5297],[174.8222,-38.7921,402.1898],[174.8207,-38.7935,399.4285],[174.8218,-38.7939,403.6906],[174.8206,-38.795,401.3333],[174.8169,-38.7941,406.1833],[174.8184,-38.7965,401.3666],[174.8145,-38.8006,418.0579],[174.8159,-38.8034,400.2086],[174.8078,-38.82,395.7809],[174.7866,-38.821,440.4203],[174.788,-38.8247,406.6158],[174.7966,-38.829,413.8081],[174.7993,-38.8289,434.2124],[174.7973,-38.8316,439.1829],[174.7997,-38.8327,427.9383],[174.7983,-38.8376,426.6971],[174.7997,-38.8392,420.3651],[174.7984,-38.843,415.7936],[174.7996,-38.8452,450.1029],[174.797,-38.8494,468.7923],[174.7995,-38.8512,418.137],[174.7998,-38.8541,439.6913],[174.7967,-38.859,465.7152],[174.7995,-38.8617,471.6699],[174.7988,-38.8653,447.4045],[174.8066,-38.8695,402.8743],[174.8035,-38.871,433.2322],[174.8076,-38.8759,454.4126],[174.8059,-38.8775,435.0876],[174.8076,-38.8819,457.0615],[174.8125,-38.8827,444.867],[174.8118,-38.8841,466.9981],[174.8174,-38.8874,416.4432],[174.8207,-38.8867,469.3295],[174.8202,-38.8902,461.2254],[174.8217,-38.8913,455.3909],[174.8196,-38.8944,450.4069],[174.8246,-38.8956,461.0904],[174.8237,-38.898,473.9255],[174.8269,-38.9,455.3439],[174.8252,-38.9047,525.351],[174.8276,-38.9099,452.9777],[174.8282,-38.9079,497.2255],[174.8319,-38.9069,477.6539],[174.8319,-38.9044,447.1304],[174.8349,-38.9023,425.6175],[174.8349,-38.9002,421.9022],[174.845,-38.8968,407.6411],[174.8466,-38.8944,407.5104],[174.8499,-38.8955,410.7241],[174.8466,-38.8984,408.7099],[174.8513,-38.898,404.4104],[174.8522,-38.891,406.9367],[174.8566,-38.8887,397.9255],[174.8553,-38.8919,399.4423],[174.8567,-38.8954,394.1616],[174.8625,-38.8944,372.7051],[174.8631,-38.89,301.5995],[174.8714,-38.8906,294.7271],[174.8709,-38.8932,311.9336],[174.8746,-38.8987,315.1349],[174.8669,-38.9015,292.2923],[174.8669,-38.9039,283.517],[174.8691,-38.9046,321.0415],[174.8739,-38.9021,288.2202],[174.8791,-38.9041,281.5988],[174.8781,-38.9081,334.6657],[174.8842,-38.9126,270.455],[174.8811,-38.9159,276.5336],[174.8804,-38.9201,358.6373],[174.8743,-38.9204,276.8211],[174.8812,-38.9231,267.6317],[174.884,-38.9277,244.8767],[174.8808,-38.9285,241.1701],[174.8739,-38.9257,249.9397],[174.8713,-38.9284,268.9605],[174.8724,-38.9322,253.1705],[174.8781,-38.9332,242.8227],[174.8744,-38.939,233.0958],[174.8759,-38.9451,218.6214],[174.8824,-38.9464,213.6267],[174.8845,-38.9492,203.4241],[174.8841,-38.9527,212.3449],[174.8863,-38.9546,221.2393],[174.8802,-38.9558,275.1577],[174.8801,-38.9582,265.7918],[174.8772,-38.9601,273.5565],[174.8772,-38.9642,272.6317],[174.8798,-38.9669,333.3826],[174.8837,-38.9657,191.791],[174.8855,-38.969,203.5635],[174.8811,-38.972,190.6375],[174.8791,-38.9794,352.1242],[174.8756,-38.9831,268.3129],[174.8762,-38.9862,328.0121],[174.8689,-38.9891,483.8481],[174.8751,-38.9909,358.1733],[174.8777,-38.9886,357.2523],[174.8823,-38.9931,315.718],[174.885,-38.9916,356.9786],[174.8904,-38.9926,375.3043],[174.8932,-38.9905,394.0263],[174.8957,-38.9914,358.9473],[174.9066,-38.9885,384.9077],[174.911,-38.9892,398.388],[174.9109,-38.992,413.0482],[174.9164,-38.9993,350.7271],[174.9136,-39.0075,356.5802],[174.9146,-39.0108,343.6126],[174.924,-39.0102,243.5736],[174.9266,-39.0041,210.4659],[174.9405,-38.9954,221.8839],[174.952,-38.9988,161.2763],[174.9603,-38.9949,156.8225],[174.9609,-38.9978,181.5021],[174.9564,-38.9977,175.9259],[174.9549,-38.9994,155.035],[174.9599,-39.0016,153.8885],[174.9609,-39.0036,182.2751],[174.9585,-39.0104,175.832],[174.9604,-39.0233,172.1393],[174.9651,-39.0235,159.0505],[174.9625,-39.028,184.7405],[174.9654,-39.0283,155.177],[174.9657,-39.0313,179.8711],[174.9682,-39.0321,164.272],[174.9682,-39.0336,177.4141],[174.9734,-39.0355,163.0079],[174.9733,-39.0386,166.92],[174.9765,-39.042,168.7272],[174.9738,-39.0435,164.6942],[174.976,-39.0476,155.9331],[174.9707,-39.05,157.4313],[174.9706,-39.0521,162.1315],[174.9653,-39.0521,163.1531],[174.9667,-39.0549,191.1404],[174.9634,-39.0521,159.2371],[174.9615,-39.053,175.3236],[174.9594,-39.0584,155.9634],[174.9633,-39.0599,179.4597],[174.9599,-39.0622,154.1429],[174.9633,-39.0663,169.3632],[174.9761,-39.0628,259.0587],[174.9805,-39.0653,327.0275],[174.9837,-39.0652,337.9746],[174.9851,-39.069,391.126],[174.9973,-39.0726,444.3797],[175.0014,-39.0707,451.5417],[175.0031,-39.0678,452.5169],[175.0108,-39.0694,422.5034],[175.012,-39.0658,455.8284],[175.0473,-39.0704,145.0776],[175.0426,-39.0763,114.1847],[175.043,-39.0834,100.4483],[175.0659,-39.1005,116.5383],[175.0696,-39.1071,98.0464],[175.0645,-39.1108,117.3063],[175.0575,-39.1122,95.471],[175.0467,-39.1065,112.3376],[175.0297,-39.1018,98.5461],[175.0247,-39.1023,104.7975],[175.0195,-39.1091,108.5401],[175.0103,-39.1165,135.1146],[175.0059,-39.1156,97.9975],[175.0004,-39.1104,105.0129],[174.9967,-39.1115,98.2086],[174.9967,-39.1132,107.0975],[175.0046,-39.1232,114.6416],[175.0036,-39.1268,129.9961],[175.0002,-39.1288,105.6125],[174.9961,-39.128,105.8801],[174.994,-39.1255,122.108],[174.9926,-39.1138,87.2108],[174.9828,-39.1123,125.3084],[174.9818,-39.117,88.5761],[174.9915,-39.1254,105.1983],[174.989,-39.1325,93.3202],[174.994,-39.1377,134.7194],[174.9898,-39.1402,99.2037],[174.98,-39.1387,94.8911],[174.9779,-39.1396,94.6231],[174.9844,-39.1491,95.9107],[174.9835,-39.1554,89.3888],[174.9634,-39.1626,93.3478],[174.9533,-39.1621,82.1779],[174.9499,-39.1633,152.2601],[174.9502,-39.1659,196.9599],[174.9577,-39.1687,103.8062],[174.9588,-39.171,84.919],[174.9457,-39.1741,117.7958],[174.941,-39.1777,138.9063],[174.9416,-39.1805,151.8365],[174.9496,-39.1811,102.4743],[174.9504,-39.1836,133.0651],[174.9419,-39.1932,134.689],[174.9344,-39.1989,82.9442],[174.9229,-39.2197,79.9506],[174.9149,-39.2252,113.7272],[174.9154,-39.2321,137.5817],[174.9142,-39.2339,69.177],[174.9102,-39.234,71.6674],[174.8959,-39.2267,71.0436],[174.893,-39.229,73.7063],[174.8947,-39.2327,81.8465],[174.8929,-39.2375,109.9367],[174.8885,-39.2412,86.3487],[174.8795,-39.238,97.9183],[174.8804,-39.2367,90.8105],[174.8731,-39.2368,128.4963],[174.8682,-39.2318,95.97],[174.8614,-39.2305,124.8372],[174.8596,-39.2321,205.9914],[174.8618,-39.2357,299.3569],[174.8615,-39.24,302.5642],[174.8644,-39.2428,316.6061],[174.8627,-39.2445,306.4554],[174.865,-39.2469,338.5315],[174.862,-39.2555,221.7248],[174.8556,-39.2614,336.1277],[174.8518,-39.2618,296.475],[174.8471,-39.2599,348.5797],[174.8452,-39.2643,286.3326],[174.8455,-39.2704,192.3856],[174.8407,-39.2764,97.6214],[174.838,-39.2878,164.2944],[174.832,-39.2926,254.2967],[174.8309,-39.2962,199.728],[174.8202,-39.3017,355.7634],[174.8179,-39.31,494.8912],[174.8129,-39.3136,701.9964],[174.8148,-39.3143,683.2902],[174.8152,-39.318,627.1151],[174.8204,-39.3228,503.5864],[174.8198,-39.3261,522.6481],[174.8226,-39.3298,607.2065],[174.8207,-39.3311,624.8162],[174.8228,-39.334,626.3671],[174.8271,-39.3325,531.269],[174.8384,-39.337,685.3431],[174.8425,-39.3359,642.9185],[174.8502,-39.3368,668.3892],[174.8544,-39.3399,695.3205],[174.8539,-39.3413,674.5179],[174.8588,-39.3409,656.0803],[174.8614,-39.3437,682.8726],[174.8642,-39.3434,670.7268],[174.8707,-39.3468,683.4757],[174.872,-39.3518,700.2731],[174.8769,-39.3537,690.8004],[174.8769,-39.3568,703.682],[174.8804,-39.3534,636.5231],[174.8833,-39.3528,611.4591],[174.8871,-39.3535,649.6663],[174.8883,-39.3562,660.1243],[174.8916,-39.3581,695.8918],[174.8882,-39.3647,684.7467],[174.8904,-39.3688,681.4456],[174.8892,-39.3737,654.5083],[174.8819,-39.3784,653.0752],[174.8848,-39.3817,639.5466],[174.8795,-39.3902,641.9264],[174.8766,-39.3917,647.3458],[174.8729,-39.3887,613.999],[174.8703,-39.3905,609.3304],[174.8659,-39.3891,657.8186],[174.8699,-39.3955,584.6532],[174.8713,-39.401,550.2543],[174.8768,-39.4033,540.8513],[174.8794,-39.408,538.6306],[174.8874,-39.4145,526.2404],[174.8886,-39.4228,416.1583],[174.8852,-39.4252,465.7324],[174.8877,-39.4273,453.0814],[174.8893,-39.4336,517.2194],[174.8843,-39.4344,538.5236],[174.8846,-39.4355,535.5444],[174.889,-39.4351,506.6672],[174.8921,-39.4388,486.709],[174.8918,-39.4404,483.4542],[174.897,-39.4453,486.7754],[174.9047,-39.4452,473.1117],[174.9066,-39.4474,466.1924],[174.9042,-39.4511,436.64],[174.907,-39.4547,496.8497],[174.9097,-39.4555,402.7919],[174.9094,-39.459,446.9652],[174.9154,-39.4627,419.138],[174.9206,-39.4681,560.9412],[174.9217,-39.4713,567.4882],[174.9285,-39.4762,529.1364],[174.9396,-39.4794,508.4842],[174.947,-39.4783,508.2093],[174.9514,-39.4817,571.9141],[174.9566,-39.4798,593.2938],[174.9636,-39.4853,593.4167],[174.9673,-39.4848,593.4631],[174.961,-39.4929,591.2039],[174.9635,-39.4938,557.5193],[174.9651,-39.4997,538.2635],[174.9695,-39.5037,525.0679],[174.966,-39.5048,585.6451],[174.9653,-39.5075,593.9343],[174.9696,-39.5131,613.7308],[174.9688,-39.5163,585.6999],[174.972,-39.5207,600.1548],[174.9704,-39.5219,591.694],[174.9703,-39.5254,549.5955],[174.9758,-39.5275,564.6326],[174.9781,-39.5329,549.8444],[174.9824,-39.537,616.5142],[174.988,-39.5385,617.4564],[174.9897,-39.537,653.1418],[174.9899,-39.5396,643.7867],[174.9918,-39.5403,645.3477],[174.987,-39.5472,620.6883],[174.9889,-39.5522,612.681],[174.9871,-39.556,617.1832],[174.9798,-39.5573,591.8571],[174.9769,-39.5593,568.0812],[174.9776,-39.5613,557.4057],[174.9737,-39.5635,583.7772],[174.9753,-39.5664,595.8528],[174.9724,-39.5676,656.8668],[174.9757,-39.5728,645.6117],[174.9728,-39.5752,630.9081],[174.9743,-39.5779,628.1867],[174.9715,-39.5821,606.9501],[174.974,-39.5845,579.4373],[174.9718,-39.5849,601.3498],[174.9741,-39.5911,555.135],[174.9693,-39.5953,535.7059],[174.9699,-39.5982,501.6957],[174.9684,-39.6017,438.3814],[174.9696,-39.6041,476.8615],[174.9676,-39.6052,446.079],[174.9725,-39.6129,413.2386],[174.9705,-39.6188,422.2878],[174.9716,-39.6228,373.9603],[174.97,-39.6255,401.7714],[174.9728,-39.6282,381.5618],[174.9706,-39.6314,413.3555],[174.9734,-39.633,372.3308],[174.9744,-39.6379,431.6778],[174.9764,-39.6377,381.2586],[174.97,-39.6438,450.9114],[174.971,-39.645,478.2911],[174.9697,-39.6463,422.3094],[174.9741,-39.6467,438.6349],[174.9758,-39.6491,432.3312],[174.9722,-39.6537,405.7831],[174.9789,-39.6578,391.8968],[174.9826,-39.6566,403.6819],[174.9837,-39.6611,410.2651],[174.9875,-39.6604,424.4694],[174.9883,-39.662,426.2728],[174.9865,-39.6641,393.4123],[174.988,-39.665,418.2975],[174.9868,-39.6668,411.1926],[174.9834,-39.6667,388.4065],[174.9734,-39.6703,391.6009],[174.9726,-39.672,379.8685],[174.9747,-39.6746,387.4423],[174.9736,-39.6756,387.4423],[174.9698,-39.6768,418.3761],[174.9648,-39.6756,381.6961],[174.958,-39.6793,361.7326],[174.9522,-39.68,398.8488],[174.9502,-39.6774,377.0078],[174.9462,-39.676,358.061],[174.9421,-39.6779,365.1696],[174.9388,-39.6767,363.3911],[174.9404,-39.6805,360.1658],[174.9357,-39.6856,344.8488],[174.9299,-39.6829,292.9424],[174.9288,-39.6846,302.8976],[174.9305,-39.685,353.3136],[174.9284,-39.687,333.5007],[174.9297,-39.6882,349.5596],[174.9291,-39.6907,358.3095],[174.9226,-39.6954,331.3665],[174.9245,-39.6999,375.1831],[174.9275,-39.7009,382.5959],[174.922,-39.7038,351.8149],[174.9278,-39.7122,392.8781],[174.9278,-39.7176,401.8792],[174.9319,-39.7205,425.0963],[174.9316,-39.7232,439.8946],[174.9272,-39.7254,466.7246],[174.9238,-39.7295,507.4761],[174.9268,-39.7321,462.766],[174.9253,-39.7335,460.2669],[174.9229,-39.7329,505.2362],[174.9249,-39.7351,429.2418],[174.9229,-39.7376,467.6998],[174.9199,-39.7382,418.7283],[174.924,-39.7404,360.1576],[174.921,-39.7454,394.8869],[174.9175,-39.7453,394.6113],[174.9179,-39.7497,346.856],[174.9155,-39.7473,390.3676],[174.9161,-39.7442,366.2511],[174.9144,-39.7453,282.8426],[174.9124,-39.7424,282.7456],[174.9113,-39.7436,278.367],[174.9096,-39.7417,315.0193],[174.9095,-39.7429,315.0193],[174.9073,-39.7416,319.6761],[174.9079,-39.7431,328.9469],[174.8995,-39.7487,405.8904],[174.8945,-39.7472,316.5458],[174.8882,-39.7513,403.9077],[174.8893,-39.7533,364.0502],[174.8868,-39.7547,336.2217],[174.8865,-39.7572,295.8654],[174.8713,-39.7667,266.4135],[174.8721,-39.7706,335.2855],[174.8703,-39.7733,321.6412],[174.8625,-39.7734,337.0964],[174.8578,-39.7769,326.5577],[174.85,-39.7776,266.4186],[174.8495,-39.7832,303.0704],[174.8519,-39.7892,285.5676],[174.8366,-39.7962,225.4104],[174.8345,-39.8005,222.7335],[174.803,-39.8031,181.8795],[174.7937,-39.8205,115.5753],[174.7998,-39.8202,117.4128],[174.7934,-39.8336,79.559],[174.7849,-39.8316,83.4484],[174.7793,-39.8431,60.5375],[174.7663,-39.8529,38.6012],[174.7841,-39.858,0.0],[174.8067,-39.8591,43.4221],[174.8239,-39.8652,16.4641],[174.8435,-39.8679,40.19],[174.8694,-39.8742,45.8186],[174.9155,-39.8933,7.9041],[174.9477,-39.9113,1.583],[174.97,-39.9321,6.3872],[174.9831,-39.9489,0.0],[174.9886,-39.9468,0.0],[174.9921,-39.9473,0.0],[174.9901,-39.9485,2.3696],[174.9911,-39.95,1.0389],[175.0162,-39.9627,5.5337],[175.044,-39.9841,3.9197],[175.0688,-40.0066,2.3247],[175.0842,-40.0227,4.9594],[175.0995,-40.0406,0.0],[175.0999,-40.0427,0.0],[175.1136,-40.0533,0.8808],[175.1436,-40.0828,0.9674],[175.1628,-40.1074,9.2578],[175.1884,-40.1533,9.2605],[175.1982,-40.1766,9.9793],[175.2066,-40.2062,6.7554],[175.2071,-40.2145,0.0],[175.2098,-40.2208,10.1969],[175.216,-40.2509,12.5264],[175.222,-40.291,1.7825],[175.2239,-40.2928,2.0243],[175.2292,-40.3287,6.3738],[175.2291,-40.368899999999996,2.0738],[175.2271,-40.398,4.5935],[175.2189,-40.4356,0.0],[175.219,-40.4467,6.5532],[175.2146,-40.461,5.5186],[175.2146,-40.4785,0.9428],[175.193,-40.5596,11.3216],[175.1808,-40.5975,0.0],[175.169,-40.6281,4.0497],[175.1667,-40.6303,0.9518],[175.1585,-40.6498,0.0],[175.1611,-40.6518,1.2034],[175.159,-40.6543,0.0],[175.1602,-40.6625,0.0],[175.1579,-40.665,0.0],[175.1547,-40.6637,0.0],[175.1524,-40.6663,0.9425],[175.1493,-40.6752,1.7364],[175.1361,-40.7002,5.4651],[175.1707,-40.7107,20.7132],[175.1694,-40.7183,23.6735],[175.1784,-40.7214,20.2885],[175.1838,-40.7179,18.0928],[175.2044,-40.7303,54.8304],[175.2029,-40.7315,58.6575],[175.2065,-40.7321,51.3898],[175.2043,-40.7394,124.6876],[175.202,-40.739,131.6773],[175.1987,-40.7434,125.1095],[175.1898,-40.7418,199.2764],[175.1887,-40.743,193.7872],[175.1883,-40.7452,183.5805],[175.1931,-40.7526,188.1779],[175.193,-40.7573,171.5747],[175.2014,-40.7593,101.3046],[175.2011,-40.7612,102.4656],[175.2079,-40.761,200.4282],[175.2132,-40.7632,217.3926],[175.219,-40.7625,290.0633],[175.2281,-40.7566,374.99],[175.2355,-40.756,417.5068],[175.2438,-40.7584,583.0796],[175.2531,-40.7644,640.9024],[175.2693,-40.7687,678.7131],[175.2768,-40.7663,654.6027],[175.2914,-40.7541,724.8915],[175.2977,-40.7521,879.111],[175.3,-40.7533,906.2437],[175.3051,-40.7524,932.0558],[175.3093,-40.7497,901.2489],[175.3266,-40.7494,870.7469],[175.3283,-40.7442,890.6603],[175.3316,-40.7459,850.0039],[175.3361,-40.7517,905.9896],[175.3411,-40.7493,817.8148],[175.3468,-40.7521,1061.6687],[175.3529,-40.7462,967.181],[175.3519,-40.7348,936.2517],[175.3557,-40.7302,1070.0557],[175.3604,-40.7328,1061.6942],[175.3676,-40.7277,828.3019],[175.3715,-40.7268,942.8621],[175.3775,-40.7325,833.1192],[175.3888,-40.731,751.3478],[175.3967,-40.7372,850.716],[175.4074,-40.7358,937.717],[175.4227,-40.7454,1308.2762],[175.4342,-40.7464,1423.9028],[175.4416,-40.742,1367.5535],[175.4471,-40.7261,1458.5176],[175.4734,-40.6934,1006.372],[175.5605,-40.7288,961.6417],[175.5591,-40.7326,832.9996],[175.5608,-40.7349,843.5503],[175.5678,-40.7366,789.2047],[175.576,-40.7331,782.7725],[175.5863,-40.7357,589.3043],[175.5874,-40.7342,639.6829],[175.5905,-40.737,545.8588],[175.5977,-40.7387,549.6598],[175.6053,-40.7447,448.1747],[175.6085,-40.743899999999996,433.7854],[175.6277,-40.7528,473.6859],[175.6321,-40.7463,506.5466],[175.6278,-40.7455,441.4408],[175.628,-40.7427,488.2077],[175.6532,-40.7425,429.054],[175.6583,-40.7282,400.4701],[175.6615,-40.7254,475.9409],[175.6759,-40.7294,295.0126],[175.6835,-40.7229,286.0045],[175.6823,-40.7161,293.6129],[175.6937,-40.7163,274.7621],[175.6939,-40.705,459.1207],[175.6905,-40.7049,454.8445],[175.6906,-40.6966,364.6342],[175.7346,-40.6969,288.2133],[175.7347,-40.698,274.3121],[175.7372,-40.6969,281.9793],[175.7524,-40.6974,288.5534],[175.7559,-40.7005,296.6376],[175.7572,-40.7057,308.9028],[175.7542,-40.7093,322.4484],[175.7563,-40.7088,317.383],[175.7701,-40.6989,346.0203],[175.7814,-40.7082,336.7241],[175.7807,-40.7114,351.6589],[175.7771,-40.714,331.3656],[175.774,-40.719,325.8386],[175.7765,-40.7197,323.1074],[175.7781,-40.7239,275.762],[175.7907,-40.7256,218.4236],[175.7816,-40.7395,399.4821],[175.7806,-40.7441,377.5765],[175.7762,-40.7453,352.3453],[175.7753,-40.7508,330.0583],[175.7677,-40.7531,308.0222],[175.7664,-40.755,318.3445],[175.767,-40.7592,300.8836],[175.7647,-40.7681,221.4926],[175.7855,-40.7723,215.9254],[175.7886,-40.768,215.6608],[175.796,-40.7731,330.5561],[175.7974,-40.7758,331.213],[175.8016,-40.7771,342.6661],[175.8033,-40.7758,274.5844],[175.8109,-40.7796,378.8237],[175.8269,-40.7609,281.1105],[175.8285,-40.7615,239.8218],[175.8272,-40.7655,272.6003],[175.8282,-40.7661,272.6003],[175.8304,-40.7645,263.3907],[175.8328,-40.7661,307.2752],[175.8363,-40.7656,316.4004],[175.8423,-40.7691,286.7023],[175.8497,-40.7614,313.525],[175.8628,-40.7698,336.8206],[175.8666,-40.7696,303.1491],[175.8716,-40.7779,331.2809],[175.8855,-40.7733,468.0127],[175.9099,-40.7509,301.4549],[175.935,-40.7668,362.1676],[175.9434,-40.7407,489.9603],[175.9516,-40.7435,493.3812],[175.9555,-40.7433,484.7231],[175.9606,-40.7364,478.8738],[175.965,-40.7392,490.8006],[175.9755,-40.7383,415.7008],[175.9714,-40.7367,416.9793],[175.9785,-40.7326,331.8205],[175.9777,-40.7305,311.4254],[175.9753,-40.7305,332.5601],[175.9775,-40.7295,308.0989],[175.9776,-40.7269,296.403],[175.974,-40.7229,270.3559],[175.9797,-40.7222,352.0916],[175.9888,-40.7259,362.2037],[175.9934,-40.7238,402.7497],[175.9954,-40.725,431.6507],[176.0106,-40.7132,419.3069],[176.0125,-40.717,343.4741],[176.0172,-40.7056,328.0068],[176.0242,-40.7073,284.5872],[176.0224,-40.7115,343.6885],[176.0437,-40.7164,349.696],[176.0475,-40.7146,331.9992],[176.0556,-40.7168,351.8371],[176.0569,-40.713,331.5475],[176.062,-40.7146,375.2533],[176.0748,-40.7132,412.8906],[176.082,-40.7157,418.0546],[176.0791,-40.7074,323.6015],[176.0823,-40.7082,339.3108],[176.0939,-40.6751,301.199],[176.1,-40.6755,263.1501],[176.1032,-40.6729,245.4813],[176.1072,-40.6742,206.1544],[176.1082,-40.6778,205.1395],[176.1116,-40.6794,198.0697],[176.1175,-40.6804,206.0562],[176.1181,-40.6788,213.6286],[176.1226,-40.6821,184.8128],[176.1299,-40.6824,165.7667],[176.1331,-40.6846,179.5746],[176.1414,-40.6807,145.2749],[176.144,-40.6826,129.4761],[176.1434,-40.6803,149.3038],[176.1532,-40.677,232.7222],[176.1625,-40.6822,392.8969],[176.1572,-40.6922,306.4017],[176.1756,-40.7009,89.6124],[176.1852,-40.6973,91.5469],[176.1908,-40.7007,82.6171],[176.1936,-40.6992,87.6049],[176.1976,-40.7004,77.1816],[176.198,-40.7019,77.6693],[176.2006,-40.7007,73.9131],[176.2039,-40.7039,73.779],[176.2082,-40.7024,95.8999],[176.2092,-40.7052,80.812],[176.2119,-40.7028,115.6824],[176.2167,-40.7034,69.7379],[176.2191,-40.7056,58.3957],[176.2225,-40.7032,65.4914],[176.228,-40.7054,63.2058],[176.2252,-40.707,55.6677],[176.2258,-40.7083,72.4283],[176.2342,-40.7076,49.7489],[176.2315,-40.7109,50.577],[176.2343,-40.7124,52.3605],[176.2344,-40.7157,39.723],[176.2413,-40.7176,45.7968],[176.2398,-40.7201,39.1156],[176.2365,-40.7211,43.8487],[176.2382,-40.7252,88.2073],[176.2413,-40.7259,70.9369],[176.2376,-40.729,47.4339],[176.248,-40.7307,38.2393],[176.2513,-40.7336,25.5127],[176.2506,-40.7349,29.1053],[176.2466,-40.7332,26.0091],[176.2445,-40.734,47.1424],[176.2466,-40.7409,26.5502],[176.2501,-40.7431,19.6798],[176.2497,-40.7401,22.1895],[176.2527,-40.7415,20.2797],[176.2508,-40.744,19.6798],[176.2525,-40.7455,20.1726],[176.2551,-40.743,16.4539],[176.2593,-40.7441,65.1986],[176.2586,-40.74,14.8177],[176.2604,-40.7384,16.7164],[176.2613,-40.7405,14.8261],[176.2661,-40.7401,12.8361],[176.2716,-40.7446,53.2103],[176.2637,-40.7465,17.1945],[176.264,-40.7484,28.4416],[176.2698,-40.7497,50.7005],[176.2636,-40.7533,9.8801],[176.2655,-40.7572,76.6289],[176.2603,-40.7564,12.017],[176.2582,-40.7599,11.0423],[176.2593,-40.7616,16.953],[176.2664,-40.7636,26.8406],[176.2629,-40.7665,12.5873],[176.2654,-40.7722,36.3346],[176.2621,-40.7751,10.2159],[176.2641,-40.7769,3.3733],[176.2641,-40.7808,1.4195],[176.2668,-40.7825,1.3227],[176.2705,-40.7808,1.421],[176.2887,-40.7618,0.9936],[176.2903,-40.7554,1.1096],[176.2878,-40.7535,16.8717],[176.2879,-40.7485,0.0],[176.2932,-40.7403,1.2402],[176.303,-40.7328,1.1725],[176.3097,-40.722,4.4565],[176.3098,-40.7163,5.6413],[176.3189,-40.7093,0.3348],[176.3239,-40.7027,11.9378],[176.33,-40.701,4.9169],[176.3314,-40.6986,5.2896],[176.3426,-40.6919,4.5789],[176.3447,-40.687,15.0763],[176.3487,-40.6863,0.0],[176.3507,-40.681,4.4283],[176.354,-40.6779,5.5938],[176.3648,-40.6773,1.0878],[176.3678,-40.6747,0.0],[176.3678,-40.6727,30.0279],[176.3726,-40.6689,3.0727],[176.3763,-40.6681,0.6747],[176.3775,-40.663,12.4642],[176.3762,-40.6598,30.8459],[176.3778,-40.6553,24.3971],[176.3818,-40.652,8.0345],[176.3845,-40.652,2.4525],[176.3875,-40.6417,12.0595],[176.3988,-40.6295,24.7329],[176.407,-40.6247,14.5084],[176.4151,-40.6223,6.2726],[176.4155,-40.6127,0.0],[176.4221,-40.6046,0.0],[176.4364,-40.5949,1.4129],[176.4519,-40.5876,19.5351],[176.4577,-40.5835,10.5635],[176.459,-40.5796,0.0],[176.4677,-40.5748,0.0],[176.4703,-40.5712,13.8073],[176.4725,-40.5575,19.1946],[176.4779,-40.5492,0.0],[176.4792,-40.5442,41.1258],[176.4833,-40.5395,73.7394],[176.4935,-40.5305,22.9938],[176.5396,-40.5047,0.6326],[176.5595,-40.496,4.4522],[176.5769,-40.4927,8.966],[176.5869,-40.4931,0.0],[176.6019,-40.4912,27.1134],[176.6144,-40.4943,0.4561],[176.6149,-40.4922,27.594],[176.6218,-40.4913,0.0],[176.6289,-40.4732,3.8827],[176.628,-40.4608,0.0],[176.6329,-40.4526,22.1538],[176.623,-40.4435,57.5528],[176.6226,-40.428,23.9028],[176.5897,-40.4226,158.8152],[176.5873,-40.4313,259.1971],[176.5831,-40.4198,217.1427],[176.5793,-40.4182,239.9899],[176.5786,-40.4146,252.4847],[176.5587,-40.4072,108.0952],[176.55,-40.4212,197.8806],[176.4929,-40.4001,136.0143],[176.4926,-40.4115,282.1178],[176.4834,-40.412,233.6063],[176.4829,-40.4098,192.1255],[176.4805,-40.4088,192.472],[176.4682,-40.4112,205.3468],[176.4616,-40.409,209.9824],[176.4614,-40.4118,230.7242],[176.4589,-40.4098,250.9046],[176.4403,-40.4067,378.2087],[176.4339,-40.4029,418.634],[176.4361,-40.3995,412.6405],[176.4349,-40.396,441.5951],[176.4371,-40.3952,457.2724],[176.4364,-40.3915,442.909],[176.4322,-40.392,411.2601],[176.4305,-40.3893,367.3939],[176.4282,-40.3911,376.2527],[176.4178,-40.3923,350.8689],[176.407,-40.3786,368.0509],[176.4033,-40.3767,325.2243],[176.3915,-40.3778,277.386],[176.3869,-40.3722,293.6974],[176.3919,-40.3617,283.3641],[176.3707,-40.3586,327.4722],[176.4059,-40.333,228.0662],[176.3971,-40.329,287.6739],[176.392,-40.3293,405.4901],[176.3889,-40.323,429.4728],[176.39,-40.3201,444.3965],[176.3891,-40.3125,463.1919],[176.3992,-40.2849,465.9595],[176.3926,-40.277,411.3715],[176.3861,-40.2793,412.7299],[176.3807,-40.2772,426.012],[176.3833,-40.2748,425.1246],[176.3814,-40.2744,458.2465],[176.3809,-40.2726,445.4737],[176.3781,-40.2725,476.5348],[176.3795,-40.2676,482.2337],[176.3863,-40.2657,480.1342],[176.3817,-40.2628,436.7972],[176.3797,-40.2585,409.4965],[176.3792,-40.2539,409.9683],[176.3812,-40.2491,377.919],[176.3785,-40.2465,375.9751],[176.3803,-40.2463,375.9751],[176.3803,-40.2374,441.2177],[176.3703,-40.2342,449.2724],[176.3702,-40.2144,441.6459],[176.3645,-40.2137,389.8584],[176.3617,-40.2153,384.7009],[176.3611,-40.2012,303.4423],[176.3587,-40.1979,310.2494],[176.3622,-40.1965,311.6628],[176.3639,-40.1928,337.0885],[176.3613,-40.1921,320.2764],[176.3658,-40.1891,326.9144],[176.3659,-40.1864,330.6808],[176.367,-40.1863,331.639],[176.3635,-40.181,345.8812],[176.3656,-40.1797,344.0563],[176.366,-40.1732,353.2385],[176.3711,-40.1662,274.4194],[176.3783,-40.1632,234.8477],[176.3788,-40.1581,205.729],[176.3721,-40.1548,237.4938],[176.3697,-40.1516,280.0714],[176.3432,-40.1455,399.473],[176.3366,-40.1397,355.9572],[176.3371,-40.1388,343.9319],[176.3338,-40.1386,344.9366],[176.3365,-40.1279,324.6363],[176.3345,-40.1276,327.1511],[176.3296,-40.1225,318.9855],[176.3244,-40.1231,323.7217],[176.3215,-40.1213,314.6022],[176.322,-40.1198,315.2098],[176.3132,-40.1239,312.6422],[176.3093,-40.1178,303.7669],[176.3121,-40.1127,339.4316],[176.3171,-40.1091,366.2628],[176.3162,-40.1081,351.1762],[176.318,-40.1064,377.0499],[176.3162,-40.1026,402.4434],[176.3198,-40.0982,463.9532],[176.3204,-40.0946,447.8852],[176.3232,-40.0937,427.9469],[176.3229,-40.0897,397.8122],[176.3198,-40.0891,399.6453],[176.3209,-40.0856,380.2929],[176.3169,-40.0825,326.5451],[176.3106,-40.0814,330.1836],[176.3079,-40.0789,305.506],[176.2998,-40.0761,302.2262],[176.3027,-40.0723,296.7221],[176.2989,-40.0711,304.111],[176.2972,-40.0681,308.6935],[176.2932,-40.0687,328.0091],[176.2834,-40.0667,309.5343],[176.2801,-40.0677,312.1677],[176.2672,-40.0648,331.2858],[176.2638,-40.0627,355.5026],[176.2652,-40.0543,357.9771],[176.2641,-40.0522,356.7618],[176.2611,-40.0517,359.6219],[176.2622,-40.0451,353.0672],[176.2511,-40.0437,357.5963],[176.2487,-40.0402,362.0514],[176.2387,-40.0384,375.5722],[176.2388,-40.0273,364.7381],[176.2178,-40.0288,392.0168],[176.2175,-40.0263,392.2475],[176.2135,-40.0256,401.2104],[176.2135,-40.0178,418.3765],[176.205,-40.019,424.5818],[176.1813,-40.0182,462.373],[176.1806,-40.0162,466.9393],[176.1652,-40.0176,503.7752],[176.1543,-40.0122,627.1406],[176.1367,-40.0285,532.7667],[176.1245,-40.0188,770.21],[176.1255,-40.0136,936.1838]]]]}}