{"type":"Feature","properties":{"ISO3166-1-Alpha-3":"NZL","country":"New Zealand","fill":"#F0F","id":"3334","name":"Manawatu-Wanganui"},
"geometry":{"type": "Polygon","coordinates": [[[175.34912,-38.5747,454.9227],[175.33217,-38.56245,481.3058],[175.31129,-38.57351,318.0563],[175.30623,-38.58431,313.2118],[175.30427,-38.59604,382.5356],[175.29424,-38.59909,397.9294],[175.28112,-38.60452,372.0728],[175.26427,-38.61635,317.4889],[175.22427,-38.63377,518.9408],[175.20009,-38.63588,453.7181],[175.15999,-38.62994,312.2258],[175.11947,-38.62839,471.4888],[175.10821,-38.63392,347.661],[175.09942,-38.6395,332.727],[175.08857,-38.63537,212.3903],[175.0772,-38.63702,262.4717],[175.05612,-38.65087,399.0672],[175.03359,-38.65929,339.2091],[174.97116,-38.66875,292.9217],[174.96279,-38.68146,352.8324],[174.96765,-38.70048,396.0474],[174.94274,-38.73293,304.1291],[174.94005,-38.74136,452.2013],[174.94088,-38.75014,400.6132],[174.90326,-38.76032,504.9313],[174.86832,-38.77706,451.9254],[174.85117,-38.78559,486.2834],[174.83008,-38.79117,443.8064],[174.82461,-38.79551,422.2133],[174.82078,-38.79944,437.6964],[174.79877,-38.83463,427.3539],[174.80828,-38.87318,448.9034],[174.83525,-38.90662,444.6404],[174.86967,-38.8939,387.2464],[174.88548,-38.91778,393.6229],[174.88248,-38.9508,219.6055],[174.89261,-38.97876,285.9369],[174.91494,-38.9985,317.4478],[174.95555,-39.00532,213.8952],[174.97116,-39.0309,248.7966],[174.97095,-39.06175,221.017],[175.0372,-39.07436,143.8104],[175.05705,-39.08805,225.413],[175.06769,-39.10526,102.2667],[175.05488,-39.11167,161.5616],[175.03855,-39.10702,181.2879],[175.02656,-39.10986,315.1131],[174.94232,-39.1959,232.5288],[174.92196,-39.23058,252.9477],[174.9045,-39.23678,215.1625],[174.88145,-39.24014,169.816],[174.85344,-39.26386,252.2551],[174.83701,-39.29693,189.1144],[174.82667,-39.31192,409.7284],[174.82409,-39.32566,385.7123],[174.86915,-39.35031,625.7588],[174.88951,-39.35873,693.0901],[174.89447,-39.3732,602.6981],[174.89003,-39.38349,535.7545],[174.88403,-39.3932,515.8864],[174.88496,-39.41527,485.2753],[174.89375,-39.43584,386.6942],[174.92351,-39.46467,435.1216],[174.96961,-39.4963,471.3504],[174.98367,-39.52689,559.4584],[174.99276,-39.5566,635.8584],[174.97715,-39.60172,474.585],[174.97622,-39.64807,432.3312],[174.9848,-39.65655,425.9559],[174.99204,-39.66611,354.4319],[174.97302,-39.67923,340.9563],[174.95059,-39.6845,377.2115],[174.94036,-39.68802,399.1719],[174.93571,-39.69525,284.735],[174.9353,-39.71463,366.5372],[174.93809,-39.72858,532.3467],[174.92145,-39.74522,394.8869],[174.89902,-39.75101,459.8865],[174.87029,-39.76941,313.5524],[174.84528,-39.7923,274.1307],[174.81985,-39.80388,175.4465],[174.79928,-39.82041,117.4128],[174.77233,-39.85914,27.9282],[174.81609,-39.85882,52.0442],[174.84197,-39.86248,40.1361],[174.89747,-39.88258,13.0016],[174.9673,-39.91644,45.6322],[175.05877,-39.99668,8.8557],[175.07887,-40.02459,0.0],[175.15496,-40.08538,9.2969],[175.17066,-40.10801,19.1324],[175.18377,-40.13445,19.0831],[175.20265,-40.18841,6.4896],[175.21559,-40.25368,0.0],[175.23129,-40.27728,4.7419],[175.23714,-40.28592,1.0433],[175.23878,-40.29632,1.9465],[175.23487,-40.33603,7.76],[175.22234,-40.39332,0.0],[175.21363,-40.4109,0.0],[175.21209,-40.41937,0.0],[175.21315,-40.43426,0.0],[175.21632,-40.44948,0.0],[175.22267,-40.46502,5.4556],[175.21632,-40.46819,3.8616],[175.20688,-40.46941,0.0],[175.19955,-40.4695,0.0],[175.1963,-40.47194,0.0],[175.19614,-40.47772,0.0],[175.19703,-40.48431,0.0],[175.19654,-40.48943,0.0],[175.19117,-40.51238,0.0],[175.18751,-40.56878,4.8512],[175.17905,-40.58904,0.0],[175.16847,-40.60622,0.0],[175.14129,-40.67441,0.0],[175.09425,-40.75433,0.0],[175.06462,-40.79218,0.0],[175.09542,-40.79287,2.0747],[175.20004,-40.77587,170.6537],[175.3295,-40.77849,716.5414],[175.40404,-40.7628,988.0324],[175.40873,-40.76404,1145.319],[175.45984,-40.77762,1202.348],[175.48773,-40.78503,527.3804],[175.64564,-40.77175,313.0897],[175.80093,-40.75336,182.1527],[175.99504,-40.73292,317.7877],[176.1299,-40.73701,218.3456],[176.22184,-40.75336,320.7825],[176.25249,-40.78605,177.2842],[176.28663,-40.80023,0.0],[176.30974,-40.77142,0.0],[176.34799,-40.69655,0.0],[176.35475,-40.68743,0.0],[176.36207,-40.68336,0.0],[176.37827,-40.68174,0.0],[176.3851,-40.67816,0.0],[176.40504,-40.64935,0.0],[176.41041,-40.63836,0.0],[176.41456,-40.62672,0.0],[176.41619,-40.61663,0.0],[176.42482,-40.60394,0.0],[176.48439,-40.55836,0.0],[176.54249,-40.48602,56.1067],[176.56186,-40.48122,58.2331],[176.58692,-40.48577,12.4767],[176.61134,-40.48455,156.0626],[176.62843,-40.46209,0.0],[176.62967,-40.45407,127.3338],[176.58956,-40.4257,191.8012],[176.56011,-40.41355,199.1856],[176.45355,-40.40632,253.6224],[176.41862,-40.38766,325.721],[176.38906,-40.36214,298.2546],[176.39071,-40.33211,403.0352],[176.39712,-40.2978,350.8149],[176.39361,-40.26695,324.1058],[176.36591,-40.21341,389.8584],[176.3657,-40.18649,330.6808],[176.37242,-40.17005,313.4833],[176.36942,-40.15124,287.3033],[176.33583,-40.12499,330.3801],[176.32436,-40.11388,365.8688],[176.32012,-40.099,463.9532],[176.32291,-40.08572,402.9023],[176.31671,-40.07363,288.0286],[176.30937,-40.07001,301.6222],[176.30131,-40.06758,310.5702],[176.28498,-40.06587,312.3238],[176.27051,-40.05833,334.1011],[176.21077,-40.01849,421.5856],[176.14556,-40.0205,646.8831],[176.1254,-40.01632,876.6599],[176.10711,-39.99808,742.8652],[176.10349,-39.9865,988.5546],[176.10453,-39.97906,1093.0327],[176.12634,-39.90253,1324.9518],[176.13708,-39.83571,1554.3164],[176.18339,-39.70714,1256.3892],[176.18432,-39.6938,1374.3328],[176.18938,-39.68244,1322.5479],[176.19765,-39.68037,1356.4927],[176.20168,-39.67401,1388.1085],[176.18649,-39.65246,1137.4946],[176.17574,-39.62678,1197.5609],[176.18173,-39.61154,1125.0909],[176.17605,-39.59872,1019.8262],[176.16396,-39.59624,1105.3673],[176.15279,-39.58993,1045.7759],[176.16695,-39.57924,979.721],[176.18721,-39.56921,876.1214],[176.23351,-39.52203,528.2941],[176.26431,-39.51025,518.8113],[176.29676,-39.50317,373.9012],[176.31816,-39.49134,372.2522],[176.31392,-39.43454,741.04],[176.31805,-39.404,748.2179],[176.33087,-39.37837,499.4308],[176.30348,-39.36049,557.8891],[176.28043,-39.35264,871.8932],[176.27547,-39.34008,742.225],[176.28343,-39.32592,650.5816],[176.28777,-39.31062,679.3109],[176.30886,-39.29714,836.0835],[176.30948,-39.28876,885.1356],[176.3041,-39.28225,903.2687],[176.29966,-39.26334,956.577],[176.28881,-39.24298,1057.9244],[176.22132,-39.22851,1032.8126],[176.19145,-39.19203,1046.4873],[176.18628,-39.14464,1111.7251],[176.1592,-39.13777,959.4235],[176.10081,-39.15363,1078.3381],[176.02464,-39.1511,1324.345],[175.98102,-39.15575,1279.793],[175.97565,-39.15875,1418.6166],[175.97275,-39.16417,1279.0942],[175.9464,-39.1897,1456.8048],[175.9064,-39.20128,1381.5217],[175.89451,-39.21254,1399.6931],[175.88769,-39.22572,1393.7898],[175.87705,-39.23941,1324.4175],[175.86909,-39.25435,1456.7092],[175.86475,-39.26985,1408.7935],[175.85317,-39.28189,1450.932],[175.8139,-39.29729,1311.8262],[175.77235,-39.29352,1332.9827],[175.68088,-39.29445,1171.5217],[175.59417,-39.2745,2046.8976],[175.59014,-39.23518,1728.4957],[175.61329,-39.19854,1315.5024],[175.635,-39.15632,2244.4265],[175.64709,-39.11038,1564.5367],[175.63851,-39.09028,1095.26],[175.62569,-39.07405,921.4331],[175.63158,-39.05121,690.177],[175.64874,-39.03162,619.0352],[175.6661,-39.00372,654.2373],[175.66559,-38.98191,817.0995],[175.63334,-38.98026,639.5376],[175.60068,-38.98424,696.5124],[175.56534,-38.96847,650.7644],[175.57402,-38.93189,682.7404],[175.58208,-38.91917,713.3139],[175.58043,-38.90321,704.3671],[175.56099,-38.88538,779.0493],[175.55521,-38.86057,887.6191],[175.57371,-38.83313,963.858],[175.57329,-38.80419,795.5182],[175.54425,-38.78497,917.1813],[175.52637,-38.75769,808.7496],[175.56172,-38.71448,719.196],[175.58425,-38.67309,831.7372],[175.59665,-38.63976,1029.7981],[175.62518,-38.61444,876.3514],[175.64109,-38.58596,796.7666],[175.62828,-38.57434,843.6376],[175.59996,-38.58886,705.1489],[175.56906,-38.59635,678.6468],[175.52813,-38.58162,548.6255],[175.49361,-38.56328,702.4662],[175.43242,-38.56312,413.8186],[175.37279,-38.57408,422.7177],[175.34912,-38.5747,454.9227]]]}}