{"type":"Feature","properties":{"GID_2":"NZL.17.10_1","GID_0":"NZL","country":"NewZealand","GID_1":"NZL.17_1","province":"Waikato","NL_NAME_1":"NA","county":"Waitomo","VARNAME_2":"NA","NL_NAME_2":"NA","TYPE_2":"District","ENGTYPE_2":"District","CC_2":"020","HASC_2":"NZ.WK.WO","name":"Waitomo.county"},
"geometry":{"type": "MultiPolygon","coordinates": [[[[175.6288,-38.5512,1135.8792],[175.6254,-38.5452,1016.0493],[175.6262,-38.5409,923.3195],[175.6122,-38.4876,585.6825],[175.5655,-38.4945,552.0237],[175.5382,-38.4703,583.1317],[175.5439,-38.4679,598.7881],[175.5231,-38.4501,529.2861],[175.5238,-38.4478,534.4692],[175.4798,-38.4138,582.7006],[175.4732,-38.3965,681.6313],[175.4352,-38.4024,709.6587],[175.4225,-38.3691,745.1949],[175.4026,-38.3738,514.3786],[175.4116,-38.397,500.0977],[175.3893,-38.4023,449.3641],[175.3878,-38.3985,434.6737],[175.372,-38.4025,237.6275],[175.3688,-38.3986,213.2117],[175.358,-38.3937,180.3015],[175.355,-38.3901,172.7357],[175.3522,-38.3892,162.273],[175.3502,-38.3825,150.0279],[175.3452,-38.3774,167.3031],[175.3443,-38.3753,142.421],[175.3543,-38.3729,362.3265],[175.3491,-38.3596,286.4949],[175.3333,-38.3634,152.3726],[175.3334,-38.3562,157.9738],[175.331,-38.3534,138.3103],[175.3339,-38.3513,124.2293],[175.3313,-38.3496,123.8597],[175.3354,-38.3479,158.752],[175.3309,-38.3444,142.4973],[175.3305,-38.3391,214.9352],[175.3251,-38.3261,381.7717],[175.3224,-38.3236,372.0035],[175.3237,-38.3162,349.4355],[175.3182,-38.3149,315.5785],[175.3192,-38.3068,275.7225],[175.3042,-38.3059,351.9982],[175.2939,-38.3094,322.1263],[175.2885,-38.3082,283.1154],[175.2885,-38.3038,279.4572],[175.2646,-38.3015,137.5048],[175.2665,-38.3096,228.9396],[175.2578,-38.3108,158.2432],[175.2346,-38.3065,71.4461],[175.2193,-38.3099,80.2009],[175.2201,-38.306,151.5874],[175.2307,-38.2883,75.3219],[175.2123,-38.2855,45.7845],[175.2112,-38.2761,122.2824],[175.2187,-38.2648,79.8329],[175.1955,-38.2598,39.2572],[175.1948,-38.2571,42.2878],[175.1918,-38.2562,49.2095],[175.1897,-38.2561,43.5202],[175.186,-38.2611,71.6176],[175.1835,-38.261,56.6834],[175.1832,-38.2596,56.6834],[175.1889,-38.2532,36.8315],[175.1815,-38.2471,38.7381],[175.1874,-38.2444,37.1294],[175.1875,-38.2363,80.5962],[175.1846,-38.2245,70.6559],[175.1794,-38.2169,40.806399999999996],[175.1631,-38.2232,93.4293],[175.1495,-38.2229,40.8399],[175.1407,-38.2248,61.308],[175.1411,-38.2277,109.4391],[175.1267,-38.2277,51.2292],[175.1315,-38.2228,42.2114],[175.1304,-38.2215,42.7265],[175.1119,-38.2168,157.1699],[175.0839,-38.2056,267.1554],[175.0744,-38.2053,135.9912],[175.0566,-38.201,220.3986],[175.0518,-38.1948,328.5596],[175.0518,-38.1768,373.2124],[175.0499,-38.177,344.1167],[175.0485,-38.1747,345.3128],[175.0121,-38.1742,409.8068],[175.0134,-38.1716,420.6039],[175.0204,-38.1673,384.8086],[175.0207,-38.1655,411.591],[175.0186,-38.1636,481.0323],[174.9947,-38.1652,467.5479],[174.993,-38.1633,459.7634],[174.9875,-38.1623,402.0198],[174.9855,-38.1647,397.8679],[174.9762,-38.1648,389.3212],[174.9741,-38.1708,308.5367],[174.979,-38.1767,445.8315],[174.9731,-38.1783,412.122],[174.9755,-38.1827,410.5122],[174.9726,-38.1911,252.8911],[174.9782,-38.1939,437.3573],[174.9797,-38.196,472.7596],[174.9781,-38.1974,475.9717],[174.9528,-38.1958,312.7873],[174.9485,-38.1939,307.7384],[174.94,-38.1934,137.314],[174.9335,-38.1905,116.3727],[174.9188,-38.1935,256.9488],[174.905,-38.1928,323.2681],[174.9007,-38.1907,323.8638],[174.8967,-38.1929,286.0089],[174.892,-38.192,286.0392],[174.891,-38.1938,268.6414],[174.8844,-38.1921,287.5075],[174.8824,-38.1896,255.8701],[174.8677,-38.1944,85.4501],[174.8688,-38.1966,138.5514],[174.8492,-38.2032,239.5869],[174.8507,-38.2074,255.6357],[174.8359,-38.2074,272.9502],[174.8352,-38.1736,226.8327],[174.8394,-38.1739,226.815],[174.8373,-38.1682,197.805],[174.8403,-38.1631,89.4141],[174.8478,-38.1609,46.0422],[174.8559,-38.1521,6.6603],[174.8529,-38.1529,12.5934],[174.8513,-38.1515,59.0445],[174.8545,-38.1471,0.0],[174.8524,-38.1465,20.8435],[174.8552,-38.1422,0.0],[174.8546,-38.141,0.0],[174.8515,-38.1415,42.3873],[174.8496,-38.139,0.0],[174.8501,-38.1357,0.0],[174.8477,-38.1342,4.5248],[174.8494,-38.1325,31.917],[174.8488,-38.1294,0.0],[174.8457,-38.1316,40.3305],[174.8416,-38.1306,0.0],[174.8378,-38.1339,20.5658],[174.8372,-38.1366,29.9806],[174.8349,-38.1331,2.3256],[174.833,-38.1371,0.0],[174.8332,-38.1408,31.7368],[174.8351,-38.142,0.0],[174.8336,-38.1441,9.5422],[174.8346,-38.1458,2.2059],[174.8288,-38.1579,2.9532],[174.8264,-38.1559,0.0],[174.8217,-38.158,9.3716],[174.8205,-38.1565,6.5857],[174.8275,-38.1504,0.0],[174.8283,-38.1422,0.0],[174.8219,-38.1445,0.0],[174.8174,-38.1496,19.156],[174.8162,-38.1497,12.6021],[174.8147,-38.1455,5.0222],[174.8227,-38.138,2.3925],[174.8236,-38.1336,1.68],[174.8132,-38.1376,4.5899],[174.8101,-38.1419,5.6412],[174.8073,-38.1427,11.7722],[174.8099,-38.1345,21.1393],[174.8093,-38.1312,0.0],[174.8058,-38.1299,22.3873],[174.8049,-38.1193,0.0],[174.7982,-38.1224,7.1487],[174.7941,-38.1225,15.4816],[174.7984,-38.1262,31.3553],[174.798,-38.135,13.6559],[174.7949,-38.1359,7.3715],[174.7938,-38.1328,1.1858],[174.7913,-38.1357,36.3424],[174.792,-38.1325,1.1858],[174.795,-38.1319,0.0],[174.7919,-38.13,5.8818],[174.7841,-38.1349,16.0661],[174.784,-38.1332,7.5102],[174.7858,-38.1304,0.0],[174.7826,-38.1289,16.0772],[174.7806,-38.1298,8.9932],[174.7781,-38.1364,32.3181],[174.7779,-38.1288,0.0],[174.775,-38.1293,28.1512],[174.7744,-38.1254,33.9844],[174.7773,-38.1243,8.3809],[174.776,-38.1218,0.0],[174.7787,-38.1206,9.2622],[174.7758,-38.1178,0.0],[174.7773,-38.1162,0.0],[174.7746,-38.1152,38.8564],[174.7788,-38.1091,0.0],[174.7748,-38.1106,0.0],[174.77,-38.1199,12.8887],[174.7676,-38.1183,3.7384],[174.7619,-38.12,10.3674],[174.7617,-38.118,5.8224],[174.7663,-38.1177,16.0023],[174.7672,-38.1151,61.2475],[174.763,-38.1119,19.0173],[174.7574,-38.1128,16.1281],[174.7631,-38.1076,28.0924],[174.7667,-38.1107,0.0],[174.7689,-38.1102,5.6517],[174.7686,-38.1064,0.0],[174.7706,-38.1032,8.0793],[174.7702,-38.0974,2.354],[174.7755,-38.0931,0.0],[174.7742,-38.0911,18.7113],[174.7752,-38.0885,4.3257],[174.7722,-38.0895,2.9548],[174.7703,-38.0876,0.0],[174.7657,-38.1003,12.3798],[174.7602,-38.1079,31.7392],[174.7573,-38.1092,36.9933],[174.7559,-38.112,35.8316],[174.7424,-38.1167,0.0],[174.7423,-38.1185,21.9091],[174.7345,-38.124,20.193],[174.7287,-38.1226,0.0],[174.7234,-38.1232,40.8862],[174.7203,-38.1194,0.0],[174.7205,-38.1215,26.555],[174.7164,-38.1218,16.8253],[174.7064,-38.1205,19.6308],[174.6999,-38.1168,3.9287],[174.6976,-38.1184,29.7096],[174.6921,-38.118,8.2433],[174.6889,-38.1146,47.8822],[174.6864,-38.108,24.8334],[174.6835,-38.1103,72.3594],[174.6812,-38.1099,12.1669],[174.6809,-38.1163,66.7029],[174.6834,-38.1203,39.323],[174.6821,-38.1227,11.4169],[174.6878,-38.13,101.1996],[174.6873,-38.1321,68.7855],[174.6896,-38.1356,40.6971],[174.6882,-38.1376,23.7296],[174.6905,-38.1385,13.6829],[174.7045,-38.1747,0.0],[174.7064,-38.1754,4.7753],[174.7059,-38.1805,10.8281],[174.7139,-38.2018,6.7787],[174.7111,-38.2099,3.8756],[174.7142,-38.2135,51.3049],[174.7157,-38.2223,5.6905],[174.714,-38.2254,3.8193],[174.7109,-38.2257,9.3748],[174.707,-38.2302,12.8881],[174.7099,-38.2356,17.155],[174.7138,-38.2534,63.8039],[174.7146,-38.2583,70.2943],[174.7131,-38.2634,0.0],[174.7171,-38.2727,5.8637],[174.7156,-38.2882,5.5398],[174.7131,-38.2914,0.0],[174.7141,-38.303,6.0618],[174.7159,-38.306,0.0],[174.7121,-38.3156,12.2429],[174.7088,-38.3183,7.324],[174.7102,-38.3237,2.6531],[174.7006,-38.3259,0.0],[174.6972,-38.3284,0.0],[174.6879,-38.3438,170.4141],[174.6824,-38.3475,7.1967],[174.6801,-38.352,54.151],[174.6749,-38.3539,26.7184],[174.6722,-38.3575,25.9391],[174.6642,-38.3625,0.0],[174.66,-38.3637,0.0],[174.6647,-38.3672,55.1887],[174.6611,-38.377,2.4086],[174.6567,-38.3834,32.5521],[174.6541,-38.3858,28.7825],[174.6346,-38.3869,0.0],[174.6367,-38.3873,47.8271],[174.6351,-38.3884,0.0],[174.6382,-38.4011,41.6334],[174.6353,-38.4041,0.0],[174.6368,-38.4042,42.1604],[174.6359,-38.4061,29.6356],[174.6398,-38.4057,18.6131],[174.6417,-38.4072,6.2169],[174.6402,-38.4096,60.1289],[174.6367,-38.4103,15.8256],[174.6358,-38.4155,15.4508],[174.6398,-38.4163,32.1484],[174.6413,-38.4231,0.0],[174.6429,-38.423,2.4282],[174.6413,-38.4504,0.0],[174.6441,-38.4513,34.8705],[174.6456,-38.4564,20.8497],[174.6445,-38.4665,88.7954],[174.6413,-38.4745,2.6556],[174.6355,-38.4778,0.0],[174.6395,-38.4777,31.8533],[174.6401,-38.4796,2.742],[174.6382,-38.4784,3.6551],[174.6375,-38.4801,4.51],[174.6389,-38.4924,18.6489],[174.6346,-38.4966,0.0],[174.6309,-38.5049,0.0],[174.6362,-38.5317,38.8404],[174.633,-38.5445,0.0],[174.6332,-38.5557,4.6215],[174.6311,-38.5566,0.0],[174.6307,-38.5599,28.1644],[174.6318,-38.5687,46.3248],[174.6273,-38.6086,58.3421],[174.6248,-38.6126,0.0],[174.6211,-38.6337,0.0],[174.6227,-38.6364,4.107],[174.6197,-38.6574,2.1365],[174.6202,-38.6632,0.0],[174.6175,-38.6744,21.055],[174.6181,-38.6785,13.4424],[174.6146,-38.7042,0.0],[174.6155,-38.7076,13.5159],[174.6134,-38.7127,32.1167],[174.6169,-38.7229,52.9055],[174.6472,-38.721,181.8049],[174.6459,-38.726,177.0768],[174.654,-38.7332,200.4114],[174.6578,-38.7315,193.2919],[174.6616,-38.732,189.4658],[174.6663,-38.7289,192.4936],[174.6875,-38.7278,278.1169],[174.6934,-38.7337,250.6004],[174.7022,-38.7307,249.3751],[174.7035,-38.7326,220.2356],[174.7089,-38.7319,216.2851],[174.7258,-38.7353,260.1115],[174.728,-38.7334,279.0505],[174.7376,-38.7341,313.2941],[174.744,-38.7408,322.6027],[174.7486,-38.743,289.1486],[174.7481,-38.7441,289.1486],[174.7511,-38.7444,306.4686],[174.7514,-38.7433,306.4686],[174.7564,-38.745,340.2637],[174.761,-38.7431,327.7195],[174.763,-38.7394,326.9563],[174.7674,-38.7373,313.3154],[174.7744,-38.7365,327.4851],[174.7741,-38.7389,325.7819],[174.7811,-38.735,261.9801],[174.7905,-38.7336,330.2162],[174.7942,-38.731,308.5086],[174.8038,-38.7365,316.7971],[174.8074,-38.7359,335.905],[174.8124,-38.7412,337.2157],[174.8154,-38.7409,365.166],[174.8164,-38.7453,363.1248],[174.8185,-38.747,354.438],[174.8242,-38.748,384.0465],[174.8249,-38.7533,387.9746],[174.8275,-38.7567,401.64],[174.8254,-38.7586,395.2216],[174.8277,-38.7585,389.7803],[174.8282,-38.761,412.9957],[174.8344,-38.7644,482.6702],[174.8434,-38.7668,467.1306],[174.8504,-38.7729,477.4863],[174.8629,-38.7746,504.9176],[174.8677,-38.765,481.8966],[174.8739,-38.7658,465.2915],[174.8839,-38.7631,473.1841],[174.8892,-38.7611,463.8018],[174.896,-38.7547,506.6375],[174.9148,-38.7548,437.7552],[174.9202,-38.7534,440.3007],[174.9275,-38.7563,461.075],[174.931,-38.7556,470.1416],[174.9327,-38.7544,487.4494],[174.9324,-38.7524,499.4258],[174.9379,-38.7502,473.8275],[174.938,-38.7414,442.1241],[174.9333,-38.7388,435.4392],[174.9348,-38.7306,429.5729],[174.9439,-38.7228,451.9257],[174.9415,-38.7211,453.3377],[174.9425,-38.72,408.5928],[174.9541,-38.7151,407.5858],[174.951,-38.7061,443.1725],[174.9532,-38.7044,433.7419],[174.9533,-38.7014,426.0377],[174.9571,-38.6993,418.0355],[174.9629,-38.6992,438.26],[174.9643,-38.6968,432.166],[174.9611,-38.6927,412.779],[174.9616,-38.6902,425.6096],[174.9579,-38.6874,411.1188],[174.9596,-38.6783,429.2092],[174.9542,-38.675,446.5013],[174.9558,-38.673,465.6782],[174.9544,-38.6675,432.619],[174.9567,-38.6647,474.7515],[174.9609,-38.6636,455.9239],[174.9674,-38.6676,375.985],[174.9716,-38.6673,321.8649],[174.9756,-38.6653,300.828],[174.979,-38.6663,257.17],[174.9811,-38.6619,231.5524],[174.9865,-38.6655,259.03],[174.9943,-38.6648,322.0094],[175.0005,-38.6663,421.4029],[175.0026,-38.6634,408.1395],[175.017,-38.6604,430.759],[175.0181,-38.659,364.8585],[175.0222,-38.6595,363.9895],[175.0247,-38.6578,378.6059],[175.0265,-38.6592,427.5031],[175.0293,-38.656,384.0587],[175.0325,-38.6569,402.7661],[175.0398,-38.655,417.1154],[175.0392,-38.6516,423.341],[175.0511,-38.6494,403.6144],[175.0539,-38.6456,408.3329],[175.058,-38.6443,382.8442],[175.0574,-38.6405,367.8742],[175.07,-38.6377,298.7062],[175.0695,-38.6301,158.4001],[175.0744,-38.6297,165.2846],[175.0875,-38.6358,229.8161],[175.0885,-38.6378,235.366],[175.0931,-38.638,268.6557],[175.0925,-38.635,251.9997],[175.0984,-38.6338,306.5827],[175.0997,-38.6314,343.4513],[175.1079,-38.6277,438.7782],[175.1092,-38.6245,520.6931],[175.1165,-38.6219,398.226],[175.1195,-38.6264,462.0811],[175.1357,-38.6263,385.0296],[175.1374,-38.6308,333.6686],[175.141,-38.6318,277.337],[175.1429,-38.6302,281.6848],[175.159,-38.6296,312.2258],[175.167,-38.6271,371.6851],[175.1733,-38.6274,450.0203],[175.1844,-38.631,438.6768],[175.1949,-38.6293,473.5935],[175.1966,-38.6335,541.7671],[175.2022,-38.6374,419.3338],[175.2132,-38.6394,473.9377],[175.2309,-38.632,563.0786],[175.2343,-38.6322,584.3694],[175.2364,-38.6253,522.802],[175.2404,-38.624,525.5598],[175.2485,-38.6154,501.6331],[175.2518,-38.6142,511.8954],[175.2544,-38.6166,458.7671],[175.2563,-38.6132,489.1557],[175.2622,-38.6122,440.1328],[175.2653,-38.6137,400.7087],[175.2851,-38.588,414.2433],[175.3002,-38.6006,451.0326],[175.3064,-38.5954,358.8639],[175.3009,-38.5887,470.5756],[175.303,-38.5715,484.339],[175.3178,-38.556,433.4989],[175.3247,-38.5514,469.8659],[175.3264,-38.5543,461.512],[175.3292,-38.5543,504.3345],[175.3299,-38.556399999999996,495.1342],[175.3347,-38.5593,490.7666],[175.3322,-38.5634,458.831],[175.3361,-38.5672,482.7899],[175.3354,-38.5695,469.8538],[175.3318,-38.5703,441.6183],[175.3355,-38.5815,467.2283],[175.3778,-38.5727,393.3585],[175.382,-38.5577,532.4789],[175.3896,-38.5582,495.7594],[175.3923,-38.5602,532.6655],[175.4011,-38.56,461.0377],[175.401,-38.5511,576.5195],[175.4207,-38.5508,378.3366],[175.422,-38.5563,336.5571],[175.4461,-38.5645,475.0661],[175.4511,-38.5629,498.6081],[175.4724,-38.5635,510.5362],[175.5005,-38.5591,732.7127],[175.5143,-38.5828,451.1404],[175.5208,-38.583,458.4312],[175.5268,-38.5891,472.2077],[175.5257,-38.591,467.3186],[175.5286,-38.5935,492.3143],[175.5332,-38.5939,500.2528],[175.5364,-38.5971,521.4069],[175.5417,-38.598,532.983],[175.5453,-38.5975,525.7969],[175.55,-38.5934,541.0665],[175.5597,-38.5953,550.0212],[175.5679,-38.5943,568.4395],[175.5695,-38.5938,568.4395],[175.5699,-38.5899,577.7248],[175.5774,-38.5916,629.903],[175.5866,-38.59,650.4877],[175.5916,-38.5859,645.7144],[175.5943,-38.5877,655.3477],[175.6055,-38.5851,686.1884],[175.6105,-38.5788,709.7247],[175.6157,-38.5756,726.9269],[175.6171,-38.5723,752.001],[175.6267,-38.5697,816.6872],[175.6311,-38.5623,934.9266],[175.6285,-38.5577,1009.1755],[175.6288,-38.5512,1135.8792]]]]}}