{"type":"Feature","properties":{"GID_2":"NZL.12.4_1","GID_0":"NZL","country":"NewZealand","GID_1":"NZL.12_1","province":"Otago","NL_NAME_1":"NA","county":"Queenstown-Lakes","VARNAME_2":"NA","NL_NAME_2":"NA","TYPE_2":"District","ENGTYPE_2":"District","CC_2":"070","HASC_2":"NZ.OT.QL","name":"Queenstown-Lakes.county"},
"geometry":{"type": "MultiPolygon","coordinates": [[[[169.6993,-43.9635,2154.9326],[169.6919,-43.9579,2064.499],[169.671,-43.9554,1984.1373],[169.6557,-43.9568,2058.3787],[169.6329,-43.9638,2149.9009],[169.6233,-43.957,2172.3398],[169.5928,-43.9581,2016.1152],[169.5868,-43.9651,1901.635],[169.5868,-43.9732,1721.1703],[169.5826,-43.9805,1868.1743],[169.5842,-43.9832,1833.1196],[169.5829,-43.9851,1990.8657],[169.592,-43.9913,1576.0337],[169.592,-44.0102,1945.3632],[169.5914,-44.0125,2093.8384],[169.582,-44.0226,1959.361],[169.5813,-44.03,2102.7605],[169.579,-44.0341,2227.2852],[169.5716,-44.0355,2226.5793],[169.5623,-44.0323,1874.0422],[169.5571,-44.0332,1747.8145],[169.5506,-44.0319,1715.2876],[169.5411,-44.0333,1671.0012],[169.5285,-44.0387,1663.7485],[169.5168,-44.0536,1964.7826],[169.5117,-44.058,2068.3794],[169.5067,-44.0592,1991.9167],[169.4863,-44.0553,1773.0402],[169.4626,-44.0593,1769.0214],[169.4573,-44.0636,2108.0532],[169.4505,-44.0662,2439.9048],[169.4502,-44.0728,2212.2002],[169.4455,-44.0765,2048.3501],[169.4438,-44.0841,1994.3623],[169.4333,-44.0897,1950.9679],[169.4285,-44.0965,2045.8888],[169.4236,-44.0965,1946.5278],[169.4096,-44.102,1920.8545],[169.4074,-44.1046,1959.6534],[169.4084,-44.107,1914.447],[169.3906,-44.1127,1740.8722],[169.3871,-44.1187,1645.2965],[169.373,-44.117,1259.9073],[169.3541,-44.1069,608.3612],[169.3387,-44.1025,1183.6329],[169.3297,-44.0888,1306.9185],[169.3306,-44.0794,1504.2896],[169.3287,-44.0778,1420.699],[169.3284,-44.0751,1322.2311],[169.3231,-44.0717,1355.9149],[169.321,-44.0641,1670.2797],[169.309,-44.0606,1639.3351],[169.2908,-44.0627,1744.6202],[169.2902,-44.0739,1713.0726],[169.2847,-44.0799,1536.9623],[169.2795,-44.0938,1678.9583],[169.2714,-44.101,1628.3131],[169.2573,-44.1081,1789.8705],[169.2421,-44.1061,1533.4355],[169.2328,-44.1086,1445.8855],[169.2192,-44.1094,1421.2928],[169.2062,-44.1069,1629.1516],[169.1988,-44.1095,1420.5132],[169.1881,-44.1105,1559.7535],[169.169,-44.1046,1570.0228],[169.1597,-44.1049,1540.9907],[169.1514,-44.0946,1294.0691],[169.1477,-44.0861,1571.589],[169.148,-44.0827,1616.4005],[169.1459,-44.0799,1746.9183],[169.1389,-44.0807,1615.7504],[169.1301,-44.0869,1807.4731],[169.119,-44.0875,1611.2749],[169.1108,-44.0932,1687.0505],[169.1045,-44.0954,1798.9375],[169.0958,-44.0973,1621.2355],[169.0887,-44.0953,1500.7179],[169.0815,-44.097,1545.5845],[169.0752,-44.1028,1451.1639],[169.0736,-44.1096,1777.0748],[169.0581,-44.1093,1321.5665],[169.046,-44.1161,1601.1855],[169.0374,-44.1183,1898.2891],[169.0203,-44.1146,1634.3341],[169.0134,-44.1148,1811.8428],[169.0098,-44.124,1846.0642],[169.0159,-44.1309,1811.4462],[169.0088,-44.1361,1739.2941],[169.0008,-44.1396,1886.7131],[168.9811,-44.1415,1826.9529],[168.9751,-44.144,1983.1975],[168.9767,-44.1508,1838.6354],[168.9858,-44.1634,2209.1543],[168.9874,-44.1689,2222.5022],[168.9743,-44.173,1725.705],[168.9652,-44.1738,1845.6798],[168.9613,-44.1824,1637.1658],[168.9633,-44.2004,1647.6804],[168.9592,-44.2058,1847.0043],[168.9446,-44.2035,1822.4004],[168.919,-44.2095,1838.3665],[168.9109,-44.2098,2091.5254],[168.9048,-44.2182,2031.9919],[168.8933,-44.2175,1964.4335],[168.8772,-44.2228,2178.1716],[168.8737,-44.2259,2138.2109],[168.8722,-44.2302,2339.0999],[168.8733,-44.234,2377.7134],[168.871,-44.2389,2108.4661],[168.8561,-44.2425,2046.9049],[168.8494,-44.2461,2103.3091],[168.8518,-44.2537,1999.7599],[168.8516,-44.2586,2015.2632],[168.8573,-44.2697,2028.9742],[168.8547,-44.2742,1935.0358],[168.8463,-44.2785,1662.6602],[168.8427,-44.2833,1680.6423],[168.8443,-44.2897,1804.62],[168.84,-44.3024,1552.6366],[168.8414,-44.3119,1608.6401],[168.8376,-44.3168,1922.4785],[168.8332,-44.3192,2064.5071],[168.8319,-44.3228,2135.5603],[168.8361,-44.3399,2052.5942],[168.8318,-44.3518,1799.6022],[168.8178,-44.3561,1934.5449],[168.8112,-44.3617,2302.2749],[168.8079,-44.3627,2299.7441],[168.7876,-44.377,1626.6083],[168.784,-44.383,1924.6758],[168.7779,-44.3879,2160.7598],[168.7696,-44.3911,2220.0933],[168.757,-44.39,2203.9775],[168.7534,-44.3922,2084.9739],[168.7413,-44.4054,1947.4337],[168.7412,-44.4093,1970.8915],[168.7445,-44.4169,2010.8291],[168.7433,-44.4206,2251.6572],[168.7372,-44.4211,2340.2573],[168.7238,-44.4174,2172.5176],[168.7154,-44.4114,2268.4185],[168.6993,-44.4046,1939.1479],[168.693,-44.3949,1895.0436],[168.6886,-44.3919,1919.7533],[168.6862,-44.392,1939.4545],[168.6802,-44.396,1585.6455],[168.6653,-44.4012,1656.4083],[168.6548,-44.4114,2145.9365],[168.6416,-44.4166,1790.0259],[168.6316,-44.425,1662.8773],[168.6255,-44.4339,2407.8962],[168.6069,-44.4362,2367.8745],[168.5935,-44.4418,2390.7656],[168.5901,-44.4502,2305.4758],[168.5861,-44.4538,2357.499],[168.5736,-44.4513,2158.8459],[168.5574,-44.4517,1998.9823],[168.5478,-44.4565,2111.1292],[168.5235,-44.4604,2042.0957],[168.5068,-44.4668,2297.0918],[168.5035,-44.4698,2192.8713],[168.5009,-44.4754,2245.1531],[168.4878,-44.4789,2103.5876],[168.4606,-44.4955,2139.1401],[168.4525,-44.4926,1797.4805],[168.4416,-44.4922,1734.6189],[168.4155,-44.4974,1897.9377],[168.3991,-44.4961,1713.0927],[168.3902,-44.4991,1964.8752],[168.378,-44.4959,1906.312],[168.3658,-44.4948,2043.8933],[168.3585,-44.4919,2160.551],[168.3449,-44.4971,2024.7297],[168.319,-44.4949,2002.8699],[168.3068,-44.4998,2111.0579],[168.2897,-44.4964,1861.8232],[168.2772,-44.5139,1796.1477],[168.2748,-44.5204,1623.9696],[168.2578,-44.526,1535.853],[168.2496,-44.5304,1723.7206],[168.235,-44.5425,1860.4614],[168.238,-44.561,1889.2965],[168.2369,-44.5758,1973.146],[168.235,-44.5787,2153.2385],[168.2248,-44.583,1903.4705],[168.2252,-44.5866,1842.947],[168.2232,-44.5893,1695.6125],[168.2257,-44.5981,1538.1121],[168.2144,-44.6035,1188.9924],[168.2075,-44.6181,1403.2192],[168.2038,-44.6229,1676.3263],[168.202,-44.6303,1615.7419],[168.1967,-44.6366,1649.7312],[168.1959,-44.6392,1716.8359],[168.1973,-44.6433,1919.489],[168.185,-44.6461,1725.8481],[168.1888,-44.649,1534.0929],[168.1911,-44.6559,1362.749],[168.1847,-44.6695,1645.1575],[168.192,-44.6775,1421.0212],[168.1925,-44.6807,1499.1791],[168.1856,-44.687,1714.3506],[168.1849,-44.6905,1778.166],[168.175,-44.6977,1630.3501],[168.1708,-44.7126,1596.8162],[168.172,-44.7186,1384.0],[168.1692,-44.7213,1479.7312],[168.1747,-44.7288,1347.6959],[168.1753,-44.7335,1511.9114],[168.1813,-44.738,1587.4904],[168.1819,-44.7452,1764.1025],[168.1916,-44.743,1649.7651],[168.1945,-44.7405,1732.156],[168.1994,-44.7402,1756.3425],[168.2034,-44.7419,1589.6475],[168.2053,-44.7463,1607.1697],[168.2021,-44.7542,1377.9822],[168.1979,-44.7569,1506.3883],[168.1943,-44.7642,1640.5018],[168.191,-44.7668,1632.9958],[168.1928,-44.7716,1511.1033],[168.1914,-44.7744,1634.6508],[168.1926,-44.778,1653.5074],[168.1901,-44.7821,1784.7146],[168.1848,-44.7841,1739.859],[168.1847,-44.7889,1536.2983],[168.1821,-44.7918,1726.5311],[168.1833,-44.7978,1535.0813],[168.1797,-44.8044,1614.8583],[168.172,-44.81,1694.0111],[168.1676,-44.8283,1424.4167],[168.1274,-44.8286,1015.2949],[168.1287,-44.8405,1008.3544],[168.1274,-44.8436,1039.907],[168.125,-44.8448,1069.5725],[168.1221,-44.8554,1218.8627],[168.1231,-44.8637,1302.1238],[168.1172,-44.8711,1394.3916],[168.1164,-44.8808,1444.241],[168.1176,-44.8834,1468.3965],[168.127,-44.8846,1308.0725],[168.1298,-44.9013,1521.1552],[168.1344,-44.9049,1389.9281],[168.1372,-44.9135,1638.5381],[168.1364,-44.9191,1653.4534],[168.1307,-44.9223,1753.3735],[168.1361,-44.9268,1615.984],[168.1283,-44.9309,1584.8389],[168.1317,-44.934,1600.4481],[168.1317,-44.9391,1732.9072],[168.1363,-44.9422,1767.9401],[168.1455,-44.9424,1529.1379],[168.1489,-44.9446,1595.265],[168.1493,-44.9483,1564.7692],[168.1524,-44.9483,1592.699],[168.1645,-44.9552,1533.4657],[168.1763,-44.9666,1451.6696],[168.1763,-44.9717,1541.1661],[168.1735,-44.9768,1602.934],[168.1743,-44.9807,1698.0781],[168.1829,-44.9831,1507.4558],[168.1996,-44.9967,1525.4415],[168.2053,-44.9984,1516.5999],[168.2089,-45.0017,1465.2662],[168.2144,-45.0021,1450.526],[168.2204,-45.0059,1550.6045],[168.2218,-45.0169,1485.6379],[168.2352,-45.0241,910.9841],[168.2489,-45.0273,765.1847],[168.2793,-45.0251,1459.4719],[168.2859,-45.0204,1703.043],[168.286,-45.017,1647.4891],[168.2961,-45.0139,1667.5657],[168.3003,-45.0152,1748.3031],[168.3097,-45.026,1703.3015],[168.3089,-45.0279,1692.1161],[168.3026,-45.03,1688.9447],[168.2962,-45.038,1761.075],[168.2914,-45.0405,1702.7528],[168.2946,-45.0465,1684.6382],[168.2982,-45.0484,1639.7756],[168.2986,-45.0522,1710.5673],[168.294,-45.0554,1597.376],[168.2927,-45.0664,1533.2534],[168.2942,-45.0701,1589.3567],[168.2935,-45.0748,1612.0271],[168.2846,-45.0846,1597.132],[168.2854,-45.0866,1563.1702],[168.2841,-45.0882,1630.783],[168.2864,-45.0932,1637.9237],[168.2838,-45.1002,1478.8267],[168.2849,-45.1021,1443.7539],[168.2842,-45.1062,1351.3679],[168.2704,-45.1122,885.8082],[168.2661,-45.119,892.4218],[168.2455,-45.1262,1000.807],[168.2362,-45.1338,1457.8987],[168.227,-45.1375,1504.8088],[168.2256,-45.1397,1541.1157],[168.217,-45.1444,1650.1339],[168.2229,-45.1469,1598.4753],[168.2248,-45.1494,1562.2817],[168.2281,-45.1493,1504.3386],[168.2342,-45.1532,1550.6151],[168.2394,-45.1544,1590.3051],[168.2383,-45.1608,1599.724],[168.2361,-45.1626,1579.0808],[168.236,-45.1669,1470.3713],[168.2455,-45.1708,1387.3645],[168.2486,-45.1783,1634.1781],[168.2549,-45.1852,1618.5171],[168.2507,-45.1941,1635.5476],[168.2515,-45.1995,1649.819],[168.2567,-45.2039,1681.9988],[168.2633,-45.2056,1472.2435],[168.2694,-45.21,1397.6664],[168.286,-45.2133,895.2077],[168.2907,-45.2183,817.815],[168.297,-45.2215,866.103],[168.2997,-45.2212,861.7524],[168.3008,-45.2246,896.3808],[168.2997,-45.2278,919.2501],[168.2949,-45.2356,921.1361],[168.292,-45.2375,907.0249],[168.2882,-45.2449,844.3859],[168.2988,-45.2513,693.9504],[168.307,-45.2604,836.4116],[168.3078,-45.2667,1093.325],[168.3027,-45.28,1262.277],[168.3038,-45.2886,1557.7126],[168.3003,-45.2939,1730.6349],[168.3027,-45.2956,1765.1615],[168.3233,-45.3275,1964.788],[168.4608,-45.3251,1813.634],[168.5394,-45.3093,1512.9548],[168.5412,-45.3063,1447.2369],[168.5494,-45.3002,1554.645],[168.5528,-45.2995,1614.7102],[168.5641,-45.2915,1635.9994],[168.5668,-45.2861,1835.2079],[168.5759,-45.2847,1666.2664],[168.584,-45.2785,1753.402],[168.5939,-45.2807,1600.9004],[168.6076,-45.2778,1489.61],[168.6174,-45.2718,1535.5127],[168.6201,-45.2663,1533.8617],[168.6331,-45.2618,1356.3136],[168.6493,-45.2457,1676.4255],[168.6587,-45.2465,1520.2927],[168.6717,-45.2428,1599.3921],[168.6833,-45.2476,1582.4429],[168.6838,-45.2515,1528.3079],[168.6802,-45.2566,1555.5732],[168.6805,-45.2597,1629.4088],[168.6901,-45.2726,1710.4299],[168.6873,-45.2758,1647.0184],[168.6874,-45.2821,1654.3851],[168.694,-45.292,1638.4404],[168.6917,-45.2971,1517.2188],[168.6979,-45.3122,1384.4434],[168.6909,-45.3365,756.7236],[168.6922,-45.3397,581.4326],[168.7197,-45.3491,395.3015],[168.7516,-45.3676,1431.417],[168.758,-45.3625,1322.6448],[168.7726,-45.3635,1603.1553],[168.7714,-45.3607,1560.7731],[168.7762,-45.3498,1487.3972],[168.7862,-45.3476,1538.9548],[168.795,-45.3419,1536.92],[168.7972,-45.3355,1432.6108],[168.8074,-45.3278,1604.4819],[168.8117,-45.3214,1665.9839],[168.811,-45.3138,1536.2269],[168.8127,-45.3048,1529.7491],[168.8117,-45.2966,1504.321],[168.8185,-45.2873,1653.4915],[168.819,-45.2813,1712.3896],[168.826,-45.2661,1798.4858],[168.8486,-45.2465,1890.9639],[168.8508,-45.2377,1852.1936],[168.8509,-45.2344,1822.1296],[168.8438,-45.2273,1880.9639],[168.8479,-45.2217,1834.3855],[168.8458,-45.2185,1838.6967],[168.8466,-45.209,1863.2045],[168.8448,-45.2022,1830.5726],[168.8412,-45.1976,1687.5999],[168.8382,-45.1861,1880.4404],[168.8291,-45.1843,1863.5972],[168.8238,-45.1806,2025.4994],[168.8262,-45.1785,1922.0789],[168.8293,-45.1703,1762.8301],[168.8283,-45.1665,1879.6735],[168.8358,-45.1618,2017.6478],[168.8349,-45.1541,1903.2527],[168.8382,-45.1518,1936.4752],[168.8351,-45.1442,1995.6333],[168.8413,-45.141,2187.0361],[168.8377,-45.1355,2015.5825],[168.8335,-45.1318,2029.5122],[168.8287,-45.1311,2019.1364],[168.8257,-45.1266,2130.4451],[168.828,-45.1187,2065.7051],[168.826,-45.1142,1986.3483],[168.8263,-45.1065,1971.4227],[168.829,-45.1014,2053.519],[168.8338,-45.0993,1965.5547],[168.8315,-45.091,1971.6232],[168.8347,-45.0866,1974.4423],[168.8342,-45.0833,1828.7203],[168.8208,-45.0702,1841.3033],[168.8244,-45.0611,1875.5448],[168.8329,-45.0516,2028.599],[168.85,-45.0498,1838.5712],[168.8539,-45.0507,1895.1792],[168.8577,-45.0602,1971.1281],[168.8678,-45.061,1741.4521],[168.8761,-45.0637,1660.9863],[168.887,-45.0718,1635.0629],[168.8992,-45.0681,1478.6913],[168.905,-45.0632,1392.7909],[168.9256,-45.0598,1313.4719],[168.9513,-45.0617,1191.7141],[168.9559,-45.06,1251.4001],[168.974,-45.0598,1273.3313],[168.9846,-45.0565,1024.8544],[168.9935,-45.0498,1026.9381],[168.9992,-45.0507,919.164],[169.0175,-45.0596,493.1703],[169.029,-45.0626,388.8806],[169.0442,-45.0609,259.9321],[169.0478,-45.0541,257.6946],[169.0393,-45.0352,246.99],[169.0447,-45.031,248.0655],[169.0471,-45.0241,248.8211],[169.0623,-45.0182,256.7859],[169.0654,-45.0139,237.7252],[169.0649,-45.006,273.4877],[169.0705,-45.0015,231.804],[169.0661,-44.9885,408.4789],[169.0547,-44.9772,632.0628],[169.0524,-44.9729,706.5053],[169.044,-44.9663,719.6056],[169.0468,-44.9454,864.9061],[169.0503,-44.9358,929.4888],[169.048,-44.931399999999996,967.6562],[169.0427,-44.9267,948.7686],[169.0511,-44.9273,1000.4152],[169.0542,-44.9215,982.5088],[169.0577,-44.9208,1042.5928],[169.0561,-44.9186,980.1964],[169.0574,-44.9146,1007.5007],[169.06,-44.9131,1026.1471],[169.0582,-44.9123,1020.986],[169.0563,-44.9063,1026.2826],[169.0591,-44.8985,1139.9631],[169.0686,-44.8967,1211.7386],[169.0733,-44.9007,1222.0447],[169.0766,-44.9012,1200.1033],[169.0932,-44.8968,1408.0635],[169.0964,-44.8926,1424.2939],[169.0957,-44.8907,1412.8486],[169.1037,-44.8858,1446.0962],[169.1059,-44.8861,1432.9006],[169.1053,-44.8848,1432.9006],[169.1104,-44.8791,1449.2256],[169.1101,-44.8755,1488.8694],[169.1133,-44.8747,1480.0605],[169.1187,-44.8678,1493.8256],[169.1309,-44.8678,1545.7977],[169.1501,-44.8714,1653.3066],[169.1576,-44.8696,1668.6377],[169.1695,-44.8749,1752.4873],[169.1755,-44.8749,1804.3942],[169.1806,-44.8715,1895.7009],[169.1905,-44.8725,1949.8002],[169.1975,-44.8629,1936.4268],[169.2029,-44.8615,1923.976],[169.2217,-44.8511,1699.9722],[169.2226,-44.8493,1690.2163],[169.2419,-44.8374,1566.3558],[169.2592,-44.8294,1386.9435],[169.2578,-44.8209,1463.6047],[169.2744,-44.8143,1200.2401],[169.2741,-44.8086,1192.6184],[169.2819,-44.7954,1060.802],[169.3071,-44.7629,346.3652],[169.32,-44.7612,257.3467],[169.3204,-44.7591,256.2604],[169.3243,-44.7621,253.9686],[169.3389,-44.7545,252.5968],[169.3414,-44.7574,249.2119],[169.3383,-44.7599,238.9001],[169.358,-44.76,529.6655],[169.3638,-44.7573,691.137],[169.3713,-44.76,774.6552],[169.3801,-44.7585,973.5854],[169.3816,-44.7563,998.6046],[169.3728,-44.7504,887.0728],[169.3762,-44.7421,808.7417],[169.3736,-44.7372,884.9667],[169.3751,-44.7276,930.1892],[169.3697,-44.7237,988.9563],[169.3687,-44.72,1038.2656],[169.364,-44.7194,1013.4221],[169.3611,-44.7019,951.288],[169.362,-44.6923,1107.4773],[169.357,-44.6871,1083.7415],[169.3515,-44.677,1161.527],[169.352,-44.6726,1213.5521],[169.36,-44.6615,1142.7582],[169.358,-44.655,1273.1877],[169.3595,-44.6491,1394.7494],[169.3623,-44.6471,1379.7816],[169.3714,-44.6457,1421.8503],[169.3804,-44.6398,1438.251],[169.3813,-44.6334,1438.5444],[169.3745,-44.6295,1356.6158],[169.372,-44.6142,1259.1102],[169.3639,-44.6053,1286.262],[169.3645,-44.5968,1404.8741],[169.3699,-44.5858,1344.4224],[169.3678,-44.5842,1277.4547],[169.3582,-44.5837,1299.231],[169.3536,-44.5795,1332.2002],[169.3575,-44.5745,1434.0001],[169.3559,-44.5658,1519.8572],[169.3579,-44.5614,1548.7908],[169.3612,-44.561,1505.8198],[169.3788,-44.5595,1322.9926],[169.3828,-44.5622,1408.8936],[169.4008,-44.56,1470.4082],[169.4096,-44.5611,1422.0557],[169.4245,-44.5534,1391.7002],[169.459,-44.5473,1494.9956],[169.4755,-44.5464,1436.8157],[169.491,-44.5494,1630.1218],[169.4945,-44.536,1521.847],[169.4998,-44.5277,1399.4673],[169.5006,-44.5218,1409.2362],[169.5061,-44.5187,1511.0068],[169.5071,-44.5144,1606.4609],[169.5172,-44.5066,1636.0372],[169.5195,-44.5087,1584.8645],[169.5203,-44.503,1663.4493],[169.5246,-44.4979,1670.0774],[169.5276,-44.4975,1720.2104],[169.5277,-44.4952,1724.8154],[169.5231,-44.4936,1596.9528],[169.524,-44.4914,1522.9038],[169.5207,-44.4842,1507.9423],[169.5227,-44.4845,1611.8514],[169.5271,-44.4784,1587.7229],[169.5329,-44.4741,1592.2671],[169.5329,-44.4685,1679.4828],[169.5313,-44.4657,1686.6672],[169.5384,-44.4564,1565.0143],[169.5405,-44.4496,1752.8055],[169.5495,-44.4414,1660.2361],[169.5562,-44.4376,1795.3136],[169.5545,-44.4325,1695.2236],[169.5489,-44.4289,1724.8857],[169.5459,-44.4227,1848.6252],[169.5521,-44.4129,1640.614],[169.5631,-44.4056,1591.3273],[169.5656,-44.4023,1629.4565],[169.5664,-44.3968,1645.5579],[169.5594,-44.39,1728.5687],[169.5567,-44.381,1716.1155],[169.5665,-44.371,1695.4818],[169.5708,-44.3583,1782.5212],[169.5679,-44.3541,1708.8293],[169.5775,-44.3453,1780.712],[169.5789,-44.3383,1700.271],[169.5713,-44.3332,1713.9371],[169.5684,-44.3193,1700.1223],[169.573,-44.3121,1805.96],[169.5723,-44.3056,1621.5723],[169.5748,-44.3001,1642.7126],[169.5711,-44.2962,1604.0234],[169.5748,-44.2842,1571.1772],[169.573,-44.2792,1493.7539],[169.5794,-44.2643,1465.5808],[169.5806,-44.2523,1485.7367],[169.5768,-44.2495,1541.8322],[169.5733,-44.2433,1670.2039],[169.5735,-44.2398,1738.1261],[169.5705,-44.2367,1841.6316],[169.5485,-44.2276,2171.9954],[169.5471,-44.2207,2218.2737],[169.5435,-44.2164,2098.6958],[169.5445,-44.2117,1985.2252],[169.5432,-44.2078,1847.5819],[169.5489,-44.2047,1821.47],[169.5608,-44.2054,2071.3591],[169.5619,-44.1938,2006.9358],[169.5659,-44.1883,1911.2976],[169.5664,-44.1851,1996.2041],[169.571,-44.1823,1993.3483],[169.5712,-44.1771,1922.7804],[169.5813,-44.1726,2093.6731],[169.586,-44.1666,2100.0393],[169.5963,-44.1624,2172.3789],[169.5984,-44.1601,2323.3997],[169.6039,-44.1603,2384.1125],[169.6058,-44.1585,2216.6155],[169.5989,-44.1503,2199.8274],[169.6204,-44.14,2218.7317],[169.6183,-44.1358,2287.1753],[169.6209,-44.1279,1915.0283],[169.625,-44.1225,2122.8599],[169.6351,-44.1218,2108.634],[169.6387,-44.1199,2059.7246],[169.6363,-44.1141,2044.6742],[169.6405,-44.1057,1999.8109],[169.6391,-44.102,2061.7546],[169.6484,-44.098,1865.5699],[169.6544,-44.0927,2199.874],[169.6612,-44.0915,2156.9641],[169.6624,-44.0847,2072.6306],[169.6576,-44.0776,2074.678],[169.665,-44.0677,2256.9331],[169.6786,-44.0705,2434.5723],[169.6821,-44.0683,2255.5457],[169.6797,-44.0615,2297.252],[169.6829,-44.0545,1951.6409],[169.6809,-44.0483,2150.8875],[169.6848,-44.0451,1925.9364],[169.686,-44.0419,2168.4407],[169.6942,-44.0411,2151.3718],[169.699,-44.0428,2214.6924],[169.7194,-44.0367,2010.0227],[169.7196,-44.0346,2011.0973],[169.7076,-44.0171,1971.8093],[169.7094,-44.0144,2028.5125],[169.7065,-44.0106,2217.0801],[169.7061,-44.0033,1916.6501],[169.7115,-43.9972,1923.3595],[169.7103,-43.9935,1980.6323],[169.7059,-43.9901,2001.6649],[169.7037,-43.9835,2017.4635],[169.6991,-43.9797,2033.342],[169.6994,-43.977,2011.2349],[169.7022,-43.9739,1919.0974],[169.702,-43.9692,2014.8308],[169.6993,-43.9635,2154.9326]]]]}}